HIERARCHY
ROOT Hips
{
  OFFSET 4.3602899495453355e-8 1.1673772430419926 0.00903120994567871
  CHANNELS 6 Xposition Yposition Zposition Xrotation Yrotation Zrotation
  JOINT Spine
  {
    OFFSET 0.00000400409843159832 0.10717498984890383 -0.009311363000479054
    CHANNELS 3 Xrotation Yrotation Zrotation
    JOINT Spine1
    {
      OFFSET -1.157133440709887e-8 0.10585321386790758 -0.004285265132451881
      CHANNELS 3 Xrotation Yrotation Zrotation
      JOINT Spine2
      {
        OFFSET -1.2021792727953998e-8 0.10599313230062335 -0.007812673855060945
        CHANNELS 3 Xrotation Yrotation Zrotation
        JOINT Neck
        {
          OFFSET -3.2927685248284505e-8 0.26240295415719994 -0.044881304131893486
          CHANNELS 3 Xrotation Yrotation Zrotation
          JOINT Head
          {
            OFFSET -1.1268817613937174e-8 0.1746685200511402 0.056256497133401515
            CHANNELS 3 Xrotation Yrotation Zrotation
            End Site
            {
              OFFSET -8.617178878150887e-9 0.10756811731632654 0.02107021751552555
            }
          }
        }
        JOINT LeftShoulder
        {
          OFFSET 0.10574355691983202 0.2300922422130116 -0.07323001980788171
          CHANNELS 3 Xrotation Yrotation Zrotation
          JOINT LeftArm
          {
            OFFSET 0.14878172464754674 -0.04653430124026747 -0.03069340943884992
            CHANNELS 3 Xrotation Yrotation Zrotation
            JOINT LeftForeArm
            {
              OFFSET 0.2410901499999964 2.514874553050106e-8 -2.5644150081216566e-8
              CHANNELS 3 Xrotation Yrotation Zrotation
              JOINT LeftHand
              {
                OFFSET 0.3167439969976485 9.305862591624248e-8 0.0055278706856974474
                CHANNELS 3 Xrotation Yrotation Zrotation
                End Site
                {
                  OFFSET 0.06210611293049251 -0.1056924643799253 0.03949498917827464
                }
              }
            }
          }
        }
        JOINT RightShoulder
        {
          OFFSET -0.10574409307527087 0.23009141295444557 -0.07322999494236766
          CHANNELS 3 Xrotation Yrotation Zrotation
          JOINT RightArm
          {
            OFFSET -0.14878099894090208 -0.04653001551703495 -0.030692881610262193
            CHANNELS 3 Xrotation Yrotation Zrotation
            JOINT RightForeArm
            {
              OFFSET -0.24108999999999764 -2.5144341053717767e-8 2.9072947757557976e-8
              CHANNELS 3 Xrotation Yrotation Zrotation
              JOINT RightHand
              {
                OFFSET -0.3167448378500485 -3.304013818095086e-8 0.005523816194027642
                CHANNELS 3 Xrotation Yrotation Zrotation
                End Site
                {
                  OFFSET -0.06210627893580878 -0.10570000668807578 0.039495226662701347
                }
              }
            }
          }
        }
      }
    }
  }
  JOINT LeftUpLeg
  {
    OFFSET 0.12297482524469029 -0.06742086731113295 -0.010003017167751174
    CHANNELS 3 Xrotation Yrotation Zrotation
    JOINT LeftLeg
    {
      OFFSET 3.29102216173327e-8 -0.45703384336647745 0.010304781301190422
      CHANNELS 3 Xrotation Yrotation Zrotation
      JOINT LeftFoot
      {
        OFFSET 6.562466081661e-8 -0.5002806931369024 -0.03690416879508984
        CHANNELS 3 Xrotation Yrotation Zrotation
        JOINT LeftToeBase
        {
          OFFSET 0.02595079309341415 -0.14255124139316394 0.19507613876404925
          CHANNELS 3 Xrotation Yrotation Zrotation
          End Site
          {
            OFFSET 0.010732212189788037 -0.00003523758576667464 0.11362316400109373
          }
        }
      }
    }
  }
  JOINT RightUpLeg
  {
    OFFSET -0.12297503780805406 -0.0674172528256134 -0.01000298679994319
    CHANNELS 3 Xrotation Yrotation Zrotation
    JOINT RightLeg
    {
      OFFSET 0.0000015762103336008915 -0.45703794623816363 0.010304776602924667
      CHANNELS 3 Xrotation Yrotation Zrotation
      JOINT RightFoot
      {
        OFFSET -0.0000014796473382927555 -0.5002806877425285 -0.03690424189268969
        CHANNELS 3 Xrotation Yrotation Zrotation
        JOINT RightToeBase
        {
          OFFSET -0.02594992229596689 -0.1425528302873685 0.19507509351502048
          CHANNELS 3 Xrotation Yrotation Zrotation
          End Site
          {
            OFFSET -0.01073336011005574 -0.000035035181829541786 0.11362416403777789
          }
        }
      }
    }
  }
}
MOTION
Frames: 31
Frame Time: 0.03333333333333333
0.134835 1.021563 0.007449 -2.851976 -61.628275 -2.628659 9.350844 -0.663753 -0.513913 2.819930 -0.168399 -1.180584 2.817409 -0.190963 -1.180403 2.415135 7.151237 0.481636 -6.481594 38.676781 -5.578435 0.510379 -12.950284 -10.628249 -14.455408 4.925024 -35.615445 0.000016 -44.567349 -0.000002 15.906118 -13.784531 15.079766 0.570463 15.850691 9.870099 15.647989 26.350338 59.176890 -179.999929 82.039584 179.999928 5.786087 2.104675 -12.367596 -40.935026 14.288259 29.764113 45.893529 9.724709 0.135821 0.240068 8.886116 -13.828487 -0.239492 -0.000002 -0.000000 -24.985078 -15.861143 -31.142905 44.933113 2.993525 -1.043881 -17.567399 -5.302986 24.850916 1.038027 -0.000003 0.000001
0.134835 1.022473 0.007449 -2.621885 -61.438881 -2.309917 9.284906 -0.689885 -0.539238 2.814438 -0.177378 -1.182676 2.811832 -0.199670 -1.182555 2.408932 7.149572 0.419474 -6.459374 38.602511 -5.601085 0.508311 -12.817695 -10.674020 -14.538082 4.908348 -35.491444 0.000016 -45.160223 0.000016 15.609918 -13.668741 14.954180 0.584719 15.727347 9.747144 15.462976 26.318138 59.427424 -179.999988 82.233793 179.999983 5.887371 1.925627 -12.279419 -40.784165 14.313075 29.528879 45.378159 9.699452 0.169774 0.622929 8.931820 -13.842199 -0.216757 0.000003 0.000002 -24.937179 -15.862136 -31.105775 44.872869 2.703750 -1.033529 -17.564224 -5.308547 24.883638 1.032855 0.000007 -0.000002
0.134835 1.023589 0.007449 -2.440361 -61.193956 -2.032661 9.236556 -0.696786 -0.551431 2.809382 -0.179255 -1.201011 2.806669 -0.201698 -1.200928 2.414078 7.128141 0.365447 -6.509189 38.454130 -5.632941 0.503214 -12.772457 -10.747013 -14.610481 4.722606 -35.326388 0.000002 -45.463353 -0.000008 15.705178 -13.607126 15.109199 0.600088 15.518828 9.609255 15.196974 26.305903 59.673132 179.999958 82.541417 -179.999960 5.780115 1.728458 -12.097677 -40.579330 14.358471 29.250020 44.771346 9.694558 0.254656 1.054074 8.973440 -13.841205 -0.204286 -0.000002 -0.000004 -24.780653 -15.902442 -31.063750 44.718879 2.475857 -1.002436 -17.461460 -5.308879 24.986288 0.895502 -0.000000 -0.000014
0.134835 1.024862 0.007449 -2.333618 -60.890074 -1.834115 9.209467 -0.721618 -0.576533 2.814442 -0.187143 -1.216050 2.811586 -0.209697 -1.215994 2.407773 7.099530 0.309503 -6.548688 38.278972 -5.719341 0.496763 -12.900738 -10.809564 -14.701370 4.546350 -35.145785 0.000015 -45.608791 -0.000001 15.688278 -13.440667 15.157618 0.611234 15.347929 9.505333 14.871589 26.244381 59.856586 179.999850 83.117629 -179.999891 5.633350 1.539986 -11.882393 -40.324747 14.409053 28.976428 44.098143 9.701377 0.370443 1.512218 9.018632 -13.851339 -0.229014 0.000001 0.000005 -24.590536 -15.933565 -30.964928 44.680586 2.260720 -0.996488 -17.388144 -5.274837 24.916667 0.618989 -0.000022 0.000003
0.134835 1.026245 0.007449 -2.131992 -60.469026 -1.579845 9.145655 -0.790404 -0.590416 2.806866 -0.210553 -1.219197 2.803680 -0.232886 -1.219133 2.379451 7.058744 0.271608 -6.519184 38.066808 -5.878923 0.496906 -12.933118 -10.801889 -14.842750 4.171480 -35.114752 0.000009 -45.754415 -0.000005 14.582535 -13.006263 14.889343 0.626043 15.132595 9.363010 14.469819 26.203853 60.066887 179.999854 84.300195 -179.999873 4.661181 1.656921 -11.747473 -40.108302 14.405251 28.682359 43.346127 9.747539 0.510323 2.006624 9.029959 -13.826525 -0.223918 0.000000 0.000002 -24.407712 -15.961096 -30.798752 44.744725 1.867011 -0.954435 -17.301499 -5.195583 24.668210 0.263467 0.000007 0.000000
0.134835 1.027840 0.007449 -1.886573 -59.874459 -1.348287 9.085493 -0.902455 -0.550312 2.803806 -0.248879 -1.222494 2.799972 -0.271377 -1.222395 2.315262 6.998341 0.285670 -6.569764 37.801974 -6.008775 0.500333 -13.011500 -10.746002 -15.049399 3.670419 -35.177135 0.000018 -45.990579 0.000021 12.701883 -12.429446 14.638188 0.634761 14.885767 9.269021 13.898236 26.045118 60.312775 179.999908 86.371808 -179.999915 2.697942 1.890029 -11.565780 -39.949784 14.355979 28.381040 42.500607 9.858223 0.696890 2.551432 8.879643 -13.757030 -0.247755 -0.000001 0.000003 -24.116265 -16.043308 -30.557594 44.780643 1.338448 -0.820232 -17.150263 -5.084484 24.339775 -0.139920 -0.000006 0.000004
0.134835 1.029661 0.007449 -1.549587 -59.094426 -1.153341 9.044433 -1.013717 -0.426381 2.815808 -0.288573 -1.197605 2.811298 -0.311240 -1.197521 2.211829 6.906721 0.336851 -6.727762 37.421489 -6.137252 0.500160 -13.171971 -10.724375 -15.281586 2.869380 -35.342674 0.000013 -46.140876 -0.000005 11.297479 -11.807441 14.972009 0.638411 14.651543 9.219383 13.037077 25.510163 60.684221 179.999810 89.617898 -179.999824 0.281173 2.331471 -11.345552 -40.003449 14.316358 28.257886 41.624861 10.000746 0.788339 3.111915 8.414187 -13.561017 -0.319053 0.000004 0.000004 -23.702616 -16.184393 -30.157814 44.753125 0.612242 -0.583312 -16.943760 -4.940037 23.912488 -0.546266 -0.000015 -0.000004
0.134835 1.031856 0.007449 -0.883475 -58.042095 -0.876469 8.954641 -1.151039 -0.179902 2.817546 -0.340736 -1.095189 2.812419 -0.362748 -1.095146 2.052105 6.784739 0.435317 -6.858472 36.941016 -6.344457 0.498006 -13.312189 -10.730868 -15.245063 1.528048 -35.781274 0.000013 -46.426383 0.000014 9.110291 -10.998052 15.676032 0.638064 14.388782 9.204508 11.902796 24.425815 61.063672 0.000172 85.584850 -0.000192 -3.767811 3.631433 -11.163914 -40.529152 14.331000 28.543441 40.795815 10.162074 0.555625 3.547781 7.481757 -12.993873 -0.316136 0.000003 0.000006 -23.167027 -16.413028 -29.492151 44.569920 -0.480575 -0.173757 -16.680953 -4.763524 23.387349 -0.971109 0.000045 0.000007
0.134835 1.033923 0.007449 0.016917 -56.531038 -0.578535 8.879990 -1.398756 0.118420 2.836955 -0.433078 -0.906725 2.831217 -0.453219 -0.906794 1.783341 6.597793 0.643261 -7.123031 36.251437 -6.596844 0.500007 -13.727226 -10.654096 -14.971667 -0.022204 -36.585023 0.000009 -46.923390 -0.000000 7.030734 -10.114303 15.930303 0.622201 14.129389 9.344214 10.370768 22.419285 61.186004 0.000053 79.357010 -0.000040 -9.300393 4.910297 -10.495032 -41.582625 14.327971 29.109456 40.168048 10.164670 -0.017740 3.793525 6.178292 -12.023485 -0.230611 -0.000000 -0.000001 -22.552690 -16.888089 -28.799072 44.298698 -1.754043 0.444580 -16.251905 -4.583999 22.989573 -1.573409 0.000257 -0.125147
0.134835 1.034985 0.007449 1.066979 -54.442216 -0.294175 8.909783 -1.855975 0.439187 2.879188 -0.598354 -0.624668 2.873027 -0.615421 -0.624747 1.345367 6.340542 0.975533 -7.564727 35.333105 -6.884683 0.523397 -14.049524 -10.358225 -14.463314 -1.907418 -37.959178 0.000018 -47.614636 0.000009 6.729020 -9.230683 15.406778 0.600989 13.873227 9.547977 8.171351 19.324135 61.102822 -0.000052 71.672179 0.000053 -15.166233 6.738394 -9.720965 -43.239332 14.168096 29.677207 40.060717 10.132898 -0.767945 3.632610 4.738910 -10.665115 -0.165087 -0.000001 -0.000002 -21.971882 -17.686319 -28.285104 44.137993 -3.111001 1.279998 -15.757086 -4.410997 22.665504 -2.519265 0.006322 -0.577943
0.134835 1.034577 0.007449 2.360599 -51.959952 0.042693 8.977449 -2.384065 0.809817 2.900895 -0.788984 -0.299544 2.895067 -0.802351 -0.299339 0.741676 6.008028 1.494874 -8.184725 34.234863 -7.169703 0.584213 -13.872720 -9.691002 -12.976660 -5.064036 -39.740314 0.000014 -48.320720 -0.000005 6.523070 -8.758584 14.777162 0.561755 13.882256 9.953714 5.208540 14.703142 60.660102 -0.000029 62.805808 0.000017 -21.481806 9.317360 -9.856168 -45.457718 13.864281 30.179259 40.512598 10.111474 -1.645559 3.081681 3.316552 -8.792913 0.229987 -0.000000 -0.000009 -21.584954 -18.594736 -27.810962 44.268542 -4.673799 2.225186 -15.419685 -4.208367 22.045008 -3.369657 0.007014 -0.406596
0.134835 1.032686 0.007449 3.697849 -49.487160 0.323408 9.048351 -2.749735 1.126802 2.869281 -0.924537 -0.000807 2.864917 -0.934076 0.000430 0.067140 5.603742 2.216179 -9.120813 32.998748 -7.273793 0.677915 -13.273586 -8.588809 -10.904627 -8.708547 -41.989761 0.000030 -48.375708 0.000015 7.844803 -9.762708 12.898620 0.491334 14.324391 10.654788 1.182332 8.299874 59.428767 0.000000 52.784252 0.000007 -28.335778 11.719214 -10.499870 -48.054669 13.689327 30.820838 41.604804 10.054680 -2.786549 2.496364 2.639180 -6.727275 0.575061 -0.000001 -0.000004 -21.266324 -19.445915 -27.488722 44.499414 -6.025859 3.078199 -15.120113 -4.169824 22.145440 -4.337367 0.000032 -0.000248
0.134835 1.029963 0.007449 4.785298 -47.453758 0.418100 9.061077 -2.693438 1.360700 2.831426 -0.917555 0.301448 2.829847 -0.922670 0.303402 -0.472168 5.209622 2.742035 -10.102294 31.607655 -7.230716 0.736750 -13.255236 -7.895822 -8.278378 -10.906755 -44.196878 0.000028 -47.675388 0.000020 8.649580 -10.874977 11.616616 0.443189 14.110616 11.169703 -4.347451 2.091776 57.075099 0.000003 40.555000 -0.000005 -39.591871 15.161029 -10.827715 -50.830385 13.903645 31.599960 44.092961 10.012767 -4.430072 1.001319 8.598326 -3.947341 0.114258 -0.000004 -0.000005 -20.838220 -20.209728 -27.284368 44.587917 -7.072102 3.633826 -15.016073 -4.232439 22.554509 -4.339356 -0.004708 0.366026
0.134835 1.027374 0.007449 5.748618 -46.094355 0.113761 8.845821 -2.280823 1.702773 2.729410 -0.793160 0.647298 2.730484 -0.793637 0.649441 -0.815881 4.868994 3.220426 -10.636533 30.512213 -7.466811 0.775796 -12.843945 -7.347796 -4.906638 -11.700401 -47.221596 0.000019 -46.006679 0.000019 7.769342 -10.259774 11.584628 0.387971 13.777378 11.808921 -11.803885 -3.275142 52.788274 0.000009 25.692681 -0.000002 -60.564300 18.987948 -9.283360 -53.210087 14.155813 32.790006 47.510299 10.014375 -6.688657 -1.836150 19.661925 -0.716672 0.295229 0.000010 -0.000001 -19.825380 -20.763474 -26.608715 43.828352 -8.002284 3.911047 -14.422535 -4.259784 23.331931 -4.525682 -0.003522 0.566722
0.134835 1.025534 0.007449 6.560297 -44.845800 -0.788932 8.303871 -1.790846 2.291175 2.528141 -0.646179 1.022940 2.530545 -0.643081 1.024959 -1.128962 4.465145 3.988555 -10.538311 29.367406 -7.539457 0.830914 -11.136399 -6.013513 -1.420389 -11.618450 -52.118381 0.000024 -42.814647 0.000020 8.226687 -8.563813 8.994075 0.329143 13.563791 12.506457 -23.302322 -6.453976 45.790630 0.000003 6.087003 -0.000013 -89.763379 19.187416 -1.181547 -55.237429 14.263201 34.334698 50.852002 10.019728 -8.360295 -5.171289 22.783917 1.107622 0.787787 -0.000008 0.000001 -17.492036 -20.917022 -24.814367 41.727653 -8.193150 3.754142 -12.979656 -5.720741 24.482510 -5.140504 -0.004100 0.611681
0.134835 1.024589 0.007449 6.785947 -43.072973 -2.012413 7.367272 -1.496792 2.648029 2.234079 -0.560891 1.390407 2.238046 -0.554063 1.392054 -1.083767 3.945845 4.911318 -9.629413 27.720771 -7.083026 0.852759 -9.122337 -4.269229 3.228896 -10.373136 -57.668189 0.000011 -38.991350 0.000009 8.522088 -6.512509 5.150669 0.355987 12.276658 12.584617 -33.509867 -10.193730 37.777506 0.000002 -0.999086 -0.000002 -105.703963 18.561729 -1.655544 -56.297566 14.179192 34.715541 53.613175 10.072356 -8.687319 -8.345376 20.112975 2.082604 0.770245 0.000002 -0.000000 -13.874164 -20.783386 -22.567178 38.794855 -8.621255 2.796338 -10.938335 -7.905338 25.486353 -5.990951 -0.004649 0.651100
0.134835 1.025035 0.007449 6.123231 -40.407321 -3.050131 6.291067 -1.326156 2.398501 1.950106 -0.504707 1.559849 1.955371 -0.495780 1.560805 -0.627247 3.247324 5.794217 -8.746562 25.086571 -6.243822 0.859856 -8.027297 -2.804718 9.749156 -7.333123 -62.033389 0.000001 -36.211858 0.000011 8.877307 -3.574780 2.423361 0.455948 9.488066 12.071974 -43.089924 -12.936288 30.048805 0.000008 -0.999062 -0.000006 -108.348615 21.857887 -4.289372 -55.307485 14.021154 32.734138 55.865563 10.152934 -8.345917 -11.712240 18.678805 2.485145 0.513023 -0.000005 -0.000002 -9.622345 -20.637074 -20.919401 35.950779 -9.550226 0.823595 -7.997738 -9.837292 26.013670 -8.100971 -0.001195 0.332312
0.134835 1.025684 0.007449 4.801413 -36.829662 -3.547299 5.278004 -1.122943 1.886701 1.815566 -0.428354 1.469942 1.820497 -0.420818 1.469495 -0.173217 2.485273 6.150902 -8.689017 21.427349 -5.194607 0.823197 -6.676431 -1.243240 15.896805 -2.717534 -65.029859 0.000002 -33.789228 0.000001 10.333775 0.029848 -1.930496 0.574053 5.041656 10.440411 -53.091922 -12.951188 23.549542 -0.000003 -0.999068 -0.000003 -109.255148 24.052860 -0.686173 -52.350212 13.910330 28.492760 57.353389 9.966701 -7.524408 -14.385187 18.138580 2.158596 -0.149038 0.000006 0.000003 -5.765154 -20.606527 -20.153961 34.491429 -10.558280 -1.996694 -3.733680 -11.835293 26.044106 -11.144972 -0.002870 0.505691
0.134835 1.026749 0.007449 2.953029 -33.228236 -4.167594 4.409808 -0.640328 1.680580 1.762465 -0.259522 1.341070 1.765352 -0.254583 1.339879 0.307235 1.808929 6.086301 -8.299483 17.683803 -4.294516 0.673273 -4.424027 0.606514 20.077602 4.222814 -66.439450 0.000006 -31.411724 0.000002 9.844656 4.069001 -6.765016 0.542586 0.393672 8.027864 -63.169923 -10.147946 18.611685 -0.000004 -0.999083 0.000010 -111.405887 24.563425 7.200173 -48.281646 13.958209 23.968110 58.400026 9.795551 -6.346993 -17.042874 17.915077 1.649951 -1.128351 0.000009 0.000001 -2.631657 -19.708099 -18.279907 34.394546 -11.757317 -6.331248 2.460247 -15.820821 24.576045 -13.560758 -0.034820 1.721401
0.134835 1.028155 0.007449 0.858290 -30.285860 -4.637289 4.026308 0.220984 1.321315 1.630097 0.028098 1.010780 1.630211 0.031093 1.010742 0.919726 1.179152 6.387393 -7.432623 14.655390 -3.668238 0.315525 -1.074727 3.324357 21.332656 13.022148 -65.577373 0.000017 -29.392657 0.000001 -0.329534 7.480966 -7.518858 0.440542 -1.740139 6.427623 -73.727538 -4.605975 13.862165 -0.000003 -0.999084 0.000008 -112.556593 22.495329 17.522555 -43.625026 14.429281 20.025067 58.934748 9.787242 -5.393809 -19.869626 17.757299 1.380878 -1.850639 0.000010 0.000001 -2.687708 -18.188630 -17.323929 38.437939 -12.381859 -9.926318 6.448771 -15.049989 18.113141 -15.876587 -0.456358 6.059646
0.134835 1.026393 0.007449 -1.168811 -27.136628 -4.465284 4.171758 0.839912 0.406729 1.459296 0.221450 0.583919 1.458494 0.224037 0.584059 1.582166 0.705599 6.421095 -6.979403 11.996418 -2.899921 -0.168397 2.224696 5.500010 17.414453 21.843108 -59.949153 -0.000007 -28.817696 -0.000005 -20.824637 7.776175 -1.834837 0.367341 -1.903528 4.949271 -82.975385 -0.919544 11.836510 -0.000021 7.782028 0.000002 -106.912076 24.403306 21.732340 -39.249603 14.714675 16.128785 59.362527 9.802438 -4.739221 -22.237971 17.318282 1.367935 -2.206905 0.000010 0.000007 -5.774718 -14.888261 -18.213843 49.041343 -11.570201 -9.605585 5.084663 -3.011068 12.052165 -21.215937 -2.883767 15.357408
0.134835 1.025074 0.007449 -3.092469 -22.641963 -3.885140 4.530272 0.883942 -0.651857 1.311346 0.225768 0.163142 1.310801 0.227514 0.162531 2.215447 0.273291 5.940741 -6.434375 8.776260 -1.647171 -0.497900 4.254018 6.380663 7.360143 25.996126 -48.910073 0.000012 -29.835939 0.000011 -47.869226 3.404268 10.525926 0.363334 -0.630910 3.365844 -89.489909 1.842101 13.345866 0.000000 24.893189 -0.000003 -90.313252 30.254610 11.394821 -34.944066 14.511832 11.917309 59.302639 9.894496 -3.823311 -24.179679 16.036588 1.391792 -2.443217 -0.000003 0.000002 -9.469721 -12.508532 -17.497064 60.906721 -3.371288 -7.856350 2.152996 -0.322546 12.454869 -19.760859 -6.024646 21.580412
0.134835 1.028347 0.007449 -4.973138 -16.927873 -2.958205 4.820937 0.742664 -1.609744 1.379989 0.189486 -0.375791 1.380117 0.188490 -0.376405 2.690232 -0.277648 5.098088 -5.227895 4.373813 0.288154 -0.524115 4.756879 5.771309 -6.218750 22.658389 -35.621051 0.000003 -31.344649 0.000004 -65.925363 -4.205050 15.501746 0.378536 0.342105 1.959369 -91.715302 7.538195 18.563426 -0.000002 43.566358 0.000003 -66.096372 30.484887 -6.853526 -30.008026 13.965550 7.637892 58.069908 10.294688 -2.651902 -25.551683 13.505077 1.158015 -2.583562 -0.000007 0.000005 -13.583991 -11.673218 -15.969210 69.011618 -1.853053 -5.506026 -3.152348 -1.050758 13.977859 -22.288098 -4.603466 11.566906
0.134835 1.033528 0.007449 -6.937951 -10.779907 -2.095714 5.176218 0.927040 -2.333818 1.677164 0.274548 -0.914682 1.678455 0.270648 -0.914893 3.080891 -1.000632 4.094655 -3.576170 -1.014229 2.136809 -0.213765 3.323909 3.833796 -19.265375 12.225555 -23.876840 0.000013 -31.997142 0.000017 -70.798319 -5.338532 13.613130 0.325803 0.244223 0.321983 -89.895636 15.589450 25.775775 0.000008 57.600774 -0.000023 -44.745853 24.855228 -17.771455 -25.016415 13.217946 4.691972 56.515517 10.684503 -1.410071 -26.528162 9.978744 0.353758 -2.669271 -0.000001 0.000001 -17.715400 -12.165289 -14.182832 72.558000 -4.268331 -2.747918 -7.505931 -1.662029 14.665661 -23.036145 -1.664834 4.024044
0.134835 1.037738 0.007449 -8.943643 -4.250661 -1.414406 5.913000 1.117563 -3.073352 2.072249 0.372796 -1.464580 2.075398 0.365654 -1.464110 3.104411 -1.864198 3.423447 -2.003363 -6.648697 4.080119 0.129024 1.309910 1.344380 -29.000634 -3.505846 -16.341451 0.000023 -31.256321 0.000019 -70.433398 -5.761836 14.931657 0.387526 1.308910 -1.021085 -83.988421 26.409807 29.508698 -0.000024 64.858651 0.000017 -28.883917 19.117832 -21.034331 -20.677247 12.365513 3.457092 55.419175 11.005097 -0.027987 -27.437522 5.535705 -1.126752 -2.750401 -0.000005 0.000003 -21.472788 -13.123961 -12.412238 72.923132 -5.982124 -0.190168 -10.642471 -2.055386 14.583188 -21.754767 0.925674 -2.458136
0.134835 1.039256 0.007449 -10.715019 3.498976 -0.878959 6.814572 0.566835 -4.052433 2.534178 0.221441 -1.825747 2.536165 0.214347 -1.824950 2.426763 -2.701850 2.597174 -0.428541 -12.236821 6.666573 0.396099 -0.813675 -1.344128 -37.459254 -21.289886 -14.179704 0.000011 -29.511371 -0.000012 -66.115513 -7.607373 14.432749 0.442711 2.117373 -2.759912 -73.514901 38.039173 29.055052 -0.000039 68.540045 0.000029 -15.053700 11.542326 -20.657466 -17.778179 11.180538 4.086146 55.378086 9.390880 1.455713 -28.267426 1.451135 -2.939327 -2.904242 -0.000002 -0.000001 -24.461613 -14.199116 -10.787805 70.013551 -1.326805 2.052816 -14.327217 -2.265394 12.927038 -14.856330 1.997898 -10.058665
0.134835 1.038811 0.007449 -11.808946 12.778032 -1.027805 7.389833 -0.837138 -4.962769 2.763371 -0.225640 -1.762748 2.763006 -0.226831 -1.763353 1.421987 -3.435252 1.396734 1.995216 -17.431472 9.405035 0.566587 -3.086319 -2.861205 -47.513500 -38.061330 -20.231413 0.000009 -28.707256 0.000006 -55.524071 -9.989245 12.652358 0.350055 1.527157 -4.420853 -57.539305 50.977237 24.110151 -0.000045 67.814514 0.000035 -2.483361 3.905500 -19.998963 -17.203132 10.028622 7.201514 56.610870 1.690426 2.888443 -29.175911 0.832888 -2.090003 -2.942480 -0.000005 -0.000001 -26.477935 -15.601759 -9.221777 63.278339 1.689982 4.293191 -17.241345 -2.069231 10.371132 -6.111250 0.359658 -4.322852
0.134835 1.040244 0.007449 -11.926368 23.058650 -2.258407 7.614552 -2.927279 -5.597333 2.621505 -0.905793 -1.498818 2.625877 -0.900802 -1.498761 0.543376 -4.152602 0.494987 4.756739 -21.966895 11.979873 0.635003 -4.233742 -2.865870 -60.450884 -52.577506 -35.193024 0.000023 -31.328727 0.000023 -36.223055 -10.573898 14.028403 0.352077 1.568072 -4.601719 -32.550119 61.337278 9.669492 -0.000003 63.999436 0.000002 6.554188 0.366887 -18.727785 -18.953266 8.659758 12.227359 58.135060 -5.880680 4.486319 -29.739843 -0.728039 -1.320149 -2.969200 -0.000016 0.000003 -27.816454 -16.324746 -8.973495 53.447074 -3.095687 6.080571 -13.499671 -2.176873 12.666399 -0.347540 0.002027 -0.326761
0.134835 1.040606 0.007449 -11.195675 33.472909 -4.399070 7.833427 -4.874421 -5.968399 2.407974 -1.546754 -1.258304 2.424892 -1.537365 -1.251970 -0.118204 -4.960274 -0.250096 7.048342 -26.817299 15.037063 0.694689 -5.340319 -3.249490 -79.281508 -65.526726 -58.088252 -0.000009 -34.537282 -0.000001 -15.108719 -9.917702 14.599679 0.539391 3.036737 -3.731340 -5.260668 63.432749 -6.918873 -0.000038 60.952916 0.000034 13.387797 -1.787082 -15.547026 -22.729394 7.087809 18.027613 59.284326 -6.292179 5.737164 -29.767259 -5.433892 -3.689434 -3.282228 -0.000004 -0.000001 -29.878348 -16.188409 -8.749069 45.440051 -7.622257 6.355910 -11.255711 -3.042016 5.621702 -0.049340 0.000001 0.000003
0.134835 1.035318 0.007449 -9.880596 43.150175 -7.033364 8.292957 -5.985258 -6.191176 2.428386 -1.922950 -1.000052 2.459489 -1.907267 -0.988381 -0.663753 -5.753897 -1.181290 8.004457 -31.922592 17.598672 0.760146 -6.817940 -3.856668 -116.657405 -73.142333 -99.167568 0.000016 -37.271721 0.000006 0.352569 -10.394849 12.335584 0.795313 5.484454 -1.920177 12.359642 59.404769 -13.357209 -0.000009 59.084675 0.000012 16.340628 -5.185451 -12.014456 -28.332390 5.992373 23.828060 61.465777 -6.889284 5.340385 -29.229948 -3.597135 -4.148239 -3.423906 -0.000006 -0.000002 -29.366252 -15.032574 -9.596660 35.726610 -7.958423 4.876507 -6.613551 -3.066488 6.821732 0.129474 0.000002 0.000000
0.134835 1.025175 0.007449 -7.503736 51.753028 -10.472988 8.875333 -6.627656 -6.246919 2.557336 -2.148017 -0.654426 2.603108 -2.123735 -0.639089 -1.232871 -6.350286 -2.260765 7.698587 -36.223411 18.556496 0.793701 -7.372021 -3.704661 -157.877635 -70.565542 -143.606287 0.000026 -41.457011 0.000016 10.951064 -10.547263 8.206339 0.979216 8.385411 0.662110 21.043285 53.470916 -10.833316 -0.000029 56.099908 0.000010 18.681534 -7.409721 -8.096893 -34.840051 3.868456 28.597954 64.750668 -7.484392 4.933463 -28.580159 -2.643903 -4.100351 -3.056428 -0.000004 0.000004 -27.601031 -14.341688 -11.652988 26.684151 -6.517287 2.862706 -0.390643 -0.703045 12.312739 0.754536 0.000014 0.000007
