HIERARCHY
ROOT Hips
{
  OFFSET 4.3602899495453355e-8 1.1673772430419926 0.00903120994567871
  CHANNELS 6 Xposition Yposition Zposition Xrotation Yrotation Zrotation
  JOINT Spine
  {
    OFFSET 0.00000400409843159832 0.10717498984890383 -0.009311363000479054
    CHANNELS 3 Xrotation Yrotation Zrotation
    JOINT Spine1
    {
      OFFSET -1.157133440709887e-8 0.10585321386790758 -0.004285265132451881
      CHANNELS 3 Xrotation Yrotation Zrotation
      JOINT Spine2
      {
        OFFSET -1.2021792727953998e-8 0.10599313230062335 -0.007812673855060945
        CHANNELS 3 Xrotation Yrotation Zrotation
        JOINT Neck
        {
          OFFSET -3.2927685248284505e-8 0.26240295415719994 -0.044881304131893486
          CHANNELS 3 Xrotation Yrotation Zrotation
          JOINT Head
          {
            OFFSET -1.1268817613937174e-8 0.1746685200511402 0.056256497133401515
            CHANNELS 3 Xrotation Yrotation Zrotation
            End Site
            {
              OFFSET -8.617178878150887e-9 0.10756811731632654 0.02107021751552555
            }
          }
        }
        JOINT LeftShoulder
        {
          OFFSET 0.10574355691983202 0.2300922422130116 -0.07323001980788171
          CHANNELS 3 Xrotation Yrotation Zrotation
          JOINT LeftArm
          {
            OFFSET 0.14878172464754674 -0.04653430124026747 -0.03069340943884992
            CHANNELS 3 Xrotation Yrotation Zrotation
            JOINT LeftForeArm
            {
              OFFSET 0.2410901499999964 2.514874553050106e-8 -2.5644150081216566e-8
              CHANNELS 3 Xrotation Yrotation Zrotation
              JOINT LeftHand
              {
                OFFSET 0.3167439969976485 9.305862591624248e-8 0.0055278706856974474
                CHANNELS 3 Xrotation Yrotation Zrotation
                End Site
                {
                  OFFSET 0.06210611293049251 -0.1056924643799253 0.03949498917827464
                }
              }
            }
          }
        }
        JOINT RightShoulder
        {
          OFFSET -0.10574409307527087 0.23009141295444557 -0.07322999494236766
          CHANNELS 3 Xrotation Yrotation Zrotation
          JOINT RightArm
          {
            OFFSET -0.14878099894090208 -0.04653001551703495 -0.030692881610262193
            CHANNELS 3 Xrotation Yrotation Zrotation
            JOINT RightForeArm
            {
              OFFSET -0.24108999999999764 -2.5144341053717767e-8 2.9072947757557976e-8
              CHANNELS 3 Xrotation Yrotation Zrotation
              JOINT RightHand
              {
                OFFSET -0.3167448378500485 -3.304013818095086e-8 0.005523816194027642
                CHANNELS 3 Xrotation Yrotation Zrotation
                End Site
                {
                  OFFSET -0.06210627893580878 -0.10570000668807578 0.039495226662701347
                }
              }
            }
          }
        }
      }
    }
  }
  JOINT LeftUpLeg
  {
    OFFSET 0.12297482524469029 -0.06742086731113295 -0.010003017167751174
    CHANNELS 3 Xrotation Yrotation Zrotation
    JOINT LeftLeg
    {
      OFFSET 3.29102216173327e-8 -0.45703384336647745 0.010304781301190422
      CHANNELS 3 Xrotation Yrotation Zrotation
      JOINT LeftFoot
      {
        OFFSET 6.562466081661e-8 -0.5002806931369024 -0.03690416879508984
        CHANNELS 3 Xrotation Yrotation Zrotation
        JOINT LeftToeBase
        {
          OFFSET 0.02595079309341415 -0.14255124139316394 0.19507613876404925
          CHANNELS 3 Xrotation Yrotation Zrotation
          End Site
          {
            OFFSET 0.010732212189788037 -0.00003523758576667464 0.11362316400109373
          }
        }
      }
    }
  }
  JOINT RightUpLeg
  {
    OFFSET -0.12297503780805406 -0.0674172528256134 -0.01000298679994319
    CHANNELS 3 Xrotation Yrotation Zrotation
    JOINT RightLeg
    {
      OFFSET 0.0000015762103336008915 -0.45703794623816363 0.010304776602924667
      CHANNELS 3 Xrotation Yrotation Zrotation
      JOINT RightFoot
      {
        OFFSET -0.0000014796473382927555 -0.5002806877425285 -0.03690424189268969
        CHANNELS 3 Xrotation Yrotation Zrotation
        JOINT RightToeBase
        {
          OFFSET -0.02594992229596689 -0.1425528302873685 0.19507509351502048
          CHANNELS 3 Xrotation Yrotation Zrotation
          End Site
          {
            OFFSET -0.01073336011005574 -0.000035035181829541786 0.11362416403777789
          }
        }
      }
    }
  }
}
MOTION
Frames: 61
Frame Time: 0.03333333333333333
0.017399 1.025175 0.612170 -7.503736 51.753028 -10.472988 8.875333 -6.627656 -6.246919 2.557336 -2.148017 -0.654426 2.603108 -2.123735 -0.639089 -1.232871 -6.350286 -2.260765 7.698587 -36.223411 18.556496 0.793701 -7.372021 -3.704661 -157.877635 -70.565542 -143.606287 0.000026 -41.457011 0.000016 10.951064 -10.547263 8.206339 0.979216 8.385411 0.662110 21.043285 53.470916 -10.833316 -0.000029 56.099908 0.000010 18.681534 -7.409721 -8.096893 -34.840051 3.868456 28.597954 64.750668 -7.484392 4.933463 -28.580159 -2.643903 -4.100351 -3.056428 -0.000004 0.000004 -27.601031 -14.341688 -11.652988 26.684151 -6.517287 2.862706 -0.390643 -0.703045 12.312739 0.754536 0.000014 0.000007
0.017399 1.011509 0.612170 -4.470095 59.005128 -14.023218 9.517816 -6.948031 -6.465656 2.638507 -2.255295 -0.407674 2.696801 -2.223132 -0.387187 -1.062743 -6.608232 -3.440426 7.097113 -39.230785 18.989597 0.814172 -7.888908 -3.876144 177.795066 -65.649541 -170.381901 0.000004 -48.720384 -0.000007 18.654680 -11.137751 2.946793 1.058878 12.010984 3.435134 25.375365 46.663505 -3.925571 -0.000012 51.611066 0.000016 22.465031 -8.101413 -3.305470 -39.516969 0.571033 31.687542 66.759128 -7.415792 5.663103 -28.799991 -6.937712 -6.757346 -3.225733 -0.000004 0.000000 -28.035637 -14.096856 -14.645993 24.252665 -3.040858 0.945562 3.260547 -0.310253 12.555777 1.391741 0.000006 0.000007
0.017399 0.996598 0.612170 -2.161441 64.564069 -15.981171 10.283144 -6.860112 -7.109438 2.783240 -2.207354 -0.480433 2.845122 -2.170529 -0.456753 -0.030006 -6.605054 -4.462750 6.455932 -40.927597 19.039434 0.829140 -8.490073 -4.231959 155.841772 -62.428472 166.757581 -0.000006 -59.311237 -0.000014 22.588847 -11.084957 5.268923 0.974491 16.178299 6.245268 26.797080 39.279158 5.617874 -0.000009 46.922180 0.000013 24.125170 -8.352419 1.404083 -42.117028 -2.222867 33.376394 67.752253 -7.453510 6.564935 -28.977631 -10.854081 -10.690637 -3.303530 -0.000020 0.000001 -29.095448 -14.424613 -18.562026 25.440071 -2.697239 -0.922726 5.195471 -0.082187 12.286997 1.352749 0.000007 -0.000005
0.017399 0.982529 0.612170 -0.950954 68.285889 -16.026836 11.019622 -6.081607 -7.596055 2.996750 -1.922758 -0.746978 3.048057 -1.886703 -0.725599 1.231635 -6.556175 -5.213937 5.408831 -41.887156 17.645538 0.845582 -8.524649 -3.900378 136.734803 -61.230476 146.632231 0.000026 -70.473135 0.000019 26.536479 -8.693796 16.967663 0.756144 19.101489 8.468735 25.338989 32.368960 16.886826 -0.000007 41.993811 0.000008 24.563877 -9.448728 7.168254 -42.990020 -3.896508 33.889715 68.030922 -7.516530 7.516151 -29.626516 -12.734634 -13.784637 -3.397079 0.000025 0.000010 -30.563391 -14.574052 -22.639778 27.488748 -3.715003 -2.646798 6.237373 0.044283 10.849432 1.423108 0.000000 0.000011
0.017399 0.969703 0.612170 -0.309757 70.144112 -14.750349 11.547104 -4.743067 -7.670299 3.166822 -1.457237 -0.980851 3.201195 -1.425326 -0.965032 2.425363 -6.555104 -5.624567 3.557809 -42.498029 15.437222 0.880456 -8.898052 -3.569220 120.061223 -65.799658 126.877438 0.000081 -77.497678 0.000079 31.367942 -6.971627 25.780807 0.639607 19.949043 9.327716 22.634757 25.619514 28.305252 -0.000013 37.425455 0.000023 25.997914 -12.053892 13.128450 -42.794350 -4.527264 34.017446 67.473303 -7.727815 8.401088 -30.065543 -13.212275 -16.783289 -3.590939 -0.000004 0.000008 -32.438866 -13.828231 -26.195205 28.678991 -3.536694 -4.262105 7.737342 0.188616 9.696483 1.861171 -0.000005 -0.000002
0.017399 0.959740 0.612170 -0.001632 70.504842 -12.515527 11.976940 -3.759122 -7.381771 3.213537 -1.113766 -1.147632 3.235636 -1.088842 -1.134538 3.486071 -6.594378 -5.497239 1.244566 -42.605963 13.292025 0.880654 -9.242642 -3.929909 85.550217 -73.383738 88.332100 0.000033 -76.753589 0.000017 34.556775 -9.050117 29.111624 0.634640 19.671779 9.356021 21.402663 18.883342 37.570049 -0.000004 33.690347 0.000003 26.377914 -13.012677 15.778413 -41.672270 -3.847697 34.152301 65.625557 -7.775845 9.203016 -30.178064 -13.011266 -19.790637 -3.741879 0.000001 0.000007 -34.325642 -12.714883 -29.174156 28.421691 -2.898140 -5.192315 8.956648 0.317329 10.212112 2.205659 -0.000002 -0.000013
0.017399 0.952104 0.612170 0.806874 69.733480 -10.435414 12.225627 -3.554419 -6.561640 3.164717 -1.051670 -1.089651 3.182543 -1.032376 -1.075573 4.248281 -6.703529 -5.209826 -1.769746 -42.887994 11.489351 0.821862 -9.614197 -5.362564 26.403766 -69.274550 25.214392 0.000033 -69.399157 0.000031 34.692917 -9.329250 26.176883 0.761591 17.691201 8.303507 21.465244 13.098183 44.567340 -0.000022 30.933430 0.000003 26.488864 -12.383725 15.114050 -39.961884 -2.030074 34.621657 62.490777 -7.857378 9.892558 -29.964923 -12.590535 -22.792897 -3.817026 0.000041 0.000013 -36.463851 -11.284476 -31.272247 27.754992 -3.026286 -5.361382 10.350414 0.460336 10.565715 2.735715 -0.000002 -0.000001
0.017399 0.944089 0.612170 2.585678 67.945355 -8.796066 12.232035 -3.853664 -5.314294 3.121620 -1.176747 -0.872878 3.138346 -1.161013 -0.856414 4.640836 -6.907954 -4.792209 -6.198560 -43.454797 9.450278 0.756007 -9.761081 -6.651614 -2.272576 -52.255868 -6.407376 0.000027 -58.986583 0.000021 29.931237 -12.963724 22.568846 0.902199 14.137416 6.347396 21.375374 6.278998 50.440863 0.000002 29.121709 -0.000003 26.280945 -11.162030 11.581361 -37.716911 0.680839 35.316288 58.446365 -8.279339 9.958575 -29.240874 -11.111110 -25.297276 -3.784440 0.000005 -0.000008 -39.571818 -9.064404 -32.717687 27.920394 -3.016764 -5.202074 15.124371 0.872186 10.156459 3.200533 -0.000001 0.000001
0.017399 0.934520 0.612170 5.879166 65.394358 -8.033572 11.984061 -4.788181 -3.791846 3.008261 -1.521993 -0.628025 3.024798 -1.510756 -0.606098 4.855093 -7.061546 -3.808215 -12.789792 -42.940563 6.114022 0.735117 -9.771618 -7.032987 -11.121188 -29.996370 -17.769172 0.000009 -49.196197 0.000004 26.756404 -18.009523 26.017644 0.920673 10.172240 4.051860 21.891269 -2.434589 55.220990 0.000002 28.639976 -0.000008 21.296897 -9.660948 3.471698 -35.355900 4.503765 35.839943 53.678055 -9.179173 9.723874 -27.217597 -7.195856 -26.991446 -3.562549 0.000001 0.000003 -43.075348 -5.831827 -34.025475 29.653367 -2.585864 -5.541242 17.000203 1.591108 16.635972 1.580005 -0.024766 1.501084
0.017399 0.917980 0.612170 10.916111 62.399548 -8.040673 11.752124 -6.439243 -2.314620 2.696009 -2.095022 -0.275143 2.715591 -2.085107 -0.238293 4.773383 -7.048477 -2.622634 -21.227571 -41.304870 2.671649 0.684941 -8.454245 -7.476775 -10.295629 -9.417037 -22.285206 0.000019 -42.161836 0.000020 17.829333 -14.589300 26.633240 0.579396 3.347465 -0.082776 22.251782 -9.582955 59.187206 -0.000009 28.900320 0.000011 10.833675 -7.423152 -6.497302 -33.278165 8.516786 35.872235 49.136619 -10.514925 8.629171 -24.128739 -1.008814 -27.484308 -2.462993 -0.000009 -0.000010 -48.767520 -1.441095 -36.241330 35.654795 -0.972131 -6.088379 12.923460 1.905373 28.653681 0.000033 -0.000000 0.000002
0.017399 0.899546 0.612170 16.895467 58.621489 -7.974493 12.444135 -8.091049 -0.562666 2.491878 -2.679370 0.042009 2.510532 -2.669553 0.103969 3.707014 -7.098612 -1.065365 -30.981032 -39.620006 -0.379957 0.644184 -5.170900 -5.970938 -3.595218 4.749880 -30.477077 -0.000006 -33.256521 -0.000007 3.695907 -13.633809 27.899202 -0.683451 -6.130458 -5.456745 20.845740 -14.185201 62.096758 -0.000008 28.522644 0.000016 -5.128862 -4.437520 -13.404693 -31.379048 12.689698 34.228583 44.626197 -11.161562 7.121311 -21.710274 3.893622 -28.106008 -0.893813 0.000034 0.000012 -60.395661 4.799874 -38.221373 47.885890 3.650126 -4.950895 7.688238 0.389169 25.571260 -0.060967 0.000016 0.000004
0.017399 0.883282 0.612170 21.936130 53.398730 -8.086057 13.824754 -8.673116 1.916770 2.991550 -2.961822 0.752128 3.008965 -2.945194 0.817721 2.446773 -7.032270 0.815881 -39.168061 -37.576315 -2.058453 0.551992 -2.884332 -2.345922 7.667944 13.830648 -46.276457 0.000005 -26.378249 0.000009 -4.381203 -12.718060 28.181060 -2.092356 -13.749965 -8.036050 17.344236 -17.960203 61.981363 -0.000005 27.107999 0.000008 -24.070906 -1.879404 -15.755361 -29.843650 16.732581 33.465199 40.759576 -10.365071 5.235452 -21.438924 5.318038 -28.569775 -0.144574 0.000006 0.000002 -70.513493 9.663166 -36.917477 55.468061 7.235274 -3.632496 5.050389 -0.232393 21.772315 -0.534019 -0.000026 0.000003
0.017399 0.871012 0.612170 26.270435 48.328443 -8.591980 14.532478 -8.363019 4.146463 3.562758 -2.939475 1.495021 3.578186 -2.919866 1.545994 3.164488 -6.653421 1.960207 -39.952659 -36.361959 -0.109806 0.199121 0.430228 1.772772 17.971587 15.164796 -62.825197 0.000018 -23.583667 0.000019 -0.827376 -12.361032 27.812477 -1.821528 -14.079071 -5.972948 15.503177 -25.026944 60.845341 -0.000008 25.431985 0.000007 -34.562702 1.107571 -18.261628 -27.739364 19.373218 32.217872 37.133531 -8.889683 4.086603 -22.157325 6.610610 -27.097864 0.074224 0.000348 -0.183968 -78.498484 13.012305 -33.945869 60.622793 8.909537 -2.491032 2.899552 0.024505 18.777604 0.000000 -0.000020 0.000005
0.017399 0.860660 0.612170 29.808803 45.639742 -8.142652 14.696175 -8.029183 6.007195 3.798168 -2.865255 1.769972 3.798363 -2.856105 1.811696 5.837584 -6.350838 1.949172 -35.961865 -36.008826 1.167682 -0.149141 2.809439 3.765233 23.063280 13.248956 -71.887428 0.000002 -22.389776 0.000006 0.688620 -12.801715 28.297512 -1.832268 -14.705663 -5.502361 15.097447 -29.196172 62.378625 -0.000001 22.812425 -0.000015 -36.510772 3.415551 -21.564430 -24.496618 19.663183 27.859239 33.418273 -5.754405 4.992144 -23.408783 6.650242 -24.861743 -1.361523 -0.000014 -0.000006 -84.980542 15.492809 -33.532970 65.101772 8.698989 -1.004370 0.901599 2.636896 15.694926 -0.000033 0.000003 -0.000007
0.017399 0.852889 0.612170 31.226394 44.151258 -6.623208 15.389700 -7.658769 7.646036 4.077332 -2.783856 1.964403 4.063317 -2.785244 2.002819 8.653426 -6.034119 1.230631 -31.309995 -34.443636 0.205934 0.032996 1.711156 2.604706 23.445511 12.756960 -74.435729 0.000003 -19.856736 -0.000012 -0.762130 -13.674677 28.952061 -1.935368 -14.945104 -5.936159 15.146245 -29.631837 63.684179 -0.000021 20.681559 0.000005 -40.236790 4.370986 -22.225700 -21.029109 19.770938 23.837985 29.788092 -3.116289 6.465589 -24.052619 6.164578 -22.786935 -2.931604 -0.000007 0.000011 -89.196594 16.974516 -33.768398 68.780889 8.434121 0.097701 -0.706911 5.191713 12.990688 -0.000034 -0.000009 -0.000000
0.017399 0.845879 0.612170 31.543597 42.679697 -4.869170 16.040731 -7.381990 8.100367 4.263161 -2.700655 1.861102 4.240254 -2.710212 1.899814 10.018608 -5.444856 0.459726 -26.220463 -31.510076 0.498488 0.234424 0.426489 0.750624 21.398604 13.361210 -72.047137 -0.000001 -18.832233 0.000010 0.462048 -13.841642 29.998415 -1.605901 -12.910498 -5.600339 14.587351 -30.168910 62.937924 0.000002 20.380921 0.000005 -40.520629 4.137646 -22.846492 -18.405355 20.649977 22.133612 26.869749 -2.708689 6.340104 -22.980962 6.091364 -23.406344 -2.919391 0.000002 0.000003 -92.295020 17.998748 -33.229738 72.021842 8.353290 0.488109 -2.133866 7.075023 11.735362 -0.158256 0.000000 0.000007
0.017399 0.840685 0.612170 32.318697 41.768097 -4.150299 15.902171 -7.342755 7.895759 4.179069 -2.658349 1.492406 4.146139 -2.677379 1.531734 10.131038 -4.986445 -0.222923 -24.224142 -29.246895 0.795342 0.357696 -0.580992 -0.492484 18.725527 14.802642 -67.140807 0.000002 -20.496598 -0.000006 2.490600 -13.898762 33.150340 -1.280881 -11.356882 -4.718035 11.116519 -31.264818 58.615798 0.000006 20.943604 -0.000009 -39.371618 3.781870 -24.368244 -17.795985 21.284013 21.794840 25.588206 -2.424247 5.538019 -21.391119 5.888682 -24.694638 -3.527502 0.000016 0.000002 -94.744686 18.599012 -32.859768 74.627547 8.323083 0.865134 -3.415196 8.085409 10.960082 -0.494668 0.000001 0.000005
0.017399 0.838232 0.612170 32.589192 41.731993 -3.995768 15.519944 -7.304808 7.610219 3.988536 -2.607411 1.007510 3.942689 -2.637855 1.048000 9.536789 -4.881807 -0.900579 -24.845194 -28.190739 -0.343569 0.464419 -1.739916 -1.401563 15.251317 16.639000 -60.939607 0.000012 -23.484283 -0.000001 3.321703 -14.354625 35.488119 -0.957002 -9.677984 -3.758440 6.209612 -32.555025 51.946753 0.000003 21.837438 -0.000001 -39.670310 3.119160 -25.079254 -18.206967 21.132360 22.045361 25.892542 -2.146008 5.978414 -19.588813 4.922344 -25.615191 -4.761151 0.000018 -0.000000 -95.674541 18.542723 -33.145259 76.648916 8.177342 1.312554 -4.740673 8.655665 10.163734 -0.743988 -0.000011 0.000001
0.017399 0.836063 0.612170 31.529900 42.331328 -3.616930 15.300638 -7.004184 6.902366 3.783233 -2.458815 0.398293 3.727779 -2.500112 0.440975 8.504333 -4.942749 -1.671515 -25.671586 -28.110683 -1.484475 0.557676 -2.990563 -2.068602 11.106820 19.180853 -54.422381 0.000000 -29.142209 0.000005 3.771476 -14.500471 37.097417 -0.634901 -7.531200 -3.045093 1.823201 -32.665117 44.645657 0.000005 22.346895 -0.000009 -37.647454 2.045989 -25.338677 -19.088059 20.815394 23.052246 27.792877 -2.488481 7.016516 -18.726928 3.574570 -26.108963 -5.394900 0.002652 -0.484387 -95.089275 18.037580 -33.593417 78.500721 7.931193 1.358906 -6.163799 8.840965 9.553232 -0.916972 -0.000002 -0.000001
0.017399 0.834676 0.612170 29.489980 43.600084 -3.207108 15.088783 -6.541849 5.970426 3.577920 -2.246339 -0.260726 3.516522 -2.298929 -0.217444 7.350776 -5.034898 -2.555979 -25.849083 -28.671215 -2.076291 0.562727 -3.037542 -2.603573 5.956411 20.644958 -48.272741 -0.000003 -36.515475 -0.000003 7.981433 -15.468931 39.583087 -0.382356 -5.737779 -2.393159 -2.700576 -31.229430 37.029911 -0.000012 22.424688 -0.000009 -36.811838 1.869615 -25.532523 -20.555757 20.314017 24.643088 30.831023 -3.042636 8.254661 -18.759864 2.448740 -26.400984 -6.134643 0.005346 -0.685484 -93.137096 17.215858 -34.414502 80.074982 7.671402 1.171494 -7.659114 8.620155 9.559473 -1.075362 0.000000 -0.000002
0.017399 0.835575 0.612170 26.966676 45.871112 -2.836497 14.635023 -5.850109 5.074161 3.341894 -1.956493 -0.893222 3.278772 -2.019938 -0.853240 6.255190 -5.151504 -3.668460 -24.208874 -30.145513 -1.747994 0.574924 -3.195220 -3.671777 0.771263 19.521249 -42.328891 0.000008 -44.096800 0.000013 10.774889 -16.459114 38.397775 -0.183575 -4.005836 -2.149999 -6.826650 -29.151701 30.260494 0.000006 21.978904 -0.000009 -38.748808 1.262730 -25.179380 -22.424082 19.386350 26.190835 34.236008 -3.650322 9.548700 -18.901338 1.928695 -26.281826 -6.648511 0.000157 -0.114222 -89.945916 16.189061 -36.198501 81.169243 7.449647 1.041278 -9.173708 8.099814 10.042990 -1.199119 0.000003 -0.000002
0.017399 0.837904 0.612170 23.927608 48.978844 -2.157515 14.155047 -4.829632 3.915233 3.104258 -1.551735 -1.552312 3.047303 -1.625197 -1.519056 5.487107 -5.462396 -4.533774 -21.441191 -32.865375 -0.905714 0.614671 -4.084423 -4.932218 -3.437178 17.775718 -37.580219 0.000022 -53.598237 0.000012 14.150765 -16.878838 35.157015 0.094437 -1.360560 -2.043578 -10.088437 -27.669677 24.811775 -0.000003 21.010893 -0.000004 -41.136237 1.225005 -25.595679 -24.174255 17.765633 27.536435 37.777063 -4.250314 10.375179 -18.923806 1.763060 -25.965630 -6.647599 0.000004 0.000008 -85.940939 14.840296 -38.640923 81.846783 7.200392 0.818499 -10.573116 7.129933 10.522296 -1.127064 0.000010 -0.000005
0.017399 0.839888 0.612170 20.453301 52.695996 -1.266899 13.830121 -3.473627 2.524185 2.923536 -1.034245 -2.153071 2.882157 -1.115891 -2.130187 5.060942 -6.006610 -4.967636 -18.441612 -36.670613 0.425838 0.578561 -3.181260 -5.501273 -6.339600 13.321855 -35.433723 0.000041 -63.294737 0.000022 22.848348 -17.118061 34.724060 0.412647 1.714615 -1.860136 -12.858067 -26.384176 20.135709 -0.000006 19.786154 0.000010 -46.050997 1.980502 -26.298975 -25.415754 14.443955 28.798707 41.289205 -4.182346 10.314825 -19.393154 0.666574 -25.698420 -5.964294 0.000036 0.000011 -81.464896 13.080564 -41.026563 82.225666 6.870499 0.308623 -11.850206 5.395817 10.923605 -0.934373 0.000008 0.000001
0.017399 0.841189 0.612170 16.681684 57.001780 -0.368864 13.603072 -1.957283 1.307956 2.829432 -0.472600 -2.608749 2.808507 -0.560352 -2.598949 4.933600 -6.561719 -5.081929 -15.092522 -40.381417 2.488215 0.512159 -1.348559 -5.525366 -7.067217 6.005128 -34.593210 0.000029 -72.269538 0.000004 27.741276 -16.607092 32.867492 0.673073 4.343528 -1.158994 -16.533329 -24.549040 15.310249 -0.000000 18.904276 -0.000001 -51.555363 3.387206 -27.527986 -26.781697 10.287353 30.026706 44.400430 -3.788741 10.259699 -20.260618 -1.710811 -26.231473 -5.621810 -0.000006 0.000018 -76.558119 10.827882 -43.083031 82.205753 6.669199 -0.323912 -13.000240 2.916624 11.153230 -1.743601 0.000010 -0.000003
0.017399 0.843093 0.612170 12.835240 61.826683 0.368496 13.421375 -0.697661 0.425810 2.747750 -0.018409 -2.874080 2.744618 -0.108455 -2.875142 5.207984 -7.107436 -5.015415 -11.973095 -43.842736 4.863344 0.489361 -0.508385 -5.821474 -6.058914 -0.803324 -31.974311 0.000079 -81.219517 0.000068 27.892943 -15.450250 29.320880 0.873580 6.749362 -0.174354 -19.956960 -21.571227 11.003637 -0.000012 18.060759 0.000004 -55.065590 6.535179 -28.468165 -28.732568 6.236882 31.232721 47.049776 -3.407258 10.233156 -21.328692 -4.380163 -26.850294 -5.659207 -0.000021 0.000008 -71.487030 8.379238 -45.168303 81.845716 6.950147 -0.784702 -13.395477 -0.064617 13.099781 -3.205956 -0.000016 0.000000
0.017399 0.845765 0.612170 8.704477 66.912390 1.315162 13.277352 0.388638 -0.310075 2.725953 0.355104 -2.901953 2.737169 0.269015 -2.911840 5.701632 -7.743393 -4.714197 -9.408469 -47.306646 6.686024 0.531639 -1.397458 -6.509562 -4.761722 -6.376772 -26.715963 0.000338 -88.422465 0.000333 25.374069 -14.011048 26.592147 1.019216 8.907180 0.693134 -23.614281 -17.967954 7.335494 0.000000 17.748288 -0.000009 -58.748269 9.496249 -28.554613 -31.062465 2.696491 32.040456 49.731773 -3.517685 10.212843 -22.358698 -5.494787 -26.715940 -5.070023 -0.000001 0.000010 -66.422102 5.480906 -47.136241 80.829994 7.029675 -1.067239 -12.830670 -2.669799 15.459064 -4.097799 0.000032 -0.000002
0.017399 0.849931 0.612170 4.306122 71.803229 2.749300 13.232444 1.437300 -0.927463 2.727735 0.706096 -2.782234 2.750045 0.626971 -2.800181 6.211398 -8.422340 -4.115116 -6.858398 -50.580920 8.303613 0.564550 -2.625025 -6.369976 -4.707385 -13.174307 -21.536401 179.998788 -88.522337 179.998772 19.147951 -12.375409 22.190569 1.078091 9.920380 1.071179 -29.238637 -13.509942 5.045757 -0.000004 18.671965 0.000016 -60.724477 12.157339 -30.457035 -33.708552 0.015058 32.361666 52.591352 -5.680211 10.057306 -21.827757 -3.477991 -27.066028 -2.642143 0.000004 -0.000002 -61.272917 2.287205 -48.609873 78.579268 4.853984 -1.373861 -11.785841 -3.146252 18.811786 -4.595982 0.000032 0.000005
0.017399 0.856733 0.612170 0.621126 76.095964 3.618260 13.215007 2.027502 -1.186876 2.687551 0.884092 -2.449828 2.711965 0.815874 -2.472118 6.377017 -8.972484 -3.533016 -4.617575 -53.181275 10.311751 0.580364 -3.228610 -5.542617 -5.878632 -22.558672 -18.869719 179.998834 -88.969112 179.998820 14.894726 -11.044261 17.554614 1.125901 10.928463 1.510471 -34.498177 -7.159103 3.646531 -0.000003 19.598643 -0.000003 -61.525587 13.815728 -31.698862 -36.832439 -2.267764 32.516280 55.230802 -9.473846 9.883183 -19.864639 -1.408973 -29.216120 -0.169582 -0.000008 -0.000007 -56.179088 -0.851751 -48.832744 74.586373 1.912508 -1.846812 -9.426699 -3.166534 22.846918 -5.158592 -0.000001 -0.000011
0.017399 0.868604 0.612170 -1.295251 79.299962 3.094411 13.202809 2.035153 -1.168651 2.750879 0.846162 -1.968533 2.769409 0.792425 -1.988929 5.925593 -9.320785 -2.902894 -3.733839 -54.476571 11.803121 0.641004 -4.936682 -5.630157 -5.671244 -33.461056 -16.664073 0.002630 -89.692068 0.002619 13.502001 -10.331027 15.629373 1.120291 11.613502 2.276594 -38.590567 1.396278 3.169511 0.000001 20.368923 -0.000007 -62.073439 15.789467 -31.584388 -39.627106 -4.160281 31.554181 57.529834 -10.462861 9.941236 -19.686173 -2.071962 -29.491197 -0.109394 -0.000056 0.000002 -50.907600 -3.577832 -47.545063 68.096563 -1.801060 -2.813154 -5.752397 -2.701403 26.363529 -5.221398 0.000009 -0.000011
0.017399 0.889418 0.612170 -1.343133 80.298772 1.365502 13.100139 1.343507 -1.269098 2.966961 0.568701 -1.444180 2.975088 0.533126 -1.456088 5.332062 -9.421616 -2.116614 -4.734276 -54.304443 12.141436 0.716177 -8.765979 -6.936268 -1.372625 -43.320222 -13.248112 0.001195 -89.331412 0.001192 13.499072 -9.314879 13.485248 1.074767 12.193211 3.360051 -42.777110 11.384772 4.822749 -0.000008 22.331516 0.000003 -59.075008 17.459042 -29.000550 -40.785876 -3.831314 30.039633 58.676000 -10.329319 9.965190 -19.320628 -1.423310 -29.693911 0.046172 0.000019 -0.045299 -45.144419 -6.193680 -44.989772 57.574925 -5.141967 -4.434457 -1.141003 -1.696369 27.806773 -3.955096 0.000002 -0.000005
0.017399 0.918345 0.612170 1.623575 78.043916 -3.081140 12.806679 0.265510 -1.085634 2.982833 0.160469 -0.877840 2.983926 0.142361 -0.881148 4.867084 -9.354700 -1.349193 -6.520012 -53.154628 11.214870 0.599117 -14.111104 -9.562380 8.219221 -51.415715 -8.152780 0.000558 -88.535037 0.000542 14.443456 -7.797007 11.840184 1.018455 12.756353 4.430861 -45.228239 21.811536 8.777059 -0.000008 27.355113 0.000007 -53.619088 17.525961 -22.926104 -41.174385 -1.306465 28.713078 60.223895 -9.758135 9.750662 -19.805547 1.308263 -26.952852 -0.000024 0.000015 -0.000004 -39.157478 -7.850044 -40.632540 42.059468 -9.660250 -6.524649 8.051557 0.135827 26.137053 -3.337789 0.000022 -0.000006
0.017399 0.947263 0.612170 5.478144 71.913146 -8.358554 12.273795 -0.695785 -0.641957 2.852917 -0.211144 -0.344082 2.852877 -0.215407 -0.340631 4.066382 -9.033381 -0.465272 -8.388220 -50.551340 10.505130 0.193140 -18.928026 -12.555590 20.577725 -57.885092 -1.100158 0.000297 -86.490355 0.000277 15.254005 -5.873779 9.143908 0.946966 12.465706 5.159743 -46.063023 33.169548 14.307510 -0.000017 36.508522 0.000005 -46.587363 16.610736 -17.371618 -41.275864 1.580409 28.752670 61.999310 -8.663505 7.400691 -21.634742 4.749292 -21.586125 0.000014 0.000014 -0.000005 -33.613829 -7.389370 -34.392385 22.343649 -10.761020 -7.280483 22.443821 -0.636844 21.912342 0.467119 -0.017713 1.268731
0.017399 0.967911 0.612170 7.207923 62.183980 -11.261357 11.544925 -1.760428 -0.458781 2.800366 -0.604639 0.277623 2.804669 -0.593360 0.286578 2.724818 -8.181740 0.306819 -11.827914 -45.134109 9.014433 -0.582201 -23.853613 -16.093034 31.784515 -59.601829 6.556038 0.000126 -85.015614 0.000130 17.047110 -5.243183 6.369633 0.890355 11.252742 5.276254 -49.610478 47.638017 23.928768 -0.000003 46.603087 -0.000007 -37.317916 14.255167 -15.579237 -40.921580 5.004015 29.865807 63.240086 -2.145354 4.419235 -24.282272 4.825274 -19.051155 -0.053107 0.000027 0.000004 -34.002138 -8.783950 -30.454262 10.589916 -7.396178 -2.264887 25.476988 4.530361 25.811464 7.213318 0.000016 0.000010
0.017399 0.979284 0.612170 6.093841 50.333278 -10.868847 11.783954 -3.356908 -0.700989 2.928064 -1.101498 0.496760 2.939224 -1.083804 0.512641 1.273264 -6.875552 1.492690 -14.508865 -36.782999 7.612213 -1.188703 -27.218878 -17.985184 37.147086 -58.835964 10.513474 0.000244 -84.378690 0.000231 18.204116 -4.440136 4.072926 0.839868 9.830789 5.190186 -63.350121 61.037529 44.900251 -0.000013 54.375191 0.000006 -27.470559 11.197567 -16.150499 -39.495929 8.965372 30.185946 64.907174 5.653072 1.942092 -27.121349 5.831000 -18.287836 -0.492901 0.000018 0.000002 -43.467101 -8.237428 -25.452910 22.822538 0.203565 2.913363 18.249891 3.046733 27.665222 3.429855 0.051940 -1.661397
0.017399 0.994067 0.612170 3.733683 38.056217 -9.741852 12.837179 -5.703666 -1.047867 3.090377 -1.869636 0.216366 3.107601 -1.854321 0.248347 0.907049 -5.207431 3.023357 -14.917259 -26.520407 7.240181 -0.868854 -26.991846 -16.561760 35.944970 -58.654478 8.948416 0.000117 -83.487218 0.000095 18.645261 -2.273943 0.491013 0.784652 10.383251 6.455139 -84.345201 68.195770 74.113365 0.000002 61.721265 -0.000005 -19.811868 8.618997 -14.103592 -37.264028 14.122259 29.979552 65.083094 7.308839 -0.443134 -29.280602 12.143342 -14.478216 -0.951046 -0.000006 -0.000004 -48.318272 -9.956561 -17.885665 37.223178 0.129325 5.446764 9.833894 0.486177 14.454358 1.113717 0.058317 -1.754903
0.017399 1.009941 0.612170 2.432280 26.788369 -8.715005 12.609408 -7.948026 -1.780395 2.944451 -2.572604 -0.205635 2.963283 -2.564339 -0.158894 1.391248 -3.489620 3.914350 -13.786669 -16.495490 6.642055 -0.317809 -25.054214 -14.360550 31.215098 -58.709957 3.784423 0.000221 -81.455191 0.000208 21.516132 -1.019838 -1.881517 0.739283 11.658734 7.587589 -95.256147 71.732652 95.238544 -0.000031 71.334348 0.000021 -9.595764 6.166353 -12.129372 -34.875103 19.509679 29.117381 63.301291 7.870508 -3.795882 -30.933973 17.792056 -9.948434 -1.392637 -0.000005 -0.000007 -49.636516 -11.119454 -11.745643 51.251803 0.709808 5.924962 1.614668 -0.381110 8.711870 -2.252741 0.245890 -3.595159
0.017399 1.023172 0.612170 1.868801 16.541736 -7.339695 11.530360 -8.988866 -2.525166 2.808201 -2.885818 -0.558030 2.822396 -2.884393 -0.513530 1.401726 -2.026972 4.033849 -12.507922 -8.307034 5.953058 -0.032886 -23.306937 -13.181071 22.309559 -57.538711 -5.428284 0.000145 -78.591401 0.000141 25.731499 -2.504491 -2.960786 0.706082 13.183222 8.304517 -86.540940 76.825737 97.250969 -0.000098 82.417098 0.000088 3.350393 2.677646 -13.743168 -32.254771 23.031718 25.841245 61.413740 9.798460 -7.132309 -32.547988 22.498129 -4.201155 -2.602749 0.000009 -0.000005 -49.295545 -11.304707 -8.013175 63.777465 3.697031 4.647617 -0.938370 -0.639262 8.558661 -9.765315 1.387507 -8.505606
0.017399 1.034259 0.612170 1.060408 7.451191 -6.240984 11.230839 -8.692168 -2.637479 2.963088 -2.800400 -0.643683 2.971545 -2.801787 -0.609852 0.886901 -0.851932 3.566565 -12.452350 -2.445814 5.636879 0.031704 -21.992318 -13.046316 11.199494 -54.548364 -16.515112 0.000050 -75.475470 0.000039 28.360445 -4.620230 -1.590041 0.654435 14.147727 8.977244 -41.571199 80.180271 62.577607 -179.999819 87.925143 179.999816 10.281988 1.582940 -17.884321 -29.245370 23.183398 21.630323 59.752796 10.167970 -8.639470 -30.947092 27.313389 -4.183855 -5.913888 -0.000021 0.000000 -45.594759 -10.808693 -5.501122 72.859268 5.773904 2.619362 -2.065665 -0.733267 7.882242 -13.207335 2.791226 -10.185446
0.017399 1.043492 0.612170 0.136727 0.099638 -5.689269 11.387375 -7.783004 -2.010919 3.271362 -2.540432 -0.579236 3.271345 -2.545622 -0.557711 0.592522 0.112106 2.953954 -13.827591 2.040586 4.919413 -0.018029 -21.726157 -13.402266 1.887946 -48.478122 -25.630318 0.000043 -73.663062 0.000030 27.480849 -5.744523 1.294299 0.636769 14.106187 9.162684 -6.167899 73.301462 36.866694 -179.999912 83.188492 179.999904 9.378305 3.879304 -18.317172 -27.008379 21.546311 16.895982 58.408672 11.094903 -7.052538 -29.313210 26.656825 -3.819337 -8.588536 -0.000013 0.000007 -39.096345 -9.741962 -4.517059 78.240351 4.546831 0.642704 -3.404484 -0.843130 8.107899 -11.919728 2.016432 -7.849363
0.017399 1.048970 0.612170 -0.179524 -5.990766 -5.307781 11.197114 -6.941809 -1.349665 3.414578 -2.304766 -0.473659 3.409591 -2.312643 -0.461002 0.588214 0.967608 2.575150 -15.122661 6.434981 3.611011 -0.032250 -21.493363 -13.540781 -4.028917 -40.360791 -32.065583 0.000049 -73.229885 0.000033 25.151977 -5.440832 4.825051 0.646047 13.196822 9.007104 -0.263721 63.738901 38.531778 -179.999935 83.105168 179.999931 9.137626 2.589482 -13.340252 -26.159993 18.565773 12.887148 57.958173 12.016640 -3.791161 -27.065803 20.290470 -4.916756 -11.173429 0.000022 0.000012 -32.153759 -8.234818 -5.143191 79.823478 1.521684 -1.376044 -3.690292 -0.781020 7.559853 -6.956847 -0.004917 0.033372
0.017399 1.050759 0.612170 0.053117 -12.386491 -4.804759 10.527580 -5.848838 -1.160661 3.294918 -1.963015 -0.465770 3.289031 -1.971118 -0.458067 0.807282 1.763919 2.543523 -15.380411 10.901903 2.515425 0.104400 -20.167663 -12.936963 -7.404908 -32.061961 -36.842701 0.000064 -72.228360 0.000072 25.048233 -5.670276 6.985275 0.643209 12.929317 9.024231 1.427361 53.772375 42.389151 -179.999920 83.819443 179.999900 13.841809 0.550253 -9.311827 -25.571560 16.148265 10.623472 56.964901 12.456351 -1.888981 -26.956039 13.152938 -5.126333 -10.806697 0.000006 0.000014 -25.845854 -7.076851 -7.435794 77.845302 -1.226872 -3.607962 -4.574932 -0.693184 6.500328 -1.693423 -0.450124 6.436809
0.017399 1.049482 0.612170 0.348424 -19.783997 -4.537758 9.785133 -4.395251 -1.119762 3.071882 -1.482750 -0.500037 3.066569 -1.490400 -0.494978 1.103612 2.607391 2.477634 -15.122888 15.326436 2.163135 0.289411 -18.084381 -11.987087 -9.208638 -23.690879 -40.182301 0.000036 -69.788473 0.000031 26.271837 -6.869336 7.903370 0.639015 13.326646 9.100997 3.577158 45.812219 44.519090 -179.999967 83.559036 179.999968 14.349683 1.163184 -9.143573 -25.816380 16.602964 11.048578 56.004237 12.114672 -2.756378 -28.357501 11.950509 -3.779609 -7.824643 0.000001 0.000003 -20.658663 -7.410400 -11.631612 72.496847 -3.943772 -5.680613 -5.056447 -0.692619 6.753688 -2.224790 -0.692895 7.933246
0.017399 1.046212 0.612170 0.859382 -27.085687 -4.872475 9.182509 -3.091029 -0.821104 2.806660 -1.045013 -0.470753 2.802042 -1.052471 -0.466489 1.202086 3.446207 2.510499 -14.798825 19.608707 2.453505 0.515180 -15.415007 -10.379693 -10.272543 -16.618413 -42.616015 0.000062 -65.366534 0.000055 25.137389 -8.083973 9.322405 0.578984 14.290414 9.786835 6.806875 39.808002 44.699102 179.999973 81.848321 -179.999980 9.941270 2.714199 -10.280217 -28.634884 18.359170 13.991761 56.703723 11.443466 -4.985887 -29.133159 15.794080 -1.756946 -5.785607 0.000009 -0.000001 -17.252396 -9.540268 -16.487788 64.310249 -6.895342 -6.955760 -3.749046 -0.559010 6.706122 -3.343439 -0.981141 9.334565
0.017399 1.041526 0.612170 1.130363 -32.651156 -5.533095 8.899755 -2.378301 -0.512417 2.680345 -0.804831 -0.355983 2.677108 -0.810713 -0.352398 1.301758 4.098162 2.603649 -14.905719 22.902555 2.967458 0.681461 -12.775002 -8.566417 -11.463549 -11.984347 -44.417814 0.000024 -59.347773 0.000018 20.944691 -8.167946 9.123507 0.529186 15.405187 10.253021 9.216959 34.580234 45.554293 -179.999975 80.084842 179.999972 6.396438 4.323356 -11.446629 -32.085107 19.089530 17.450171 58.055697 11.038627 -6.270323 -29.343238 18.487193 -0.624169 -5.415509 -0.000003 0.000003 -14.781892 -13.503976 -21.595776 54.599775 -8.993026 -6.935263 -2.238217 -0.518261 7.788100 -1.874890 -0.842125 8.614353
0.017399 1.036122 0.612170 0.280425 -36.634265 -6.282076 9.014622 -2.009710 -0.462418 2.814423 -0.673285 -0.367639 2.811692 -0.678787 -0.365421 1.557966 4.537719 2.475646 -14.344490 24.998423 3.115620 0.699950 -12.119254 -8.247687 -11.758746 -7.583283 -43.617884 0.000024 -54.562602 0.000007 17.681998 -7.921247 8.498939 0.561519 15.155192 9.953754 10.420898 31.868779 47.693971 -179.999878 79.739900 179.999889 5.525956 4.772186 -11.771727 -34.064951 19.338178 20.171722 59.043062 10.376964 -6.982168 -29.397511 20.458713 0.179023 -5.180406 -0.000004 0.000007 -12.351267 -18.832675 -26.867814 44.293666 -9.872734 -5.790180 -0.812470 -1.194544 8.449476 1.234266 -0.329427 5.438948
0.017399 1.031538 0.612170 -0.405481 -40.570977 -6.887022 8.682350 -1.489657 -0.546603 2.736686 -0.485892 -0.516941 2.734007 -0.492381 -0.515536 1.929997 4.903527 2.320283 -12.890047 26.760860 3.049187 0.679495 -12.093497 -8.517053 -10.634773 -3.349356 -41.908735 0.000043 -52.088315 0.000035 15.852751 -8.594302 9.749933 0.588659 14.519979 9.695354 11.731677 30.651791 50.034761 -179.999900 79.994786 179.999882 5.947605 4.353318 -11.053320 -36.570142 18.935829 23.160318 60.581648 10.094008 -7.346553 -27.779377 21.989862 -0.322051 -4.997227 -0.000013 0.000005 -10.941503 -22.963135 -30.067429 35.413441 -9.638217 -4.202939 0.758358 -5.511660 7.834993 4.298679 0.000018 0.000012
0.017399 1.027772 0.612170 -0.292883 -45.022176 -7.176370 7.932257 -0.680167 -0.882568 2.470293 -0.205949 -0.666838 2.468567 -0.212447 -0.666213 2.224285 5.231777 2.414434 -12.392085 28.546766 3.116455 0.708713 -10.741668 -7.855034 -9.594868 -0.213454 -41.846672 0.000027 -51.014091 0.000015 14.362032 -9.004404 11.154991 0.559741 15.285778 9.975191 13.098997 28.478447 52.166422 -179.999970 79.629094 179.999953 5.985468 4.003484 -9.731736 -39.839836 18.107966 26.839930 61.796427 10.264028 -7.525195 -25.241180 23.179768 -1.584499 -4.743780 -0.000007 -0.000001 -10.827152 -23.346920 -30.000745 30.502595 -9.523776 -3.697642 5.407812 -10.174134 8.973362 4.947093 -0.000010 0.000029
0.017399 1.023031 0.612170 -0.366505 -49.381836 -7.154144 7.660041 -0.137154 -1.785162 2.420987 -0.015150 -0.823847 2.419886 -0.019531 -0.823782 2.225536 5.616714 2.346405 -13.164174 30.430145 3.257235 0.716521 -8.544538 -6.901851 -9.469202 2.658607 -42.656321 0.000018 -50.761489 0.000021 14.641072 -9.683198 12.346060 0.483416 16.682217 10.603071 14.042498 26.662634 53.397485 179.999965 79.095161 -179.999999 5.747260 3.676111 -9.359776 -42.559426 16.784467 30.089504 62.741434 10.237344 -7.548679 -22.043922 24.374388 -3.919376 -4.589159 -0.000016 0.000000 -11.471042 -21.467340 -28.440189 29.374647 -10.181854 -4.997458 8.640568 -8.660395 11.245530 -0.398454 -0.686518 7.779042
0.017399 1.016432 0.612170 -0.972390 -52.639409 -7.296309 7.919017 0.007995 -2.657111 2.505000 0.046056 -0.977965 2.503555 0.044203 -0.978074 2.264296 5.951393 2.034197 -13.860258 31.971678 2.926355 0.706377 -7.657420 -6.601522 -9.509213 5.307019 -42.490244 0.000026 -50.505853 0.000019 15.269864 -10.929557 13.590500 0.437290 17.418525 10.932545 14.330192 26.021787 54.362838 -179.999969 78.782729 179.999958 5.517322 3.153282 -9.547159 -44.489760 15.087239 32.151475 63.347924 10.129986 -6.876444 -19.189794 24.445089 -5.808780 -4.345485 0.000013 0.000009 -10.282833 -20.628610 -25.942240 27.855446 -10.544016 -6.210063 -0.024410 -7.705522 16.448653 -0.752825 -0.032549 1.711791
0.017399 1.006713 0.612170 -1.755075 -54.128600 -7.343860 8.541577 -0.164434 -3.037703 2.604611 0.003762 -1.159533 2.602998 -0.000398 -1.159774 2.349550 6.094538 1.750031 -14.212279 32.671684 2.270634 0.700937 -8.598053 -7.285100 -9.457522 6.711397 -40.629460 0.000031 -49.696758 0.000033 15.320218 -11.552132 13.914531 0.475256 17.057008 10.649659 14.122880 26.154458 56.014952 -179.999908 78.481323 179.999901 5.541748 2.888594 -9.620914 -46.502720 13.602059 33.351040 63.942442 10.205997 -5.495027 -17.169592 21.286976 -7.124883 -3.716540 0.000006 0.000001 -8.509092 -20.752584 -25.808058 25.456722 -7.943186 -5.027260 -4.509892 -7.084521 27.235324 2.633069 -0.065137 2.434230
0.017399 0.995618 0.612170 -2.176134 -54.411916 -7.064948 9.327070 -0.411165 -2.588323 2.629944 -0.063379 -1.369461 2.628374 -0.077683 -1.369824 2.394288 6.160308 1.592523 -14.208184 33.083972 1.631175 0.653522 -10.499367 -8.682933 -9.850983 6.963175 -38.363137 0.000029 -47.904495 0.000028 15.564384 -12.541817 14.079340 0.574441 15.643613 9.832196 13.705797 26.866500 57.746801 -179.999975 78.554956 179.999959 5.631196 3.178604 -9.762660 -48.645609 12.137758 33.591900 64.334595 10.413497 -3.689956 -15.307338 16.165822 -8.745951 -2.964033 -0.000005 -0.000000 -11.365336 -21.015542 -28.379935 29.924145 -5.799615 -2.937518 -10.051537 -4.647991 32.149358 2.533287 -0.000004 0.000023
0.017399 0.989811 0.612170 -2.390713 -55.222349 -6.974646 9.722745 -0.106947 -1.553388 2.739621 0.036960 -1.451632 2.739858 0.013232 -1.452962 2.354911 6.195406 1.487030 -13.520293 33.436097 0.731005 0.604184 -12.190354 -9.520727 -11.303540 6.658082 -37.924679 0.000013 -44.892957 0.000005 15.505052 -14.391179 14.590687 0.621957 14.195997 9.355410 13.549867 27.743097 58.248691 -179.999961 79.086905 179.999949 5.920060 3.358993 -10.088295 -49.810531 11.094763 33.766808 63.581344 10.485998 -2.197857 -13.450613 12.203618 -9.891182 -2.287857 -0.000001 0.000006 -17.268225 -20.886082 -31.378828 38.214558 -0.257168 -0.449869 -16.143002 -5.615115 28.071991 1.505449 0.000029 -0.000000
0.017399 0.991685 0.612170 -2.824547 -56.757579 -7.075651 9.942639 -0.013321 -1.341955 2.911752 0.062375 -1.315623 2.912217 0.039955 -1.316903 2.272613 6.382165 1.383848 -12.703538 34.592767 -0.316217 0.597447 -12.326636 -9.612274 -13.026768 6.508777 -39.058451 0.000010 -42.336861 -0.000004 16.330124 -15.681070 15.009878 0.580691 14.737192 9.802856 14.104883 27.730175 57.121016 -179.999930 79.359148 179.999930 5.750508 3.672363 -10.626807 -49.351562 10.788966 34.164879 61.204719 10.577719 -1.506470 -10.596688 10.578612 -10.896598 -1.629038 -0.000001 -0.000003 -20.155187 -19.491191 -31.196650 42.059038 1.332465 -0.168225 -17.813727 -5.675746 26.574906 0.451818 -0.000014 0.000000
0.017399 0.997332 0.612170 -3.087099 -57.826385 -6.795463 10.244750 -0.538378 -1.790404 3.021886 -0.110745 -1.221842 3.019834 -0.128579 -1.221960 2.207157 6.636925 1.348765 -12.087409 35.999815 -0.879333 0.619456 -11.439646 -9.290126 -13.511724 5.938747 -39.923334 0.000007 -41.486229 -0.000009 16.783146 -16.009894 15.532714 0.505976 16.107657 10.470614 14.700216 27.401544 56.160883 179.999971 79.481826 -179.999989 5.637366 4.245636 -11.150677 -48.072440 10.692348 33.884121 58.243732 10.609413 -1.070738 -7.971665 9.491414 -12.239480 -1.128342 -0.000003 0.000001 -21.302523 -17.953200 -29.537122 43.858444 0.767694 -1.182314 -18.571429 -5.755728 26.068628 0.615874 0.000024 0.000009
0.017399 1.003540 0.612170 -3.212252 -58.582082 -6.184376 10.456194 -0.823254 -1.887445 3.118456 -0.198619 -1.330691 3.115472 -0.218438 -1.330265 2.289226 6.708124 1.303022 -11.614790 36.475368 -1.425897 0.606620 -11.801321 -9.483679 -13.032468 5.200033 -38.675920 0.000017 -41.559353 0.000006 16.198202 -15.776078 16.319486 0.496586 16.276485 10.546858 14.343072 27.816995 56.677116 179.999966 80.454118 -179.999979 6.090965 4.965081 -11.246176 -46.486792 10.939355 33.058989 55.549100 10.567313 -0.676122 -7.072893 5.714014 -13.201134 -0.594618 0.000001 -0.000004 -22.399410 -17.419731 -29.377254 44.633545 1.078656 -1.216600 -18.181467 -5.622496 25.736941 0.914731 -0.000010 0.000009
0.017399 1.008347 0.612170 -3.232570 -59.193198 -5.428125 10.438038 -0.702304 -1.627384 3.128593 -0.150406 -1.521549 3.126235 -0.176444 -1.521519 2.379975 6.681816 1.187513 -10.725425 36.412848 -2.180930 0.569700 -12.724929 -9.955691 -12.906543 4.079368 -36.849594 0.000008 -40.752454 0.000001 15.115469 -15.927408 16.610312 0.542712 15.537132 10.162658 13.710432 28.548917 57.935041 -179.999936 81.689953 179.999939 6.664641 5.488193 -11.198823 -45.235061 11.645979 32.291268 53.064311 10.404305 -0.439746 -5.899538 4.422732 -13.032031 -0.098365 0.000000 -0.000002 -23.243926 -16.950870 -29.681078 45.173158 1.562778 -0.986725 -18.223641 -5.531556 25.240328 0.804822 -0.000000 0.000002
0.017399 1.011972 0.612170 -3.079011 -59.639481 -4.641780 10.188216 -0.610903 -1.305643 3.073094 -0.122905 -1.544822 3.071296 -0.150962 -1.544967 2.473298 6.726486 0.918399 -9.342590 36.563276 -3.123314 0.541734 -13.222629 -10.264097 -13.254968 3.306942 -36.081053 0.000012 -39.998292 0.000011 14.872508 -16.146187 16.589873 0.589000 14.924355 9.715585 13.777171 29.211124 58.403486 179.999930 82.543346 -179.999952 6.795991 5.719997 -11.470153 -44.367217 12.358997 31.764008 50.995094 10.448210 -0.293553 -4.146937 5.429799 -13.024494 -0.003148 -0.000010 -0.000001 -23.938221 -16.733997 -30.221214 45.522247 2.163416 -0.639030 -18.548342 -5.485432 24.716528 0.702521 0.000001 0.000002
0.017399 1.014669 0.612170 -2.891784 -60.125537 -3.987431 9.803548 -0.575680 -1.043913 2.992452 -0.121170 -1.445665 2.990713 -0.147494 -1.445732 2.578410 6.846594 0.686599 -7.921720 37.144408 -4.180124 0.539545 -13.112075 -10.293197 -13.806101 3.159304 -36.312370 0.000021 -39.970347 0.000018 15.412138 -16.155496 16.371719 0.595471 14.956000 9.646069 14.685878 29.360614 57.740612 179.999943 82.702494 -179.999957 6.475716 5.555079 -11.979723 -43.649478 12.932194 31.459932 49.559221 10.415126 -0.271559 -2.975684 6.089237 -13.215453 0.001826 -0.000004 0.000001 -24.573974 -16.747758 -30.880962 45.645659 2.984971 -0.262128 -18.736009 -5.415601 24.213149 0.729527 0.000007 -0.000002
0.017399 1.016655 0.612170 -2.703801 -60.694344 -3.455520 9.454527 -0.610299 -0.837173 2.874264 -0.142529 -1.308682 2.872145 -0.166181 -1.308623 2.623293 7.010988 0.541484 -6.773469 37.961685 -5.017366 0.545322 -12.702289 -10.241891 -14.169917 3.586992 -36.761069 0.000008 -40.782604 0.000008 16.082168 -15.875217 16.028036 0.570508 15.549314 9.883990 15.695742 28.772971 57.103788 179.999902 82.393581 -179.999926 6.594482 4.829175 -11.956180 -43.011167 13.398464 31.226117 48.440687 10.238735 -0.253342 -1.932784 6.900560 -13.422663 0.051019 0.000002 -0.000003 -24.987258 -16.550078 -31.117892 45.667129 3.460080 -0.227592 -18.905848 -5.375575 23.878981 0.752460 -0.000024 0.000006
0.017399 1.018468 0.612170 -2.593088 -61.164090 -3.033285 9.295055 -0.635669 -0.688750 2.792426 -0.156800 -1.205335 2.790034 -0.178812 -1.205219 2.568968 7.117848 0.496045 -6.210434 38.494961 -5.437629 0.541848 -12.631442 -10.284765 -14.300936 4.295191 -36.757849 0.000010 -42.258937 0.000000 16.401904 -15.221780 15.656897 0.561630 15.867480 9.956888 16.023714 28.062226 57.382221 -179.999943 82.218378 179.999934 7.008532 3.707006 -12.011675 -42.320286 13.746938 30.783234 47.386045 9.946363 -0.132392 -0.956269 7.879311 -13.491476 0.100007 -0.000006 -0.000004 -25.125923 -16.186262 -31.003516 45.534340 3.358182 -0.535318 -18.670575 -5.366525 24.070853 0.845735 -0.000017 -0.000004
0.017399 1.020150 0.612170 -2.737498 -61.479012 -2.802424 9.327976 -0.627117 -0.614930 2.801098 -0.155309 -1.177989 2.798723 -0.177205 -1.177899 2.481385 7.151240 0.485832 -6.306752 38.668103 -5.539007 0.527068 -12.899758 -10.443125 -14.358106 5.002954 -36.199533 0.000022 -43.890881 0.000020 16.426505 -14.450277 15.288896 0.568032 15.863395 9.893652 15.877469 27.311013 58.195372 179.999956 82.137674 -179.999967 6.427610 2.928593 -12.168219 -41.537783 14.037534 30.183615 46.543691 9.792400 0.026492 -0.333713 8.615475 -13.547170 0.100163 -0.000008 -0.000005 -25.092319 -15.938024 -31.014864 45.255788 3.148046 -0.895356 -18.046132 -5.343318 24.571672 0.945616 -0.000017 0.000001
