HIERARCHY
ROOT Hips
{
  OFFSET 0 1.1673769999999999 0
  CHANNELS 6 Xposition Yposition Zposition Xrotation Yrotation Zrotation
  JOINT Spine
  {
    OFFSET 0.000003812944337411511 0.10717500000681812 -0.009311
    CHANNELS 3 Xrotation Yrotation Zrotation
    JOINT Spine1
    {
      OFFSET 0 0.1058532983696241 -0.004285186608692496
      CHANNELS 3 Xrotation Yrotation Zrotation
      JOINT Spine2
      {
        OFFSET -8.470329472543003e-22 0.10599345671141647 -0.007812688101110094
        CHANNELS 3 Xrotation Yrotation Zrotation
        JOINT Neck
        {
          OFFSET -8.470329472543003e-22 0.26240299999999994 -0.04488100000000002
          CHANNELS 3 Xrotation Yrotation Zrotation
          JOINT Head
          {
            OFFSET -4.235164736271502e-22 0.17466899999999996 0.05625600000000003
            CHANNELS 3 Xrotation Yrotation Zrotation
            End Site
            {
              OFFSET -4.235164736271502e-22 0.10756799999999966 0.021070000000000005
            }
          }
        }
        JOINT LeftShoulder
        {
          OFFSET 0.10574399999999999 0.23009199999999996 -0.07323000000000002
          CHANNELS 3 Xrotation Yrotation Zrotation
          JOINT LeftArm
          {
            OFFSET 0.14878212914559852 -0.04653266654569688 -0.030693304075147546
            CHANNELS 3 Xrotation Yrotation Zrotation
            JOINT LeftForeArm
            {
              OFFSET 0.24109000000000003 2.220446049250313e-16 -5.551115123125783e-17
              CHANNELS 3 Xrotation Yrotation Zrotation
              JOINT LeftHand
              {
                OFFSET 0.316792 0 -1.1102230246251565e-16
                CHANNELS 3 Xrotation Yrotation Zrotation
                End Site
                {
                  OFFSET 0.06265729429771016 -0.10569948639925819 0.03859412819617963
                }
              }
            }
          }
        }
        JOINT RightShoulder
        {
          OFFSET -0.10574399999999999 0.23009099999999982 -0.07323000000000002
          CHANNELS 3 Xrotation Yrotation Zrotation
          JOINT RightArm
          {
            OFFSET -0.14878040829228295 -0.04653159475972379 -0.030692917709113934
            CHANNELS 3 Xrotation Yrotation Zrotation
            JOINT RightForeArm
            {
              OFFSET -0.24109000000000003 -6.661338147750939e-16 -2.7755575615628914e-17
              CHANNELS 3 Xrotation Yrotation Zrotation
              JOINT RightHand
              {
                OFFSET -0.31679300000631333 -8.881784197001252e-16 -5.551115123125783e-17
                CHANNELS 3 Xrotation Yrotation Zrotation
                End Site
                {
                  OFFSET -0.06265795211397429 -0.10570764472283312 0.03859362014678265
                }
              }
            }
          }
        }
      }
    }
  }
  JOINT LeftUpLeg
  {
    OFFSET 0.12297511767165623 -0.06742078536803264 -0.010003
    CHANNELS 3 Xrotation Yrotation Zrotation
    JOINT LeftLeg
    {
      OFFSET 0 -0.457033849483632 0.010304509991859542
      CHANNELS 3 Xrotation Yrotation Zrotation
      JOINT LeftFoot
      {
        OFFSET 0 -0.500280623664138 -0.036905110570505176
        CHANNELS 3 Xrotation Yrotation Zrotation
        JOINT LeftToeBase
        {
          OFFSET 0.025950805788189563 -0.14255151365608373 0.19507593811975638
          CHANNELS 3 Xrotation Yrotation Zrotation
          End Site
          {
            OFFSET 0.010732117804750613 -0.000035441498015504746 0.11362327680684622
          }
        }
      }
    }
  }
  JOINT RightUpLeg
  {
    OFFSET -0.12297488233495055 -0.0674172146317622 -0.010003
    CHANNELS 3 Xrotation Yrotation Zrotation
    JOINT RightLeg
    {
      OFFSET 0.00000159348816348992 -0.45703784846455486 0.01030460015485039
      CHANNELS 3 Xrotation Yrotation Zrotation
      JOINT RightFoot
      {
        OFFSET -0.0000015934881634621645 -0.5002806236608007 -0.03690511058134042
        CHANNELS 3 Xrotation Yrotation Zrotation
        JOINT RightToeBase
        {
          OFFSET -0.0259497668227143 -0.14255297441554501 0.19507500887383716
          CHANNELS 3 Xrotation Yrotation Zrotation
          End Site
          {
            OFFSET -0.010733201844058626 -0.000035030229497263656 0.11362417898958707
          }
        }
      }
    }
  }
}
MOTION
Frames: 73
Frame Time: 0.03333333333333333
0.065553 1.098894 0.104734 -0.636803 1.311894 -1.551221 3.519194 4.512467 0.551963 5.598810 10.668794 -0.836951 5.579209 10.595868 -1.843312 7.783705 -4.458764 3.523596 -0.307334 -2.615496 -5.585631 -3.063751 9.535869 -10.840910 3.887309 -16.245296 -49.340399 -0.000006 -50.528536 -0.000008 20.289932 -18.764959 -1.602925 -14.966732 19.498204 9.062586 -62.958161 17.065662 46.265827 0.000005 10.330500 -0.000004 -48.929944 -3.419002 -5.290084 -31.413100 5.592493 12.067596 31.612237 -9.558064 -2.409369 0.779070 -3.341169 -3.200752 -2.462369 -0.000229 0.016110 6.771874 -20.311592 -5.823874 24.821746 -9.830479 5.909892 -18.742333 -12.635724 10.803245 -9.026064 0.032936 -0.756980
0.065553 1.089220 0.104734 -1.184678 2.609765 -1.286232 4.053418 5.033270 0.386103 6.107866 12.206422 -0.867551 6.116123 12.100262 -1.918677 5.954577 -5.658112 1.998476 -3.872520 -9.410388 -3.121303 -2.832745 9.250621 -12.251075 0.142728 -22.252369 -50.019157 0.000017 -50.387025 0.000023 19.802893 -21.432903 -1.519637 -9.368313 22.158757 8.573495 -52.977020 31.018087 39.061288 0.000001 4.399657 0.000006 -43.017938 -20.176932 6.433521 -32.760977 4.974028 11.632668 33.839668 -9.374769 -1.972538 0.377053 -4.510107 -3.406908 -2.302244 -0.000585 0.055587 6.486391 -20.244915 -5.679086 26.927082 -9.671007 6.235400 -22.017984 -13.344528 9.749396 -7.006629 0.013417 -1.461055
0.065553 1.080269 0.104734 -0.809066 4.373577 -1.187588 4.208811 5.503452 0.304581 6.292364 13.657735 -0.958002 6.350545 13.508557 -2.077590 3.980191 -6.510312 0.256074 -7.471570 -14.284762 -1.666214 -2.374594 8.815869 -13.398331 -2.787676 -27.598344 -50.425296 -0.000009 -51.794983 -0.000025 20.154325 -22.329163 -1.630756 -5.275047 24.122121 8.171264 -39.482163 40.440957 32.119033 0.000002 1.400669 -0.000000 -27.753818 -24.599687 20.659227 -34.830148 4.107166 10.869046 35.733739 -9.240637 -1.453117 0.038316 -5.714155 -3.550146 -2.029715 -0.000963 0.124395 5.532148 -19.745611 -4.987529 28.632689 -9.263823 6.266574 -24.758072 -15.628738 8.638506 -4.702616 0.006522 -0.905711
0.065553 1.073857 0.104734 -0.080249 6.398075 -1.152472 4.212910 5.680832 0.223747 6.185495 14.189048 -1.172269 6.261303 14.012191 -2.342722 2.575180 -6.980886 -1.122742 -10.820871 -16.201961 -1.318202 -2.109790 8.423642 -13.815958 -3.720947 -29.904330 -50.122226 0.000005 -54.671727 -0.000006 21.272230 -21.552443 -2.087397 -3.729736 26.010449 11.036408 -30.723373 43.933349 32.378750 -0.000003 1.701808 -0.000002 -13.105715 -19.591119 28.345796 -36.769992 3.466388 10.078622 36.646474 -8.919867 -1.184671 0.168124 -7.362183 -3.501949 -1.748301 -0.001308 0.168533 4.156320 -19.441395 -4.305353 30.251343 -8.807325 6.245636 -26.617888 -18.196334 7.668601 -3.428454 0.000414 -0.071855
0.065553 1.068206 0.104734 1.563196 8.408840 -1.246079 3.945743 5.771047 0.052807 6.068666 14.380092 -1.467929 6.202380 14.150809 -2.725903 1.285312 -7.088417 -2.667424 -14.308009 -16.746042 -1.095994 -1.813989 8.292415 -13.770321 -4.362467 -30.575250 -50.219185 0.000022 -58.453902 0.000026 21.713828 -20.082766 -2.797481 -3.905910 27.292122 15.951195 -18.540379 47.734607 30.697074 0.000003 4.490928 0.000011 -3.250775 -15.372465 30.200373 -39.358022 2.899500 9.160155 37.393446 -8.766040 -0.972117 0.229867 -8.716206 -3.378717 -1.473611 -0.001895 0.196217 2.008492 -19.621642 -4.004838 31.768565 -8.644959 6.558148 -28.281569 -19.911658 6.495112 -2.949643 -0.001790 0.398808
0.065553 1.062666 0.104734 3.463368 10.716338 -1.782076 4.024718 5.880242 -0.048506 6.426554 14.504656 -1.624795 6.618858 14.222400 -2.901938 0.212252 -7.070928 -3.686614 -18.111383 -16.147515 -1.997927 -1.592637 8.262737 -13.460543 -4.396842 -30.689069 -50.195603 -0.000032 -62.658312 -0.000037 20.383104 -18.447024 -3.302298 -3.945684 27.266940 20.745267 -16.250548 49.916515 32.801558 0.000008 7.196696 -0.000017 2.857516 -14.032295 32.433336 -42.328954 2.526963 8.626127 38.293692 -9.001347 -1.064713 0.361967 -10.274806 -2.867561 -1.299097 -0.001799 0.183716 0.314238 -19.696398 -3.251989 32.439208 -8.354211 7.131890 -29.879198 -21.991275 5.053692 -2.375719 -0.002578 0.666518
0.065553 1.056727 0.104734 4.700095 12.813470 -2.634480 4.256657 5.984445 -0.202510 7.057894 14.628543 -1.740914 7.328140 14.281091 -3.004785 -0.414079 -6.883763 -4.063279 -20.917884 -14.573542 -2.714309 -1.379713 8.480181 -13.556875 -3.480521 -30.037181 -49.449311 0.000060 -66.873645 0.000061 17.956771 -16.636795 -3.344562 -3.814661 27.210056 24.967822 -16.029348 51.636297 35.127444 -0.000003 8.308518 0.000006 8.750477 -12.197373 34.858541 -44.790645 1.947892 8.064916 39.791069 -9.135287 -0.720416 0.106920 -11.522201 -2.519144 -1.132201 -0.001607 0.143441 -0.432554 -19.427906 -1.998191 32.760279 -8.047622 7.560323 -31.651941 -24.264199 3.221665 -1.698624 -0.003994 0.831265
0.065553 1.053557 0.104734 5.657684 13.868321 -3.268288 4.391668 6.045189 -0.340107 7.621396 14.486025 -1.863271 7.942190 14.096345 -3.057807 -0.474835 -6.612224 -3.978555 -22.460093 -12.652324 -3.301597 -1.080407 8.903376 -13.886138 -2.018378 -27.980228 -48.622749 0.000006 -70.436879 -0.000001 16.322037 -14.718460 -3.001422 -4.187196 26.756913 28.346241 -15.628627 53.569612 38.411423 0.000014 8.337257 -0.000020 16.062317 -8.769099 35.103621 -46.332632 1.448418 7.504786 40.738425 -9.267684 -0.250219 -0.227655 -11.689933 -2.471634 -1.009682 -0.001302 0.087734 -1.145636 -19.026128 -1.114710 32.950907 -7.905433 7.557625 -32.580713 -25.883579 2.121120 -1.501073 -0.005407 0.967182
0.065553 1.050299 0.104734 6.666219 14.096881 -3.920745 4.585562 6.238409 -0.606394 8.294022 14.721559 -2.172357 8.684461 14.279762 -3.304842 -0.205717 -6.412676 -3.484530 -23.016145 -11.395988 -4.074374 -0.728989 9.499705 -13.862619 -1.023200 -25.890471 -48.802043 -0.000002 -72.788790 0.000003 16.435163 -12.860187 -2.518970 -4.383688 26.167360 30.880862 -15.927389 55.206568 41.815541 0.000027 8.476478 0.000013 22.642642 -5.944930 34.280435 -47.922458 1.069841 7.380581 41.981891 -9.390797 0.008770 -0.840614 -11.517305 -2.355161 -0.929971 -0.000805 0.062543 -2.453153 -18.782837 -0.747406 33.971889 -7.932820 7.439643 -32.968041 -26.577306 1.872564 -1.987052 -0.006583 1.066768
0.065553 1.048726 0.104734 7.055184 14.196713 -4.097811 4.948797 6.352159 -0.868864 9.245206 14.791369 -2.566890 9.683420 14.305743 -3.623620 0.561005 -6.339951 -2.663654 -23.009788 -10.650393 -4.313173 -0.483985 10.067600 -13.630974 -0.412027 -23.783101 -49.571564 0.000008 -73.928481 0.000014 17.338043 -11.235240 -2.028455 -4.439397 25.223825 32.468011 -15.888271 56.875013 43.811451 0.000006 9.473230 0.000010 26.685686 -4.332418 34.226463 -48.504340 0.904211 6.988868 42.815423 -9.375993 0.222927 -1.416002 -11.307540 -2.204959 -0.872173 -0.000920 0.073394 -3.006233 -19.173708 -1.195838 34.705592 -8.048108 7.620406 -33.000008 -26.217798 1.901260 -2.462264 -0.002675 0.682039
0.065553 1.049523 0.104734 7.546380 14.043070 -4.408242 5.231831 6.322399 -0.972743 10.041438 14.483055 -2.879002 10.482060 13.993408 -3.825888 1.279171 -6.305204 -1.582358 -22.882622 -9.931123 -4.613563 -0.416630 10.556359 -13.324625 0.373500 -21.130395 -50.780204 0.000016 -74.277001 0.000024 17.615262 -9.910032 -1.386934 -4.263004 24.026884 32.796958 -16.637338 58.879208 46.746655 0.000026 11.236048 -0.000001 29.807569 -2.899849 34.227606 -48.851402 0.677088 6.811470 42.965163 -9.407630 0.434791 -1.664112 -10.925194 -2.200000 -0.858701 -0.000966 0.077851 -3.125352 -19.120234 -1.041577 34.200787 -8.150811 7.626865 -32.870043 -26.162084 1.506532 -2.416539 -0.000667 0.340994
0.065553 1.052415 0.104734 8.049956 13.613918 -4.827102 5.516728 6.209555 -1.071014 10.785750 13.973789 -3.148754 11.209191 13.500013 -3.964737 2.051696 -6.312688 -0.365056 -23.112318 -8.950525 -4.445113 -0.392655 10.935481 -13.006793 1.349608 -18.297915 -52.304640 0.000052 -74.174013 0.000033 17.223820 -8.933140 -0.645769 -3.949878 22.789440 32.498012 -18.130865 61.499153 50.076128 -0.000010 13.177855 0.000008 33.412224 -1.169774 33.364943 -48.871917 0.282607 6.563391 42.676129 -9.462730 0.975625 -1.854671 -10.081691 -2.486689 -0.828271 -0.000958 0.078552 -2.820606 -18.657053 -0.522342 32.737970 -8.216762 7.486832 -32.213770 -26.305312 1.367333 -2.272639 -0.000372 0.255567
0.065553 1.055920 0.104734 8.352132 12.788636 -5.018189 5.891219 6.078214 -1.243581 11.623840 13.496410 -3.509601 12.027705 13.040770 -4.194388 2.659544 -6.365051 0.920233 -23.314918 -8.277410 -4.651299 -0.406617 11.148850 -12.555633 1.749246 -15.621827 -54.274039 0.000040 -73.639248 0.000025 17.324696 -8.395079 -0.146226 -3.713943 21.894462 32.083349 -19.884641 63.243744 52.587940 -0.000006 15.010160 -0.000005 36.461471 0.766462 32.137073 -48.520181 0.015369 6.391984 42.260397 -9.526079 1.426524 -2.129178 -8.939733 -2.748020 -0.758763 0.000315 -0.023978 -2.620048 -18.150164 -0.290553 31.555534 -8.376135 7.089971 -31.125694 -26.229301 1.866731 -2.481591 -0.000391 0.262345
0.065553 1.059456 0.104734 8.474006 11.728706 -5.024902 6.291854 5.944128 -1.470076 12.467883 13.090172 -3.975788 12.858284 12.645267 -4.545730 3.251463 -6.457512 2.181256 -23.566536 -7.735815 -4.864107 -0.446318 11.209159 -12.025206 1.644821 -13.226747 -56.354846 0.000057 -72.587956 0.000046 18.283781 -8.166900 0.083126 -3.633931 21.633244 31.618728 -20.220128 64.748896 53.015152 -0.000017 17.043499 -0.000012 37.846602 2.760461 31.100702 -47.989383 -0.080294 6.365621 41.856739 -9.533532 1.640898 -2.351733 -7.796190 -2.870469 -0.770524 0.000402 -0.030674 -2.591683 -17.801238 -0.334074 30.815838 -8.662152 6.573489 -30.025855 -25.883252 2.351344 -2.865221 0.000007 0.043782
0.065553 1.063447 0.104734 8.552100 10.403834 -5.114573 6.622019 5.797686 -1.611086 13.153992 12.656495 -4.287471 13.526879 12.233494 -4.742391 3.830485 -6.561582 3.261897 -23.766457 -7.376976 -4.961334 -0.505464 11.240012 -11.640884 1.709610 -11.574955 -58.181868 0.000002 -71.040222 -0.000021 18.792447 -7.959744 0.314224 -3.575902 21.551244 30.938860 -18.097735 66.034287 51.026388 -0.000001 19.640451 -0.000002 38.127541 4.451614 30.158105 -47.389720 -0.141288 6.580489 41.415132 -9.542016 1.771958 -2.559893 -6.562960 -2.945086 -0.790744 0.000426 -0.032561 -2.586607 -17.518210 -0.391542 30.077442 -8.980388 6.152203 -28.829444 -25.447299 2.624921 -3.436233 -0.000039 0.000001
0.065553 1.066683 0.104734 8.551240 8.918904 -5.224539 6.901513 5.641450 -1.715788 13.721138 12.271412 -4.504490 14.080008 11.873829 -4.843017 4.290397 -6.688049 4.243142 -23.921937 -7.141172 -5.068528 -0.531356 11.160474 -11.396797 1.836280 -10.841998 -59.456731 0.000016 -69.112027 0.000006 17.850048 -7.740140 0.430177 -3.402410 21.265791 30.018434 -16.020117 66.718879 48.930828 -0.000012 22.507066 0.000010 38.435453 5.535952 29.037814 -46.857084 -0.197577 6.874402 41.251445 -9.549504 1.887018 -2.891770 -5.243821 -2.966856 -0.807614 0.000515 -0.039665 -2.768981 -17.269754 -0.669481 29.789889 -9.226219 5.825482 -27.533075 -24.798472 3.285653 -4.179303 0.000018 0.000003
0.065553 1.069449 0.104734 8.482690 7.288739 -5.171827 7.069725 5.506979 -1.802626 14.029118 11.960218 -4.643800 14.370095 11.581613 -4.926374 4.605975 -6.837892 5.097003 -24.293770 -6.835006 -5.062043 -0.534966 11.009869 -11.271465 1.779181 -10.813970 -60.124627 0.000007 -66.971202 0.000022 16.557956 -7.728783 -0.051042 -3.241954 21.008739 29.323646 -14.659391 67.045520 47.241312 0.000001 24.934941 -0.000001 39.104271 5.973772 27.676239 -46.272210 -0.175086 7.106336 41.167569 -9.555390 1.951525 -3.273412 -3.746172 -2.967888 -0.828645 0.000548 -0.042024 -3.147857 -17.358378 -1.493405 29.927016 -9.441988 5.704269 -26.207625 -23.312691 4.308139 -4.766324 -0.000003 -0.000004
0.065553 1.071973 0.104734 8.409949 5.402613 -5.112611 7.119920 5.374196 -1.825013 14.074235 11.680974 -4.690400 14.392057 11.317751 -4.972513 4.762378 -6.965107 5.943261 -24.471864 -6.422225 -5.285158 -0.551912 10.907592 -11.302854 1.347333 -11.018355 -60.286445 0.000038 -64.822619 0.000030 16.533772 -7.975169 -1.123465 -3.189766 20.954582 28.923903 -12.754439 67.054569 44.804660 0.000018 26.552298 -0.000008 39.732276 5.942390 26.126974 -45.710095 -0.132205 7.444454 41.160500 -9.565841 1.973047 -3.708356 -2.077768 -2.964020 -0.840311 0.000594 -0.045748 -3.616241 -17.446721 -2.330614 30.059323 -9.729706 5.501525 -24.979219 -21.554046 5.273401 -4.968508 -0.002960 0.717577
0.065553 1.073638 0.104734 8.203484 3.269888 -5.018116 7.179561 5.267130 -1.882625 14.126758 11.494140 -4.793360 14.429495 11.135707 -5.085663 4.882342 -7.037578 6.706218 -24.702012 -5.592899 -5.501442 -0.532540 10.858282 -11.448280 0.854551 -11.807293 -60.120054 -0.000029 -62.764395 -0.000042 17.500677 -8.374974 -2.094050 -3.193029 21.142051 28.575180 -11.076194 66.939935 42.407563 -0.000020 27.484150 0.000004 39.949994 5.912217 24.401696 -45.168888 -0.034692 7.915816 41.411334 -9.572757 1.922610 -4.223819 -0.305129 -2.938456 -0.887876 0.000584 -0.044418 -4.172937 -17.441126 -3.182370 30.398613 -9.996758 5.210920 -24.043963 -19.735720 6.092217 -5.109140 -0.010306 1.336731
0.065553 1.074269 0.104734 7.953425 1.094195 -4.845631 7.222998 5.160437 -1.988600 14.131038 11.353042 -4.960571 14.422359 10.994703 -5.266157 5.018539 -7.093930 7.480201 -24.602990 -4.626419 -5.883030 -0.569084 10.726772 -11.596726 0.335667 -12.681708 -59.840136 -0.000012 -60.653075 0.000021 17.871161 -8.912205 -2.498101 -3.297245 21.520589 28.404053 -9.568434 66.471604 40.122079 0.000004 28.061667 -0.000013 39.844519 6.316976 22.527399 -44.717079 0.122316 8.356525 41.815507 -8.737236 1.863912 -4.795850 0.632369 -2.994009 -0.910987 0.000568 -0.042509 -4.949815 -17.439904 -4.191511 31.072873 -10.242517 4.948393 -23.440831 -17.909240 6.775319 -5.136605 -0.016258 1.677401
0.065553 1.074879 0.104734 7.542111 -1.224611 -4.774799 7.269362 5.069388 -2.055106 14.141026 11.239346 -5.037574 14.421892 10.885628 -5.349373 5.114044 -7.172773 8.301464 -24.432347 -3.657819 -6.459878 -0.620680 10.540354 -11.881676 -0.525991 -13.885323 -59.425402 0.000022 -58.275350 0.000005 17.063316 -9.729500 -2.443674 -3.415428 21.986295 28.351362 -7.442542 65.526052 37.023733 0.000017 28.447531 -0.000002 39.728313 6.841066 20.480555 -44.170474 0.418402 9.155097 42.206332 -7.109447 1.634503 -5.341074 0.636064 -3.081225 -0.928552 0.000577 -0.042687 -5.677056 -17.376777 -5.120888 31.806475 -10.435043 4.746736 -22.779353 -16.250246 7.423801 -5.162921 -0.026417 2.138100
0.065553 1.074906 0.104734 7.087429 -3.410818 -4.828528 7.332631 4.982259 -2.068960 14.175733 11.166940 -5.053412 14.451850 10.812468 -5.375163 5.147171 -7.241907 9.099037 -24.318661 -2.613007 -7.128019 -0.613170 10.347224 -12.291757 -1.894499 -15.202567 -59.061728 0.000020 -55.634105 0.000029 16.021803 -10.774490 -2.102588 -3.453332 22.285000 28.050108 -5.904105 64.465880 34.528592 -0.000002 28.493398 0.000004 39.580268 6.723198 18.102843 -43.720213 0.632899 9.931838 42.736545 -5.563698 1.484904 -5.861301 0.635204 -3.217917 -0.946778 0.000591 -0.043752 -6.406839 -17.340380 -6.048264 32.606736 -10.531813 4.611509 -21.837846 -14.749570 8.735830 -4.935608 -0.092065 3.998433
0.065553 1.074562 0.104734 6.468481 -5.350468 -4.827943 7.450585 4.894569 -2.143444 14.278317 11.113007 -5.078789 14.550812 10.753043 -5.417752 5.241785 -7.347451 9.951459 -24.039117 -1.707310 -7.849258 -0.622258 10.019403 -12.510205 -3.534909 -16.563027 -58.991905 0.000003 -52.942809 -0.000004 15.855367 -11.758776 -1.535502 -3.476679 22.354282 27.716932 -5.961930 63.075689 33.576480 -0.000046 28.061802 0.000054 38.881098 5.918031 15.481079 -43.143319 0.884799 10.522525 43.246158 -4.209725 1.391425 -6.308927 0.639798 -3.376444 -0.962355 0.000599 -0.044116 -7.326249 -17.413366 -7.019241 34.010534 -10.626933 4.692578 -21.658678 -13.725051 8.387242 -5.296350 -0.063143 3.305603
0.065553 1.073954 0.104734 5.995069 -7.110718 -4.814544 7.568643 4.803131 -2.187559 14.345442 11.102727 -5.114519 14.614432 10.736501 -5.478300 5.378322 -7.451780 10.782367 -23.732392 -0.819296 -8.405392 -0.636066 9.676022 -12.799957 -5.316340 -18.262980 -58.674180 -0.000017 -50.426756 0.000013 16.725516 -12.650187 -0.940003 -3.479657 22.128410 27.195424 -7.068890 61.350313 33.643840 0.000017 27.331633 0.000003 37.201814 5.063180 13.058996 -42.767990 1.139903 11.031489 43.683758 -3.027051 1.273189 -6.632587 0.661520 -3.496636 -0.961897 0.000637 -0.047155 -8.412920 -17.563914 -8.147292 35.374351 -10.727183 4.848400 -21.071138 -12.753656 8.898319 -5.333339 -0.101900 4.203540
0.065553 1.073704 0.104734 5.329660 -8.683954 -4.934766 7.690709 4.703847 -2.138149 14.434372 11.018865 -4.994420 14.695621 10.656622 -5.375839 5.489994 -7.557296 11.604518 -23.352501 0.000711 -8.859467 -0.696902 9.313555 -13.072698 -7.025490 -19.880675 -58.431657 -0.000006 -48.197748 0.000018 17.839014 -13.731708 -0.447496 -3.489387 21.736943 26.745944 -7.630136 59.366440 33.225335 -0.000012 26.541862 -0.000014 34.750802 4.649089 11.123618 -42.206788 1.392821 11.626061 43.992060 -2.130497 1.158542 -6.843610 0.677464 -3.610830 -0.951290 0.000693 -0.051478 -9.070330 -17.739185 -9.042489 36.389937 -10.788324 5.145676 -20.448351 -12.327268 9.206209 -5.256774 -0.132661 4.799054
0.065553 1.072961 0.104734 4.773096 -10.230509 -4.933791 7.798153 4.583253 -2.136246 14.486423 10.894813 -4.955260 14.734268 10.542528 -5.348466 5.583749 -7.630058 12.436461 -22.979695 0.920947 -9.339818 -0.795597 8.988209 -13.301987 -8.410740 -21.412191 -57.890477 0.000030 -46.211871 0.000026 18.230078 -15.033347 0.018947 -3.532377 21.249319 26.329868 -8.254323 57.566683 33.062099 -0.000014 25.657858 0.000008 32.022756 4.538552 9.675538 -41.790267 1.677040 12.189202 44.288850 -1.193673 0.992637 -6.983284 0.696536 -3.779221 -0.948604 0.000731 -0.054439 -9.809751 -17.759677 -9.821709 37.312862 -10.776372 5.413855 -20.071243 -12.637627 9.370501 -4.937736 -0.130369 4.757842
0.065553 1.071776 0.104734 4.232018 -11.735252 -4.821709 7.891530 4.478130 -2.123428 14.509422 10.797625 -4.896884 14.744086 10.461191 -5.292538 5.711902 -7.676648 13.236287 -22.438354 1.864744 -10.031835 -0.840171 8.578026 -13.538758 -9.740068 -23.157503 -57.274656 -0.000007 -44.321314 -0.000019 17.694616 -16.229934 0.435225 -3.464223 20.551687 25.830518 -9.486499 55.515129 33.510928 0.000010 24.559850 -0.000020 29.177742 4.200353 8.716656 -41.405930 1.967507 12.632864 44.578807 -0.215862 0.834940 -7.079518 0.722017 -3.998733 -0.934785 0.000818 -0.061063 -10.483708 -17.590379 -10.491699 38.069474 -10.672454 5.548228 -19.937028 -13.250874 9.564655 -4.457749 -0.098562 4.136057
0.065553 1.070262 0.104734 3.623378 -13.210348 -4.708186 7.968230 4.386289 -2.051651 14.516419 10.708940 -4.771612 14.738367 10.394551 -5.160012 5.832987 -7.682557 13.918862 -21.749026 2.706125 -10.723827 -0.839247 8.171271 -13.852374 -11.079050 -24.904197 -56.651162 -0.000009 -42.431009 -0.000003 16.856551 -17.171340 0.752215 -3.314200 19.677494 25.213210 -10.845707 53.590001 34.199044 -0.000008 23.424285 0.000003 26.158251 3.337199 8.220888 -40.985323 2.233474 13.080672 44.896595 0.668458 0.700496 -7.156632 0.753642 -4.289284 -0.921785 0.000907 -0.068099 -10.949988 -17.226454 -10.963937 38.680234 -10.496089 5.481742 -20.105175 -13.345390 9.796583 -3.951908 -0.063164 3.309048
0.065553 1.068385 0.104734 3.067760 -14.510555 -4.530031 8.010735 4.265412 -1.968461 14.466093 10.559404 -4.637965 14.672089 10.271636 -5.014161 5.975295 -7.638138 14.554069 -21.135470 3.727913 -11.292040 -0.846222 7.766909 -14.107408 -12.243771 -26.542033 -55.967684 -0.000018 -40.610727 -0.000017 16.234175 -17.995671 1.102486 -3.169618 18.707371 24.631715 -11.591439 51.543999 34.609878 -0.000007 22.642164 0.000004 23.107975 1.939657 7.806181 -40.646656 2.496996 13.480990 45.213146 1.415428 0.520931 -7.188559 0.779982 -4.567347 -0.910310 0.000975 -0.073146 -11.283717 -16.868457 -11.479878 39.163650 -10.274216 5.375941 -20.580854 -12.430387 10.192680 -3.391201 -0.041164 2.671449
0.065553 1.066608 0.104734 2.376063 -15.612398 -4.430461 8.027944 4.073533 -1.844181 14.388703 10.222446 -4.403556 14.573998 9.967753 -4.761599 6.115632 -7.537530 15.203879 -20.512492 5.000300 -11.871808 -0.906870 7.341363 -14.200857 -13.419650 -27.390541 -55.694078 0.000006 -38.944015 -0.000006 15.702655 -18.841887 1.523859 -3.076989 17.690566 24.255607 -12.106802 49.119224 34.946367 0.000002 22.296767 -0.000020 20.394530 0.147886 6.813310 -40.210522 2.755186 13.891018 45.430496 1.988228 0.379278 -7.094156 0.798707 -4.849351 -0.902412 0.001051 -0.078820 -11.231557 -16.471198 -11.827819 39.310289 -10.004227 5.180218 -20.842944 -11.536623 11.293493 -2.695562 -0.038526 2.585127
0.065553 1.064995 0.104734 1.623565 -16.778253 -4.266859 8.018750 3.866181 -1.704356 14.294375 9.821736 -4.186199 14.459990 9.599317 -4.519617 6.277319 -7.380086 15.717355 -19.977915 6.374351 -12.385953 -0.944851 6.925331 -14.417943 -14.417744 -28.091361 -55.281046 -0.000026 -37.317250 -0.000025 15.143995 -19.777170 1.764915 -2.963810 16.631392 23.925556 -12.154166 47.326016 35.189818 0.000014 22.107329 -0.000025 18.373899 -1.617469 5.144593 -39.629926 3.066700 14.263259 45.532730 2.644339 0.201592 -6.952622 0.814117 -5.160489 -0.882901 0.001106 -0.083675 -11.264727 -16.105368 -12.296561 39.586255 -9.778613 4.937496 -21.184221 -10.292973 12.252362 -2.129696 -0.035700 2.305006
0.065553 1.063939 0.104734 0.915170 -17.908230 -4.189829 7.971150 3.670477 -1.493390 14.155839 9.406076 -3.896766 14.304284 9.216024 -4.204468 6.440728 -7.180675 16.125879 -19.351065 7.666132 -12.863654 -0.953463 6.496771 -14.673539 -15.831906 -28.194777 -55.415027 -0.000006 -35.608946 -0.000009 14.903936 -20.767702 1.694090 -2.805400 15.511078 23.536965 -12.231436 45.565859 35.578226 -0.000007 21.856875 -0.000003 17.144836 -2.927821 3.577576 -39.023096 3.300985 14.603642 45.476187 3.299341 0.131218 -6.726082 0.823591 -5.530628 -0.851035 0.001220 -0.093314 -11.370382 -15.726201 -12.511190 39.902152 -9.646828 4.697417 -21.595838 -9.576747 12.523181 -1.408512 -0.022284 1.781646
0.065553 1.063383 0.104734 0.198422 -19.166027 -4.240252 7.901559 3.482624 -1.253657 13.987807 8.994094 -3.561368 14.120789 8.835030 -3.848381 6.590556 -6.931655 16.446346 -18.712902 8.922839 -13.176730 -0.969226 6.110361 -14.779405 -17.338588 -27.815703 -55.986748 0.000013 -33.922075 0.000024 15.180680 -21.719713 1.610619 -2.675943 14.397367 23.352243 -12.531619 43.614314 35.991725 -0.000007 21.555372 -0.000003 16.416013 -4.054449 2.881792 -38.352156 3.564148 15.158569 45.301573 3.882564 0.041178 -6.463649 0.831368 -5.919052 -0.794713 0.001470 -0.116579 -11.653970 -15.180537 -12.492651 40.487247 -9.585411 4.330096 -21.811280 -8.788971 12.637413 -1.042108 -0.012071 1.447664
0.065553 1.062878 0.104734 -0.552906 -20.471649 -4.309227 7.847546 3.293445 -1.036677 13.849985 8.571450 -3.242571 13.969555 8.438622 -3.514302 6.758531 -6.616144 16.608345 -18.303287 10.252185 -13.322392 -1.007348 5.767605 -14.883633 -18.784211 -27.387891 -56.583767 0.000010 -32.438540 0.000022 15.560872 -22.547146 1.776004 -2.597688 13.359039 23.159603 -12.820226 41.807056 36.398102 -0.000024 21.285541 -0.000011 15.864070 -5.762903 3.029997 -37.611232 3.882257 15.801074 45.073313 4.324533 -0.087013 -6.199867 0.836260 -6.308864 -0.725640 0.001786 -0.147944 -12.027522 -14.695796 -12.506335 41.256578 -9.564863 4.009880 -22.049104 -7.881328 12.560531 -0.868036 -0.008944 1.246951
0.065553 1.062275 0.104734 -1.167331 -21.660037 -4.317216 7.772284 3.100213 -0.822562 13.663301 8.157553 -2.933945 13.770274 8.048603 -3.198707 6.970692 -6.298716 16.610303 -18.015710 11.318804 -13.281817 -1.025172 5.449873 -15.011706 -19.619557 -27.303043 -56.860802 -0.000004 -31.188070 -0.000010 15.634677 -23.208183 1.982444 -2.544587 12.343161 23.210927 -13.194728 40.018785 36.738233 -0.000008 21.067688 0.000016 15.411664 -8.361332 3.328062 -36.989126 4.161941 16.330592 44.835752 4.763708 -0.180143 -5.902112 0.828580 -6.740295 -0.699366 0.001727 -0.145754 -12.459728 -14.261566 -12.553050 41.992971 -9.559363 3.764911 -22.353254 -7.053639 12.386082 -0.699608 -0.005425 0.971470
0.065553 1.061708 0.104734 -1.769432 -22.689822 -4.246561 7.643051 2.869963 -0.582065 13.398674 7.659763 -2.607341 13.492232 7.577280 -2.862397 7.187691 -6.008308 16.417197 -17.885973 11.952681 -12.976224 -1.050994 5.113552 -14.967083 -20.136448 -27.362877 -57.154616 -0.000020 -30.013463 -0.000019 15.659135 -23.805411 1.907744 -2.469464 11.224641 23.234757 -13.604508 38.269902 37.478817 -0.000008 20.855758 0.000022 15.005569 -11.335440 3.110597 -36.318495 4.436141 16.700430 44.521430 5.090635 -0.241683 -5.580952 0.816923 -7.176149 -0.683989 0.001602 -0.136116 -12.768787 -14.010185 -12.793898 42.589426 -9.552440 3.672267 -22.716142 -6.114770 12.273202 -0.415003 -0.001776 0.554400
0.065553 1.061360 0.104734 -2.405500 -23.603124 -4.158404 7.513115 2.642519 -0.335209 13.144201 7.157101 -2.279562 13.225783 7.100507 -2.522586 7.295751 -5.563968 15.745982 -18.087418 12.409669 -12.408174 -1.108817 4.754148 -14.833831 -20.780771 -27.497959 -57.649928 0.000007 -28.779240 -0.000004 16.055202 -24.462620 1.519506 -2.404085 10.093052 23.174089 -13.652256 36.588738 38.132926 0.000013 20.595134 -0.000023 14.661555 -14.023753 2.336911 -35.565922 4.756076 17.004739 44.119240 5.251731 -0.325097 -5.241366 0.804089 -7.554837 -0.678185 0.001406 -0.120680 -13.029220 -13.683955 -12.963850 43.209467 -9.572725 3.466983 -22.972886 -5.445381 12.206127 -0.206228 -0.000992 0.423050
0.065553 1.061041 0.104734 -3.031724 -24.513673 -4.072665 7.364553 2.433716 -0.106247 12.879933 6.677163 -1.946376 12.951871 6.644202 -2.177566 7.338170 -5.052137 14.857227 -18.319599 12.786649 -11.687367 -1.123345 4.423659 -14.819951 -21.201644 -27.705308 -57.977830 0.000006 -27.533467 -0.000035 16.681755 -25.140807 0.961234 -2.299898 8.995884 23.173644 -13.786154 34.798439 38.817345 0.000000 20.259970 0.000019 14.557369 -16.119802 1.451303 -34.791796 5.105595 17.314230 43.724830 5.319594 -0.435280 -4.960987 0.783902 -7.897958 -0.665433 0.001323 -0.117385 -13.316930 -13.460563 -13.260912 43.889409 -9.605688 3.372892 -23.242807 -4.584093 12.025941 -0.151061 -0.000535 0.301413
0.065553 1.061084 0.104734 -3.605877 -25.360947 -3.986061 7.176198 2.219601 0.144021 12.558856 6.177591 -1.557666 12.623242 6.167094 -1.775088 7.387494 -4.491180 13.715706 -18.607950 13.020356 -10.782755 -1.162621 4.109455 -14.875187 -21.485798 -27.869499 -58.414681 0.000005 -26.390174 -0.000005 17.128302 -25.733559 0.359028 -2.187658 7.770125 22.752203 -14.113554 32.866052 39.906827 -0.000009 19.849452 -0.000024 14.853839 -17.501593 0.708869 -33.897572 5.447011 17.545700 43.083462 5.236194 -0.483681 -4.728373 0.765282 -8.355487 -0.518422 0.000187 -0.021431 -13.524199 -13.287385 -13.559511 44.397808 -9.655876 3.340648 -23.452004 -3.743020 11.857445 -0.105231 -0.000337 0.238792
0.065553 1.061829 0.104734 -4.120297 -26.167016 -3.872783 6.956845 2.008469 0.363800 12.200606 5.664864 -1.194194 12.258433 5.674801 -1.396912 7.467417 -3.875426 12.527676 -18.876034 13.383971 -9.866464 -1.194033 3.843508 -14.877697 -21.720153 -27.827674 -58.957846 0.000003 -25.393207 -0.000029 17.230033 -26.219496 -0.211761 -2.074854 6.509796 22.754898 -14.420152 30.803312 40.716295 0.000001 19.371352 -0.000026 15.698238 -18.312535 0.062973 -32.964263 5.846537 17.707125 42.285481 5.344743 -0.538386 -4.443288 0.724772 -8.678803 -0.336163 0.000112 -0.019025 -13.652226 -13.000451 -13.780898 44.685332 -9.714795 3.213581 -23.309394 -3.068335 12.116925 -0.230836 -0.000810 0.271404
0.065553 1.062906 0.104734 -4.558763 -26.949178 -3.719156 6.720066 1.815192 0.560453 11.827315 5.170451 -0.877365 11.879627 5.198234 -1.061010 7.509644 -3.213350 11.264797 -18.946086 13.672436 -8.934710 -1.228195 3.600273 -14.970265 -21.843044 -27.724684 -59.403837 0.000017 -24.521829 0.000003 17.056469 -26.586321 -0.715938 -1.946637 5.283316 22.642637 -14.775822 28.784718 41.615720 0.000015 18.840508 -0.000018 16.947337 -19.074045 -0.394338 -32.041054 6.259828 17.817598 41.438220 5.457409 -0.625611 -4.136399 0.675903 -8.957240 -0.204598 0.000062 -0.019174 -13.771501 -12.783546 -14.046938 44.846286 -9.136072 3.127087 -23.277806 -2.945662 12.080907 -0.147134 -0.000321 0.160547
0.065553 1.064247 0.104734 -5.054356 -27.762228 -3.583152 6.485586 1.629245 0.740159 11.465343 4.689362 -0.586282 11.513109 4.732275 -0.751028 7.634957 -2.546422 9.925806 -19.294785 13.969790 -7.775532 -1.291841 3.393113 -15.033150 -21.764738 -27.749722 -59.837378 -0.000010 -23.692293 0.000007 16.777550 -26.863023 -1.121144 -1.845913 4.042589 22.430110 -14.924853 26.853050 42.517788 -0.000016 18.295379 0.000005 18.063321 -20.167747 -0.423023 -30.985638 6.718683 17.913330 40.511871 5.382427 -0.728733 -3.858614 0.632935 -9.217552 -0.083813 0.000029 -0.021582 -13.782762 -12.462297 -14.121540 44.926824 -8.745446 2.866075 -23.272271 -2.871270 11.763020 -0.146812 -0.000211 0.143288
0.065553 1.065806 0.104734 -5.500636 -28.487913 -3.480194 6.262451 1.458582 0.897036 11.123503 4.241634 -0.303079 11.167794 4.296310 -0.449967 7.692388 -1.899129 8.669408 -19.572350 14.194900 -6.890356 -1.338104 3.206677 -15.083722 -21.698624 -27.765757 -60.311292 -0.000018 -22.782444 -0.000021 16.561991 -27.209583 -1.363248 -1.720499 2.737161 22.120045 -15.064308 25.004214 43.301556 -0.000001 17.786813 0.000001 18.748189 -21.474000 -0.097395 -29.992085 7.148683 17.972419 39.620824 5.366629 -0.790710 -3.554567 0.577266 -9.464346 -0.042679 0.000017 -0.025382 -13.696465 -12.195736 -14.172179 44.875181 -8.427988 2.655151 -23.220748 -2.801886 11.484918 -0.146987 -0.000202 0.123851
0.065553 1.067872 0.104734 -5.854459 -29.134555 -3.435144 6.021907 1.303420 1.025222 10.760756 3.812465 -0.034314 10.802937 3.873708 -0.160680 7.791268 -1.271815 7.457905 -19.769249 14.351205 -5.993614 -1.374694 3.024688 -15.171040 -21.664149 -27.668572 -60.810092 0.000007 -21.785480 -0.000000 16.477592 -27.700347 -1.448958 -1.579656 1.457228 21.785156 -15.043145 23.302618 44.192836 -0.000007 17.338283 0.000009 19.099176 -22.618979 0.068689 -29.074379 7.585691 18.097400 38.671209 5.280335 -0.887764 -3.211654 0.508483 -9.630361 -0.040145 0.000012 -0.030627 -13.525160 -12.084475 -14.247457 44.595593 -8.017763 2.613162 -23.079479 -2.705530 11.125619 -0.145816 -0.000101 0.100609
0.065553 1.070373 0.104734 -5.990322 -29.573007 -3.118157 5.710768 1.115478 1.117313 10.287164 3.311265 0.137242 10.327315 3.377040 0.030473 7.963251 -0.691638 6.321904 -19.980714 14.448270 -5.062285 -1.390665 2.861273 -15.238059 -21.431473 -27.557043 -61.229459 -0.000011 -20.895062 0.000009 16.471972 -28.165557 -1.487246 -1.402980 0.083488 21.450747 -14.702024 21.595708 45.097050 -0.000004 16.948678 -0.000037 19.160904 -23.403148 -0.212587 -28.191524 7.836804 17.662115 37.577491 5.658077 -0.780128 -2.762924 0.425176 -9.849764 -0.068825 0.000031 -0.035779 -13.514754 -12.256851 -14.787109 44.202319 -7.366077 2.751359 -22.894392 -2.592141 10.709215 -0.146336 -0.000064 0.078662
0.065553 1.073342 0.104734 -6.206746 -30.097775 -2.976416 5.455166 0.969578 1.163811 9.899412 2.888772 0.298597 9.938394 2.954827 0.207398 8.112124 -0.145517 5.360154 -20.008493 14.594468 -4.379678 -1.420965 2.762925 -15.261873 -21.035425 -27.476606 -61.523466 0.000016 -20.317383 0.000010 16.434095 -28.392125 -1.534565 -1.259793 -1.181648 21.208059 -14.227653 20.082646 45.824782 -0.000010 16.619651 0.000011 18.941394 -23.952833 -0.627306 -27.257859 8.295318 17.554064 36.458715 5.942504 -0.861366 -2.322690 0.341480 -9.891507 -0.093625 0.000076 -0.061351 -13.236286 -12.174721 -14.881312 43.586334 -7.085152 2.644690 -22.596970 -2.516156 10.497039 -0.146423 -0.000007 0.054904
0.065553 1.076039 0.104734 -6.310770 -30.558360 -2.813668 5.221302 0.840191 1.196704 9.538032 2.525688 0.408574 9.576155 2.590400 0.324151 8.225893 0.370597 4.627039 -20.012107 14.868394 -3.662961 -1.430516 2.721007 -15.183908 -20.592866 -27.347901 -61.793623 -0.000000 -20.055134 0.000010 16.316698 -28.361004 -1.517691 -1.123014 -2.315590 21.067272 -13.499415 18.901965 46.339932 0.000004 16.340581 -0.000028 18.687283 -24.377776 -0.766416 -26.512160 8.711901 17.427729 35.503775 6.341938 -0.951764 -1.954166 0.262322 -9.830245 -0.093947 0.000178 -0.137036 -13.010993 -12.027102 -14.911272 42.989214 -6.946322 2.498813 -22.304050 -2.463151 10.393594 -0.147501 -0.000014 0.031923
0.065553 1.078876 0.104734 -6.330367 -31.005814 -2.623225 4.989863 0.724821 1.213637 9.172562 2.186459 0.511751 9.210095 2.246981 0.433289 8.352182 0.793384 4.105288 -19.874940 15.111051 -3.312532 -1.474240 2.700460 -15.209515 -19.951088 -27.269041 -61.937641 0.000006 -19.981927 0.000007 16.203008 -28.217718 -1.372403 -1.028247 -3.403883 20.781553 -12.716249 17.746520 47.008789 0.000000 16.069614 0.000015 18.662382 -24.571209 -0.646652 -25.846321 9.157558 17.312458 34.575764 6.724933 -1.130665 -1.607916 0.179360 -9.651238 -0.103869 0.000322 -0.221811 -12.811362 -11.876262 -14.949442 42.305791 -6.865355 2.330329 -21.939422 -2.422189 10.375528 -0.147309 -0.000004 0.006349
0.065553 1.081905 0.104734 -6.342031 -31.423403 -2.387588 4.773375 0.626128 1.176503 8.829465 1.884686 0.542790 8.867086 1.938967 0.466897 8.578587 1.110826 3.947109 -19.768963 15.637164 -3.312621 -1.476462 2.698272 -15.184911 -19.339552 -27.219625 -62.013089 -0.000001 -20.027366 0.000012 16.148844 -28.080455 -1.182779 -0.896142 -4.394889 20.572424 -11.966766 16.698277 47.746002 0.000007 15.757710 0.000035 18.706460 -24.500550 -0.583277 -25.086492 9.573994 17.050745 33.563687 7.113673 -1.263998 -1.282134 0.106374 -9.496167 -0.112484 0.000379 -0.245227 -12.588135 -11.889225 -15.193552 41.527734 -6.526462 2.267091 -21.569955 -2.366317 10.256657 -0.159392 -0.000018 0.000003
0.065553 1.084733 0.104734 -6.306498 -31.836590 -2.177481 4.591220 0.545044 1.143079 8.533101 1.635879 0.569597 8.570718 1.683438 0.492679 8.786143 1.368263 3.973727 -19.588078 16.309991 -3.481132 -1.444822 2.714607 -15.179161 -18.750657 -27.159418 -62.014432 0.000005 -20.197721 -0.000005 16.019976 -27.933796 -1.075489 -0.760417 -5.228754 20.301527 -11.138063 15.955166 48.483901 0.000001 15.415367 -0.000034 18.477286 -24.371980 -0.739373 -24.393831 9.934878 16.778637 32.639309 7.543581 -1.363607 -1.047704 0.041820 -9.356636 -0.096919 0.000246 -0.197221 -12.376586 -11.867848 -15.386312 40.740676 -6.237354 2.175555 -21.184517 -2.319607 10.219339 -0.175551 -0.000038 0.000005
0.065553 1.087597 0.104734 -6.239251 -32.238134 -2.015015 4.428520 0.478841 1.109809 8.259266 1.423501 0.591099 8.296795 1.463915 0.508803 9.001597 1.561124 4.140782 -19.478900 17.042113 -3.662923 -1.447939 2.749221 -15.159185 -18.111319 -27.099631 -61.983296 -0.000015 -20.492953 -0.000031 15.696479 -27.714238 -1.059586 -0.670257 -5.990667 20.016234 -10.321107 15.282063 49.273244 -0.000004 15.190096 0.000017 18.075862 -24.353168 -0.905450 -23.750671 10.239097 16.523249 31.743446 7.958131 -1.418148 -0.793570 -0.023581 -9.291750 -0.109540 0.000247 -0.198126 -12.113990 -11.776466 -15.442097 39.869959 -6.059144 2.012149 -20.752580 -2.285145 10.261239 -0.191633 0.000078 0.000001
0.065553 1.090149 0.104734 -6.181156 -32.653691 -1.893055 4.283491 0.428805 1.068074 8.009787 1.260567 0.588955 8.047369 1.294043 0.498079 9.193718 1.719800 4.420890 -19.388733 17.909865 -3.844081 -1.445920 2.823218 -15.031369 -17.572682 -26.949340 -62.053354 0.000006 -20.879612 -0.000014 15.277524 -27.447873 -1.072373 -0.587474 -6.647841 19.769641 -9.513417 14.599867 50.056847 0.000001 15.297895 0.000010 17.896354 -24.401053 -0.711669 -23.168633 10.585268 16.370694 30.993565 8.314442 -1.561842 -0.634965 -0.076070 -9.191174 -0.112825 0.000194 -0.177002 -11.851725 -11.731707 -15.533394 39.030122 -5.791471 1.889003 -20.354314 -2.251404 10.285124 -0.068227 0.000014 0.000001
0.065553 1.092607 0.104734 -6.103702 -33.038428 -1.748446 4.156008 0.392027 1.003610 7.780386 1.132150 0.556150 7.818231 1.159441 0.454424 9.336750 1.842825 4.754684 -19.150695 18.800981 -4.136880 -1.437763 2.909899 -14.880096 -17.003358 -26.794068 -62.055587 0.000022 -21.331390 0.000039 14.901285 -27.210514 -1.096665 -0.512196 -7.207352 19.559087 -8.469519 13.717904 50.778102 0.000002 15.782643 -0.000013 18.026323 -24.414703 -0.033898 -22.597252 10.936020 16.200000 30.262816 8.660126 -1.734859 -0.519670 -0.122193 -9.047717 -0.090397 0.000128 -0.140605 -11.616085 -11.800910 -15.740775 38.194317 -5.391782 1.852297 -19.968674 -2.214698 10.247455 0.004832 0.000011 -0.000005
0.065553 1.095057 0.104734 -5.981962 -33.386174 -1.624037 4.025692 0.364447 0.948635 7.539077 1.032235 0.531674 7.577047 1.054191 0.415717 9.383131 1.986670 5.074567 -18.530685 19.797436 -4.528665 -1.422717 2.998207 -14.802702 -16.402502 -26.625360 -62.016987 -0.000021 -21.835683 -0.000028 14.577401 -27.032614 -1.149440 -0.458715 -7.664111 19.335988 -7.462352 12.866697 51.482581 0.000007 16.496472 -0.000007 18.277809 -24.387091 0.879666 -22.077098 11.193673 15.970655 29.592007 9.079452 -1.817386 -0.456774 -0.164768 -8.932801 -0.064381 0.000056 -0.087787 -11.348912 -11.882421 -15.903847 37.290200 -5.117597 1.805642 -19.533526 -2.187285 10.316423 0.003969 0.000002 -0.000004
0.065553 1.097273 0.104734 -5.852804 -33.738811 -1.534338 3.911489 0.358460 0.878851 7.324490 0.975726 0.499762 7.362576 0.992275 0.369287 9.379988 2.120015 5.226266 -18.027605 20.652596 -4.814932 -1.417280 3.092760 -14.752997 -15.887667 -26.408938 -61.964623 -0.000008 -22.381597 0.000008 14.269058 -26.895196 -1.235877 -0.435037 -8.029937 19.033325 -6.470640 12.048801 52.290895 0.000010 17.339438 -0.000037 18.542545 -24.485647 1.558894 -21.639823 11.391933 15.768608 29.052990 9.503218 -1.866972 -0.358526 -0.136387 -8.967949 -0.096616 0.000126 -0.137076 -11.026939 -11.971849 -16.019043 36.319626 -4.840109 1.750846 -19.213513 -2.171063 10.390384 0.216479 0.000038 -0.000002
0.065553 1.098998 0.104734 -5.696577 -34.080144 -1.469027 3.807828 0.360865 0.840339 7.124920 0.955039 0.466110 7.162875 0.967838 0.320263 9.288151 2.286267 5.110909 -17.622024 21.304239 -4.812860 -1.430672 3.204441 -14.714977 -15.315689 -26.245318 -61.866798 -0.000012 -22.967847 -0.000019 14.009649 -26.785629 -1.357933 -0.458453 -8.297257 18.628921 -5.546689 11.131496 53.234600 -0.000002 18.261495 0.000008 18.755186 -24.848353 1.750963 -21.358007 11.567930 15.633585 28.737773 9.495359 -1.976133 -0.515663 0.196893 -8.725216 -0.046992 0.000003 -0.030196 -10.776090 -12.045441 -16.098075 35.469329 -4.565588 1.693475 -18.941820 -2.170922 10.472149 0.411261 -0.000020 -0.000008
0.065553 1.100602 0.104734 -5.590708 -34.405853 -1.441752 3.725948 0.364382 0.800542 6.965413 0.945758 0.412618 7.003227 0.961734 0.251232 9.101967 2.481859 4.749427 -17.213606 21.777405 -4.559733 -1.456882 3.313986 -14.704748 -14.869089 -26.023545 -61.714095 0.000005 -23.615425 -0.000008 13.827046 -26.701985 -1.494808 -0.475816 -8.569640 18.502470 -4.564981 10.489750 53.949475 0.000015 19.148890 0.000007 18.787334 -25.336207 1.636748 -21.058244 11.710099 15.501908 28.458176 9.504753 -2.051064 -0.611028 0.537385 -8.643503 -0.039219 -0.000002 0.000001 -10.452923 -12.049836 -16.093267 34.618966 -4.412294 1.551898 -18.679797 -2.183163 10.636372 0.619735 0.000010 0.000010
0.065553 1.101744 0.104734 -5.407190 -34.751728 -1.342255 3.638073 0.363811 0.731946 6.793889 0.937599 0.346411 6.831658 0.967670 0.167716 8.854302 2.693026 4.217214 -16.785133 22.174663 -4.208317 -1.458165 3.445049 -14.721581 -14.294382 -25.784532 -61.482145 -0.000009 -24.357086 0.000007 13.618632 -26.589423 -1.613564 -0.490943 -8.740872 18.355267 -3.654439 10.069672 54.599074 0.000007 19.914666 0.000019 18.670828 -25.713316 1.460123 -20.877022 11.743010 15.289316 28.321474 9.521892 -2.046789 -0.772921 0.942263 -8.633625 -0.039330 0.000000 0.000004 -10.294723 -12.065608 -16.180671 33.916945 -4.162852 1.448321 -18.504773 -2.192950 10.768030 0.847496 0.000035 -0.000006
0.065553 1.102667 0.104734 -5.270594 -35.019865 -1.260405 3.563470 0.361437 0.665271 6.647585 0.929520 0.269916 6.685440 0.952105 0.076966 8.629081 2.894016 3.569294 -16.381944 22.488373 -3.798769 -1.470333 3.567432 -14.753579 -13.736481 -25.494733 -61.210482 0.000002 -25.173227 0.000037 13.268667 -26.390878 -1.743830 -0.529368 -8.832522 18.162002 -2.902793 9.636211 55.315598 -0.000016 20.555774 0.000005 18.632006 -25.887563 1.273030 -20.717626 11.746937 15.069671 28.241466 9.540863 -2.023793 -0.932976 1.311978 -8.616700 -0.040876 0.000006 0.000003 -10.150367 -12.135272 -16.303165 33.321820 -3.919299 1.377106 -18.341053 -2.201575 10.886950 0.976730 -0.000027 0.005963
0.065553 1.103271 0.104734 -5.131117 -35.257828 -1.221807 3.502944 0.358016 0.609178 6.526509 0.921884 0.186856 6.564364 0.945141 -0.019506 8.324390 3.062583 2.983312 -15.745638 22.706174 -3.656501 -1.479738 3.678087 -14.753259 -13.223251 -25.216200 -60.976625 -0.000002 -25.971785 0.000027 12.825432 -26.161779 -1.909858 -0.561606 -8.898859 17.994079 -2.197619 9.360789 55.999878 0.000011 21.048139 0.000004 18.781773 -25.900369 1.052340 -20.681845 11.783981 14.988736 28.330886 9.558166 -2.085971 -1.164200 1.555911 -8.548019 -0.042347 0.000005 -0.000007 -10.013250 -12.191170 -16.363339 32.789895 -3.747360 1.293806 -18.219877 -2.223139 11.034564 0.938581 -0.000005 0.000006
0.065553 1.103556 0.104734 -4.951045 -35.443063 -1.158507 3.445602 0.354596 0.550191 6.412052 0.914629 0.094956 6.449967 0.921564 -0.122605 8.069126 3.212714 2.489077 -15.095494 23.027321 -3.609769 -1.464563 3.774766 -14.865191 -12.796865 -24.913831 -60.655493 -0.000001 -26.658209 -0.000019 12.418978 -25.999414 -2.080229 -0.576888 -8.912998 17.835297 -1.824015 9.074866 56.688912 -0.000001 21.343744 0.000003 19.058637 -25.851549 0.785990 -20.749360 11.767834 14.911145 28.502941 9.570842 -2.124107 -1.409265 1.757716 -8.506341 -0.043777 -0.000002 -0.000003 -10.001320 -12.305262 -16.518335 32.400873 -3.494068 1.309595 -18.067350 -2.257938 11.237390 0.895451 0.000012 -0.000006
0.065553 1.103721 0.104734 -4.798620 -35.666910 -1.089598 3.397476 0.352416 0.468727 6.313969 0.908022 -0.001971 6.352027 0.923386 -0.231665 7.996309 3.365016 2.342519 -14.598903 23.688562 -3.892813 -1.462467 3.871578 -14.933344 -12.446787 -24.604740 -60.423339 0.000027 -27.209343 0.000031 12.094607 -25.890564 -2.237715 -0.595558 -8.910810 17.724459 -1.540057 9.030075 57.280449 0.000003 21.479089 0.000011 19.438704 -25.835082 0.469084 -20.801770 11.780524 14.853470 28.662561 9.581088 -2.180903 -1.619331 2.008601 -8.472313 -0.045123 0.000000 -0.000004 -10.072998 -12.385924 -16.670439 32.151929 -3.193227 1.302715 -17.946260 -2.269310 11.333401 0.926216 -0.000032 -0.000000
0.065553 1.103843 0.104734 -4.726882 -35.830457 -1.107510 3.362248 0.352064 0.407419 6.243007 0.902830 -0.095057 6.281110 0.913812 -0.335007 7.942617 3.498213 2.220090 -13.989472 24.312852 -4.249646 -1.450932 3.960835 -14.996519 -12.192742 -24.267637 -60.266996 -0.000012 -27.649618 0.000000 11.842769 -25.776267 -2.400380 -0.602681 -8.886406 17.677192 -1.300671 9.243947 57.761837 0.000008 21.548506 -0.000021 19.929446 -25.880806 0.138498 -20.825763 11.764885 14.834229 28.848659 9.593815 -2.195166 -1.838451 2.165708 -8.468801 -0.046383 -0.000003 -0.000004 -10.044900 -12.458458 -16.727543 31.929517 -3.042816 1.275055 -17.837870 -2.278458 11.417148 0.903155 0.000000 0.000000
0.065553 1.103899 0.104734 -4.684482 -35.935964 -1.193699 3.338135 0.354458 0.368264 6.193313 0.901849 -0.166807 6.231206 0.905615 -0.415616 7.925111 3.595827 2.120858 -13.515332 24.837759 -4.537848 -1.452081 4.037012 -15.065742 -12.045099 -23.972575 -60.208881 -0.000007 -27.992161 0.000011 11.673304 -25.669367 -2.569914 -0.620099 -8.852928 17.664257 -1.163599 9.473502 58.149184 0.000002 21.569708 0.000000 20.396266 -25.958233 -0.112757 -20.887814 11.712990 14.867794 29.057107 9.608351 -2.165089 -2.035576 2.263519 -8.490793 -0.047565 0.000007 -0.000001 -9.967953 -12.521658 -16.691284 31.722085 -2.981573 1.255117 -17.736176 -2.283626 11.493256 0.872480 -0.000015 -0.000003
0.065553 1.103899 0.104734 -4.658470 -36.067906 -1.263789 3.327122 0.366272 0.322716 6.151479 0.923971 -0.245293 6.189306 0.927739 -0.502640 7.928723 3.665309 2.065103 -13.114283 25.273839 -4.767321 -1.432773 4.109663 -15.160991 -11.927765 -23.725816 -60.125200 0.000006 -28.217179 -0.000001 11.575300 -25.630501 -2.691034 -0.612685 -8.810647 17.691960 -1.103991 9.877751 58.409348 0.000015 21.480016 -0.000028 20.632366 -26.022538 -0.212475 -20.922880 11.664215 14.896053 29.230569 9.621489 -2.139082 -2.193314 2.409860 -8.526188 -0.048662 -0.000002 -0.000001 -9.938313 -12.572192 -16.664732 31.588704 -2.900208 1.227548 -17.658894 -2.289044 11.541929 0.834244 0.000005 -0.000002
0.065553 1.103883 0.104734 -4.633892 -36.178104 -1.331774 3.317095 0.376306 0.279786 6.123541 0.946393 -0.318456 6.161245 0.950313 -0.583059 7.910831 3.713960 2.054075 -12.490662 25.596160 -5.110665 -1.388665 4.167514 -15.269771 -11.881669 -23.542089 -60.080192 -0.000007 -28.286001 0.000004 11.495776 -25.682562 -2.703868 -0.585961 -8.717313 17.685430 -1.252668 10.291242 58.646501 0.000001 21.258788 -0.000006 20.647077 -26.043287 -0.192587 -20.952851 11.618775 14.939615 29.367987 9.634234 -2.109968 -2.318211 2.528551 -8.583841 -0.049656 0.000004 0.000001 -9.921744 -12.651800 -16.649812 31.486293 -2.812042 1.240610 -17.597363 -2.292090 11.550513 0.832718 -0.000005 -0.000015
0.065553 1.103951 0.104734 -4.613341 -36.236283 -1.391365 3.307639 0.390261 0.243290 6.104028 0.974730 -0.377834 6.141663 0.978808 -0.648861 7.901680 3.737351 2.069291 -11.807130 25.811523 -5.497763 -1.351619 4.198289 -15.366447 -11.904883 -23.443679 -60.118265 0.000007 -28.208722 0.000001 11.423566 -25.765414 -2.655197 -0.559247 -8.632879 17.717674 -1.444877 10.647952 58.809151 0.000003 20.960990 -0.000011 20.687538 -26.012689 -0.152680 -20.970946 11.566942 14.971452 29.436332 9.642645 -2.072937 -2.384816 2.615388 -8.625882 -0.050540 0.000001 0.000003 -9.885526 -12.723718 -16.609443 31.370969 -2.797324 1.253796 -17.497884 -2.291568 11.556285 0.850591 -0.000022 0.000000
0.065553 1.104078 0.104734 -4.628778 -36.235429 -1.488656 3.298740 0.402184 0.222756 6.093819 0.999479 -0.406144 6.131087 1.003700 -0.682812 7.895824 3.737791 2.086446 -11.042693 25.903454 -5.945583 -1.310255 4.219261 -15.471557 -11.967812 -23.381119 -60.200499 0.000011 -28.073287 0.000025 11.410139 -25.817698 -2.641097 -0.544140 -8.487500 17.632528 -1.732886 10.991960 59.050734 0.000008 20.641754 -0.000037 20.903753 -25.941169 -0.163998 -20.973753 11.509606 15.019537 29.459729 9.648909 -2.014648 -2.401395 2.673921 -8.676282 -0.051579 -0.000002 0.000004 -9.793185 -12.808419 -16.528805 31.244189 -2.813816 1.283795 -17.404879 -2.297449 11.539968 0.874966 0.000027 -0.000001
0.065553 1.104180 0.104734 -4.621932 -36.249057 -1.557192 3.291299 0.417968 0.207348 6.078454 1.034114 -0.438487 6.115433 1.038618 -0.720247 7.882028 3.724535 2.140432 -10.145413 25.903226 -6.490894 -1.283680 4.246291 -15.500340 -12.000918 -23.342484 -60.327433 -0.000020 -27.961274 0.000006 11.441826 -25.855945 -2.639230 -0.524146 -8.397159 17.676627 -1.912550 11.443806 59.110213 -0.000004 20.322122 0.000014 21.165880 -25.829839 -0.207590 -20.991659 11.479359 15.104219 29.446820 9.653673 -1.997443 -2.384382 2.668561 -8.712003 -0.053418 0.000000 -0.000002 -9.760207 -12.848526 -16.432752 31.187976 -2.832541 1.297171 -17.379056 -2.296854 11.508310 0.880008 0.000023 0.000006
0.065553 1.104212 0.104734 -4.643140 -36.199029 -1.635416 3.284806 0.419981 0.203262 6.072766 1.044106 -0.451149 6.109327 1.049167 -0.737252 7.886046 3.710351 2.191455 -9.333340 25.894736 -6.981611 -1.248118 4.268117 -15.548208 -11.967241 -23.348157 -60.434261 -0.000009 -27.880532 -0.000021 11.430719 -25.903261 -2.557080 -0.493976 -8.319573 17.760680 -2.204333 12.058706 59.204844 0.000005 20.002131 -0.000008 21.269087 -25.650592 -0.151955 -21.006768 11.437631 15.184523 29.433657 9.657671 -1.963345 -2.355299 2.590059 -8.756558 -0.054302 -0.000002 0.000004 -9.697978 -12.876639 -16.330093 31.187358 -2.906424 1.319429 -17.439934 -2.285348 11.480940 0.899972 -0.000012 -0.000001
0.065553 1.104459 0.104734 -4.597838 -36.160161 -1.631721 3.279974 0.423379 0.202059 6.044860 1.059848 -0.472736 6.081238 1.065336 -0.762078 7.890241 3.690179 2.262781 -8.458441 25.799975 -7.456853 -1.215537 4.285489 -15.553363 -11.919916 -23.379787 -60.578857 -0.000010 -27.818723 -0.000018 11.374100 -25.931264 -2.401929 -0.454519 -8.253784 17.885313 -2.491905 12.199827 58.999415 -0.000004 19.670543 0.000027 21.216276 -25.446419 0.104207 -21.007711 11.416070 15.220970 29.282042 9.657448 -1.964367 -2.234552 2.600935 -8.767905 -0.054679 0.000003 -0.000003 -9.696407 -12.866307 -16.226358 31.147525 -3.012700 1.306881 -17.431419 -2.277898 11.459631 0.903057 -0.000003 0.000000
0.065553 1.104599 0.104734 -4.615405 -36.084669 -1.684908 3.276388 0.423064 0.210480 6.042650 1.060069 -0.466968 6.078631 1.066081 -0.758156 7.898646 3.670834 2.341088 -7.635066 25.702307 -7.854455 -1.205813 4.301579 -15.521926 -11.895699 -23.387131 -60.794016 -0.000010 -27.785499 0.000002 11.362278 -25.923017 -2.251105 -0.450505 -8.170489 17.959756 -2.798859 12.586829 58.945046 -0.000002 19.310822 0.000022 21.193249 -25.370458 0.436785 -21.005087 11.390782 15.296363 29.163524 9.657351 -1.951161 -2.116853 2.515109 -8.789379 -0.054169 0.000002 -0.000004 -9.655660 -12.882235 -16.113892 31.139237 -3.103316 1.328368 -17.421891 -2.270416 11.405881 0.912425 0.000009 0.000008
0.065553 1.104676 0.104734 -4.643522 -35.972023 -1.756117 3.273964 0.422882 0.237801 6.053164 1.059545 -0.436790 6.088774 1.065796 -0.735123 7.905294 3.650278 2.423405 -7.022713 25.624691 -8.204172 -1.198451 4.314669 -15.495292 -11.885320 -23.429612 -61.029333 -0.000010 -27.765402 0.000010 11.455044 -25.913806 -2.153877 -0.438473 -8.122702 18.050374 -3.124641 12.954290 58.849949 -0.000008 18.925984 0.000003 21.319558 -25.495716 0.637794 -21.029397 11.364728 15.384694 29.074309 9.661686 -1.926670 -2.003575 2.386350 -8.807565 -0.053129 0.000001 -0.000000 -9.603016 -12.914474 -16.006734 31.147428 -3.207838 1.384303 -17.424866 -2.261699 11.339913 0.932696 -0.000025 0.000002
