HIERARCHY
ROOT Hips
{
  OFFSET 0 1.1673769999999999 0
  CHANNELS 6 Xposition Yposition Zposition Xrotation Yrotation Zrotation
  JOINT Spine
  {
    OFFSET 0.000003812944337411511 0.10717500000681812 -0.009311
    CHANNELS 3 Xrotation Yrotation Zrotation
    JOINT Spine1
    {
      OFFSET 0 0.1058532983696241 -0.004285186608692496
      CHANNELS 3 Xrotation Yrotation Zrotation
      JOINT Spine2
      {
        OFFSET -8.470329472543003e-22 0.10599345671141647 -0.007812688101110094
        CHANNELS 3 Xrotation Yrotation Zrotation
        JOINT Neck
        {
          OFFSET -8.470329472543003e-22 0.26240299999999994 -0.04488100000000002
          CHANNELS 3 Xrotation Yrotation Zrotation
          JOINT Head
          {
            OFFSET -4.235164736271502e-22 0.17466899999999996 0.05625600000000003
            CHANNELS 3 Xrotation Yrotation Zrotation
            End Site
            {
              OFFSET -4.235164736271502e-22 0.10756799999999966 0.021070000000000005
            }
          }
        }
        JOINT LeftShoulder
        {
          OFFSET 0.10574399999999999 0.23009199999999996 -0.07323000000000002
          CHANNELS 3 Xrotation Yrotation Zrotation
          JOINT LeftArm
          {
            OFFSET 0.14878212914559852 -0.04653266654569688 -0.030693304075147546
            CHANNELS 3 Xrotation Yrotation Zrotation
            JOINT LeftForeArm
            {
              OFFSET 0.24109000000000003 2.220446049250313e-16 -5.551115123125783e-17
              CHANNELS 3 Xrotation Yrotation Zrotation
              JOINT LeftHand
              {
                OFFSET 0.316792 0 -1.1102230246251565e-16
                CHANNELS 3 Xrotation Yrotation Zrotation
                End Site
                {
                  OFFSET 0.06265729429771016 -0.10569948639925819 0.03859412819617963
                }
              }
            }
          }
        }
        JOINT RightShoulder
        {
          OFFSET -0.10574399999999999 0.23009099999999982 -0.07323000000000002
          CHANNELS 3 Xrotation Yrotation Zrotation
          JOINT RightArm
          {
            OFFSET -0.14878040829228295 -0.04653159475972379 -0.030692917709113934
            CHANNELS 3 Xrotation Yrotation Zrotation
            JOINT RightForeArm
            {
              OFFSET -0.24109000000000003 -6.661338147750939e-16 -2.7755575615628914e-17
              CHANNELS 3 Xrotation Yrotation Zrotation
              JOINT RightHand
              {
                OFFSET -0.31679300000631333 -8.881784197001252e-16 -5.551115123125783e-17
                CHANNELS 3 Xrotation Yrotation Zrotation
                End Site
                {
                  OFFSET -0.06265795211397429 -0.10570764472283312 0.03859362014678265
                }
              }
            }
          }
        }
      }
    }
  }
  JOINT LeftUpLeg
  {
    OFFSET 0.12297511767165623 -0.06742078536803264 -0.010003
    CHANNELS 3 Xrotation Yrotation Zrotation
    JOINT LeftLeg
    {
      OFFSET 0 -0.457033849483632 0.010304509991859542
      CHANNELS 3 Xrotation Yrotation Zrotation
      JOINT LeftFoot
      {
        OFFSET 0 -0.500280623664138 -0.036905110570505176
        CHANNELS 3 Xrotation Yrotation Zrotation
        JOINT LeftToeBase
        {
          OFFSET 0.025950805788189563 -0.14255151365608373 0.19507593811975638
          CHANNELS 3 Xrotation Yrotation Zrotation
          End Site
          {
            OFFSET 0.010732117804750613 -0.000035441498015504746 0.11362327680684622
          }
        }
      }
    }
  }
  JOINT RightUpLeg
  {
    OFFSET -0.12297488233495055 -0.0674172146317622 -0.010003
    CHANNELS 3 Xrotation Yrotation Zrotation
    JOINT RightLeg
    {
      OFFSET 0.00000159348816348992 -0.45703784846455486 0.01030460015485039
      CHANNELS 3 Xrotation Yrotation Zrotation
      JOINT RightFoot
      {
        OFFSET -0.0000015934881634621645 -0.5002806236608007 -0.03690511058134042
        CHANNELS 3 Xrotation Yrotation Zrotation
        JOINT RightToeBase
        {
          OFFSET -0.0259497668227143 -0.14255297441554501 0.19507500887383716
          CHANNELS 3 Xrotation Yrotation Zrotation
          End Site
          {
            OFFSET -0.010733201844058626 -0.000035030229497263656 0.11362417898958707
          }
        }
      }
    }
  }
}
MOTION
Frames: 49
Frame Time: 0.03333333333333333
0.124392 1.104676 0.043372 -4.643522 -35.972013 -1.756107 3.273964 0.422877 0.237790 6.053165 1.059545 -0.436790 6.088776 1.065801 -0.735124 7.905297 3.650264 2.423410 -7.022724 25.624700 -8.204184 -1.198448 4.314663 -15.495279 -11.885319 -23.429594 -61.029312 0.000003 -27.765407 0.000015 11.455010 -25.913779 -2.153896 -0.438481 -8.122700 18.050416 -3.124648 12.954272 58.849947 -0.000008 18.925980 0.000022 21.319589 -25.495709 0.637803 -21.029435 11.364717 15.384689 29.074419 9.661670 -1.926666 -2.003645 2.386350 -8.807562 -0.053140 0.000003 0.000003 -9.602920 -12.914490 -16.006703 31.147320 -3.207879 1.384306 -17.424919 -2.261676 11.339908 0.932688 -0.000025 -0.000001
0.124392 1.104452 0.043372 -4.543201 -35.917042 -1.601495 3.227510 0.422818 0.241867 6.020267 1.059775 -0.434611 6.055593 1.065672 -0.735027 7.897490 3.655859 2.354612 -6.945157 25.577991 -8.284838 -1.226721 4.306813 -15.537620 -11.905968 -23.438768 -60.985281 0.000004 -27.770719 -0.000003 11.295192 -25.846184 -2.323155 -0.480665 -8.068039 18.004949 -3.181445 13.094561 58.825895 -0.000017 18.893159 0.000004 21.490897 -25.431741 0.723799 -21.069178 11.365347 15.385275 28.953225 9.668965 -1.969622 -1.894974 2.257566 -8.846153 -0.061886 0.000003 0.000003 -9.803294 -12.898923 -16.027272 31.374890 -3.278067 1.361006 -17.511437 -2.267156 11.294050 0.906961 0.000043 0.000007
0.124392 1.104064 0.043372 -4.436819 -35.864915 -1.482256 3.172594 0.411218 0.292152 5.965913 1.060612 -0.411132 6.000535 1.066246 -0.719393 7.877684 3.678265 2.273058 -6.883491 25.600565 -8.344877 -1.251554 4.312505 -15.560168 -11.815217 -23.495497 -60.933674 0.000019 -27.812384 0.000018 11.191121 -25.827552 -2.339836 -0.511104 -8.020506 17.960579 -3.244984 13.265585 58.752506 0.000014 18.708373 0.000038 21.707668 -25.320398 0.779534 -21.162511 11.278542 15.376612 28.907970 9.678506 -1.933847 -1.796264 2.274849 -8.948520 -0.057021 0.000000 0.000002 -10.096737 -13.028028 -16.157657 31.714321 -3.153844 1.525873 -17.671216 -2.227493 11.020833 0.815795 -0.000019 -0.000000
0.124392 1.103854 0.043372 -4.290098 -35.794775 -1.327766 3.126628 0.400098 0.321604 5.905984 1.062005 -0.369952 5.939369 1.067415 -0.690226 7.821725 3.710965 2.134006 -6.786284 25.574458 -8.299852 -1.277949 4.321331 -15.580636 -11.735077 -23.536052 -60.883403 -0.000017 -27.862780 -0.000025 11.148912 -25.831190 -2.235383 -0.553295 -7.959083 17.972270 -3.397310 13.454133 58.616269 0.000002 18.409728 -0.000026 21.987005 -25.120445 0.848226 -21.252183 11.256462 15.407683 28.739904 9.689069 -1.945411 -1.626024 2.174928 -9.021114 -0.062349 0.000006 -0.000004 -10.272216 -12.696932 -15.837619 31.991107 -3.724581 1.216001 -17.774697 -2.271331 11.165373 0.848882 -0.000041 0.000010
0.124392 1.103559 0.043372 -4.140488 -35.751631 -1.164820 3.074453 0.387750 0.357367 5.830473 1.063572 -0.327990 5.862300 1.071748 -0.660262 7.762008 3.738616 1.965625 -6.702982 25.528443 -8.232639 -1.315209 4.327472 -15.525807 -11.644616 -23.614204 -60.924491 0.000007 -27.891523 0.000008 11.148346 -25.826411 -2.070535 -0.599465 -7.901988 17.981714 -3.538626 13.671659 58.477230 -0.000010 18.029084 0.000027 22.279201 -24.883527 0.937019 -21.346839 11.215728 15.433182 28.572550 9.702432 -1.944112 -1.441893 2.115736 -9.117412 -0.065895 0.000002 -0.000004 -10.570946 -12.665744 -15.805399 32.311722 -3.829077 1.214014 -17.918895 -2.263797 11.056772 0.871114 0.000030 -0.000001
0.124392 1.103331 0.043372 -4.000098 -35.743229 -0.977120 3.033086 0.377501 0.389468 5.758630 1.050420 -0.281097 5.788593 1.059083 -0.626801 7.662757 3.779419 1.770033 -6.530954 25.519061 -8.278798 -1.346882 4.307301 -15.486177 -11.629084 -23.691625 -60.934728 0.000031 -27.901791 0.000033 11.109414 -25.799975 -1.924243 -0.635513 -7.843123 18.019749 -3.724716 13.931058 58.288734 -0.000003 17.592525 -0.000017 22.545619 -24.655183 1.075277 -21.378177 11.144962 15.390103 28.315252 9.718835 -1.889469 -1.202465 2.141535 -9.258744 -0.070784 -0.000004 -0.000000 -10.900237 -12.611221 -15.776647 32.656398 -3.935719 1.187618 -18.059189 -2.250819 10.932730 0.879504 0.000020 0.000002
0.124392 1.103009 0.043372 -3.854548 -35.755540 -0.766389 2.993206 0.350058 0.426554 5.693074 1.013092 -0.230275 5.720959 1.022425 -0.591522 7.534169 3.826532 1.547014 -6.420860 25.511670 -8.232273 -1.364256 4.269053 -15.496044 -11.613848 -23.823701 -60.888076 -0.000014 -27.921842 -0.000022 10.957821 -25.751648 -1.858694 -0.661608 -7.772697 18.074871 -4.019717 14.208771 58.091768 0.000011 17.116032 -0.000006 22.795143 -24.443912 1.295096 -21.418300 11.089337 15.362191 28.048011 9.735132 -1.859711 -0.936014 2.188083 -9.392296 -0.075617 -0.000003 -0.000005 -11.280550 -12.536892 -15.752085 33.060774 -4.045366 1.152170 -18.231494 -2.242742 10.822462 0.874066 0.000021 -0.000002
0.124392 1.102717 0.043372 -3.668879 -35.829913 -0.528195 2.951308 0.323970 0.472360 5.607793 0.978669 -0.173506 5.633371 0.988683 -0.551308 7.388170 3.873530 1.315370 -6.229850 25.484964 -8.264202 -1.393955 4.222583 -15.542337 -11.601518 -23.987850 -60.811760 -0.000009 -27.954945 -0.000013 10.757541 -25.704793 -1.860481 -0.696551 -7.720355 18.136346 -4.286558 14.470597 57.887002 -0.000013 16.615684 0.000008 23.026762 -24.240526 1.626582 -21.461910 11.046947 15.356825 27.729536 9.751918 -1.843341 -0.632912 2.281235 -9.535230 -0.081130 -0.000002 -0.000001 -11.720006 -12.426136 -15.700215 33.472496 -4.119444 1.100371 -18.394437 -2.228315 10.686844 0.860571 0.000006 -0.000000
0.124392 1.102378 0.043372 -3.466010 -35.935171 -0.272009 2.907977 0.284656 0.517060 5.514654 0.916676 -0.106229 5.537754 0.927410 -0.502588 7.231196 3.921085 1.050655 -6.111606 25.467905 -8.306004 -1.432339 4.154101 -15.580830 -11.629884 -24.161285 -60.765924 -0.000018 -27.984465 -0.000006 10.625199 -25.717311 -1.851723 -0.743328 -7.675724 18.178561 -4.626590 14.670854 57.708433 -0.000013 16.092551 0.000018 23.195210 -24.037551 2.089800 -21.492517 10.978241 15.351897 27.345493 9.770237 -1.792771 -0.275905 2.395866 -9.732153 -0.090820 0.000005 -0.000002 -12.221791 -12.284671 -15.614373 33.954317 -4.208095 1.043245 -18.584381 -2.206789 10.499382 0.832158 0.000028 0.000004
0.124392 1.102105 0.043372 -3.240451 -36.137044 0.038993 2.860891 0.239700 0.558092 5.407988 0.842233 -0.051497 5.428560 0.855707 -0.461007 7.058846 3.977327 0.752705 -5.931469 25.442041 -8.375969 -1.470684 4.080306 -15.613951 -11.641502 -24.350299 -60.658869 0.000019 -28.026264 0.000038 10.514614 -25.813506 -1.789454 -0.789250 -7.632344 18.198914 -4.961374 14.873012 57.580210 -0.000009 15.533232 0.000024 23.269934 -23.837254 2.627952 -21.452542 10.921141 15.322296 26.833860 9.788767 -1.740063 0.161620 2.648984 -9.965450 -0.101240 0.000001 -0.000003 -12.807006 -12.151717 -15.567435 34.466336 -4.215326 1.003062 -18.787422 -2.175928 10.267171 0.827375 0.000037 -0.000001
0.124392 1.101881 0.043372 -3.006428 -36.445307 0.327621 2.811142 0.194719 0.609126 5.290142 0.764425 0.019935 5.308091 0.777797 -0.411657 6.882368 4.029702 0.439291 -5.706335 25.367878 -8.447039 -1.509550 3.998082 -15.686847 -11.591120 -24.602782 -60.492266 0.000008 -28.127483 0.000022 10.303113 -25.930961 -1.715173 -0.837556 -7.590208 18.201655 -5.295680 15.020358 57.471154 -0.000012 14.931440 -0.000008 23.273576 -23.633734 3.107685 -21.379481 10.885395 15.361378 26.264126 9.806024 -1.685052 0.637043 2.976395 -10.241383 -0.110972 0.000003 -0.000002 -13.398651 -11.939273 -15.406689 34.967424 -4.239874 0.916181 -18.977683 -2.139031 10.014794 0.812890 0.000020 0.000002
0.124392 1.101701 0.043372 -2.783835 -36.845848 0.607185 2.757172 0.137074 0.674322 5.159110 0.662594 0.095678 5.174396 0.675490 -0.359824 6.737297 4.084175 0.092415 -5.591331 25.313867 -8.465991 -1.551511 3.889232 -15.728235 -11.559131 -24.876560 -60.348706 0.000004 -28.317570 0.000017 10.015433 -25.973505 -1.721997 -0.886026 -7.541999 18.191377 -5.615473 15.125871 57.404916 -0.000015 14.297848 -0.000022 23.206475 -23.421458 3.449901 -21.228803 10.886576 15.462171 25.585908 9.822785 -1.642614 1.180128 3.358789 -10.558081 -0.119031 -0.000003 -0.000003 -13.973678 -11.699697 -15.180856 35.459240 -4.238059 0.810942 -19.252702 -2.115553 9.800992 0.969759 0.000007 0.000001
0.124392 1.101363 0.043372 -2.686629 -37.374669 0.889336 2.718322 0.068891 0.723103 5.052402 0.537273 0.147365 5.064977 0.550530 -0.320815 6.944240 3.990175 0.640790 -5.379719 25.529976 -9.539421 -1.614638 3.769858 -15.733134 -11.632845 -25.084119 -60.224149 -0.000007 -28.540801 -0.000010 9.758138 -25.926859 -1.800962 -0.938453 -7.570950 18.329081 -5.886101 15.320008 57.206598 0.000003 13.642309 -0.000009 23.102173 -23.288836 3.696921 -20.887393 10.875524 15.449684 24.831136 9.842427 -1.502397 1.771604 3.925934 -10.980196 -0.125011 -0.000006 0.000002 -14.589850 -11.406254 -15.024142 36.117002 -4.124654 0.712193 -19.557393 -2.057665 9.424103 0.944680 -0.000008 0.000002
0.124392 1.100723 0.043372 -2.621347 -38.053502 1.121024 2.667592 -0.020112 0.783570 4.920687 0.373562 0.226455 4.930447 0.387386 -0.255420 7.219766 3.896949 1.227648 -5.085358 25.802186 -10.749146 -1.709610 3.657206 -15.705519 -11.741689 -25.183639 -60.222592 -0.000016 -28.669390 -0.000028 9.598683 -25.880182 -1.830932 -1.051243 -7.549414 18.288286 -6.160384 15.528776 57.171207 -0.000010 12.945902 0.000007 23.112395 -23.339175 3.978043 -20.541254 10.898908 15.532318 24.156812 9.860184 -1.339715 2.317295 4.472737 -11.479731 -0.122031 0.000002 0.000007 -15.256416 -11.094652 -14.833507 36.866050 -3.900446 0.635560 -19.902821 -1.986601 8.973043 0.918465 0.000013 -0.000006
0.124392 1.099875 0.043372 -2.500926 -38.961473 1.227412 2.621339 -0.105203 0.892418 4.788638 0.217295 0.364661 4.795044 0.231940 -0.129312 7.570157 3.805691 1.845832 -4.762980 26.104313 -12.094310 -1.803519 3.492474 -15.748835 -11.985094 -25.495675 -60.354291 0.000012 -28.627084 0.000012 9.815869 -25.934275 -1.732364 -1.161868 -7.546014 18.248342 -6.444466 15.600495 57.053994 -0.000010 12.188241 0.000015 23.299056 -23.449608 4.431897 -20.324165 10.957068 15.896512 23.690259 9.879837 -1.234363 2.794051 5.246849 -12.029147 -0.121675 0.000001 -0.000007 -15.948434 -10.748575 -14.407888 37.578505 -3.570710 0.532808 -20.222358 -1.892857 8.450910 0.895012 0.000031 -0.000000
0.124392 1.098831 0.043372 -2.276213 -40.033107 1.292010 2.593551 -0.209927 1.024820 4.692930 0.022179 0.497966 4.696325 0.038179 -0.007238 7.892365 3.722335 2.535291 -4.461609 26.490933 -13.391709 -1.904019 3.292702 -15.815616 -12.273804 -25.955379 -60.481859 -0.000005 -28.440773 0.000005 10.797143 -26.123071 -1.478756 -1.271487 -7.543045 18.300031 -6.772229 15.663187 56.789601 -0.000001 11.404621 -0.000011 23.455121 -23.374728 4.925987 -20.520398 10.926392 16.414558 23.861612 9.900821 -1.144250 3.000002 6.148573 -12.132523 -0.340476 -0.000004 -0.000003 -16.727795 -10.396905 -13.842951 38.221007 -3.128696 0.396069 -20.323821 -1.789520 7.950913 0.757546 0.000015 -0.000002
0.124392 1.097440 0.043372 -2.075011 -41.200350 1.272447 2.590012 -0.342979 1.191211 4.639752 -0.226029 0.643693 4.640489 -0.207853 0.128597 8.202606 3.632146 3.296828 -4.259835 26.950309 -14.781779 -1.973923 3.050163 -15.798489 -12.692250 -26.659793 -60.691613 -0.000011 -28.168077 -0.000005 12.181921 -26.387973 -1.065947 -1.343244 -7.543524 18.396690 -7.215539 15.651768 56.408984 0.000010 10.702105 -0.000011 23.320448 -23.170999 5.045732 -21.041588 10.828471 17.066925 24.690599 9.983383 -1.063350 2.991940 6.970123 -11.954400 -1.100109 -0.000001 0.000010 -17.608448 -10.037377 -13.254498 39.043361 -2.588974 0.278192 -20.282245 -1.660868 7.414250 0.299903 0.000033 -0.000003
0.124392 1.096019 0.043372 -1.924513 -42.487954 1.203101 2.592982 -0.457025 1.382606 4.594488 -0.448877 0.836719 4.592322 -0.428386 0.314412 8.621866 3.501720 4.111864 -4.078631 27.301995 -16.296005 -2.098866 2.641895 -15.906003 -13.266867 -27.988924 -61.000642 0.000006 -27.863505 0.000028 12.936397 -26.670387 -0.610925 -1.453025 -7.666558 18.482281 -7.432032 15.391319 55.978226 0.000006 10.189273 0.000017 22.753908 -23.095801 4.830429 -21.727327 10.719286 17.948299 25.887686 10.021029 -1.033365 3.514326 7.600638 -12.506552 -2.331552 0.000001 -0.000006 -18.369354 -9.739920 -12.670507 39.721548 -1.905276 0.166001 -20.360229 -1.526663 6.827352 0.134175 0.000015 0.000003
0.124392 1.094414 0.043372 -1.780726 -43.632525 1.206057 2.614942 -0.620082 1.552838 4.573034 -0.774824 1.023589 4.568665 -0.751930 0.497869 9.028486 3.373993 4.946432 -3.818334 27.643420 -17.836236 -2.155034 2.059111 -16.195246 -13.283364 -30.193145 -60.764119 0.000015 -27.581556 0.000028 12.852706 -27.123854 -0.292994 -1.476571 -7.852384 18.618560 -7.497753 15.212711 55.523662 0.000003 9.874574 0.000001 21.515347 -23.190129 4.951638 -22.868360 10.485622 18.813308 27.850466 10.107774 -1.047326 4.273664 8.112651 -12.972907 -4.371440 -0.000003 -0.000006 -19.060864 -9.517827 -12.274998 40.372012 -1.242398 0.088793 -20.543277 -1.410839 6.326885 0.111768 -0.000008 -0.000000
0.124392 1.093592 0.043372 -2.036162 -44.983416 1.292417 2.741757 -0.771500 1.640075 4.733305 -1.089828 1.087816 4.727408 -1.063644 0.568759 9.414470 3.244080 5.779067 -3.509845 28.048600 -19.580621 -2.266959 1.341658 -16.506071 -13.569264 -32.967237 -60.207853 0.000025 -27.399554 0.000004 12.867927 -28.014115 -0.031882 -1.524464 -7.986684 18.565110 -8.291872 14.501036 54.927647 0.000009 9.739961 -0.000013 19.399679 -23.412038 5.543529 -23.650436 10.303636 19.374523 29.864878 10.230594 -1.085719 5.882445 8.530929 -13.938859 -7.532619 -0.000004 0.000006 -19.570294 -9.262304 -12.276303 40.960965 -0.303428 -0.190227 -20.647790 -1.314686 5.925741 0.090453 -0.000003 -0.000003
0.124392 1.093354 0.043372 -2.324641 -45.964255 1.349785 2.874118 -0.975236 1.725289 4.906577 -1.517397 1.153213 4.900229 -1.487316 0.644198 9.756739 3.098660 6.679698 -3.094825 28.395722 -21.460012 -2.386003 0.365541 -16.773292 -13.314445 -36.664007 -59.013575 -0.000001 -27.499908 -0.000003 13.495441 -29.355450 0.564897 -1.546951 -8.234689 18.541801 -8.669212 13.712040 54.572961 -0.000006 9.902501 0.000015 16.452215 -23.837785 5.947824 -24.253426 10.402990 19.898390 31.334658 10.545813 -1.214928 7.474354 8.430511 -14.606509 -8.557952 0.022696 -1.899638 -19.858129 -9.170733 -12.408060 41.320150 0.495022 -0.361675 -20.691296 -1.228254 5.593682 0.069532 -0.000019 0.000002
0.124392 1.093538 0.043372 -2.392501 -46.462119 1.540683 2.971798 -1.208477 1.826982 5.016856 -2.007472 1.205094 5.011306 -1.973676 0.707645 10.001645 2.935823 7.669321 -2.483943 28.623430 -23.388636 -2.495646 -0.880658 -17.014165 -12.723832 -40.531608 -57.126825 -0.000022 -28.090253 -0.000023 14.174252 -30.866454 1.838045 -1.513652 -8.677273 18.647301 -9.011193 12.272629 54.054006 -0.000007 10.546070 0.000002 12.699142 -24.542032 5.752585 -25.133775 10.563785 20.343371 32.726128 10.936768 -1.469912 8.664857 7.765624 -14.294534 -10.589607 0.144226 -2.696811 -20.098303 -9.168343 -12.627336 41.469426 0.974716 -0.458750 -20.673613 -1.176249 5.425048 0.052169 0.000002 -0.000002
0.124392 1.094037 0.043372 -2.475292 -46.824556 1.729602 3.081280 -1.409663 1.937168 5.142674 -2.445167 1.318089 5.137573 -2.406968 0.835646 10.227588 2.787932 8.601479 -1.937790 28.921014 -25.221808 -2.588373 -2.316576 -16.963823 -11.106463 -45.141441 -54.323595 -0.000005 -29.225415 -0.000011 14.579915 -32.376511 3.917870 -1.455328 -9.159481 18.652467 -9.297776 10.511577 53.559876 -0.000026 11.717927 0.000018 7.990269 -25.400087 4.913953 -25.837554 10.922756 20.650493 33.944861 11.303321 -1.888311 9.073715 7.014966 -13.123294 -11.774856 0.309655 -3.648394 -20.175551 -9.072288 -12.879510 41.458837 1.252470 -0.641207 -20.605707 -1.172655 5.495020 0.039760 0.000021 -0.000003
0.124392 1.095773 0.043372 -2.647448 -46.963745 1.885152 3.162615 -1.583543 1.989095 5.233341 -2.851632 1.437568 5.228285 -2.811898 0.971744 10.474717 2.635319 9.571468 -1.331796 29.204282 -26.945898 -2.653850 -4.156509 -17.005217 -7.585401 -50.023175 -49.182569 0.000004 -30.894737 0.000011 15.447760 -33.935680 6.654329 -1.330875 -9.817198 18.675205 -9.277627 8.154288 52.921782 -0.000001 13.393301 -0.000009 1.965372 -26.066035 3.359207 -25.858520 11.557370 20.511849 34.290310 11.583104 -2.299871 8.666518 6.712194 -11.402162 -11.569803 0.506555 -4.730630 -19.912159 -9.164612 -13.373825 41.018409 1.543526 -0.704601 -20.396996 -1.179530 5.652795 0.031244 -0.000015 -0.000000
0.124392 1.098022 0.043372 -2.881008 -46.997843 1.950740 3.209733 -1.728096 1.983534 5.275362 -3.212981 1.561018 5.269572 -3.174630 1.112349 10.773285 2.528533 10.582431 -0.509875 29.692129 -28.627049 -2.682408 -6.014157 -16.549033 -2.903854 -54.100453 -42.539302 -0.000002 -33.294362 -0.000004 17.297092 -35.232690 9.692949 -1.160462 -10.539650 18.923752 -9.059466 5.771435 52.025998 0.000025 15.788278 -0.000007 -5.537602 -26.209325 1.011714 -25.047932 12.247043 19.993389 33.607780 11.691676 -2.487180 7.960198 6.939393 -10.661511 -10.640168 0.768995 -4.911047 -19.388817 -9.306669 -13.916553 40.318127 1.835078 -0.726468 -20.130190 -1.195203 5.898314 0.027393 0.000008 -0.000001
0.124392 1.099811 0.043372 -2.928284 -46.836664 1.875274 3.188540 -1.862551 2.081779 5.210085 -3.521982 1.702220 5.203229 -3.486314 1.264565 11.072115 2.486157 11.603660 0.476747 30.426116 -30.231579 -2.618404 -7.701468 -15.539111 3.735571 -57.061241 -34.150222 0.000003 -36.743004 -0.000011 19.302213 -35.727857 12.405269 -0.971789 -11.235344 19.094396 -8.165178 3.003717 51.181858 -0.000026 19.232992 0.000015 -13.931216 -25.624878 -1.753956 -24.902470 12.457064 19.775343 33.693220 11.231969 -2.714595 7.925428 8.425540 -10.709199 -10.778993 0.739827 -4.650651 -18.750893 -9.360494 -14.136938 39.488291 1.788839 -0.789729 -19.866087 -1.259286 6.356275 0.026739 0.000024 0.000006
0.124392 1.100906 0.043372 -3.212710 -46.641275 1.666876 3.177184 -1.981260 2.165363 5.172607 -3.779493 1.749958 5.165582 -3.746844 1.320745 11.337479 2.528074 12.598445 1.624075 31.540658 -31.862108 -2.554773 -9.029808 -13.980162 10.393652 -58.061306 -25.561164 -0.000003 -41.214616 -0.000015 20.430135 -35.417846 14.018883 -0.841043 -11.975782 19.353957 -7.117832 -0.314856 50.246934 0.000033 23.531173 -0.000042 -22.329595 -24.315635 -4.345622 -24.879230 12.580471 19.688116 34.480608 11.029933 -3.220708 7.978425 9.939953 -10.903848 -11.486137 0.526092 -4.226054 -18.012314 -9.600331 -14.667233 38.778087 1.974131 -0.806763 -19.702877 -1.345857 6.869478 0.027618 0.000031 0.000006
0.124392 1.101460 0.043372 -2.959109 -46.283083 1.466433 3.080753 -2.075221 2.285533 4.973170 -3.996177 1.890229 4.962677 -3.971356 1.463186 11.623032 2.623564 13.538406 2.731421 32.896980 -33.506697 -2.414229 -9.678556 -11.952544 15.711333 -57.764607 -18.526035 -0.000008 -46.244142 -0.000005 20.841889 -34.722721 14.477439 -0.708644 -12.684782 19.589946 -6.620873 -3.860364 49.336552 -0.000019 28.019611 0.000016 -30.349058 -22.295418 -6.888859 -25.214155 12.376020 19.979951 35.251089 11.009349 -3.576323 8.045119 10.324846 -12.142144 -12.585050 0.291225 -2.921880 -17.360095 -9.651139 -14.699660 37.899472 1.634162 -0.781587 -19.475093 -1.466766 7.565333 0.030450 0.000014 0.000004
0.124392 1.101739 0.043372 -2.846946 -45.627484 1.147546 2.992438 -2.169398 2.362740 4.788413 -4.210595 1.967067 4.774116 -4.195587 1.540691 11.925553 2.781446 14.394725 3.630489 34.500776 -34.899402 -2.253324 -9.525097 -9.764512 18.816748 -56.634088 -13.747731 -0.000035 -51.436843 -0.000042 21.197540 -33.890597 14.450716 -0.548491 -13.382792 19.886801 -6.408438 -6.908032 48.547511 0.000014 32.326054 -0.000014 -37.890645 -19.368147 -9.896264 -25.136692 12.354045 19.865451 35.635079 10.808660 -3.799711 6.621850 10.619646 -12.154776 -11.839667 0.181085 -2.286194 -16.482065 -9.882178 -14.831658 36.978143 1.206155 -0.697994 -19.293154 -1.583888 8.187301 0.001067 -0.000010 0.000003
0.124392 1.102610 0.043372 -2.784518 -44.466776 0.823501 2.903024 -2.272993 2.331066 4.583892 -4.455837 1.927244 4.565229 -4.453356 1.501344 12.264619 2.965431 15.207591 4.298859 36.164325 -35.977011 -2.153267 -8.994264 -7.906366 20.798248 -53.677332 -10.247471 0.000009 -56.799626 0.000008 21.106431 -32.825904 14.403326 -0.365952 -14.125501 20.255046 -6.526590 -10.052583 47.908863 0.000012 36.533228 -0.000010 -44.701218 -15.624782 -13.148296 -24.892569 12.488887 19.745166 35.676256 10.499703 -4.110599 5.196175 10.147938 -12.082791 -11.173981 0.082990 -1.435074 -15.145153 -10.314573 -14.976706 35.667422 0.456035 -0.569941 -19.148313 -1.684713 8.632696 0.001765 0.000005 0.000001
0.124392 1.103419 0.043372 -2.768740 -42.904522 0.568095 2.818162 -2.340761 2.191977 4.380277 -4.628274 1.710959 4.357559 -4.639160 1.286164 12.536320 3.070007 16.060411 4.940254 37.487385 -36.911808 -2.068781 -7.691876 -6.135238 21.706135 -50.085297 -8.248111 -0.000030 -62.399865 -0.000024 19.493631 -31.339372 13.954550 -0.044654 -15.006307 20.857807 -7.405949 -13.054902 47.013661 -0.000006 40.675641 -0.000001 -50.870490 -11.532837 -16.026095 -24.608338 12.719923 19.540960 35.807363 10.209369 -4.548798 3.365511 8.776827 -11.355358 -10.297716 0.027666 -0.922816 -13.503306 -10.884743 -15.231656 34.194913 -0.656842 -0.472015 -18.926117 -1.841866 9.274036 0.002348 -0.000026 0.000004
0.124392 1.104316 0.043372 -2.619912 -41.078312 0.420102 2.752555 -2.368446 1.973924 4.174718 -4.756761 1.430615 4.144231 -4.784802 1.011147 12.769981 3.078022 16.642189 5.541699 38.288839 -37.598523 -2.163356 -6.014273 -4.813658 21.247434 -45.239781 -8.014770 -0.000044 -67.828890 -0.000051 16.832204 -29.373056 12.779368 0.183913 -15.854707 21.317167 -8.976929 -15.875456 45.871178 -0.000028 44.445869 -0.000004 -56.946678 -7.104175 -18.159189 -24.530562 12.898150 19.308216 36.065067 10.017427 -4.940517 1.744914 7.070830 -10.577010 -9.686702 0.004556 -0.520840 -11.733073 -11.458541 -15.413211 32.584383 -2.073108 -0.403886 -18.637635 -2.056057 10.175439 0.001700 -0.000004 0.001725
0.124392 1.106044 0.043372 -2.206804 -38.777966 0.494896 2.591079 -2.331591 1.640971 3.855238 -4.743094 0.998569 3.816373 -4.792113 0.573596 12.964376 3.074800 16.928834 5.861129 38.968127 -38.053580 -2.349566 -3.719513 -3.412658 19.620774 -39.738484 -9.342123 0.000020 -72.152607 0.000026 15.270385 -27.238407 11.640012 0.243394 -16.363975 21.114790 -10.841053 -19.260297 44.809036 0.000005 47.510837 -0.000013 -63.084157 -2.094354 -19.391631 -24.154690 13.020887 18.343414 35.535540 9.973431 -5.006864 -0.493705 5.815287 -9.044688 -7.692371 0.002212 -0.591632 -9.874181 -12.297451 -15.621091 30.702415 -3.922348 -0.184664 -18.333891 -2.222986 10.785823 0.000829 -0.000006 0.004710
0.124392 1.108592 0.043372 -1.813009 -36.314918 0.625344 2.422842 -2.145070 1.095158 3.603413 -4.447441 0.452509 3.556799 -4.519386 0.023506 13.068925 3.071494 17.154883 6.040629 39.673400 -38.644583 -2.579059 -1.398813 -2.350960 17.589042 -33.720777 -10.957724 -0.000012 -74.601201 -0.000006 15.630969 -25.545406 11.387377 0.122710 -16.629776 21.098289 -13.317623 -22.150654 43.028465 -0.000020 49.934884 -0.000001 -68.797435 3.076035 -19.865233 -23.600701 13.062674 17.055674 34.593131 9.977684 -4.840433 -2.521251 4.625970 -7.209303 -5.762277 0.000573 -0.300090 -8.212561 -13.223869 -15.762600 29.210571 -6.123876 0.176321 -18.147548 -2.198708 10.312289 -0.830447 -0.000046 -0.000006
0.124392 1.111299 0.043372 -1.394433 -33.563997 0.924785 2.189897 -1.988118 0.499601 3.304632 -4.171381 -0.200724 3.252329 -4.264915 -0.645018 13.260137 3.258479 17.080637 6.385133 41.086493 -39.356247 -3.082036 0.798374 -1.040397 15.196378 -26.885008 -14.087240 0.000004 -75.313199 0.000003 16.511225 -24.137567 11.779707 -0.196767 -16.570462 19.719099 -15.565264 -25.316445 42.017265 -0.000006 52.104160 -0.000001 -73.782598 7.742290 -19.930074 -23.440570 12.642350 15.507559 34.015738 10.003071 -4.317266 -3.435228 3.259210 -6.105274 -5.176415 0.000065 -0.099376 -6.910237 -14.125796 -15.984741 28.303027 -8.784826 0.530967 -17.845308 -2.016111 9.660787 -2.704757 -0.000021 -0.000005
0.124392 1.113375 0.043372 -0.976589 -30.321426 1.377539 1.999622 -1.736705 0.044438 3.128016 -3.661046 -0.929446 3.075758 -3.772964 -1.392240 13.312248 3.475671 16.806317 6.341709 42.671537 -39.490720 -3.484498 2.543023 -0.114870 12.005017 -18.687307 -17.298956 -0.000013 -75.263962 -0.000005 17.001476 -22.024261 12.165603 -0.745934 -15.815071 18.168348 -18.660936 -29.930529 40.312346 0.000010 54.460250 0.000006 -78.315055 12.122773 -19.821815 -23.713035 12.189906 14.090943 33.852817 9.862545 -3.951779 -3.590280 1.351768 -5.428540 -5.491434 0.000092 -0.120740 -6.259153 -14.660669 -16.436109 28.664753 -10.571590 0.762752 -16.842687 -2.857444 9.832650 -5.105370 -0.000001 -0.000002
0.124392 1.114649 0.043372 -0.396910 -26.711292 2.056212 1.868405 -1.416443 -0.352519 3.061786 -2.992105 -1.587219 3.013356 -3.117976 -2.076375 13.071289 3.716742 16.104687 6.643872 44.199238 -39.296553 -3.770875 3.820690 0.293647 9.488651 -9.477291 -20.561904 -0.000038 -75.582619 -0.000039 17.523669 -18.784778 12.218166 -1.286730 -14.843533 16.652196 -24.458961 -34.266337 36.843498 0.000007 57.458613 -0.000002 -82.360678 17.375447 -19.889575 -24.101599 11.887483 12.581636 33.445240 8.061270 -3.833987 -3.873051 0.608908 -4.201088 -5.509967 0.000012 -0.048630 -5.936133 -15.186171 -16.944918 29.406913 -11.030362 1.008402 -15.748516 -5.420914 9.966387 -6.300841 -0.007768 1.156260
0.124392 1.115010 0.043372 0.201930 -22.824297 2.641208 1.766656 -1.163979 -0.727669 3.042475 -2.455112 -2.204969 3.001973 -2.588576 -2.713505 12.882287 3.900939 15.361312 7.531314 45.414584 -38.336997 -4.136890 4.582598 0.415840 7.342873 1.237964 -23.879659 0.000028 -76.898120 0.000040 17.679202 -15.286399 11.346261 -2.027677 -13.782180 14.963064 -29.715231 -38.315593 33.573383 0.000002 61.230390 0.000010 -85.016299 24.179079 -20.574446 -24.558693 11.540699 11.127988 32.997440 5.364395 -3.712468 -4.253216 0.581974 -3.006432 -5.242435 -0.000000 -0.011435 -5.784474 -16.018542 -17.712409 30.517230 -11.595825 1.581043 -14.471519 -7.024855 10.757919 -8.135489 -0.148084 5.064822
0.124392 1.115040 0.043372 0.792900 -18.746058 3.035926 1.769426 -0.878179 -1.179487 3.184263 -1.877273 -2.876312 3.157925 -2.020818 -3.397736 12.727840 4.048699 14.562091 8.214760 46.380105 -36.981999 -4.442510 5.325044 0.157188 6.659188 12.587820 -26.375691 -0.000098 -79.033273 -0.000100 16.737816 -12.331227 9.502733 -4.900005 -12.448152 11.805593 -35.080688 -42.512809 30.061859 -0.000026 65.132353 0.000025 -85.255650 31.433441 -21.433670 -25.041449 11.123844 9.844418 32.410224 2.443847 -3.622131 -4.566835 0.545841 -1.931654 -4.729656 -0.000000 -0.026438 -5.572879 -17.260543 -18.343065 31.464180 -12.244902 2.345287 -13.106550 -8.544542 11.619553 -10.357465 -0.498116 7.370917
0.124392 1.114287 0.043372 1.373697 -14.689750 2.805135 1.851536 -0.520877 -1.589179 3.472005 -1.153708 -3.503014 3.472858 -1.312667 -4.028485 12.562498 4.030395 13.463616 8.175264 46.314769 -33.596779 -4.782276 6.314648 -0.607339 6.814954 21.242567 -27.586217 -0.000008 -81.399943 -0.000003 15.897757 -9.089190 8.171093 -8.591170 -11.000509 9.548126 -42.906819 -44.894971 24.568996 -0.000026 68.459506 0.000022 -81.459194 36.896687 -21.505222 -26.097792 10.611271 9.350028 32.411510 -0.715918 -3.646779 -4.898364 0.503313 -0.861848 -4.249404 0.000023 -0.059264 -5.118303 -18.539889 -18.029208 32.180801 -12.981070 3.030775 -12.097257 -9.892796 11.854001 -12.623968 -0.897451 8.102808
0.124392 1.113119 0.043372 2.030985 -10.859203 1.961238 1.700394 -0.113348 -1.713408 3.671198 -0.354996 -3.859173 3.708336 -0.536484 -4.385823 12.345891 3.847321 12.296095 8.120051 45.294819 -30.138438 -4.937225 7.307021 -1.496669 10.276753 25.884821 -30.971376 0.000110 -83.449585 0.000114 16.880541 -4.685803 8.224749 -13.083472 -9.742900 6.736948 -50.639829 -45.434619 20.996651 -0.000048 71.115800 0.000041 -71.384344 39.261794 -20.968266 -27.735555 9.913949 9.565519 32.827184 -3.852569 -3.723387 -5.109209 0.459239 0.131817 -3.798192 0.000074 -0.110311 -4.257110 -20.100237 -16.716681 32.098862 -13.686253 3.793606 -12.103287 -10.666770 10.662786 -13.179470 -1.377086 9.483370
0.124392 1.111553 0.043372 2.569672 -7.129244 0.441138 1.468789 0.133950 -1.149366 3.783411 -0.000303 -3.615981 3.865102 -0.176152 -4.122473 12.107850 3.486236 11.289639 8.279646 43.314355 -26.682475 -4.984018 8.199371 -2.463988 13.622781 30.150333 -34.815252 -0.000064 -84.187125 -0.000065 19.124433 -0.748176 7.985894 -19.193586 -7.517007 2.463951 -55.468404 -45.248687 23.858466 -0.000022 73.097677 0.000033 -56.388951 39.803073 -20.689751 -29.758538 8.893132 10.335087 33.525110 -6.862470 -3.617154 -5.063892 0.426698 0.794827 -3.313638 0.000332 -0.227526 -2.490076 -21.549972 -14.073909 30.942350 -14.204054 4.433648 -12.678730 -11.388828 9.111700 -12.656346 -1.948378 10.503401
0.124392 1.109819 0.043372 2.775962 -4.727027 -2.012936 1.391339 0.241265 0.374331 3.906845 0.080517 -2.640444 4.020473 -0.023862 -3.121280 11.939078 2.947460 10.049555 7.596583 40.295754 -22.567685 -4.802444 8.858287 -3.357300 18.269551 30.827551 -40.439014 -0.000099 -82.234486 -0.000091 20.098703 0.541818 6.108296 -26.209626 -2.655008 -1.035055 -52.022793 -41.073565 32.955432 0.000046 73.967967 -0.000040 -42.773187 40.881739 -21.816900 -31.940906 7.412531 12.398474 34.817410 -8.950221 -3.516703 -4.891465 0.418913 0.770794 -3.043938 0.001239 -0.443873 0.117050 -22.769142 -9.958611 28.600687 -14.192567 4.450276 -13.155919 -11.740449 8.011657 -11.687561 -2.159706 10.506127
0.124392 1.109501 0.043372 2.559263 -3.409997 -3.722128 1.564671 0.669433 1.239374 4.205352 1.072714 -1.923479 4.274730 1.031439 -2.457676 11.762438 2.288271 9.013205 7.390743 36.600581 -19.787716 -4.523903 9.416451 -4.257324 21.055905 28.866497 -45.318904 -0.000002 -76.819836 -0.000007 18.334761 -0.879320 3.122873 -31.908789 2.475421 -2.130432 -47.464682 -31.227251 43.965704 0.000023 72.827976 -0.000020 -34.305499 42.856162 -25.964179 -33.014533 6.366211 14.076223 35.054968 -9.701087 -3.543531 -4.006698 -0.104587 0.256584 -2.977323 0.002932 -0.683004 1.940581 -23.144601 -6.718845 27.012829 -12.965561 4.140011 -13.849141 -12.736782 6.479420 -10.841194 -2.020814 10.528695
0.124392 1.111560 0.043372 2.274590 -2.411552 -3.567182 1.753105 1.237965 0.783599 4.438351 2.446129 -1.922870 4.475062 2.401577 -2.533307 11.569180 1.345909 7.900763 7.245459 30.906845 -16.881402 -4.321443 9.660938 -5.306675 18.929654 18.935477 -47.813475 0.000052 -68.946544 0.000058 15.894659 -3.758816 0.068256 -35.005211 5.193034 -0.899766 -50.581840 -25.182372 52.887907 0.000007 67.122245 -0.000029 -28.426929 44.320641 -32.202530 -32.474493 6.315445 14.103676 33.085670 -9.751115 -3.554304 -2.356473 -0.784950 -0.557509 -2.886819 0.004109 -0.662232 2.856262 -22.785561 -5.503412 26.062362 -12.794800 3.863508 -14.807361 -12.123576 5.604855 -10.395467 -1.902681 10.093849
0.124392 1.114565 0.043372 1.626475 -2.245363 -3.269844 2.345263 2.293486 1.211457 4.874625 4.803530 -1.254694 4.851585 4.791495 -1.990925 11.049654 0.142076 6.652583 6.336169 23.475537 -13.397311 -3.947550 9.975460 -6.794874 15.422334 9.022871 -48.441507 -0.000030 -61.155843 -0.000024 15.828829 -7.325823 -2.020144 -32.071617 7.358246 1.454227 -53.902442 -13.160011 58.150760 -0.000001 54.193214 -0.000001 -25.893616 42.005843 -34.394919 -31.181858 6.446523 14.027801 30.733774 -9.786707 -3.446483 -0.679204 -0.736830 -1.529053 -2.916498 0.003822 -0.416921 3.848119 -21.859288 -5.031231 25.029153 -12.242094 3.674827 -14.927469 -10.229295 6.135080 -11.260985 -1.708240 8.359937
0.124392 1.114063 0.043372 0.755600 -1.812117 -2.918136 2.761495 3.311028 1.158338 5.057011 6.962110 -0.741104 5.015972 6.943005 -1.572140 10.383975 -1.343629 5.428688 4.409049 14.830774 -10.216612 -3.493631 10.008570 -8.187085 11.975735 -0.536017 -48.895705 -0.000005 -55.426737 0.000011 18.080129 -11.249256 -2.504267 -26.664668 10.031308 3.948680 -60.083487 -1.387816 59.085596 0.000019 36.493067 -0.000011 -32.393403 33.563666 -27.115938 -30.327682 6.531186 13.909376 29.508769 -9.779386 -3.309709 0.650132 -1.092808 -2.518731 -3.112218 -0.000183 0.012662 4.324957 -20.608854 -5.693752 25.475076 -11.176471 4.801407 -14.214064 -11.398155 8.782360 -13.452230 -0.675601 4.829161
0.124392 1.108935 0.043372 -0.019657 -0.457596 -2.338520 2.999837 3.987790 0.988817 5.155769 8.854176 -0.623521 5.122176 8.808792 -1.553431 9.270811 -2.975518 4.448148 2.245226 5.548190 -7.744818 -3.197762 9.845457 -9.481514 8.257389 -8.984244 -49.181644 -0.000029 -52.083660 -0.000028 20.067780 -15.159436 -2.007694 -20.489738 14.609339 6.569551 -64.860737 7.941124 54.702799 0.000004 20.617766 0.000002 -43.538871 17.440200 -15.378523 -30.252261 6.216560 13.131668 29.573538 -9.678020 -2.906804 1.007650 -2.127918 -2.943678 -2.595575 -0.000249 0.017322 5.628344 -20.207038 -5.863235 24.942821 -10.275500 5.627628 -15.583904 -12.243652 10.212208 -12.666756 -0.212214 2.018717
0.124392 1.098894 0.043372 -0.636803 1.311894 -1.551221 3.519194 4.512467 0.551963 5.598810 10.668794 -0.836951 5.579209 10.595868 -1.843312 7.783705 -4.458764 3.523596 -0.307334 -2.615496 -5.585631 -3.063751 9.535869 -10.840910 3.887309 -16.245296 -49.340399 -0.000006 -50.528536 -0.000008 20.289932 -18.764959 -1.602925 -14.966732 19.498204 9.062586 -62.958161 17.065662 46.265827 0.000005 10.330500 -0.000004 -48.929944 -3.419002 -5.290084 -31.413100 5.592493 12.067596 31.612237 -9.558064 -2.409369 0.779070 -3.341169 -3.200752 -2.462369 -0.000229 0.016110 6.771874 -20.311592 -5.823874 24.821746 -9.830479 5.909892 -18.742333 -12.635724 10.803245 -9.026064 0.032936 -0.756980
