HIERARCHY
ROOT Hips
{
  OFFSET 0 1.1673769999999999 0
  CHANNELS 6 Xposition Yposition Zposition Xrotation Yrotation Zrotation
  JOINT Spine
  {
    OFFSET 0.000003812944337411511 0.10717500000681812 -0.009311
    CHANNELS 3 Xrotation Yrotation Zrotation
    JOINT Spine1
    {
      OFFSET 0 0.1058532983696241 -0.004285186608692496
      CHANNELS 3 Xrotation Yrotation Zrotation
      JOINT Spine2
      {
        OFFSET -8.470329472543003e-22 0.10599345671141647 -0.007812688101110094
        CHANNELS 3 Xrotation Yrotation Zrotation
        JOINT Neck
        {
          OFFSET -8.470329472543003e-22 0.26240299999999994 -0.04488100000000002
          CHANNELS 3 Xrotation Yrotation Zrotation
          JOINT Head
          {
            OFFSET -4.235164736271502e-22 0.17466899999999996 0.05625600000000003
            CHANNELS 3 Xrotation Yrotation Zrotation
            End Site
            {
              OFFSET -4.235164736271502e-22 0.10756799999999966 0.021070000000000005
            }
          }
        }
        JOINT LeftShoulder
        {
          OFFSET 0.10574399999999999 0.23009199999999996 -0.07323000000000002
          CHANNELS 3 Xrotation Yrotation Zrotation
          JOINT LeftArm
          {
            OFFSET 0.14878212914559852 -0.04653266654569688 -0.030693304075147546
            CHANNELS 3 Xrotation Yrotation Zrotation
            JOINT LeftForeArm
            {
              OFFSET 0.24109000000000003 2.220446049250313e-16 -5.551115123125783e-17
              CHANNELS 3 Xrotation Yrotation Zrotation
              JOINT LeftHand
              {
                OFFSET 0.316792 0 -1.1102230246251565e-16
                CHANNELS 3 Xrotation Yrotation Zrotation
                End Site
                {
                  OFFSET 0.06265729429771016 -0.10569948639925819 0.03859412819617963
                }
              }
            }
          }
        }
        JOINT RightShoulder
        {
          OFFSET -0.10574399999999999 0.23009099999999982 -0.07323000000000002
          CHANNELS 3 Xrotation Yrotation Zrotation
          JOINT RightArm
          {
            OFFSET -0.14878040829228295 -0.04653159475972379 -0.030692917709113934
            CHANNELS 3 Xrotation Yrotation Zrotation
            JOINT RightForeArm
            {
              OFFSET -0.24109000000000003 -6.661338147750939e-16 -2.7755575615628914e-17
              CHANNELS 3 Xrotation Yrotation Zrotation
              JOINT RightHand
              {
                OFFSET -0.31679300000631333 -8.881784197001252e-16 -5.551115123125783e-17
                CHANNELS 3 Xrotation Yrotation Zrotation
                End Site
                {
                  OFFSET -0.06265795211397429 -0.10570764472283312 0.03859362014678265
                }
              }
            }
          }
        }
      }
    }
  }
  JOINT LeftUpLeg
  {
    OFFSET 0.12297511767165623 -0.06742078536803264 -0.010003
    CHANNELS 3 Xrotation Yrotation Zrotation
    JOINT LeftLeg
    {
      OFFSET 0 -0.457033849483632 0.010304509991859542
      CHANNELS 3 Xrotation Yrotation Zrotation
      JOINT LeftFoot
      {
        OFFSET 0 -0.500280623664138 -0.036905110570505176
        CHANNELS 3 Xrotation Yrotation Zrotation
        JOINT LeftToeBase
        {
          OFFSET 0.025950805788189563 -0.14255151365608373 0.19507593811975638
          CHANNELS 3 Xrotation Yrotation Zrotation
          End Site
          {
            OFFSET 0.010732117804750613 -0.000035441498015504746 0.11362327680684622
          }
        }
      }
    }
  }
  JOINT RightUpLeg
  {
    OFFSET -0.12297488233495055 -0.0674172146317622 -0.010003
    CHANNELS 3 Xrotation Yrotation Zrotation
    JOINT RightLeg
    {
      OFFSET 0.00000159348816348992 -0.45703784846455486 0.01030460015485039
      CHANNELS 3 Xrotation Yrotation Zrotation
      JOINT RightFoot
      {
        OFFSET -0.0000015934881634621645 -0.5002806236608007 -0.03690511058134042
        CHANNELS 3 Xrotation Yrotation Zrotation
        JOINT RightToeBase
        {
          OFFSET -0.0259497668227143 -0.14255297441554501 0.19507500887383716
          CHANNELS 3 Xrotation Yrotation Zrotation
          End Site
          {
            OFFSET -0.010733201844058626 -0.000035030229497263656 0.11362417898958707
          }
        }
      }
    }
  }
}
MOTION
Frames: 121
Frame Time: 0.03333333333333333
-0.002321 1.096572 0.001917 -2.442034 -15.635395 -1.281054 1.945763 2.725277 -0.495061 1.279845 2.291074 -0.472948 1.234573 2.312874 -0.501595 0.778804 -0.055799 3.899941 23.732776 6.139215 1.930522 2.428417 -8.370050 2.013415 -33.333268 -71.062838 -53.734622 0.000001 -24.723319 0.000007 -99.891724 -5.166354 -9.177145 -0.102157 -9.038429 10.198090 170.290212 79.949335 -157.107806 -0.000001 21.557518 0.000002 -51.743562 -12.400184 -15.830532 -26.997810 22.373740 11.018571 35.438734 7.525052 10.251161 -8.808440 1.094460 -9.770763 -0.000141 0.000005 -0.000003 -22.749172 -21.878360 -8.124694 36.035329 -4.884722 -10.209428 -12.574733 -1.501192 9.968565 0.000011 0.000007 -0.000004
-0.002321 1.096573 0.001917 -2.431576 -15.609847 -1.284350 1.947763 2.728971 -0.531906 1.287872 2.294957 -0.492781 1.242184 2.317092 -0.520825 0.794760 -0.094055 3.990381 23.840423 6.118003 1.821180 2.518133 -8.573536 2.373611 -33.542722 -70.702777 -53.979940 -0.000011 -24.999826 -0.000012 -99.868526 -5.229590 -8.981608 -0.111558 -9.190594 10.481157 169.393276 79.862555 -156.202576 0.000001 21.559243 -0.000002 -51.538299 -12.577443 -15.618547 -27.006433 22.385318 11.047167 35.440422 7.548257 10.250851 -8.816614 1.087850 -9.789233 -0.000141 0.000005 -0.000003 -22.759892 -21.954125 -8.153124 36.034694 -4.845408 -10.209445 -12.583506 -1.495065 9.962753 0.000011 0.000007 -0.000003
-0.002321 1.096496 0.001917 -2.419221 -15.589518 -1.274909 1.956379 2.724011 -0.565873 1.304347 2.291941 -0.518065 1.257904 2.315022 -0.545191 0.806810 -0.127176 4.068843 23.950684 6.101997 1.711622 2.619221 -8.783507 2.820211 -34.007871 -70.122970 -54.509032 0.000004 -25.388026 0.000004 -99.756753 -5.290461 -8.714174 -0.117895 -9.299537 10.681165 168.853934 79.798821 -155.679521 -0.000002 21.540814 0.000004 -51.246313 -12.803430 -15.281108 -27.014098 22.386142 11.064262 35.454682 7.609315 10.250470 -8.832201 1.078396 -9.821157 -0.000141 0.000005 -0.000005 -22.801616 -22.029479 -8.206142 36.071048 -4.786097 -10.209033 -12.608074 -1.487175 9.952543 0.000011 0.000006 -0.000005
-0.002321 1.096374 0.001917 -2.408046 -15.560759 -1.257252 1.970950 2.701793 -0.591848 1.328293 2.275541 -0.543038 1.281867 2.299732 -0.569073 0.809019 -0.148411 4.123154 24.042092 6.100931 1.642462 2.719813 -8.971633 3.311774 -34.759866 -69.326117 -55.361465 0.000002 -25.842413 -0.000002 -99.531095 -5.336968 -8.423634 -0.121904 -9.365631 10.795002 168.944782 79.759555 -155.801371 -0.000001 21.506095 0.000002 -50.948779 -13.155257 -14.879769 -27.001973 22.315308 11.036021 35.469480 7.728711 10.249737 -8.843998 1.076916 -9.867882 -0.000141 0.000005 -0.000004 -22.868064 -22.144505 -8.291562 36.135114 -4.681448 -10.208278 -12.646754 -1.479519 9.928734 0.000010 0.000008 -0.000002
-0.002321 1.096273 0.001917 -2.395247 -15.523774 -1.240316 1.983234 2.667621 -0.607986 1.350561 2.249932 -0.562100 1.304648 2.274941 -0.587011 0.809892 -0.159412 4.158688 24.102363 6.112890 1.620832 2.806393 -9.120415 3.763177 -35.796328 -68.375791 -56.527029 0.000004 -26.244544 0.000009 -99.180109 -5.353960 -8.189975 -0.124074 -9.401606 10.852127 169.704104 79.744659 -156.585406 0.000003 21.473349 -0.000002 -50.731941 -13.666626 -14.507182 -26.978741 22.186757 10.969616 35.476314 7.868656 10.249348 -8.847258 1.078587 -9.912514 -0.000141 0.000005 -0.000005 -22.941281 -22.291966 -8.386541 36.196365 -4.545456 -10.207519 -12.682878 -1.471957 9.892804 0.000010 0.000008 -0.000002
-0.002321 1.096245 0.001917 -2.382123 -15.490079 -1.229083 1.985736 2.635855 -0.616485 1.362336 2.226058 -0.572769 1.316814 2.251541 -0.596742 0.819826 -0.165107 4.183984 24.130445 6.127763 1.628037 2.863784 -9.214289 4.078900 -37.077965 -67.379364 -57.945458 -0.000003 -26.464445 0.000007 -98.718242 -5.331355 -8.086883 -0.124540 -9.413855 10.872112 170.874588 79.754547 -157.761244 0.000001 21.455457 -0.000003 -50.619816 -14.276831 -14.225900 -26.953277 22.056032 10.893643 35.466945 7.977922 10.249402 -8.839914 1.080001 -9.939947 -0.000141 0.000005 -0.000004 -23.003415 -22.452673 -8.471251 36.232667 -4.394392 -10.207200 -12.704957 -1.462614 9.848229 0.000011 0.000007 -0.000004
-0.002321 1.096293 0.001917 -2.376308 -15.468190 -1.221918 1.978798 2.617362 -0.622568 1.363246 2.212254 -0.576835 1.317795 2.238000 -0.600199 0.838931 -0.167750 4.204061 24.128264 6.144837 1.646024 2.888641 -9.256354 4.224216 -38.458800 -66.449454 -59.443728 0.000002 -26.458104 0.000004 -98.202705 -5.274819 -8.132944 -0.123795 -9.407293 10.866446 172.067268 79.789621 -158.937730 -0.000005 21.446863 -0.000005 -50.554619 -14.841549 -14.033145 -26.923158 21.962990 10.825107 35.441154 8.033135 10.249832 -8.824393 1.080533 -9.945929 -0.000141 0.000005 -0.000005 -23.046096 -22.614633 -8.546399 36.243834 -4.236854 -10.207263 -12.713559 -1.449859 9.799195 0.000011 0.000007 -0.000003
-0.002321 1.096387 0.001917 -2.381209 -15.453757 -1.214632 1.967357 2.611269 -0.629889 1.358216 2.208106 -0.577848 1.312664 2.233985 -0.600865 0.861198 -0.164131 4.222030 24.096659 6.185570 1.667166 2.892092 -9.272428 4.230018 -39.659520 -65.706953 -60.718746 0.000005 -26.290600 0.000011 -97.733501 -5.206043 -8.284465 -0.122240 -9.390046 10.847893 173.057428 79.847838 -159.890026 -0.000002 21.432963 0.000001 -50.445512 -15.212217 -13.890287 -26.887417 21.920845 10.766906 35.406954 8.031658 10.250799 -8.807001 1.081749 -9.931245 -0.000142 0.000004 -0.000005 -23.071316 -22.768964 -8.620809 36.240763 -4.085395 -10.207640 -12.714939 -1.434678 9.753745 0.000011 0.000006 -0.000004
-0.002321 1.096498 0.001917 -2.394414 -15.434979 -1.204220 1.954081 2.607475 -0.635624 1.350226 2.206084 -0.577001 1.304636 2.231956 -0.599775 0.883013 -0.147451 4.235760 24.042871 6.278537 1.685566 2.883609 -9.279058 4.137270 -40.417460 -65.280449 -61.500565 -0.000001 -26.050641 -0.000001 -97.415716 -5.148434 -8.484522 -0.119664 -9.361267 10.811343 173.923573 79.922202 -160.697949 0.000004 21.407545 -0.000005 -50.248353 -15.320997 -13.787471 -26.851011 21.914532 10.716582 35.368242 7.988050 10.251709 -8.784453 1.083200 -9.902322 -0.000141 0.000005 -0.000005 -23.089339 -22.915388 -8.697914 36.233572 -3.949409 -10.208010 -12.712492 -1.418799 9.712091 0.000010 0.000007 -0.000003
-0.002321 1.096604 0.001917 -2.407040 -15.408488 -1.192769 1.939066 2.596162 -0.631382 1.339904 2.198355 -0.571929 1.294563 2.224052 -0.594470 0.902200 -0.112786 4.230636 23.987030 6.424251 1.691600 2.859098 -9.258616 3.955933 -40.620720 -65.237874 -61.688863 0.000005 -25.813137 0.000021 -97.301285 -5.113976 -8.685966 -0.115286 -9.300699 10.713991 174.920384 80.003867 -161.625298 0.000001 21.377266 0.000005 -50.016365 -15.193746 -13.780974 -26.820695 21.915342 10.670496 35.329012 7.938632 10.252729 -8.757595 1.084744 -9.871030 -0.000141 0.000005 -0.000003 -23.111584 -23.057643 -8.773583 36.227262 -3.826160 -10.208483 -12.707327 -1.403145 9.671510 0.000011 0.000006 -0.000004
-0.002321 1.096703 0.001917 -2.414769 -15.385448 -1.182041 1.924054 2.575521 -0.611546 1.329216 2.182988 -0.560052 1.284566 2.208360 -0.582346 0.914863 -0.062480 4.186263 23.951729 6.580814 1.679987 2.808904 -9.178568 3.684524 -40.340852 -65.538270 -61.376939 -0.000003 -25.614320 0.000006 -97.370476 -5.100917 -8.867445 -0.108195 -9.185539 10.507284 176.241863 80.085778 -162.878116 -0.000003 21.351224 -0.000003 -49.872827 -14.906039 -13.960421 -26.799530 21.920225 10.632955 35.291027 7.896545 10.253802 -8.729400 1.086324 -9.843129 -0.000141 0.000005 -0.000004 -23.140464 -23.189742 -8.841626 36.220382 -3.707596 -10.208795 -12.697466 -1.387734 9.629632 0.000011 0.000006 -0.000005
-0.002321 1.096801 0.001917 -2.422326 -15.376410 -1.170024 1.912304 2.551148 -0.580456 1.321378 2.164216 -0.542803 1.277791 2.189172 -0.564822 0.919448 -0.007070 4.098096 23.944480 6.692355 1.658259 2.732341 -9.028467 3.345312 -39.776523 -66.064630 -60.780672 -0.000008 -25.442149 -0.000021 -97.558484 -5.099869 -9.034565 -0.098138 -9.020789 10.198806 177.881995 80.161764 -164.452902 -0.000005 21.334628 0.000006 -49.924618 -14.546752 -14.373099 -26.784429 21.958461 10.612766 35.254070 7.834153 10.254605 -8.703213 1.087725 -9.812252 -0.000141 0.000005 -0.000003 -23.169304 -23.296735 -8.902728 36.213008 -3.592484 -10.209247 -12.683831 -1.372283 9.590597 0.000010 0.000008 -0.000002
-0.002321 1.096900 0.001917 -2.435667 -15.374375 -1.155341 1.904244 2.529186 -0.547948 1.317640 2.147104 -0.524693 1.275227 2.171696 -0.546412 0.920809 0.040060 3.988114 23.956614 6.730891 1.640921 2.638595 -8.824665 2.983448 -39.176482 -66.699045 -60.155351 0.000007 -25.246411 0.000008 -97.793057 -5.100317 -9.209192 -0.086337 -8.843273 9.862691 179.658885 80.225930 -166.161199 -0.000006 21.328965 0.000006 -50.187208 -14.210977 -14.966738 -26.769103 22.036709 10.605069 35.220041 7.742695 10.255437 -8.682131 1.088811 -9.773043 -0.000141 0.000005 -0.000004 -23.188745 -23.380725 -8.962723 36.207176 -3.480741 -10.209562 -12.673186 -1.355986 9.557847 0.000010 0.000008 -0.000002
-0.002321 1.096983 0.001917 -2.453047 -15.369781 -1.143214 1.896998 2.511714 -0.519208 1.316652 2.133695 -0.508371 1.275198 2.158029 -0.529845 0.925942 0.070311 3.889871 23.977620 6.709813 1.635901 2.540385 -8.595954 2.643215 -38.719570 -67.342567 -59.680162 0.000011 -25.004377 0.000006 -98.015632 -5.095945 -9.396680 -0.075261 -8.694500 9.585546 -178.732458 80.274314 -167.698190 -0.000007 21.334130 0.000014 -50.561957 -13.988924 -15.597543 -26.752493 22.113607 10.600405 35.192971 7.651847 10.256202 -8.665938 1.089453 -9.735222 -0.000141 0.000005 -0.000004 -23.204040 -23.467994 -9.027021 36.205936 -3.360825 -10.209587 -12.667583 -1.336914 9.527296 0.000010 0.000008 -0.000002
-0.002321 1.097027 0.001917 -2.471448 -15.363860 -1.142676 1.889556 2.499189 -0.493876 1.316657 2.124444 -0.493115 1.275698 2.148684 -0.514491 0.937600 0.083051 3.826295 24.003705 6.663505 1.641832 2.452653 -8.383646 2.357072 -38.455091 -67.896980 -59.402128 -0.000001 -24.750660 0.000002 -98.187473 -5.086705 -9.576620 -0.066842 -8.596330 9.414144 -177.672967 80.305941 -168.697454 -0.000001 21.348178 -0.000006 -50.956512 -13.911905 -16.104845 -26.743778 22.163772 10.599078 35.186700 7.582486 10.256661 -8.661872 1.089122 -9.702328 -0.000141 0.000005 -0.000005 -23.219735 -23.569580 -9.088740 36.209515 -3.232144 -10.210065 -12.663374 -1.316436 9.496950 0.000011 0.000006 -0.000005
-0.002321 1.097027 0.001917 -2.495730 -15.358606 -1.155191 1.885102 2.494144 -0.473144 1.316837 2.120897 -0.478316 1.275878 2.145228 -0.499648 0.954534 0.082440 3.802245 24.035366 6.619614 1.657797 2.389490 -8.234404 2.146496 -38.365760 -68.290427 -59.300248 0.000007 -24.515251 0.000007 -98.295213 -5.075176 -9.738303 -0.061760 -8.550630 9.351382 -177.422033 80.323094 -168.914568 -0.000007 21.367728 0.000002 -51.273170 -13.963433 -16.401211 -26.740652 22.206382 10.618160 35.203938 7.521685 10.256700 -8.673934 1.088203 -9.678476 -0.000141 0.000005 -0.000004 -23.219597 -23.652022 -9.127011 36.216825 -3.130157 -10.210802 -12.663156 -1.301355 9.473520 0.000010 0.000007 -0.000003
-0.002321 1.097026 0.001917 -2.531204 -15.364436 -1.177946 1.886278 2.499165 -0.461826 1.317077 2.124862 -0.466124 1.275793 2.149461 -0.487143 0.975109 0.072531 3.811683 24.072834 6.587171 1.688824 2.354490 -8.164313 2.018306 -38.400423 -68.521504 -59.322798 -0.000004 -24.303747 -0.000009 -98.353663 -5.065187 -9.888993 -0.060197 -8.552339 9.381516 -177.817454 80.329790 -168.507594 0.000005 21.389491 -0.000003 -51.469594 -14.083041 -16.491749 -26.739908 22.280950 10.666760 35.228850 7.443014 10.256539 -8.691668 1.085940 -9.652963 -0.000141 0.000005 -0.000004 -23.177324 -23.661721 -9.117474 36.210430 -3.105694 -10.210988 -12.660345 -1.297861 9.470997 0.000011 0.000007 -0.000004
-0.002321 1.097058 0.001917 -2.569634 -15.378498 -1.204770 1.890344 2.512250 -0.462442 1.316981 2.135369 -0.459372 1.275259 2.160336 -0.479674 0.998700 0.055353 3.846685 24.113721 6.562661 1.738819 2.339767 -8.143872 1.967281 -38.515618 -68.668842 -59.428924 -0.000001 -24.106732 -0.000004 -98.400044 -5.060131 -10.038913 -0.062274 -8.597333 9.490508 -178.280160 80.334127 -168.032380 -0.000000 21.410559 -0.000015 -51.516165 -14.212419 -16.444439 -26.745423 22.404765 10.746898 35.248883 7.331389 10.256436 -8.708263 1.082732 -9.622405 -0.000142 0.000004 -0.000005 -23.095227 -23.567724 -9.047468 36.177183 -3.193825 -10.211452 -12.642892 -1.308538 9.497171 0.000011 0.000007 -0.000004
-0.002321 1.097093 0.001917 -2.594855 -15.383799 -1.231297 1.890187 2.526329 -0.471895 1.314674 2.147417 -0.458070 1.272533 2.172705 -0.477604 1.026555 0.032770 3.899309 24.151889 6.541021 1.800578 2.335547 -8.132700 1.980822 -38.622228 -68.838313 -59.532441 -0.000007 -23.930318 0.000000 -98.481580 -5.065110 -10.178838 -0.067365 -8.678668 9.663603 -178.295886 80.345088 -167.980054 0.000004 21.426784 -0.000006 -51.401569 -14.313600 -16.337921 -26.771615 22.542401 10.844104 35.267862 7.210463 10.256247 -8.721796 1.074332 -9.592405 -0.000141 0.000005 -0.000004 -23.000699 -23.397207 -8.931407 36.126965 -3.377105 -10.211831 -12.614910 -1.331535 9.545575 0.000011 0.000006 -0.000005
-0.002321 1.097088 0.001917 -2.599610 -15.371360 -1.251084 1.879496 2.534732 -0.484717 1.307069 2.155684 -0.459475 1.264568 2.181112 -0.478593 1.061880 0.008308 3.958159 24.179610 6.519032 1.855150 2.333492 -8.110200 2.029982 -38.555521 -69.121966 -59.470217 0.000008 -23.782945 0.000012 -98.643209 -5.088533 -10.289582 -0.073764 -8.778621 9.869271 -177.870857 80.362693 -168.339919 0.000003 21.433580 -0.000007 -51.167457 -14.367020 -16.224005 -26.815482 22.635853 10.928135 35.289817 7.128418 10.255934 -8.729806 1.065723 -9.576462 -0.000142 0.000004 -0.000005 -22.933671 -23.224977 -8.816418 36.088719 -3.579701 -10.211975 -12.591594 -1.358621 9.595539 0.000011 0.000007 -0.000004
-0.002321 1.097041 0.001917 -2.590064 -15.350886 -1.258051 1.858043 2.537462 -0.497585 1.292943 2.159664 -0.461066 1.250149 2.185018 -0.480333 1.106081 -0.014233 4.009493 24.194817 6.491486 1.884649 2.324407 -8.069921 2.068467 -38.165235 -69.579777 -59.089934 0.000006 -23.658129 0.000005 -98.906492 -5.138517 -10.355848 -0.079653 -8.872984 10.061866 -177.446968 80.379964 -168.686098 0.000001 21.430397 -0.000016 -50.898105 -14.364572 -16.116258 -26.857676 22.669847 10.979484 35.307862 7.103065 10.255611 -8.729964 1.059645 -9.579710 -0.000142 0.000004 -0.000005 -22.912731 -23.112629 -8.745013 36.079566 -3.724143 -10.211834 -12.583186 -1.379687 9.627580 0.000011 0.000007 -0.000004
-0.002321 1.096985 0.001917 -2.577822 -15.336015 -1.253029 1.832089 2.541328 -0.510513 1.275343 2.164194 -0.462380 1.232284 2.189368 -0.482285 1.155006 -0.034194 4.045817 24.204411 6.450291 1.889335 2.304383 -8.015905 2.065987 -37.459533 -70.197257 -58.393833 0.000001 -23.543831 -0.000000 -99.249291 -5.216665 -10.369027 -0.084529 -8.950796 10.219250 -177.484403 80.392776 -168.580713 -0.000012 21.423376 0.000018 -50.657164 -14.302096 -15.996568 -26.885547 22.673910 11.001883 35.315315 7.107883 10.255409 -8.722816 1.054688 -9.591918 -0.000141 0.000005 -0.000004 -22.927455 -23.075007 -8.726208 36.093498 -3.782396 -10.211499 -12.587395 -1.389275 9.635411 0.000011 0.000006 -0.000004
-0.002321 1.096945 0.001917 -2.572410 -15.328576 -1.243018 1.808793 2.553279 -0.524297 1.259193 2.174476 -0.464187 1.215763 2.199493 -0.484692 1.201630 -0.053729 4.069640 24.215022 6.390714 1.889176 2.282483 -7.970715 2.038347 -36.644654 -70.859309 -57.583932 0.000003 -23.435019 0.000007 -99.611031 -5.315776 -10.330351 -0.089269 -9.025016 10.366623 -178.226640 80.397162 -167.792808 0.000003 21.416775 -0.000007 -50.448399 -14.163196 -15.833757 -26.894105 22.668644 11.003208 35.313866 7.119417 10.255426 -8.712973 1.052434 -9.602294 -0.000142 0.000004 -0.000005 -22.960432 -23.105190 -8.748406 36.118366 -3.762240 -10.211166 -12.596477 -1.387283 9.620270 0.000011 0.000006 -0.000005
-0.002321 1.096912 0.001917 -2.573422 -15.324085 -1.233747 1.791051 2.572622 -0.536317 1.247306 2.189891 -0.466640 1.203312 2.214868 -0.487211 1.242808 -0.072666 4.082535 24.221187 6.315777 1.905126 2.270735 -7.956571 2.013523 -35.938560 -71.415061 -56.877603 -0.000005 -23.356818 -0.000001 -99.926177 -5.422707 -10.242594 -0.094649 -9.112066 10.536949 -179.734160 80.383792 -166.261984 -0.000003 21.407540 -0.000001 -50.242872 -13.908822 -15.613434 -26.891450 22.647032 10.986778 35.311255 7.134421 10.255377 -8.702934 1.050818 -9.607550 -0.000141 0.000005 -0.000004 -23.004554 -23.195588 -8.798849 36.152125 -3.675910 -10.210801 -12.610449 -1.379375 9.584594 0.000010 0.000008 -0.000002
-0.002321 1.096864 0.001917 -2.576821 -15.321719 -1.226871 1.777955 2.589655 -0.539879 1.239698 2.203035 -0.468392 1.195163 2.228000 -0.488579 1.280905 -0.085250 4.072896 24.206316 6.231539 1.942536 2.264067 -7.953769 1.975504 -35.394915 -71.810809 -56.331534 -0.000013 -23.323605 -0.000015 -100.164543 -5.520434 -10.124880 -0.099782 -9.199711 10.706745 178.162034 80.343278 -164.153563 -0.000001 21.391065 0.000004 -50.041838 -13.500322 -15.362409 -26.884931 22.601816 10.955460 35.314731 7.160259 10.255073 -8.696184 1.050627 -9.610771 -0.000141 0.000005 -0.000004 -23.058133 -23.326914 -8.865170 36.197496 -3.540925 -10.210365 -12.632507 -1.367024 9.533176 0.000010 0.000007 -0.000003
-0.002321 1.096801 0.001917 -2.580556 -15.320807 -1.220914 1.768394 2.593261 -0.529117 1.235315 2.205308 -0.467184 1.190823 2.230183 -0.486935 1.317361 -0.084579 4.023958 24.159137 6.142233 1.993865 2.239174 -7.900124 1.867380 -34.926020 -72.132461 -55.861858 0.000004 -23.301570 0.000008 -100.341182 -5.591329 -10.022770 -0.102692 -9.247339 10.797228 175.975360 80.283200 -161.979453 0.000003 21.371647 -0.000006 -49.822670 -12.974517 -15.145332 -26.873674 22.541821 10.915016 35.326784 7.195734 10.255235 -8.698591 1.054941 -9.616414 -0.000141 0.000005 -0.000003 -23.114081 -23.462448 -8.932786 36.250386 -3.393185 -10.210079 -12.660149 -1.354690 9.478036 0.000011 0.000006 -0.000004
-0.002321 1.096740 0.001917 -2.583423 -15.320522 -1.214348 1.762416 2.579558 -0.504882 1.232857 2.193691 -0.461390 1.189410 2.218355 -0.480862 1.346417 -0.069843 3.936518 24.089188 6.055227 2.047501 2.178029 -7.745429 1.659861 -34.434114 -72.502831 -55.373194 0.000011 -23.244529 0.000016 -100.494112 -5.626236 -9.984857 -0.102108 -9.225823 10.752691 174.348052 80.230679 -160.380056 -0.000004 21.358710 0.000001 -49.631951 -12.425128 -15.019335 -26.858224 22.474396 10.869045 35.338036 7.239828 10.255311 -8.702727 1.060636 -9.624320 -0.000141 0.000005 -0.000003 -23.160436 -23.569261 -8.989214 36.297665 -3.273134 -10.209571 -12.686358 -1.345425 9.433628 0.000010 0.000008 -0.000002
-0.002321 1.096679 0.001917 -2.587140 -15.320312 -1.211788 1.759273 2.553171 -0.473342 1.230780 2.171914 -0.451294 1.188927 2.196292 -0.470593 1.358587 -0.047535 3.836279 24.023957 5.986433 2.087763 2.087373 -7.502017 1.392996 -33.871582 -72.974706 -54.818329 -0.000007 -23.135822 -0.000002 -100.656832 -5.628482 -10.031863 -0.098453 -9.149587 10.603469 173.557734 80.202045 -159.627634 0.000003 21.356029 -0.000005 -49.505108 -11.979040 -14.996474 -26.838088 22.375619 10.814025 35.346216 7.315602 10.254930 -8.701695 1.068262 -9.640075 -0.000141 0.000005 -0.000003 -23.195195 -23.642149 -9.028894 36.334296 -3.197333 -10.209026 -12.703710 -1.339157 9.404673 0.000011 0.000006 -0.000005
-0.002321 1.096594 0.001917 -2.587033 -15.319712 -1.215530 1.756189 2.521646 -0.440672 1.228279 2.146236 -0.438415 1.187359 2.170328 -0.457541 1.351301 -0.025680 3.754517 23.988060 5.952439 2.096097 1.995410 -7.244222 1.146525 -33.165116 -73.488281 -54.119309 -0.000000 -23.033630 0.000006 -100.837273 -5.612959 -10.127956 -0.093652 -9.063177 10.437769 173.365534 80.182817 -159.476113 -0.000006 21.358956 0.000004 -49.462033 -11.717800 -15.043775 -26.822007 22.229298 10.752369 35.358815 7.433908 10.254515 -8.696444 1.080033 -9.670209 -0.000141 0.000005 -0.000005 -23.227340 -23.696533 -9.053067 36.367658 -3.155496 -10.208512 -12.716883 -1.335481 9.385523 0.000011 0.000007 -0.000004
-0.002321 1.096490 0.001917 -2.575667 -15.318280 -1.225690 1.750339 2.490672 -0.410614 1.226029 2.121626 -0.424556 1.184668 2.145490 -0.443492 1.333380 -0.008857 3.706261 23.987606 5.955744 2.064588 1.930887 -7.058157 0.977848 -32.365037 -73.884414 -53.320923 -0.000006 -23.017762 -0.000007 -100.991853 -5.593826 -10.209137 -0.089815 -9.003502 10.328622 173.376072 80.152274 -159.521861 -0.000001 21.361445 -0.000004 -49.485381 -11.641327 -15.115987 -26.827472 22.083081 10.705489 35.386091 7.546547 10.253901 -8.700173 1.092557 -9.700383 -0.000141 0.000005 -0.000004 -23.256357 -23.735652 -9.062210 36.395968 -3.138760 -10.208002 -12.730566 -1.333694 9.378643 0.000010 0.000008 -0.000002
-0.002321 1.096396 0.001917 -2.563056 -15.314583 -1.237834 1.742184 2.465009 -0.386772 1.224946 2.102031 -0.412132 1.182277 2.125744 -0.430895 1.316635 0.000596 3.690260 24.015645 5.980258 2.007632 1.904003 -6.983833 0.893368 -32.000220 -73.974587 -52.958785 -0.000002 -23.046427 -0.000012 -101.023983 -5.569095 -10.269127 -0.087786 -8.982664 10.301014 173.412823 80.112731 -159.578785 -0.000004 21.363716 0.000008 -49.530315 -11.691400 -15.185220 -26.855765 22.001372 10.691838 35.419216 7.594718 10.253297 -8.707211 1.095845 -9.710938 -0.000141 0.000005 -0.000005 -23.271492 -23.742454 -9.052985 36.413508 -3.154158 -10.207551 -12.740054 -1.333804 9.383431 0.000011 0.000007 -0.000004
-0.002321 1.096334 0.001917 -2.558152 -15.309451 -1.251179 1.736061 2.450778 -0.374487 1.225083 2.092071 -0.403679 1.181228 2.115765 -0.422353 1.304773 -0.000982 3.703984 24.065464 6.002448 1.954115 1.908848 -7.006302 0.876060 -32.701482 -73.636772 -53.673290 0.000000 -23.041722 0.000004 -100.841459 -5.531447 -10.321395 -0.087807 -9.001355 10.354161 173.474902 80.082358 -159.640121 -0.000000 21.370813 -0.000011 -49.556240 -11.797140 -15.242252 -26.894113 21.995429 10.710909 35.449690 7.570642 10.252872 -8.712967 1.095380 -9.699645 -0.000141 0.000005 -0.000004 -23.262451 -23.711893 -9.023809 36.416394 -3.200209 -10.207375 -12.743179 -1.337609 9.398167 0.000011 0.000006 -0.000004
-0.002321 1.096302 0.001917 -2.563293 -15.302494 -1.269713 1.736688 2.453081 -0.377506 1.226438 2.095486 -0.399948 1.182151 2.119409 -0.418651 1.293729 -0.017521 3.750071 24.130457 6.008081 1.926804 1.938936 -7.099883 0.927841 -34.410355 -72.929581 -55.403069 0.000001 -22.972122 -0.000002 -100.457738 -5.485720 -10.364071 -0.090346 -9.061637 10.485391 173.491801 80.072045 -159.641487 -0.000000 21.386397 0.000000 -49.539705 -11.920677 -15.271018 -26.936250 22.041709 10.755994 35.480175 7.492337 10.252650 -8.719694 1.092527 -9.672427 -0.000141 0.000005 -0.000004 -23.230215 -23.662324 -8.978483 36.406466 -3.260397 -10.207403 -12.740592 -1.345109 9.417003 0.000011 0.000007 -0.000003
-0.002321 1.096275 0.001917 -2.579957 -15.290344 -1.298083 1.744888 2.470159 -0.392293 1.229716 2.110779 -0.399282 1.185734 2.135219 -0.418108 1.282283 -0.047271 3.825871 24.196036 6.000759 1.929713 2.000692 -7.278790 1.072425 -36.330745 -72.058793 -57.332332 -0.000001 -22.875864 -0.000005 -100.002528 -5.451458 -10.375840 -0.095053 -9.155518 10.674377 173.341743 80.080437 -159.477999 0.000007 21.407015 -0.000015 -49.469108 -12.069982 -15.234744 -26.984554 22.118324 10.823291 35.518246 7.375740 10.252368 -8.729000 1.086062 -9.632200 -0.000142 0.000004 -0.000005 -23.180625 -23.609820 -8.920042 36.389747 -3.324650 -10.207555 -12.733155 -1.353616 9.434865 0.000011 0.000007 -0.000003
-0.002321 1.096241 0.001917 -2.605950 -15.274783 -1.335293 1.756129 2.492008 -0.406793 1.235142 2.129977 -0.399013 1.191427 2.155106 -0.418000 1.277669 -0.079962 3.912986 24.242842 5.995551 1.952321 2.107934 -7.588168 1.309635 -37.692682 -71.169590 -58.670043 0.000004 -22.850222 0.000004 -99.600335 -5.446672 -10.326464 -0.099861 -9.251175 10.860961 173.044993 80.102187 -159.184279 -0.000002 21.422387 -0.000005 -49.343892 -12.269467 -15.096526 -27.038724 22.210170 10.905818 35.566352 7.240668 10.251990 -8.742178 1.075571 -9.583873 -0.000141 0.000005 -0.000004 -23.122713 -23.561872 -8.854923 36.372594 -3.380351 -10.207731 -12.722771 -1.361191 9.448442 0.000010 0.000008 -0.000002
-0.002321 1.096202 0.001917 -2.632211 -15.262867 -1.374677 1.764049 2.507691 -0.408083 1.241011 2.144040 -0.397012 1.196840 2.169798 -0.416134 1.287526 -0.103329 3.985351 24.261256 6.004293 1.981714 2.260212 -8.033570 1.585075 -38.301988 -70.243221 -59.220183 -0.000003 -22.971608 -0.000009 -99.273793 -5.469040 -10.208728 -0.102588 -9.309550 10.974960 172.746646 80.130702 -158.907241 -0.000000 21.423373 0.000012 -49.187138 -12.523342 -14.855719 -27.097926 22.309084 10.994148 35.618413 7.105080 10.251636 -8.757703 1.062729 -9.533488 -0.000141 0.000005 -0.000004 -23.073430 -23.531510 -8.797109 36.359352 -3.404029 -10.207928 -12.711339 -1.362817 9.452628 0.000011 0.000007 -0.000004
-0.002321 1.096164 0.001917 -2.648394 -15.261452 -1.409639 1.766760 2.513677 -0.393007 1.245018 2.149668 -0.392570 1.200122 2.175848 -0.411778 1.308624 -0.112568 4.028707 24.258174 6.027145 2.009567 2.429184 -8.533672 1.821289 -38.422370 -69.264866 -59.264748 -0.000004 -23.223952 -0.000004 -98.993624 -5.499317 -10.054593 -0.102649 -9.317066 10.993267 172.539937 80.155675 -158.733180 -0.000003 21.409948 -0.000013 -49.054087 -12.804188 -14.560012 -27.162057 22.406884 11.079783 35.666961 6.980689 10.251322 -8.773295 1.048449 -9.486748 -0.000142 0.000004 -0.000005 -23.042566 -23.516540 -8.751259 36.349468 -3.399985 -10.208133 -12.699268 -1.362296 9.449919 0.000011 0.000006 -0.000004
-0.002321 1.096139 0.001917 -2.654734 -15.264181 -1.438368 1.767357 2.513551 -0.369293 1.246705 2.149647 -0.386401 1.201606 2.176071 -0.405651 1.328268 -0.111791 4.047303 24.246869 6.056374 2.031022 2.572132 -8.960866 1.974606 -38.368990 -68.408106 -59.141659 0.000002 -23.485564 0.000005 -98.777887 -5.519187 -9.929217 -0.100949 -9.290589 10.946778 172.453837 80.170573 -158.684184 -0.000003 21.391431 0.000005 -49.006173 -13.078221 -14.279016 -27.220892 22.484961 11.151366 35.705319 6.883611 10.250970 -8.785645 1.035421 -9.449653 -0.000141 0.000005 -0.000005 -23.012580 -23.467605 -8.696247 36.332214 -3.429189 -10.208368 -12.683154 -1.364297 9.459767 0.000010 0.000008 -0.000002
-0.002321 1.096140 0.001917 -2.659646 -15.269158 -1.463042 1.768537 2.511730 -0.346480 1.247303 2.147755 -0.379350 1.202606 2.174341 -0.398611 1.337621 -0.106884 4.050819 24.230990 6.082633 2.043324 2.660966 -9.229084 2.048161 -38.203263 -67.921105 -58.925445 0.000000 -23.647701 -0.000010 -98.695599 -5.527043 -9.882110 -0.098906 -9.251857 10.872765 172.558655 80.179205 -158.826206 0.000002 21.376485 -0.000014 -49.079113 -13.324790 -14.057059 -27.260695 22.531441 11.200869 35.727823 6.824537 10.250628 -8.791124 1.025804 -9.424177 -0.000141 0.000005 -0.000004 -22.951111 -23.307156 -8.595148 36.289995 -3.575914 -10.208668 -12.653311 -1.376106 9.507567 0.000011 0.000006 -0.000005
-0.002321 1.096183 0.001917 -2.666080 -15.278411 -1.482811 1.770873 2.510458 -0.328626 1.248379 2.145899 -0.371783 1.204275 2.172625 -0.391030 1.340051 -0.100768 4.041518 24.196708 6.093770 2.048539 2.696101 -9.338540 2.061577 -37.832889 -67.890564 -58.521601 -0.000005 -23.701891 -0.000002 -98.784279 -5.530654 -9.915095 -0.097461 -9.211538 10.786240 172.901677 80.186850 -159.203434 0.000004 21.367030 -0.000011 -49.260307 -13.539014 -13.902637 -27.273283 22.551836 11.226412 35.730031 6.799568 10.250398 -8.790296 1.020801 -9.409712 -0.000142 0.000004 -0.000005 -22.845487 -23.004419 -8.434601 36.215900 -3.867099 -10.209027 -12.606918 -1.402682 9.601031 0.000010 0.000008 -0.000002
-0.002321 1.096266 0.001917 -2.678066 -15.287414 -1.492649 1.775815 2.512111 -0.316658 1.251849 2.145728 -0.365263 1.208134 2.172616 -0.384513 1.344628 -0.095867 4.018781 24.122326 6.073513 2.053770 2.695294 -9.345423 2.029930 -37.282220 -68.192769 -57.944391 0.000007 -23.674840 -0.000003 -99.002189 -5.531580 -10.013430 -0.097465 -9.180096 10.703948 173.317133 80.188403 -159.647890 -0.000008 21.359362 -0.000004 -49.496847 -13.720271 -13.803757 -27.255465 22.556419 11.224712 35.708227 6.798266 10.250280 -8.778915 1.018367 -9.401771 -0.000142 0.000004 -0.000005 -22.722689 -22.635777 -8.256236 36.127856 -4.220935 -10.209495 -12.550811 -1.435950 9.711146 0.000010 0.000008 -0.000002
-0.002321 1.096375 0.001917 -2.697509 -15.289701 -1.485363 1.787047 2.520594 -0.313708 1.260131 2.150423 -0.364030 1.216395 2.177525 -0.383373 1.354336 -0.096830 3.990779 24.003168 6.012039 2.063832 2.678815 -9.310499 1.969539 -36.721735 -68.612208 -57.354024 -0.000001 -23.603985 0.000001 -99.257319 -5.526291 -10.149165 -0.100020 -9.177496 10.663201 173.463902 80.173125 -159.817148 -0.000008 21.351295 0.000010 -49.720215 -13.860130 -13.744283 -27.206308 22.564206 11.194257 35.666213 6.799546 10.250411 -8.761352 1.016539 -9.394101 -0.000142 0.000004 -0.000005 -22.620450 -22.323947 -8.126878 36.055414 -4.514229 -10.209938 -12.503375 -1.465092 9.801028 0.000011 0.000007 -0.000004
-0.002321 1.096499 0.001917 -2.731105 -15.289762 -1.458239 1.807133 2.538587 -0.329731 1.274335 2.162774 -0.373991 1.230182 2.190180 -0.393543 1.363752 -0.107079 3.972584 23.867791 5.921484 2.074046 2.659628 -9.267400 1.903675 -36.365347 -68.994409 -56.965097 -0.000007 -23.490336 -0.000007 -99.469049 -5.512369 -10.303192 -0.105572 -9.217198 10.694981 173.140098 80.140953 -159.507365 0.000004 21.345287 -0.000008 -49.879413 -13.949016 -13.708009 -27.125250 22.605485 11.140862 35.610480 6.777166 10.251017 -8.744062 1.014831 -9.376921 -0.000141 0.000005 -0.000003 -22.549053 -22.129585 -8.093415 36.010235 -4.677273 -10.210370 -12.471490 -1.489699 9.864630 0.000010 0.000007 -0.000003
-0.002321 1.096634 0.001917 -2.778478 -15.293021 -1.413711 1.832556 2.564004 -0.359403 1.291889 2.181546 -0.394832 1.247039 2.209322 -0.414679 1.366682 -0.123050 3.972919 23.759393 5.837550 2.071709 2.640805 -9.219379 1.850221 -36.305380 -69.286787 -56.878716 -0.000009 -23.332258 -0.000013 -99.603081 -5.488245 -10.458985 -0.112469 -9.284628 10.781067 172.532977 80.107494 -158.904066 0.000002 21.344829 -0.000005 -49.947486 -13.996210 -13.686310 -27.018904 22.693558 11.075069 35.545603 6.725643 10.252001 -8.730186 1.011965 -9.348425 -0.000141 0.000005 -0.000004 -22.519760 -22.038708 -8.162035 36.012112 -4.721341 -10.158283 -12.462919 -1.495541 9.863058 0.000011 0.000006 -0.000005
-0.002321 1.096737 0.001917 -2.823351 -15.309130 -1.359651 1.855410 2.590845 -0.398896 1.307678 2.201748 -0.421328 1.262175 2.229804 -0.441521 1.361366 -0.135775 3.989536 23.698322 5.800721 2.045038 2.619296 -9.153506 1.814350 -36.491478 -69.480598 -57.054918 0.000000 -23.167653 0.000002 -99.654741 -5.458394 -10.585379 -0.117912 -9.343580 10.861989 172.052397 80.093206 -158.419828 -0.000001 21.349613 0.000006 -49.933475 -14.021153 -13.675745 -26.917458 22.809123 11.013137 35.486568 6.666240 10.252723 -8.722350 1.006789 -9.317886 -0.000141 0.000005 -0.000004 -22.524673 -22.043578 -8.235282 36.018952 -4.687233 -10.188938 -12.453529 -1.502172 9.870271 0.000011 0.000006 -0.000004
-0.002321 1.096798 0.001917 -2.846426 -15.341814 -1.315687 1.869121 2.614300 -0.431736 1.318083 2.219145 -0.443337 1.272147 2.247288 -0.463889 1.347585 -0.139076 4.017331 23.672315 5.832349 1.994622 2.593282 -9.064932 1.795582 -36.877572 -69.548595 -57.450048 -0.000004 -23.046133 -0.000001 -99.622773 -5.429080 -10.653196 -0.120234 -9.368545 10.894519 171.918946 80.105603 -158.283755 -0.000004 21.357681 0.000005 -49.867334 -14.040555 -13.675026 -26.859227 22.923003 10.981813 35.447071 6.615641 10.253183 -8.719830 1.002847 -9.294099 -0.000141 0.000005 -0.000004 -22.567797 -22.107111 -8.320160 36.039679 -4.594677 -10.211191 -12.448272 -1.496357 9.851139 0.000011 0.000006 -0.000005
-0.002321 1.096792 0.001917 -2.843633 -15.383818 -1.292798 1.874289 2.633872 -0.457955 1.323897 2.233314 -0.456999 1.277815 2.261367 -0.477569 1.323834 -0.133795 4.054531 23.663112 5.925463 1.940490 2.568794 -8.975019 1.799825 -37.448361 -69.465680 -58.039665 0.000003 -22.983228 0.000007 -99.510616 -5.406352 -10.653680 -0.119886 -9.367793 10.893874 171.966506 80.130452 -158.337518 -0.000005 21.368103 -0.000005 -49.784035 -14.056634 -13.682056 -26.862776 23.018841 10.995248 35.442163 6.576594 10.253434 -8.726143 1.000911 -9.280145 -0.000141 0.000005 -0.000003 -22.640967 -22.205869 -8.390243 36.077797 -4.473048 -10.211098 -12.452171 -1.481453 9.799747 0.000011 0.000007 -0.000003
-0.002321 1.096735 0.001917 -2.826483 -15.423589 -1.292037 1.875335 2.651424 -0.473552 1.327637 2.246082 -0.462902 1.281539 2.274023 -0.482546 1.291059 -0.124581 4.100226 23.668148 6.053651 1.913358 2.557332 -8.921182 1.839740 -38.050997 -69.276848 -58.656000 0.000004 -22.981310 0.000011 -99.355895 -5.392506 -10.588969 -0.118940 -9.372342 10.913727 171.843484 80.143787 -158.229076 -0.000003 21.380873 -0.000006 -49.713096 -14.065398 -13.693029 -26.913114 23.101134 11.049660 35.468572 6.540156 10.253219 -8.742354 0.999187 -9.271867 -0.000141 0.000005 -0.000004 -22.707337 -22.298535 -8.434471 36.108998 -4.367745 -10.210984 -12.455764 -1.467099 9.762553 0.000011 0.000007 -0.000004
-0.002321 1.096640 0.001917 -2.809247 -15.454235 -1.304841 1.876029 2.666680 -0.483619 1.330517 2.257501 -0.465604 1.284452 2.285456 -0.483235 1.257310 -0.115442 4.149711 23.691733 6.186741 1.929514 2.563395 -8.916744 1.921517 -38.455351 -69.105492 -59.064660 0.000001 -23.033997 0.000001 -99.214684 -5.383914 -10.463609 -0.119061 -9.400818 10.981394 171.404687 80.129758 -157.807205 -0.000001 21.394448 -0.000010 -49.690048 -14.075123 -13.706044 -26.984679 23.184139 11.130228 35.517405 6.497165 10.252694 -8.768219 0.998083 -9.264219 -0.000141 0.000005 -0.000003 -22.751511 -22.347092 -8.441133 36.135443 -4.318271 -10.210811 -12.460536 -1.459766 9.742248 0.000011 0.000007 -0.000004
-0.002321 1.096535 0.001917 -2.797319 -15.476562 -1.324002 1.877257 2.674931 -0.490157 1.332353 2.263902 -0.467711 1.286369 2.292021 -0.483078 1.234351 -0.107067 4.192586 23.729101 6.302491 1.974015 2.571580 -8.916819 2.020915 -38.623627 -69.037718 -59.242225 0.000001 -23.119307 -0.000002 -99.100242 -5.364524 -10.289676 -0.119688 -9.434071 11.055248 170.887604 80.090655 -157.310383 0.000001 21.407214 0.000002 -49.758825 -14.120581 -13.723581 -27.052948 23.251857 11.212315 35.572893 6.464845 10.251922 -8.797941 0.997937 -9.260628 -0.000141 0.000005 -0.000004 -22.767491 -22.334213 -8.411826 36.153695 -4.331965 -10.210535 -12.464270 -1.460487 9.741124 0.000010 0.000008 -0.000002
-0.002321 1.096443 0.001917 -2.784493 -15.494697 -1.345346 1.877753 2.670541 -0.490523 1.333129 2.260603 -0.469246 1.287282 2.288949 -0.483254 1.228249 -0.097236 4.216010 23.767434 6.390000 2.015763 2.553359 -8.840612 2.084387 -38.797747 -69.044911 -59.449969 -0.000001 -23.194176 0.000005 -98.961453 -5.309654 -10.092473 -0.118707 -9.429104 11.053330 170.684588 80.044289 -157.143598 -0.000010 21.420316 0.000006 -49.955103 -14.247699 -13.749329 -27.102347 23.255840 11.265739 35.617477 6.485145 10.251180 -8.820793 0.999161 -9.273340 -0.000141 0.000005 -0.000004 -22.762815 -22.266534 -8.350701 36.158304 -4.399241 -10.210253 -12.462263 -1.470200 9.755174 0.000010 0.000008 -0.000002
-0.002321 1.096390 0.001917 -2.762833 -15.508891 -1.364734 1.875042 2.653200 -0.481849 1.333046 2.247132 -0.469701 1.287382 2.275624 -0.483629 1.235610 -0.084601 4.214337 23.794991 6.446617 2.039802 2.493678 -8.647531 2.067875 -39.219111 -69.067585 -59.929236 -0.000007 -23.207690 -0.000016 -98.754485 -5.204533 -9.907751 -0.114647 -9.363313 10.936690 170.943961 80.009468 -157.464542 0.000004 21.437368 -0.000007 -50.276556 -14.475800 -13.781516 -27.129807 23.178295 11.275917 35.638166 6.570319 10.250586 -8.828155 1.002102 -9.305115 -0.000141 0.000005 -0.000003 -22.744542 -22.150673 -8.263704 36.141412 -4.521843 -10.210034 -12.449910 -1.484518 9.785762 0.000011 0.000007 -0.000004
-0.002321 1.096389 0.001917 -2.732184 -15.513779 -1.377663 1.866936 2.630063 -0.467879 1.331186 2.228796 -0.469479 1.285755 2.257317 -0.484039 1.249348 -0.071883 4.195943 23.805248 6.473473 2.057126 2.409627 -8.388144 1.981040 -39.808899 -69.124289 -60.577076 -0.000002 -23.136503 0.000002 -98.519667 -5.061805 -9.764238 -0.108130 -9.260798 10.753154 171.457955 79.994006 -158.053965 0.000003 21.459131 -0.000009 -50.670494 -14.770249 -13.811345 -27.144144 23.063972 11.254581 35.635240 6.674851 10.250284 -8.820446 1.009979 -9.339780 -0.000141 0.000005 -0.000005 -22.711105 -21.989528 -8.172135 36.096640 -4.695770 -10.210052 -12.423534 -1.504426 9.846997 0.000011 0.000006 -0.000005
-0.002321 1.096428 0.001917 -2.697447 -15.505980 -1.381396 1.853160 2.609516 -0.454523 1.325470 2.212020 -0.468732 1.280307 2.240424 -0.483969 1.264451 -0.063194 4.174139 23.798764 6.473751 2.081013 2.334650 -8.162217 1.873597 -40.208089 -69.287249 -61.008197 -0.000000 -23.023267 0.000001 -98.356823 -4.914772 -9.661731 -0.101663 -9.166252 10.585383 171.923880 79.994977 -158.584058 0.000002 21.479930 0.000002 -51.058678 -15.055952 -13.830621 -27.153684 22.961882 11.218887 35.616567 6.752405 10.250458 -8.804539 1.016892 -9.362204 -0.000142 0.000004 -0.000005 -22.689425 -21.798251 -8.142925 36.075184 -4.881061 -10.099079 -12.408272 -1.515042 9.861647 0.000011 0.000007 -0.000004
-0.002321 1.096470 0.001917 -2.662330 -15.492675 -1.373434 1.835872 2.593981 -0.442658 1.315142 2.198630 -0.467044 1.270303 2.226770 -0.482821 1.276778 -0.057739 4.149844 23.785057 6.454935 2.104074 2.287204 -8.029167 1.776197 -40.096133 -69.576848 -60.895688 -0.000008 -22.958099 -0.000007 -98.334016 -4.792671 -9.577180 -0.096885 -9.097072 10.462425 172.235764 80.004279 -158.937386 0.000004 21.492840 0.000001 -51.382377 -15.265749 -13.841649 -27.156162 22.870185 11.168976 35.591877 6.815177 10.250779 -8.786727 1.023849 -9.378356 -0.000141 0.000005 -0.000003 -22.685916 -21.638911 -8.145145 36.067123 -5.033981 -9.985253 -12.401515 -1.514193 9.865259 0.000011 0.000006 -0.000005
-0.002321 1.096480 0.001917 -2.627740 -15.487236 -1.353826 1.818961 2.580076 -0.434513 1.302370 2.186144 -0.465043 1.258034 2.213820 -0.481318 1.280429 -0.048783 4.110184 23.778091 6.430807 2.107174 2.261782 -7.973106 1.675154 -39.436226 -69.929687 -60.213931 0.000001 -22.999734 -0.000009 -98.436457 -4.708567 -9.493680 -0.092710 -9.031806 10.342362 172.519121 80.016338 -159.252514 -0.000004 21.497442 0.000002 -51.626822 -15.378989 -13.857542 -27.151970 22.772693 11.103872 35.566311 6.893794 10.250895 -8.766868 1.032014 -9.399137 -0.000141 0.000005 -0.000005 -22.708205 -21.565736 -8.142658 36.062545 -5.116163 -9.963788 -12.397907 -1.512275 9.883682 0.000011 0.000007 -0.000003
-0.002321 1.096451 0.001917 -2.594741 -15.493590 -1.327158 1.805088 2.565166 -0.427907 1.289687 2.172668 -0.462878 1.246080 2.199700 -0.479671 1.271107 -0.030602 4.046941 23.785747 6.415541 2.086009 2.244206 -7.945712 1.549959 -38.466127 -70.262846 -59.212330 0.000000 -23.122388 -0.000001 -98.600927 -4.661824 -9.422146 -0.086964 -8.943457 10.178002 172.961773 80.036631 -159.734178 -0.000010 21.499126 0.000008 -51.793527 -15.424922 -13.888433 -27.149469 22.684013 11.039317 35.546871 6.979017 10.250753 -8.748809 1.040449 -9.423268 -0.000141 0.000005 -0.000004 -22.755769 -21.589191 -8.126524 36.060452 -5.116997 -10.045204 -12.396442 -1.512473 9.916226 0.000010 0.000007 -0.000003
-0.002321 1.096388 0.001917 -2.562966 -15.508275 -1.298874 1.793589 2.550658 -0.422516 1.277147 2.159356 -0.460755 1.234357 2.185639 -0.478066 1.253045 -0.005068 3.970211 23.802781 6.413398 2.058268 2.227253 -7.919562 1.411272 -37.483149 -70.531110 -58.194359 -0.000003 -23.256712 -0.000001 -98.772864 -4.648515 -9.385154 -0.078839 -8.831786 9.974958 173.654778 80.077901 -160.469585 -0.000002 21.500389 -0.000008 -51.871293 -15.443486 -13.925861 -27.157630 22.628237 10.992788 35.541032 7.039899 10.250295 -8.740294 1.048001 -9.442770 -0.000142 0.000004 -0.000005 -22.820771 -21.682518 -8.101120 36.061898 -5.057515 -10.193034 -12.396320 -1.519066 9.954986 0.000010 0.000008 -0.000001
-0.002321 1.096338 0.001917 -2.527561 -15.521434 -1.275326 1.781413 2.538820 -0.414838 1.263162 2.147958 -0.457903 1.221012 2.173540 -0.475699 1.239940 0.019917 3.901081 23.809003 6.417456 2.042951 2.211933 -7.896365 1.289077 -36.679874 -70.722660 -57.356806 -0.000000 -23.356342 -0.000005 -98.928322 -4.667192 -9.394568 -0.069413 -8.720642 9.784672 174.521977 80.140966 -161.361966 -0.000002 21.494740 0.000006 -51.840045 -15.449982 -13.950905 -27.183307 22.603800 10.968987 35.539442 7.065247 10.250317 -8.733369 1.053306 -9.452606 -0.000141 0.000005 -0.000003 -22.909708 -21.793195 -8.146357 36.105389 -4.951859 -10.208954 -12.419546 -1.498894 9.911051 0.000010 0.000007 -0.000003
-0.002321 1.096295 0.001917 -2.485738 -15.524893 -1.253721 1.767893 2.529368 -0.414432 1.248022 2.138395 -0.456313 1.206273 2.163407 -0.474550 1.244580 0.036399 3.857217 23.776116 6.417546 2.038224 2.200862 -7.883151 1.203724 -36.165788 -70.816913 -56.815031 -0.000011 -23.416371 -0.000020 -99.059967 -4.714707 -9.451847 -0.060529 -8.636922 9.661577 175.323341 80.201907 -162.160509 -0.000004 21.471986 0.000011 -51.705316 -15.427983 -13.952665 -27.217694 22.582093 10.949888 35.539517 7.080203 10.250435 -8.728370 1.057582 -9.459278 -0.000141 0.000005 -0.000003 -23.002470 -21.925585 -8.218308 36.147165 -4.817526 -10.208614 -12.442860 -1.482334 9.865419 0.000010 0.000008 -0.000002
-0.002321 1.096241 0.001917 -2.442949 -15.521210 -1.234881 1.755855 2.522205 -0.416692 1.234465 2.130353 -0.455182 1.192813 2.155021 -0.473824 1.264657 0.039039 3.848130 23.692642 6.405950 2.024537 2.194908 -7.876449 1.163852 -36.060869 -70.759951 -56.694553 0.000004 -23.453393 -0.000003 -99.162054 -4.780373 -9.558263 -0.054187 -8.599771 9.638415 175.723406 80.225456 -162.543238 -0.000004 21.429434 0.000002 -51.511163 -15.347854 -13.936328 -27.245547 22.516105 10.914733 35.539541 7.135227 10.250485 -8.721153 1.063918 -9.477257 -0.000141 0.000005 -0.000003 -23.095537 -22.065407 -8.290961 36.190398 -4.684144 -10.208272 -12.467922 -1.467033 9.820782 0.000011 0.000007 -0.000003
-0.002321 1.096165 0.001917 -2.404955 -15.513716 -1.222567 1.749016 2.520318 -0.423182 1.224716 2.125674 -0.454794 1.182851 2.150212 -0.473802 1.281062 0.025429 3.876240 23.590129 6.380497 1.990664 2.194614 -7.868736 1.180445 -36.486460 -70.521100 -57.120172 -0.000005 -23.463809 -0.000007 -99.225458 -4.851369 -9.716956 -0.052659 -8.622233 9.724150 175.469914 80.192795 -162.278636 -0.000003 21.377503 0.000003 -51.314724 -15.189018 -13.921789 -27.252256 22.368416 10.855045 35.538257 7.272083 10.250277 -8.710019 1.076529 -9.523637 -0.000141 0.000005 -0.000005 -23.173673 -22.172875 -8.340497 36.233438 -4.586385 -10.207668 -12.494081 -1.456292 9.784209 0.000010 0.000008 -0.000002
-0.002321 1.096055 0.001917 -2.369054 -15.508656 -1.223476 1.747494 2.527797 -0.435681 1.218261 2.127188 -0.455544 1.175871 2.151744 -0.474877 1.274923 -0.001877 3.935156 23.531227 6.348714 1.951826 2.200892 -7.862194 1.260582 -37.294158 -70.148763 -57.939469 -0.000002 -23.474656 -0.000007 -99.254648 -4.919568 -9.895761 -0.057554 -8.708145 9.906084 174.597156 80.115074 -161.402927 -0.000003 21.331833 0.000004 -51.141099 -14.952071 -13.926921 -27.249978 22.144002 10.783893 35.546532 7.487352 10.249744 -8.701339 1.096541 -9.597381 -0.000141 0.000005 -0.000004 -23.229599 -22.221151 -8.347297 36.271153 -4.547221 -10.206828 -12.517227 -1.452973 9.763982 0.000011 0.000006 -0.000005
-0.002321 1.095910 0.001917 -2.333918 -15.503487 -1.235932 1.749004 2.543654 -0.453791 1.214249 2.135310 -0.457428 1.171126 2.159984 -0.477033 1.245711 -0.034267 4.008368 23.561492 6.326252 1.935536 2.214281 -7.868442 1.389590 -38.120723 -69.774128 -58.778903 0.000002 -23.511111 0.000002 -99.262465 -4.979413 -10.043009 -0.067324 -8.838302 10.142959 173.474498 80.027462 -160.267314 -0.000008 21.302838 0.000014 -50.964481 -14.669738 -13.961188 -27.255495 21.898365 10.725007 35.571729 7.722434 10.248943 -8.701150 1.118974 -9.681310 -0.000141 0.000005 -0.000003 -23.270554 -22.233385 -8.322830 36.307970 -4.546950 -10.205904 -12.541571 -1.451772 9.753996 0.000010 0.000008 -0.000002
-0.002321 1.095789 0.001917 -2.312020 -15.495948 -1.251514 1.753245 2.562174 -0.465191 1.214416 2.147258 -0.458482 1.170496 2.172216 -0.478292 1.208864 -0.061432 4.074721 23.679390 6.323810 1.953519 2.233086 -7.894385 1.528158 -38.719456 -69.500090 -59.387991 0.000006 -23.548211 0.000014 -99.234762 -5.026702 -10.131252 -0.077313 -8.968694 10.368305 172.575686 79.968054 -159.331561 0.000003 21.290227 -0.000012 -50.748721 -14.395695 -14.022137 -27.263484 21.691035 10.727017 35.622689 7.896670 10.177446 -8.717796 1.132996 -9.719456 -0.000142 0.000004 -0.000006 -23.297597 -22.267634 -8.307419 36.340288 -4.527375 -10.205441 -12.566468 -1.448765 9.739891 0.000010 0.000008 -0.000002
-0.002321 1.095733 0.001917 -2.320437 -15.495477 -1.264256 1.764630 2.580281 -0.478293 1.222613 2.161509 -0.461671 1.178031 2.186912 -0.481608 1.178235 -0.078787 4.120485 23.846131 6.335244 1.998471 2.254146 -7.936114 1.641484 -39.100075 -69.300754 -59.777026 0.000003 -23.587123 0.000006 -99.112321 -5.056801 -10.121513 -0.083955 -9.063648 10.534139 172.043333 79.945979 -158.746569 -0.000008 21.287872 -0.000001 -50.517427 -14.169968 -14.099137 -27.245449 21.574183 10.760536 35.671311 7.987973 10.080901 -8.745517 1.134688 -9.718114 -0.000141 0.000005 -0.000003 -23.306620 -22.365461 -8.335805 36.368696 -4.435919 -10.205293 -12.593598 -1.436887 9.710312 0.000011 0.000007 -0.000003
-0.002321 1.095732 0.001917 -2.361001 -15.514139 -1.268193 1.784038 2.605327 -0.489676 1.238126 2.182311 -0.468437 1.192794 2.208304 -0.488521 1.156154 -0.090498 4.150288 24.005949 6.344264 2.068237 2.277047 -7.989999 1.733891 -39.422710 -69.109738 -60.113428 -0.000007 -23.614800 -0.000016 -98.865934 -5.072941 -10.020273 -0.088613 -9.138664 10.670285 171.448251 79.924975 -158.104672 0.000000 21.293619 -0.000008 -50.341732 -14.008519 -14.180725 -27.183552 21.580977 10.766079 35.680246 8.005101 10.066581 -8.771103 1.137592 -9.727902 -0.000141 0.000005 -0.000005 -23.299903 -22.510134 -8.412662 36.400900 -4.277580 -10.205303 -12.626856 -1.417680 9.669266 0.000010 0.000008 -0.000002
-0.002321 1.095742 0.001917 -2.412942 -15.544418 -1.257854 1.807412 2.645899 -0.511277 1.255527 2.215059 -0.482807 1.209035 2.241678 -0.503184 1.138186 -0.104110 4.183118 24.102503 6.343195 2.176558 2.306224 -8.060493 1.845412 -39.723494 -68.952749 -60.428506 -0.000002 -23.640927 -0.000009 -98.555308 -5.083508 -9.851216 -0.096183 -9.252610 10.871712 170.183637 79.851787 -156.811976 0.000001 21.312597 0.000002 -50.284799 -13.906354 -14.260755 -27.105787 21.679983 10.763947 35.672593 7.957687 10.093355 -8.800134 1.142402 -9.738997 -0.000141 0.000005 -0.000005 -23.290933 -22.652014 -8.515690 36.442612 -4.110551 -10.205227 -12.668797 -1.397915 9.631580 0.000011 0.000007 -0.000004
-0.002321 1.095702 0.001917 -2.455510 -15.560845 -1.238896 1.828879 2.696645 -0.549063 1.269274 2.255089 -0.504211 1.221150 2.282245 -0.525067 1.121059 -0.121113 4.228748 24.104934 6.339309 2.326267 2.341108 -8.140815 1.992404 -39.862934 -68.943378 -60.571037 -0.000002 -23.678955 -0.000002 -98.306591 -5.096647 -9.657721 -0.108542 -9.436323 11.185628 168.264182 79.710716 -154.878275 -0.000007 21.348549 0.000007 -50.338588 -13.855015 -14.335084 -27.051742 21.807182 10.758678 35.680708 7.872124 10.129367 -8.837181 1.145566 -9.737738 -0.000141 0.000005 -0.000003 -23.291993 -22.763190 -8.616346 36.499182 -3.987948 -10.204890 -12.721098 -1.384414 9.607995 0.000011 0.000007 -0.000004
-0.002321 1.095611 0.001917 -2.487364 -15.542964 -1.219011 1.845401 2.734281 -0.590354 1.278017 2.284430 -0.524616 1.228348 2.311967 -0.545992 1.104743 -0.132756 4.267228 24.028906 6.341956 2.480728 2.365192 -8.190570 2.116795 -39.700723 -69.150994 -60.401398 0.000001 -23.723257 0.000010 -98.220925 -5.114601 -9.503887 -0.121242 -9.635195 11.514179 166.528906 79.555427 -153.131326 -0.000005 21.393711 -0.000003 -50.426146 -13.850881 -14.399710 -27.018483 21.899636 10.752355 35.704353 7.783092 10.159655 -8.872919 1.148571 -9.737101 -0.000141 0.000005 -0.000005 -23.294619 -22.850525 -8.703739 36.563518 -3.920290 -10.204295 -12.782509 -1.379355 9.600240 0.000011 0.000006 -0.000005
-0.002321 1.095530 0.001917 -2.513815 -15.492279 -1.200294 1.856468 2.734588 -0.610555 1.283198 2.284445 -0.533297 1.233009 2.312103 -0.554943 1.090454 -0.126798 4.260892 23.922059 6.350345 2.580511 2.354293 -8.154205 2.120896 -39.213597 -69.521803 -59.911241 -0.000003 -23.771922 -0.000003 -98.313180 -5.134566 -9.438704 -0.129380 -9.742521 11.668479 165.883929 79.472324 -152.475475 -0.000002 21.430992 -0.000008 -50.468152 -13.886400 -14.457454 -26.981321 21.933179 10.726645 35.718649 7.721347 10.187850 -8.895064 1.152533 -9.745990 -0.000141 0.000004 -0.000005 -23.290936 -22.932364 -8.781614 36.617521 -3.885520 -10.203792 -12.840850 -1.377638 9.601405 0.000011 0.000007 -0.000003
-0.002321 1.095510 0.001917 -2.534086 -15.434113 -1.185399 1.861167 2.694293 -0.594150 1.285036 2.252687 -0.525061 1.235888 2.280139 -0.546578 1.079107 -0.099313 4.191532 23.823899 6.356601 2.592332 2.298677 -8.011330 1.959851 -38.484633 -69.944917 -59.196722 -0.000003 -23.830680 0.000001 -98.535365 -5.153565 -9.469911 -0.131549 -9.694308 11.533666 166.567019 79.494965 -153.154972 -0.000000 21.447306 0.000000 -50.442100 -13.941786 -14.520194 -26.934208 21.933979 10.675797 35.704369 7.692513 10.233376 -8.898956 1.158543 -9.768442 -0.000141 0.000005 -0.000004 -23.277249 -23.016291 -8.846777 36.645912 -3.854887 -10.203379 -12.885661 -1.377382 9.602597 0.000011 0.000007 -0.000003
-0.002321 1.095563 0.001917 -2.542305 -15.400113 -1.175840 1.858107 2.635501 -0.554392 1.282005 2.206425 -0.505781 1.235043 2.233367 -0.527156 1.071440 -0.059773 4.082369 23.743524 6.355539 2.535964 2.216503 -7.805983 1.695964 -37.620652 -70.350266 -58.361481 0.000007 -23.902114 -0.000003 -98.832962 -5.174868 -9.567161 -0.127766 -9.523274 11.172572 168.126534 79.583837 -154.718846 0.000002 21.442568 0.000010 -50.375703 -13.993159 -14.603014 -26.902932 21.956074 10.659783 35.682749 7.655508 10.248002 -8.900474 1.149669 -9.771784 -0.000141 0.000005 -0.000003 -23.262739 -23.098696 -8.891776 36.647684 -3.804678 -10.203421 -12.911848 -1.376908 9.593667 0.000010 0.000007 -0.000003
-0.002321 1.095643 0.001917 -2.537302 -15.404177 -1.175251 1.846750 2.589789 -0.504082 1.273118 2.169725 -0.484650 1.228070 2.196096 -0.506675 1.068860 -0.025258 3.982621 23.672336 6.347435 2.464282 2.142527 -7.623108 1.457172 -36.730027 -70.727389 -57.501275 -0.000004 -23.958976 -0.000006 -99.171808 -5.208217 -9.702578 -0.120276 -9.326431 10.771978 169.838279 79.685599 -156.432741 -0.000003 21.428347 -0.000007 -50.304133 -14.028931 -14.714924 -26.914800 22.061197 10.705265 35.672997 7.559933 10.248501 -8.909645 1.137902 -9.748644 -0.000141 0.000005 -0.000003 -23.261937 -23.169600 -8.912821 36.633590 -3.730682 -10.203892 -12.915120 -1.374995 9.571583 0.000011 0.000007 -0.000004
-0.002321 1.095713 0.001917 -2.522646 -15.432073 -1.178765 1.831484 2.575431 -0.469219 1.261343 2.157058 -0.472883 1.216981 2.183031 -0.496293 1.073204 -0.010135 3.933926 23.606314 6.332608 2.420129 2.106373 -7.536799 1.346082 -35.899048 -71.066885 -56.684735 -0.000004 -24.002503 0.000006 -99.521315 -5.259993 -9.834959 -0.113815 -9.193046 10.505940 171.084725 79.773412 -157.669010 -0.000005 21.419276 -0.000001 -50.253284 -14.048356 -14.853828 -26.963065 22.229853 10.793310 35.676191 7.415666 10.248949 -8.924643 1.122502 -9.711915 -0.000141 0.000005 -0.000003 -23.266107 -23.225592 -8.917364 36.619836 -3.650411 -10.204400 -12.918046 -1.371727 9.546027 0.000010 0.000008 -0.000002
-0.002321 1.095785 0.001917 -2.507667 -15.454596 -1.188458 1.817820 2.590246 -0.456129 1.250885 2.166974 -0.473208 1.206117 2.192867 -0.497309 1.085133 -0.019944 3.949123 23.547507 6.306123 2.407417 2.117095 -7.569046 1.386930 -35.258469 -71.341592 -56.036796 0.000008 -24.016252 0.000019 -99.845618 -5.329525 -9.952206 -0.111819 -9.159480 10.444194 171.533367 79.836691 -158.096297 0.000001 21.424373 -0.000008 -50.235831 -14.055154 -15.004497 -27.015260 22.378625 10.878485 35.680606 7.281194 10.249363 -8.936156 1.108854 -9.675079 -0.000141 0.000005 -0.000004 -23.269234 -23.293684 -8.921721 36.600355 -3.565273 -10.204664 -12.916496 -1.362914 9.520485 0.000011 0.000007 -0.000004
-0.002321 1.095893 0.001917 -2.496444 -15.459493 -1.204394 1.810111 2.619820 -0.457263 1.244800 2.188437 -0.480753 1.199184 2.214542 -0.504011 1.102944 -0.051459 4.013701 23.490234 6.259240 2.397015 2.162533 -7.686935 1.531579 -34.885745 -71.509260 -55.640537 0.000002 -24.010031 0.000005 -100.112253 -5.410935 -10.050049 -0.114089 -9.211112 10.552172 171.221617 79.865830 -157.762691 -0.000002 21.443700 -0.000007 -50.244466 -14.047935 -15.139477 -27.043820 22.450565 10.929479 35.667734 7.203510 10.249835 -8.932628 1.102545 -9.652197 -0.000141 0.000005 -0.000004 -23.272961 -23.398667 -8.925492 36.568928 -3.468121 -10.205573 -12.903864 -1.349177 9.481084 0.000011 0.000007 -0.000003
-0.002321 1.096031 0.001917 -2.492498 -15.458936 -1.225441 1.811481 2.650689 -0.462822 1.244969 2.211112 -0.488720 1.198329 2.237624 -0.510691 1.122614 -0.095978 4.101039 23.419732 6.188892 2.359440 2.220649 -7.833692 1.709896 -34.747921 -71.555126 -55.472710 -0.000000 -24.010841 -0.000001 -100.309330 -5.494912 -10.125200 -0.118615 -9.309544 10.748741 170.512119 79.858666 -157.040722 -0.000001 21.470941 0.000003 -50.150593 -14.056691 -15.232040 -27.041530 22.447921 10.946252 35.637447 7.195096 10.250550 -8.916746 1.102620 -9.648711 -0.000141 0.000005 -0.000003 -23.261361 -23.507456 -8.926086 36.524111 -3.374713 -10.206311 -12.884223 -1.335753 9.444435 0.000010 0.000008 -0.000002
-0.002321 1.096164 0.001917 -2.499134 -15.467455 -1.248440 1.823609 2.676324 -0.467932 1.252715 2.230210 -0.493621 1.204907 2.257232 -0.515076 1.139005 -0.142580 4.187803 23.328634 6.107708 2.293492 2.276328 -7.972202 1.878738 -34.695395 -71.513993 -55.388356 -0.000003 -24.050011 -0.000002 -100.454845 -5.574227 -10.170527 -0.123494 -9.417234 10.959038 169.851907 79.830825 -156.379448 -0.000002 21.499049 0.000006 -50.080773 -14.031730 -15.268084 -27.010493 22.396222 10.939949 35.601149 7.246357 10.251119 -8.899349 1.105554 -9.664357 -0.000141 0.000005 -0.000003 -23.227976 -23.565845 -8.911574 36.473801 -3.318685 -10.206911 -12.860398 -1.327093 9.426001 0.000011 0.000007 -0.000003
-0.002321 1.096273 0.001917 -2.516016 -15.485498 -1.271385 1.844783 2.695857 -0.473502 1.267466 2.245226 -0.496191 1.218648 2.272863 -0.517740 1.148366 -0.181555 4.261108 23.229141 6.040350 2.225337 2.329189 -8.102073 2.035934 -34.549399 -71.451420 -55.207149 -0.000002 -24.141697 0.000018 -100.583292 -5.646373 -10.180871 -0.127314 -9.507858 11.134521 169.497718 79.807776 -156.030129 -0.000005 21.523833 0.000005 -50.054291 -13.974454 -15.264347 -26.961503 22.316847 10.917937 35.567341 7.334460 10.251536 -8.884051 1.109716 -9.690261 -0.000141 0.000005 -0.000004 -23.179267 -23.569980 -8.881866 36.426022 -3.304533 -10.207401 -12.835621 -1.321360 9.423848 0.000010 0.000008 -0.000002
-0.002321 1.096375 0.001917 -2.534365 -15.501510 -1.290576 1.869172 2.711640 -0.482742 1.285413 2.257800 -0.498536 1.235617 2.286122 -0.520152 1.150343 -0.207827 4.317477 23.145957 6.005772 2.183812 2.384890 -8.236938 2.193839 -34.232208 -71.419589 -54.849191 0.000005 -24.271351 0.000012 -100.716804 -5.711888 -10.160432 -0.129200 -9.566574 11.251507 169.458718 79.808892 -155.993793 0.000000 21.543870 -0.000008 -50.063063 -13.907468 -15.254729 -26.907794 22.233620 10.885643 35.533002 7.427380 10.251855 -8.868394 1.116668 -9.714280 -0.000141 0.000005 -0.000004 -23.130346 -23.559045 -8.855694 36.379691 -3.302244 -10.207858 -12.810292 -1.315244 9.429272 0.000011 0.000007 -0.000003
-0.002321 1.096488 0.001917 -2.547753 -15.516132 -1.297495 1.889693 2.726975 -0.496613 1.301142 2.269824 -0.501503 1.249725 2.298770 -0.523092 1.147357 -0.221597 4.357705 23.098576 6.005251 2.177201 2.440012 -8.369553 2.345138 -33.811991 -71.433969 -54.388447 -0.000001 -24.390805 -0.000004 -100.852947 -5.768903 -10.132751 -0.128790 -9.587546 11.302625 169.652213 79.840799 -156.181982 -0.000001 21.558547 0.000005 -50.089716 -13.853790 -15.259621 -26.854077 22.167338 10.848027 35.488012 7.505580 10.251693 -8.845530 1.122465 -9.734332 -0.000141 0.000005 -0.000003 -23.095282 -23.553812 -8.844278 36.339950 -3.289439 -10.208267 -12.789727 -1.305300 9.429938 0.000011 0.000006 -0.000004
-0.002321 1.096604 0.001917 -2.551338 -15.535449 -1.297705 1.902395 2.742097 -0.511532 1.310951 2.281020 -0.504599 1.257488 2.310331 -0.526330 1.141882 -0.225161 4.381745 23.087958 6.028493 2.188673 2.481385 -8.469619 2.456138 -33.399540 -71.487557 -53.940679 -0.000002 -24.470470 -0.000011 -100.968626 -5.813631 -10.104556 -0.126197 -9.570875 11.288553 170.056879 79.900121 -156.573806 -0.000004 21.567322 -0.000003 -50.114360 -13.824511 -15.278314 -26.808705 22.119013 10.808326 35.441315 7.575259 10.252438 -8.825159 1.125558 -9.748591 -0.000141 0.000005 -0.000003 -23.071595 -23.541077 -8.840037 36.300739 -3.266651 -10.208774 -12.768222 -1.295461 9.433356 0.000010 0.000007 -0.000003
-0.002321 1.096711 0.001917 -2.546151 -15.557769 -1.293026 1.908172 2.752730 -0.521290 1.314390 2.288548 -0.507096 1.259996 2.317885 -0.529217 1.134635 -0.219770 4.387152 23.098579 6.065523 2.188241 2.496924 -8.508074 2.493052 -33.034205 -71.587197 -53.546923 0.000013 -24.498307 0.000018 -101.055965 -5.842657 -10.075569 -0.121959 -9.520185 11.212093 170.717657 79.977764 -157.221156 -0.000001 21.570417 0.000001 -50.123656 -13.819247 -15.297828 -26.777406 22.082486 10.772012 35.395767 7.638267 10.253530 -8.802683 1.127481 -9.759736 -0.000141 0.000005 -0.000005 -23.055200 -23.498230 -8.826958 36.263132 -3.257967 -10.209151 -12.744290 -1.291883 9.441637 0.000011 0.000007 -0.000003
-0.002321 1.096784 0.001917 -2.530725 -15.576250 -1.282582 1.910172 2.754207 -0.523267 1.313147 2.289788 -0.508783 1.259910 2.318825 -0.531410 1.125003 -0.205787 4.371414 23.114839 6.110098 2.148009 2.484300 -8.476272 2.444101 -32.623619 -71.749486 -53.111543 -0.000000 -24.509775 0.000012 -101.128082 -5.856423 -10.026331 -0.116666 -9.440146 11.075005 171.661417 80.064766 -158.159804 0.000003 21.568657 -0.000009 -50.125590 -13.824187 -15.307616 -26.765819 22.063342 10.745667 35.359768 7.682386 10.253921 -8.783356 1.129102 -9.767276 -0.000142 0.000004 -0.000005 -23.043793 -23.408038 -8.796246 36.232796 -3.296668 -10.209454 -12.724788 -1.292544 9.462319 0.000011 0.000007 -0.000003
-0.002321 1.096805 0.001917 -2.508413 -15.584228 -1.264434 1.910283 2.745372 -0.518910 1.309525 2.284000 -0.509672 1.258606 2.312532 -0.532772 1.112088 -0.184293 4.334478 23.136906 6.157638 2.051545 2.446251 -8.377560 2.320088 -32.104431 -71.995136 -52.571797 -0.000002 -24.518976 -0.000015 -101.204296 -5.854483 -9.956677 -0.110718 -9.334976 10.879773 172.846334 80.155394 -159.352174 0.000002 21.562901 -0.000001 -50.137192 -13.822514 -15.305977 -26.773720 22.057915 10.725342 35.337337 7.703890 10.254068 -8.766644 1.129754 -9.770220 -0.000141 0.000005 -0.000005 -23.043988 -23.281055 -8.757874 36.216789 -3.388393 -10.209508 -12.710263 -1.301181 9.494933 0.000011 0.000006 -0.000005
-0.002321 1.096789 0.001917 -2.482540 -15.583803 -1.241166 1.908657 2.727838 -0.508782 1.305479 2.271541 -0.508988 1.256472 2.299495 -0.532444 1.095083 -0.157064 4.279060 23.179430 6.205483 1.899761 2.386781 -8.219737 2.142422 -31.478633 -72.321646 -51.934417 -0.000008 -24.525593 -0.000002 -101.288180 -5.836174 -9.880558 -0.104192 -9.210506 10.638042 174.164742 80.242446 -160.687226 -0.000004 21.552953 0.000011 -50.128368 -13.814732 -15.298658 -26.791845 22.050312 10.703018 35.323653 7.716585 10.254106 -8.750424 1.129820 -9.771519 -0.000141 0.000005 -0.000003 -23.060427 -23.158284 -8.729220 36.213754 -3.499440 -10.209359 -12.699296 -1.312305 9.530014 0.000011 0.000006 -0.000005
-0.002321 1.096774 0.001917 -2.457428 -15.580896 -1.222127 1.905004 2.703123 -0.490473 1.301501 2.252864 -0.504667 1.253716 2.280278 -0.528306 1.073003 -0.125803 4.210267 23.252997 6.253941 1.716507 2.314232 -8.022750 1.942378 -30.815426 -72.687118 -51.273845 -0.000014 -24.519746 0.000002 -101.358875 -5.800605 -9.817765 -0.097272 -9.079585 10.378236 175.446057 80.310327 -161.987455 -0.000002 21.538347 0.000003 -50.142162 -13.783927 -15.290506 -26.813641 22.041243 10.682452 35.313046 7.726368 10.254074 -8.735133 1.129540 -9.769000 -0.000141 0.000005 -0.000003 -23.082897 -23.068338 -8.707749 36.210167 -3.597517 -10.209222 -12.685368 -1.324614 9.556708 0.000010 0.000008 -0.000002
-0.002321 1.096781 0.001917 -2.432839 -15.575869 -1.216260 1.899055 2.672916 -0.463061 1.296676 2.229396 -0.495106 1.249988 2.256357 -0.518729 1.045842 -0.093139 4.137070 23.343855 6.302564 1.545672 2.244606 -7.828587 1.760409 -30.338850 -72.968203 -50.815378 -0.000005 -24.505202 0.000001 -101.354435 -5.744158 -9.776470 -0.090981 -8.964355 10.147189 176.440080 80.339711 -162.999144 -0.000004 21.521395 0.000005 -50.170435 -13.738966 -15.286026 -26.842447 22.029144 10.676317 35.305056 7.734514 10.254059 -8.720587 1.129507 -9.765498 -0.000141 0.000005 -0.000003 -23.096778 -22.996879 -8.671092 36.192964 -3.688836 -10.209289 -12.662242 -1.340214 9.575935 0.000011 0.000006 -0.000005
-0.002321 1.096777 0.001917 -2.404974 -15.569629 -1.223848 1.891046 2.642763 -0.432582 1.290779 2.205978 -0.481681 1.244884 2.232568 -0.505132 1.019168 -0.064841 4.073507 23.413027 6.342319 1.431780 2.196665 -7.690215 1.636739 -30.575982 -72.934030 -51.085831 -0.000000 -24.496918 -0.000003 -101.163331 -5.657914 -9.752439 -0.087072 -8.892031 9.999000 176.872805 80.323929 -163.449252 -0.000005 21.509244 -0.000011 -50.201914 -13.692734 -15.284801 -26.888528 22.009208 10.690187 35.308592 7.742074 10.253909 -8.708840 1.129924 -9.764527 -0.000141 0.000005 -0.000003 -23.099829 -22.911598 -8.605523 36.166228 -3.804847 -10.209365 -12.633283 -1.360697 9.598204 0.000011 0.000007 -0.000004
-0.002321 1.096724 0.001917 -2.376148 -15.559802 -1.241157 1.882877 2.622263 -0.409943 1.285939 2.190648 -0.468166 1.239685 2.216979 -0.491505 1.006266 -0.049265 4.033394 23.422457 6.352054 1.396316 2.181848 -7.643842 1.592099 -32.128196 -72.356122 -52.686235 0.000001 -24.470715 -0.000002 -100.676109 -5.529952 -9.749943 -0.086937 -8.881790 9.973481 176.580123 80.276318 -163.174617 0.000003 21.510828 -0.000011 -50.230658 -13.655547 -15.285562 -26.949926 21.973687 10.718166 35.334592 7.750959 10.253358 -8.706848 1.131186 -9.768761 -0.000141 0.000005 -0.000005 -23.098540 -22.813679 -8.523168 36.146271 -3.946385 -10.209246 -12.609588 -1.382489 9.626864 0.000010 0.000007 -0.000003
-0.002321 1.096617 0.001917 -2.354535 -15.549467 -1.265479 1.878087 2.619020 -0.402421 1.284844 2.189391 -0.457790 1.237148 2.215677 -0.481450 1.019257 -0.051948 4.019853 23.368790 6.310082 1.431053 2.198577 -7.688771 1.617594 -34.821774 -71.212204 -55.438160 -0.000013 -24.400253 -0.000021 -99.903225 -5.360922 -9.764558 -0.090220 -8.930638 10.066464 175.660389 80.218049 -162.271584 -0.000000 21.528543 -0.000001 -50.257013 -13.629505 -15.286060 -27.013903 21.924487 10.751643 35.382041 7.763560 10.252494 -8.716495 1.133443 -9.776930 -0.000141 0.000005 -0.000003 -23.098964 -22.745451 -8.452707 36.144615 -4.063211 -10.208898 -12.600224 -1.398733 9.650432 0.000010 0.000008 -0.000002
-0.002321 1.096484 0.001917 -2.346178 -15.548039 -1.291775 1.879403 2.631747 -0.408136 1.287766 2.200978 -0.451593 1.238759 2.227475 -0.476117 1.055945 -0.069845 4.022992 23.292200 6.218217 1.509464 2.234914 -7.793005 1.681111 -37.568338 -69.831802 -58.236270 0.000007 -24.310800 0.000008 -99.038962 -5.172282 -9.764519 -0.094990 -9.011800 10.225265 174.494930 80.164521 -161.118110 -0.000002 21.552837 -0.000006 -50.279707 -13.611411 -15.282996 -27.065502 21.874675 10.781892 35.439774 7.785964 10.251644 -8.735203 1.136672 -9.786657 -0.000142 0.000004 -0.000005 -23.107444 -22.740879 -8.418175 36.164605 -4.105074 -10.208453 -12.606800 -1.404216 9.655439 0.000010 0.000007 -0.000003
-0.002321 1.096329 0.001917 -2.352414 -15.550814 -1.312875 1.886127 2.651196 -0.419399 1.292783 2.217935 -0.448861 1.243541 2.244833 -0.474287 1.100119 -0.092243 4.030885 23.245716 6.112137 1.599715 2.277574 -7.918450 1.750940 -39.420227 -68.734577 -60.107222 -0.000005 -24.239449 -0.000012 -98.348495 -4.988538 -9.718207 -0.099291 -9.091322 10.381674 173.565626 80.124424 -160.193484 -0.000003 21.567029 -0.000000 -50.288760 -13.600778 -15.277648 -27.094162 21.824218 10.797506 35.499902 7.825429 10.250662 -8.760451 1.140414 -9.798940 -0.000141 0.000005 -0.000004 -23.129341 -22.790717 -8.425656 36.208753 -4.071751 -10.207776 -12.626627 -1.401906 9.641409 0.000011 0.000006 -0.000005
-0.002321 1.096129 0.001917 -2.368213 -15.558283 -1.325596 1.894004 2.667675 -0.429053 1.297426 2.232465 -0.448715 1.249015 2.259780 -0.474417 1.136722 -0.108485 4.039548 23.251155 6.037597 1.672261 2.317797 -8.039957 1.806920 -40.175530 -68.174910 -60.838274 -0.000007 -24.224710 0.000000 -97.962810 -4.814971 -9.607724 -0.102230 -9.147771 10.493421 173.115640 80.098831 -159.740866 0.000000 21.560531 -0.000006 -50.289198 -13.588660 -15.271715 -27.099612 21.744756 10.786592 35.565015 7.906467 10.249610 -8.791754 1.146254 -9.823427 -0.000141 0.000005 -0.000005 -23.167016 -22.864634 -8.466211 36.280757 -4.001190 -10.206847 -12.660902 -1.395831 9.619659 0.000011 0.000007 -0.000003
-0.002321 1.095878 0.001917 -2.376949 -15.567047 -1.327089 1.897340 2.677524 -0.433699 1.298951 2.241444 -0.451521 1.251666 2.268967 -0.476676 1.162784 -0.115032 4.049792 23.285913 6.013590 1.706486 2.350801 -8.142337 1.840166 -40.251374 -67.982701 -60.860230 0.000005 -24.272029 0.000004 -97.806710 -4.636268 -9.442824 -0.103730 -9.177752 10.553375 172.910878 80.073439 -159.532752 -0.000007 21.538241 -0.000001 -50.312410 -13.558973 -15.277888 -27.098358 21.631349 10.752014 35.636434 8.026519 10.248265 -8.829141 1.155001 -9.862619 -0.000141 0.000005 -0.000003 -23.225776 -22.936469 -8.525474 36.375703 -3.930361 -10.205593 -12.709017 -1.388337 9.601249 0.000010 0.000007 -0.000003
-0.002321 1.095617 0.001917 -2.374708 -15.578739 -1.316186 1.893734 2.684193 -0.432857 1.295566 2.247324 -0.457807 1.248817 2.274777 -0.482181 1.183006 -0.115047 4.059239 23.312045 6.024049 1.695789 2.370199 -8.207745 1.844651 -40.227655 -67.886650 -60.779760 -0.000001 -24.307585 -0.000008 -97.736345 -4.438569 -9.279789 -0.104611 -9.191005 10.578126 172.367904 80.018167 -158.998874 -0.000000 21.516908 -0.000001 -50.413112 -13.498427 -15.312021 -27.111002 21.550640 10.720984 35.706303 8.124035 10.246991 -8.866130 1.159229 -9.894486 -0.000141 0.000005 -0.000004 -23.302101 -22.983156 -8.588184 36.477073 -3.874608 -10.204360 -12.756532 -1.384405 9.587499 0.000010 0.000008 -0.000002
-0.002321 1.095427 0.001917 -2.373362 -15.608466 -1.296128 1.887357 2.694807 -0.427059 1.289317 2.255613 -0.465578 1.242298 2.282788 -0.489828 1.199977 -0.112526 4.062177 23.313413 6.042797 1.646944 2.371430 -8.222604 1.818719 -40.310915 -67.825210 -60.822186 -0.000005 -24.277969 -0.000002 -97.694086 -4.235678 -9.165166 -0.106295 -9.204788 10.595571 171.081954 79.904887 -157.743229 -0.000006 21.509092 0.000000 -50.624332 -13.406269 -15.377497 -27.130647 21.578406 10.720643 35.758943 8.138960 10.246117 -8.900416 1.156949 -9.898794 -0.000141 0.000005 -0.000004 -23.367760 -22.985836 -8.639017 36.558895 -3.831427 -10.203466 -12.790013 -1.381630 9.577922 0.000011 0.000007 -0.000004
-0.002321 1.095362 0.001917 -2.380866 -15.663248 -1.274887 1.884279 2.714335 -0.417651 1.284778 2.270354 -0.470478 1.237186 2.297234 -0.495174 1.211225 -0.108665 4.055214 23.303230 6.056533 1.576456 2.357595 -8.193109 1.766253 -40.281856 -67.922141 -60.767841 0.000007 -24.215914 0.000006 -97.717477 -4.066016 -9.096060 -0.109783 -9.235712 10.636322 169.268424 79.735426 -155.973650 -0.000002 21.513758 0.000004 -50.910916 -13.302839 -15.462540 -27.132950 21.709936 10.752121 35.783218 8.078365 10.245804 -8.936661 1.149628 -9.882011 -0.000142 0.000004 -0.000005 -23.388082 -22.937970 -8.662730 36.599311 -3.801975 -10.203219 -12.808169 -1.381256 9.578106 0.000011 0.000007 -0.000003
-0.002321 1.095411 0.001917 -2.402274 -15.728589 -1.264076 1.885880 2.741580 -0.407494 1.283669 2.290727 -0.468876 1.235950 2.317436 -0.493889 1.212753 -0.103033 4.039302 23.301551 6.063774 1.507242 2.336035 -8.142497 1.690676 -39.916719 -68.285019 -60.382016 0.000008 -24.142606 0.000018 -97.851219 -3.963801 -9.070155 -0.114599 -9.287955 10.715786 167.587472 79.556026 -154.329981 -0.000001 21.521187 -0.000000 -51.194007 -13.222046 -15.544387 -27.111298 21.867168 10.796183 35.777995 7.997517 10.246001 -8.961102 1.143505 -9.859752 -0.000141 0.000005 -0.000003 -23.357047 -22.851227 -8.649594 36.594494 -3.798238 -10.203575 -12.806051 -1.381632 9.587234 0.000010 0.000008 -0.000002
-0.002321 1.095506 0.001917 -2.423519 -15.782468 -1.266623 1.889456 2.769284 -0.399943 1.283741 2.311375 -0.460343 1.236532 2.338074 -0.485452 1.202792 -0.096096 4.016501 23.311537 6.063010 1.462401 2.315674 -8.099347 1.594603 -39.151074 -68.849435 -59.586820 0.000008 -24.106752 0.000009 -98.081615 -3.943772 -9.067950 -0.119139 -9.347599 10.815300 166.563602 79.429100 -153.321445 -0.000002 21.524941 0.000006 -51.411958 -13.185714 -15.604212 -27.085304 21.981397 10.838267 35.760191 7.937196 10.246356 -8.972046 1.141648 -9.846103 -0.000141 0.000005 -0.000004 -23.300471 -22.758702 -8.608790 36.562308 -3.818430 -10.204100 -12.792818 -1.383738 9.601620 0.000011 0.000006 -0.000004
-0.002321 1.095602 0.001917 -2.437105 -15.811080 -1.276941 1.892587 2.788405 -0.396613 1.282683 2.325919 -0.448372 1.235990 2.352559 -0.473612 1.182964 -0.089626 3.987938 23.318574 6.050304 1.454670 2.302421 -8.080792 1.491437 -38.129027 -69.448128 -58.527029 -0.000009 -24.123730 -0.000003 -98.354722 -3.999133 -9.083519 -0.122155 -9.391911 10.892761 166.250982 79.383408 -153.003923 0.000001 21.527582 -0.000008 -51.564426 -13.193197 -15.633680 -27.074482 22.063453 10.882783 35.743190 7.874828 10.246727 -8.973627 1.140074 -9.834434 -0.000141 0.000005 -0.000005 -23.244468 -22.698272 -8.563736 36.523360 -3.843107 -10.204639 -12.780183 -1.384983 9.612808 0.000011 0.000006 -0.000005
-0.002321 1.095724 0.001917 -2.450723 -15.810444 -1.290360 1.894719 2.794477 -0.396938 1.280558 2.331213 -0.438447 1.233788 2.357266 -0.463887 1.157143 -0.085154 3.956141 23.308441 6.026294 1.480844 2.298718 -8.090379 1.408326 -37.111491 -69.943481 -57.479026 -0.000001 -24.161522 -0.000006 -98.618135 -4.108843 -9.125938 -0.123570 -9.410032 10.923260 166.349059 79.398259 -153.090590 -0.000005 21.537438 0.000014 -51.691572 -13.230367 -15.637082 -27.072541 22.169063 10.938583 35.727052 7.761032 10.247267 -8.976105 1.134100 -9.806765 -0.000141 0.000006 -0.000003 -23.181738 -22.680421 -8.530466 36.474913 -3.861146 -10.205390 -12.769242 -1.386752 9.623050 0.000010 0.000008 -0.000002
-0.002321 1.095908 0.001917 -2.470521 -15.784295 -1.300140 1.896279 2.791458 -0.400505 1.278559 2.329623 -0.434214 1.231256 2.354200 -0.459835 1.129166 -0.082826 3.927227 23.282557 5.998855 1.528549 2.306279 -8.129386 1.371455 -36.319285 -70.269819 -56.676504 0.000004 -24.186201 0.000009 -98.839511 -4.245395 -9.198752 -0.124358 -9.415484 10.929630 166.471723 79.426572 -153.208171 -0.000004 21.559583 0.000009 -51.819572 -13.282122 -15.627558 -27.059623 22.306104 10.993710 35.695154 7.598510 10.248155 -8.973894 1.121908 -9.762547 -0.000141 0.000005 -0.000003 -23.099219 -22.683881 -8.508706 36.409267 -3.882484 -10.206351 -12.758435 -1.390346 9.637913 0.000011 0.000006 -0.000005
-0.002321 1.096135 0.001917 -2.488584 -15.750769 -1.306090 1.897402 2.787894 -0.407941 1.276923 2.326758 -0.435705 1.229233 2.349535 -0.461467 1.101669 -0.081849 3.908334 23.256270 5.976853 1.586635 2.327323 -8.203176 1.388378 -35.822442 -70.392485 -56.186485 0.000001 -24.221185 -0.000004 -98.994648 -4.383660 -9.272849 -0.125667 -9.433653 10.960369 166.328553 79.428148 -153.071284 0.000002 21.591540 0.000004 -51.948118 -13.328147 -15.617775 -27.032959 22.428908 11.030086 35.646698 7.448050 10.249287 -8.964542 1.110256 -9.718595 -0.000141 0.000005 -0.000003 -23.006403 -22.678201 -8.486361 36.328708 -3.917178 -10.207420 -12.742297 -1.398273 9.660885 0.000010 0.000008 -0.000001
-0.002321 1.096345 0.001917 -2.494362 -15.734784 -1.307795 1.896978 2.788517 -0.418522 1.274736 2.326217 -0.440995 1.227549 2.348193 -0.466869 1.076740 -0.081692 3.902224 23.246842 5.963846 1.646413 2.360152 -8.308404 1.443493 -35.588922 -70.297291 -55.968454 0.000000 -24.309060 0.000006 -99.063990 -4.506489 -9.312432 -0.127716 -9.473363 11.034190 165.832950 79.391334 -152.592038 -0.000007 21.626394 0.000013 -52.064753 -13.345709 -15.615976 -27.004439 22.500793 11.046168 35.590662 7.361537 10.250263 -8.946225 1.105083 -9.695612 -0.000141 0.000005 -0.000005 -22.927478 -22.639310 -8.450142 36.252797 -3.967244 -10.207848 -12.723850 -1.409138 9.684676 0.000011 0.000007 -0.000004
-0.002321 1.096483 0.001917 -2.485562 -15.745297 -1.304972 1.893768 2.792236 -0.429888 1.271712 2.327392 -0.447924 1.225922 2.350055 -0.473837 1.056323 -0.082397 3.905377 23.263474 5.959078 1.697987 2.396529 -8.418925 1.513177 -35.579283 -70.027136 -55.980055 -0.000001 -24.451429 -0.000002 -99.039906 -4.604291 -9.300592 -0.129589 -9.517130 11.118315 165.141547 79.334219 -151.922219 -0.000004 21.658743 -0.000003 -52.155053 -13.322667 -15.630153 -26.988216 22.522277 11.051628 35.543605 7.344131 10.251027 -8.925164 1.103778 -9.698275 -0.000142 0.000004 -0.000005 -22.878491 -22.564287 -8.398727 36.199993 -4.032002 -10.208749 -12.709709 -1.418578 9.704598 0.000011 0.000007 -0.000004
-0.002321 1.096543 0.001917 -2.468003 -15.768987 -1.298578 1.889291 2.794644 -0.441559 1.269325 2.327183 -0.454887 1.224644 2.351236 -0.480701 1.041436 -0.083928 3.912254 23.302366 5.962107 1.733499 2.425172 -8.497520 1.578441 -35.743039 -69.691723 -56.171443 0.000002 -24.606025 0.000005 -98.937576 -4.674627 -9.241357 -0.130950 -9.543476 11.168741 164.549944 79.284789 -151.350610 -0.000010 21.685930 0.000009 -52.203203 -13.265084 -15.665503 -26.989483 22.524894 11.054311 35.515361 7.356863 10.251306 -8.909558 1.104093 -9.709387 -0.000141 0.000005 -0.000003 -22.859159 -22.469684 -8.347525 36.171956 -4.107782 -10.209282 -12.699370 -1.425325 9.724305 0.000011 0.000007 -0.000004
-0.002321 1.096568 0.001917 -2.452044 -15.785781 -1.288729 1.888332 2.791011 -0.456444 1.270175 2.322749 -0.462068 1.225552 2.347833 -0.487696 1.031709 -0.085663 3.920157 23.346913 5.973704 1.753459 2.440857 -8.527610 1.636447 -35.962317 -69.415797 -56.420709 0.000009 -24.732005 0.000013 -98.797049 -4.723352 -9.147832 -0.132742 -9.549637 11.177132 164.279802 79.261011 -151.092349 0.000001 21.706262 -0.000009 -52.197344 -13.186022 -15.716255 -27.002297 22.549486 11.058244 35.502083 7.347032 10.251427 -8.901318 1.104835 -9.706635 -0.000141 0.000005 -0.000005 -22.855647 -22.380788 -8.314105 36.154967 -4.187819 -10.209408 -12.687278 -1.427373 9.748110 0.000011 0.000006 -0.000004
-0.002321 1.096600 0.001917 -2.450346 -15.783796 -1.273204 1.895032 2.779947 -0.477455 1.276583 2.314239 -0.471016 1.231588 2.339440 -0.496544 1.025816 -0.086901 3.929528 23.377936 5.992657 1.765584 2.448175 -8.527968 1.696731 -36.086109 -69.283399 -56.566485 -0.000001 -24.807077 0.000008 -98.671462 -4.760708 -9.041186 -0.135342 -9.546880 11.165227 164.361382 79.265657 -151.174279 -0.000004 21.717703 0.000010 -52.135148 -13.090812 -15.769918 -27.010064 22.614313 11.060879 35.488136 7.285432 10.251673 -8.890675 1.104706 -9.680983 -0.000142 0.000004 -0.000005 -22.858242 -22.325320 -8.311279 36.142138 -4.258318 -10.209371 -12.670742 -1.425909 9.768216 0.000011 0.000006 -0.000005
-0.002321 1.096642 0.001917 -2.453942 -15.762159 -1.253300 1.908246 2.765237 -0.503678 1.287849 2.305546 -0.482201 1.242795 2.329891 -0.507697 1.022034 -0.087683 3.941980 23.389207 6.014842 1.778137 2.458859 -8.535971 1.771760 -35.955925 -69.301459 -56.436423 -0.000007 -24.882396 -0.000004 -98.603716 -4.798675 -8.913995 -0.137296 -9.544266 11.153580 164.663764 79.291821 -151.464825 -0.000002 21.718355 -0.000007 -51.973822 -12.986468 -15.823795 -27.007395 22.688530 11.059372 35.471434 7.197295 10.252042 -8.881613 1.104759 -9.650389 -0.000141 0.000006 -0.000003 -22.868139 -22.329286 -8.344184 36.134191 -4.296388 -10.209639 -12.660084 -1.420072 9.781297 0.000011 0.000007 -0.000003
-0.002321 1.096670 0.001917 -2.456154 -15.727460 -1.235104 1.920589 2.753006 -0.530079 1.298188 2.300654 -0.493627 1.253291 2.323650 -0.518690 1.018288 -0.089123 3.959544 23.392093 6.035954 1.796998 2.478568 -8.571650 1.866282 -35.574259 -69.447591 -56.036210 0.000008 -24.954371 0.000006 -98.620838 -4.842391 -8.791753 -0.136882 -9.544243 11.149663 164.974689 79.330171 -151.753419 -0.000000 21.709603 -0.000001 -51.791722 -12.847015 -15.876508 -27.002534 22.713286 11.036983 35.453499 7.143953 10.252352 -8.864656 1.103863 -9.626552 -0.000142 0.000004 -0.000005 -22.894477 -22.394421 -8.402635 36.136268 -4.288730 -10.209881 -12.655485 -1.409609 9.780049 0.000010 0.000008 -0.000003
-0.002321 1.096667 0.001917 -2.448860 -15.687700 -1.224816 1.923286 2.747110 -0.550989 1.300098 2.299984 -0.502425 1.255135 2.321844 -0.526291 1.011708 -0.093093 3.983509 23.405475 6.052698 1.827589 2.504069 -8.627835 1.974610 -35.062446 -69.676201 -55.503594 -0.000008 -24.999316 -0.000007 -98.723514 -4.891713 -8.708193 -0.134399 -9.545666 11.151611 165.113606 79.372504 -151.864211 0.000003 21.695367 -0.000005 -51.640252 -12.675993 -15.925941 -27.000776 22.665394 10.996269 35.445228 7.154273 10.252527 -8.850989 1.103409 -9.621236 -0.000141 0.000005 -0.000003 -22.940549 -22.487942 -8.459672 36.146067 -4.249701 -10.209872 -12.649398 -1.399629 9.764547 0.000011 0.000007 -0.000004
-0.002321 1.096645 0.001917 -2.422033 -15.646304 -1.222580 1.913865 2.746882 -0.562821 1.291080 2.301583 -0.507177 1.245721 2.322678 -0.529630 0.998694 -0.100588 4.010757 23.443550 6.061497 1.874925 2.527655 -8.681007 2.082033 -34.572614 -69.924679 -55.003066 0.000009 -25.020338 0.000004 -98.885669 -4.943372 -8.675248 -0.131773 -9.543812 11.148555 165.076787 79.416256 -151.801705 -0.000006 21.678552 0.000009 -51.554845 -12.502018 -15.966155 -27.022989 22.577263 10.960069 35.444579 7.196354 10.252445 -8.836576 1.104323 -9.628012 -0.000141 0.000005 -0.000003 -22.995648 -22.572224 -8.490188 36.153687 -4.209974 -10.209771 -12.642433 -1.394431 9.744262 0.000011 0.000007 -0.000004
-0.002321 1.096626 0.001917 -2.384519 -15.604786 -1.230107 1.898990 2.748760 -0.564233 1.276243 2.303736 -0.508262 1.230402 2.324368 -0.530250 0.976416 -0.109411 4.031390 23.509477 6.059238 1.939220 2.540047 -8.702683 2.165273 -34.242644 -70.160315 -54.673343 0.000004 -25.003486 0.000008 -99.072980 -4.990478 -8.701290 -0.129924 -9.528260 11.120553 165.076883 79.468042 -151.786947 -0.000012 21.660421 0.000012 -51.555930 -12.362879 -15.987116 -27.067265 22.484131 10.940709 35.449444 7.239133 10.252369 -8.821244 1.106099 -9.635685 -0.000141 0.000005 -0.000003 -23.036994 -22.623994 -8.485052 36.148077 -4.195964 -10.209686 -12.632728 -1.393846 9.730981 0.000011 0.000006 -0.000004
-0.002321 1.096608 0.001917 -2.368884 -15.581605 -1.248750 1.898228 2.745707 -0.545923 1.266489 2.302881 -0.500944 1.220509 2.323955 -0.524995 0.917166 -0.104924 4.011216 23.615981 6.062330 1.997928 2.516660 -8.622339 2.170229 -33.957226 -70.501816 -54.385908 0.000005 -24.907279 -0.000001 -99.370367 -5.052227 -8.848464 -0.124021 -9.412044 10.902363 166.188872 79.613355 -152.917129 -0.000005 21.627948 -0.000000 -51.651178 -12.303336 -15.955516 -27.087361 22.397164 10.947256 35.451919 7.321050 10.252063 -8.808631 1.105608 -9.667278 -0.000141 0.000005 -0.000003 -22.995927 -22.483979 -8.389368 36.114437 -4.349575 -10.209565 -12.612529 -1.417475 9.776020 0.000011 0.000006 -0.000005
-0.002321 1.096591 0.001917 -2.375627 -15.581774 -1.262132 1.907184 2.740874 -0.526321 1.265465 2.300162 -0.492868 1.219637 2.322445 -0.519246 0.864413 -0.093676 3.974993 23.691854 6.068011 2.025798 2.482270 -8.517012 2.124593 -33.751162 -70.777527 -54.173990 0.000002 -24.814843 0.000010 -99.605262 -5.096937 -8.991929 -0.117477 -9.289185 10.669791 167.515537 79.745505 -154.271179 -0.000004 21.602089 0.000006 -51.747864 -12.308939 -15.908371 -27.082493 22.360869 10.963606 35.452196 7.383094 10.251687 -8.803245 1.103545 -9.695435 -0.000141 0.000005 -0.000004 -22.923437 -22.273057 -8.281311 36.081588 -4.551187 -10.209481 -12.594702 -1.447492 9.840983 0.000011 0.000007 -0.000004
-0.002321 1.096572 0.001917 -2.394491 -15.596732 -1.269394 1.920206 2.735151 -0.510744 1.269135 2.296229 -0.485347 1.223560 2.319414 -0.513153 0.823578 -0.079105 3.937850 23.728348 6.083581 2.017940 2.449887 -8.424004 2.063400 -33.550102 -70.978058 -53.964444 -0.000003 -24.752879 -0.000000 -99.773113 -5.130246 -9.099115 -0.111093 -9.179102 10.460909 168.752637 79.847022 -155.535282 -0.000002 21.582141 0.000005 -51.756946 -12.355246 -15.867169 -27.065376 22.369653 10.989025 35.452928 7.418486 10.251336 -8.804987 1.099405 -9.717746 -0.000141 0.000005 -0.000004 -22.847875 -22.061546 -8.189160 36.058109 -4.741032 -10.209457 -12.583198 -1.475317 9.905598 0.000010 0.000007 -0.000003
-0.002321 1.096561 0.001917 -2.415602 -15.614720 -1.274893 1.932633 2.729703 -0.500968 1.273814 2.292925 -0.479042 1.228437 2.315761 -0.507396 0.796741 -0.066056 3.912257 23.735569 6.107437 1.985241 2.430664 -8.372049 2.021178 -33.390728 -71.078893 -53.797441 0.000001 -24.727220 0.000006 -99.867381 -5.153300 -9.157066 -0.106077 -9.098175 10.308493 169.649909 79.910002 -156.452707 -0.000001 21.567734 -0.000000 -51.755367 -12.386487 -15.841933 -27.041835 22.385050 11.010790 35.451889 7.454810 10.251144 -8.809501 1.095111 -9.738499 -0.000141 0.000005 -0.000004 -22.792131 -21.930314 -8.138244 36.044561 -4.851983 -10.209417 -12.577600 -1.492720 9.948042 0.000011 0.000007 -0.000003
-0.002321 1.096564 0.001917 -2.433867 -15.629299 -1.279105 1.941995 2.726174 -0.496240 1.277929 2.291360 -0.474595 1.232645 2.313388 -0.503161 0.782807 -0.058056 3.901377 23.733059 6.129812 1.948401 2.426596 -8.363574 2.010233 -33.327662 -71.084795 -53.730109 0.000001 -24.722924 0.000003 -99.895487 -5.164612 -9.176143 -0.103078 -9.052152 10.223173 170.144445 79.940712 -156.958583 -0.000002 21.559678 0.000004 -51.748147 -12.398582 -15.832172 -27.013049 22.380931 11.018431 35.444470 7.500628 10.251122 -8.809817 1.094436 -9.760200 -0.000141 0.000005 -0.000003 -22.760629 -21.885072 -8.124567 36.038458 -4.883801 -10.209417 -12.575932 -1.499471 9.964637 0.000011 0.000006 -0.000005
-0.002321 1.096572 0.001917 -2.442034 -15.635395 -1.281054 1.945763 2.725277 -0.495061 1.279845 2.291074 -0.472948 1.234573 2.312874 -0.501595 0.778804 -0.055799 3.899941 23.732776 6.139215 1.930522 2.428417 -8.370050 2.013415 -33.333268 -71.062838 -53.734622 0.000001 -24.723319 0.000007 -99.891724 -5.166354 -9.177145 -0.102157 -9.038429 10.198090 170.290212 79.949335 -157.107806 -0.000001 21.557518 0.000002 -51.743562 -12.400184 -15.830532 -26.997810 22.373740 11.018571 35.438734 7.525052 10.251161 -8.808440 1.094460 -9.770763 -0.000141 0.000005 -0.000003 -22.749172 -21.878360 -8.124694 36.035329 -4.884722 -10.209428 -12.574733 -1.501192 9.968565 0.000011 0.000007 -0.000004
