HIERARCHY
ROOT Hips
{
  OFFSET 0 1.1673769999999999 0
  CHANNELS 6 Xposition Yposition Zposition Xrotation Yrotation Zrotation
  JOINT Spine
  {
    OFFSET 0.000003812944337411511 0.10717500000681812 -0.009311
    CHANNELS 3 Xrotation Yrotation Zrotation
    JOINT Spine1
    {
      OFFSET 0 0.1058532983696241 -0.004285186608692496
      CHANNELS 3 Xrotation Yrotation Zrotation
      JOINT Spine2
      {
        OFFSET -8.470329472543003e-22 0.10599345671141647 -0.007812688101110094
        CHANNELS 3 Xrotation Yrotation Zrotation
        JOINT Neck
        {
          OFFSET -8.470329472543003e-22 0.26240299999999994 -0.04488100000000002
          CHANNELS 3 Xrotation Yrotation Zrotation
          JOINT Head
          {
            OFFSET -4.235164736271502e-22 0.17466899999999996 0.05625600000000003
            CHANNELS 3 Xrotation Yrotation Zrotation
            End Site
            {
              OFFSET -4.235164736271502e-22 0.10756799999999966 0.021070000000000005
            }
          }
        }
        JOINT LeftShoulder
        {
          OFFSET 0.10574399999999999 0.23009199999999996 -0.07323000000000002
          CHANNELS 3 Xrotation Yrotation Zrotation
          JOINT LeftArm
          {
            OFFSET 0.14878212914559852 -0.04653266654569688 -0.030693304075147546
            CHANNELS 3 Xrotation Yrotation Zrotation
            JOINT LeftForeArm
            {
              OFFSET 0.24109000000000003 2.220446049250313e-16 -5.551115123125783e-17
              CHANNELS 3 Xrotation Yrotation Zrotation
              JOINT LeftHand
              {
                OFFSET 0.316792 0 -1.1102230246251565e-16
                CHANNELS 3 Xrotation Yrotation Zrotation
                End Site
                {
                  OFFSET 0.1489197794816154 -0.029785938528091638 -0.11888857063295749
                }
              }
            }
          }
        }
        JOINT RightShoulder
        {
          OFFSET -0.10574399999999999 0.23009099999999982 -0.07323000000000002
          CHANNELS 3 Xrotation Yrotation Zrotation
          JOINT RightArm
          {
            OFFSET -0.14878040829228295 -0.04653159475972379 -0.030692917709113934
            CHANNELS 3 Xrotation Yrotation Zrotation
            JOINT RightForeArm
            {
              OFFSET -0.24109000000000003 -6.661338147750939e-16 -2.7755575615628914e-17
              CHANNELS 3 Xrotation Yrotation Zrotation
              JOINT RightHand
              {
                OFFSET -0.31679300000631333 -8.881784197001252e-16 -5.551115123125783e-17
                CHANNELS 3 Xrotation Yrotation Zrotation
                End Site
                {
                  OFFSET -0.14891836631234012 -0.029784881437733945 -0.11888860228635811
                }
              }
            }
          }
        }
      }
    }
  }
  JOINT LeftUpLeg
  {
    OFFSET 0.12297511767165623 -0.06742078536803264 -0.010003
    CHANNELS 3 Xrotation Yrotation Zrotation
    JOINT LeftLeg
    {
      OFFSET 0 -0.457033849483632 0.010304509991859542
      CHANNELS 3 Xrotation Yrotation Zrotation
      JOINT LeftFoot
      {
        OFFSET 0 -0.500280623664138 -0.036905110570505176
        CHANNELS 3 Xrotation Yrotation Zrotation
        JOINT LeftToeBase
        {
          OFFSET 0.025950805788189563 -0.14255151365608373 0.19507593811975638
          CHANNELS 3 Xrotation Yrotation Zrotation
          End Site
          {
            OFFSET 0.010732117804750613 -0.000035441498015504746 0.11362327680684622
          }
        }
      }
    }
  }
  JOINT RightUpLeg
  {
    OFFSET -0.12297488233495055 -0.0674172146317622 -0.010003
    CHANNELS 3 Xrotation Yrotation Zrotation
    JOINT RightLeg
    {
      OFFSET 0.00000159348816348992 -0.45703784846455486 0.01030460015485039
      CHANNELS 3 Xrotation Yrotation Zrotation
      JOINT RightFoot
      {
        OFFSET -0.0000015934881634621645 -0.5002806236608007 -0.03690511058134042
        CHANNELS 3 Xrotation Yrotation Zrotation
        JOINT RightToeBase
        {
          OFFSET -0.0259497668227143 -0.14255297441554501 0.19507500887383716
          CHANNELS 3 Xrotation Yrotation Zrotation
          End Site
          {
            OFFSET -0.010733201844058626 -0.000035030229497263656 0.11362417898958707
          }
        }
      }
    }
  }
}
MOTION
Frames: 18
Frame Time: 0.03333333333333333
-0.012708 1.005663 0.019704 20.182380 -31.877707 11.843836 0.504203 6.440053 1.944022 -2.029943 0.901978 -5.420918 -3.014274 -6.305354 3.551673 12.118093 6.829903 -4.433334 -0.737346 20.027403 8.229675 3.544240 4.756003 -11.623042 -52.656180 -33.314364 -50.642396 0.000057 -81.872031 0.000071 -66.283155 23.462284 41.886025 -14.733702 2.115979 -4.463090 -107.859488 41.020094 127.375543 -0.000006 28.757914 0.000009 -46.454389 -14.449703 -31.513539 -65.469811 -2.341249 7.355940 31.646532 -3.753457 -0.697776 15.810935 -1.798181 -19.329446 0.000007 0.000001 0.000003 -49.410958 -4.994576 -8.524438 68.651642 -8.974538 1.062971 -21.486863 -13.893312 10.525387 -17.093104 -0.000024 0.000001
-0.012708 0.986762 0.019704 19.872258 -32.204837 12.503245 0.915205 6.155725 1.495248 -1.710731 0.906188 -5.493252 -2.703930 -6.290715 3.476412 11.816786 6.909231 -4.404846 -1.425425 20.368301 8.285370 3.375526 3.680348 -11.279039 -52.210632 -29.503730 -50.076090 0.000042 -84.241558 0.000035 -64.804042 23.855704 42.070755 -14.809820 2.871388 -5.653842 -108.999325 39.806922 128.103174 0.000007 27.694636 -0.000001 -45.696105 -13.147939 -30.855079 -68.441257 -4.030595 10.187299 47.037308 3.194492 1.060383 7.144040 -0.196081 -11.826184 0.000004 0.000005 0.000000 -51.315973 -3.202216 -12.425139 67.475387 -9.354593 0.291027 -25.232842 -10.646313 12.597208 -6.164847 0.000011 -0.000008
-0.012708 0.966961 0.019704 19.220974 -33.936462 12.634764 1.169704 6.022027 0.970354 -1.549662 1.065582 -5.471576 -2.544110 -6.141326 3.502473 11.683780 7.078437 -4.583384 -0.668676 21.189497 7.935388 3.339572 3.837902 -11.147306 -51.126629 -26.905505 -49.813131 0.000160 -87.139466 0.000172 -63.313341 23.667559 43.615367 -14.846171 3.484392 -6.533162 -109.196787 39.926646 128.492525 -0.000001 28.928694 -0.000006 -45.774744 -12.080639 -29.955695 -67.425518 -6.114455 16.128999 58.339784 5.044484 2.657325 2.783931 0.186985 -10.009624 0.000008 -0.000002 0.000003 -54.217632 -1.965740 -17.398062 67.906813 -9.646377 0.708193 -25.239836 -4.819446 14.798793 -0.851463 -0.000024 0.000003
-0.012708 0.955457 0.019704 18.468406 -35.503491 11.858329 1.105235 5.672929 0.672203 -1.688736 0.984548 -5.400882 -2.672933 -6.235357 3.575057 11.550731 7.446505 -4.447245 0.778818 22.841149 7.709067 3.150305 4.620209 -10.398175 -49.013244 -25.075709 -50.085394 -179.998766 -89.607533 -179.998769 -62.102503 22.805478 45.888884 -14.889929 3.149689 -6.449603 -108.331967 41.115294 128.983001 0.000005 32.441794 -0.000012 -45.723249 -11.863314 -29.456934 -61.837785 -9.686984 21.937679 62.907191 6.076239 5.258182 0.606606 0.376068 -10.503642 -0.593197 0.009695 -0.936139 -56.773428 -0.683107 -21.306943 66.994230 -5.835582 0.986196 -20.480699 -4.099510 15.849090 -0.452982 0.000016 0.000005
-0.012708 0.953943 0.019704 17.529142 -37.159566 10.375496 0.928798 5.155052 0.421056 -1.886235 0.748209 -5.439864 -2.869667 -6.467117 3.532739 11.556526 7.943090 -3.827759 2.033291 25.150464 8.067222 2.719132 5.167546 -8.934210 -46.882970 -23.283582 -50.636871 179.999941 -86.416213 179.999950 -61.319910 24.044549 47.381740 -14.795560 2.469097 -5.143814 -106.047062 42.771924 128.874052 0.000006 37.533959 -0.000003 -46.339555 -12.996607 -31.149595 -53.300977 -12.176404 27.358507 61.467477 8.474401 8.434272 1.178193 0.289703 -9.805913 -0.001163 0.000002 0.000004 -56.746870 0.377089 -23.050437 61.966214 -4.200895 0.201425 -13.778537 -3.602593 18.332339 -0.452982 0.000000 -0.000002
-0.012708 0.964878 0.019704 17.092313 -38.950769 9.578279 0.799107 4.304158 -0.639796 -1.981903 0.614162 -5.602394 -2.983623 -6.599524 3.362610 11.625950 8.441081 -2.925051 2.623791 27.568681 8.477116 2.329556 5.455981 -7.685855 -45.152689 -21.675011 -50.524074 -179.999952 -82.800598 -179.999940 -61.106205 28.415162 48.702553 -14.520105 2.147767 -3.103771 -102.149271 44.557525 127.676189 0.000023 43.927179 -0.000030 -48.410023 -14.848899 -34.944861 -45.017594 -11.668907 32.101053 56.700864 5.160861 9.872220 5.858357 -0.037967 -7.603522 -0.920168 0.023039 -1.435732 -54.239286 1.341269 -23.500730 51.291318 -4.751016 -1.772741 -4.354775 -2.333432 21.956231 -0.452984 0.000015 0.000010
-0.012708 0.983923 0.019704 17.848131 -40.347037 9.406057 0.452835 3.573626 -1.420149 -2.199792 0.598119 -5.785281 -3.227821 -6.632207 3.174164 11.620127 8.767363 -2.080564 3.164802 29.135256 8.260767 2.306460 5.567023 -7.647424 -43.626875 -21.234074 -49.358705 179.999983 -79.433917 179.999986 -61.704713 32.222214 50.806641 -14.243308 1.668787 -0.980259 -98.616171 46.369695 126.674395 -0.000017 49.522649 0.000005 -50.213926 -16.437254 -37.986142 -38.804278 -10.149803 34.204922 51.913513 -5.729817 9.830565 10.709693 -0.143101 -7.694209 -10.148783 2.791863 -15.216796 -48.763531 -0.091911 -24.193446 31.860183 -6.159759 -3.873602 9.527051 0.747330 24.724709 -1.418637 -0.000021 0.000003
-0.012708 1.001603 0.019704 19.598591 -40.075737 11.371179 -0.253847 2.194466 -3.359867 -2.877594 0.883211 -6.071325 -3.956090 -6.404418 2.898951 11.992447 8.908381 -1.060293 3.693447 29.650166 8.360389 2.669059 5.184088 -8.868651 -42.142686 -22.372781 -46.885510 179.999932 -77.907372 179.999928 -62.963652 32.554627 52.377279 -14.080463 0.766866 0.626864 -95.948540 47.241317 126.360863 -0.000018 52.517228 0.000024 -49.375600 -17.732707 -38.868022 -36.222946 -8.046795 31.412559 48.163416 -8.384202 10.139165 6.939243 -1.994377 -14.023427 -16.497502 2.717136 -15.343849 -46.861300 -1.197308 -27.991133 18.588164 -4.490533 -4.268494 24.442657 6.145159 30.991837 -3.737700 0.099398 -2.285946
-0.012708 1.007316 0.019704 21.799337 -40.175105 14.146641 -1.089507 1.590473 -5.468685 -3.738280 1.667431 -6.307897 -4.853256 -5.661213 2.686564 12.657889 8.793274 -0.501137 4.011004 29.267060 9.065668 3.151027 4.611485 -10.493676 -42.641387 -24.519762 -44.606578 179.999924 -78.778522 179.999925 -64.392528 32.789168 52.850012 -14.112459 0.209117 0.787353 -94.942703 46.424781 126.073100 -0.000025 52.417786 0.000033 -48.832885 -18.266062 -38.732045 -37.860679 -3.337058 27.202604 46.382565 -5.861445 10.518810 -4.722822 1.881869 -19.418369 -15.528365 0.085429 -2.707004 -49.827881 0.122740 -30.706415 21.307316 -2.490489 -3.897987 18.106504 4.909594 30.491511 0.000011 0.000018 -0.000014
-0.012708 1.005045 0.019704 23.810145 -44.670973 12.667032 -1.255701 5.403041 -2.569709 -3.668147 2.539124 -5.877389 -4.723930 -4.785091 3.143550 12.784649 8.369506 -1.055108 3.893103 28.263614 8.727662 3.316540 4.381135 -11.061628 -45.045789 -25.736954 -45.138669 -179.999933 -80.152290 -179.999922 -64.458395 33.515605 53.011670 -14.331949 0.631548 -0.752107 -95.725249 45.385867 124.971454 -0.000006 51.480151 -0.000001 -49.966677 -17.920384 -38.322663 -41.776614 0.053127 28.952694 49.033530 -1.191134 8.505289 -17.534052 3.455131 -16.439913 -11.812583 0.000007 -0.000013 -46.604928 -2.179980 -26.287344 19.440607 -3.944564 -2.905715 15.848701 3.635137 30.190717 -0.000001 -0.000020 -0.000002
-0.012708 0.991160 0.019704 21.594963 -45.176348 12.645885 -0.010574 5.503513 -4.814624 -2.671696 2.799650 -5.774218 -3.692360 -4.496857 3.263813 12.585573 8.081704 -1.368411 3.157909 27.471550 8.281913 3.020918 4.339662 -10.129953 -49.067162 -26.559321 -47.006809 179.999942 -82.123587 179.999953 -63.300849 35.487670 52.181744 -14.481821 1.540848 -2.309299 -96.979622 44.067259 122.929609 -0.000003 50.381483 -0.000012 -52.181863 -16.410011 -38.369768 -46.626182 0.561404 24.771991 55.740357 -1.535104 6.832008 -22.457929 3.325513 -12.929552 -4.321935 -0.000027 0.000002 -50.301026 1.305132 -27.598538 43.337307 -6.774900 -0.865873 5.611017 1.380743 22.673675 -0.459406 -0.005854 0.728739
-0.012708 0.977110 0.019704 18.757817 -45.167739 12.101244 0.991457 6.249585 -6.663216 -2.063855 2.735063 -5.859194 -3.076894 -4.519159 3.178528 13.143155 7.793977 -1.723325 2.856815 26.352155 8.074213 2.825288 4.206220 -9.532355 -52.269346 -28.406303 -48.199458 179.999926 -85.821198 179.999943 -63.671414 36.564188 50.148355 -14.502380 1.913841 -2.726818 -98.334038 42.952693 121.755477 -0.000014 47.748175 0.000007 -53.717343 -16.160415 -38.874307 -50.492115 -1.964857 18.265228 61.916935 1.034410 6.393997 -22.045614 3.150911 -12.442791 -3.270677 0.000014 -0.000003 -51.121651 2.757233 -28.468914 64.892822 -7.982219 1.473356 -1.673914 -0.287372 16.123019 -6.624026 -0.647623 7.654484
-0.012708 0.974161 0.019704 17.387867 -45.090970 12.977484 1.541420 7.551568 -8.623641 -2.005105 2.894784 -6.096839 -3.031228 -4.315718 2.944097 14.005336 7.433154 -2.152451 2.943755 24.917735 8.184562 3.058150 4.521276 -10.232783 -54.543947 -32.012174 -49.153248 0.000288 -89.363781 0.000281 -63.615491 35.165772 47.267131 -14.508951 1.816945 -2.684997 -98.597650 41.527119 121.154653 -0.000001 44.472849 -0.000002 -52.373684 -16.140723 -37.990805 -53.884778 -3.183896 11.416699 63.695356 4.649254 6.025173 -18.626359 2.709318 -12.271617 -3.306774 0.000001 0.000000 -49.695570 2.772948 -27.578378 79.305150 -6.477740 2.707788 -5.792521 0.317088 14.803481 -7.244579 -1.543700 11.967436
-0.012708 0.981362 0.019704 17.294943 -44.512693 14.920263 2.077827 8.504132 -10.662628 -1.862194 3.066589 -6.458606 -2.920576 -4.115939 2.590068 14.080071 7.159690 -2.448316 2.559733 23.651387 8.705158 3.367826 5.326800 -11.082774 -56.437395 -35.403633 -50.335508 0.000166 -85.613156 0.000187 -62.287795 32.875118 45.116375 -14.488266 1.833477 -2.557433 -98.570918 40.660841 120.539703 -0.000013 42.147308 0.000013 -50.499289 -14.980800 -36.013788 -57.604302 -2.340131 6.103209 61.671378 6.849151 5.200195 -12.000091 1.740261 -10.882158 -4.795776 -0.000015 0.000005 -48.073004 0.933310 -23.429633 86.444670 1.361494 1.591883 -8.828258 -0.343278 16.599410 -13.188153 -0.595773 2.543535
-0.012708 0.995409 0.019704 18.330600 -40.914302 14.657607 1.672299 7.619424 -8.528336 -1.825666 2.809536 -6.539499 -2.918887 -4.380393 2.499400 13.417680 7.033071 -2.615282 1.249184 22.500282 9.461756 3.524942 5.627755 -11.506501 -55.624956 -36.485108 -49.908026 -0.000017 -84.123745 -0.000020 -62.473578 30.447204 43.740351 -14.481558 1.683117 -2.391157 -99.651194 41.080146 121.557587 -0.000003 40.044402 0.000001 -49.565997 -14.071183 -35.242924 -62.986014 -0.778768 4.776765 56.824025 1.998521 2.849690 -0.302720 0.560193 -9.258240 -8.105899 0.000004 0.000000 -48.601623 -2.951248 -17.132908 85.907697 6.166403 2.081031 -4.926097 -0.676656 19.454958 -25.095062 4.770461 -11.376217
-0.012708 1.006555 0.019704 19.980164 -34.795476 10.072195 0.286320 6.824515 1.282841 -2.140207 1.693763 -5.627290 -3.164365 -5.534067 3.367662 12.632534 6.895957 -3.643766 -0.151017 20.802264 9.095486 3.605148 4.989709 -11.802601 -52.272009 -34.665017 -49.208539 0.000025 -83.029423 0.000026 -65.619111 25.291700 42.534173 -14.635996 1.521400 -3.284332 -104.522671 41.470499 125.891763 -0.000005 33.270787 0.000008 -47.148110 -14.597760 -33.304704 -67.274994 -0.888581 8.147165 42.622033 -7.390563 -1.209741 10.862198 -0.793762 -11.384890 -3.552139 0.000025 -0.000003 -50.984405 -7.140824 -9.397874 76.114642 -3.963359 4.053689 -5.639999 -7.153125 17.083128 -32.103730 2.284968 -6.029301
-0.012708 1.006935 0.019704 20.229473 -32.175209 11.329450 0.363501 6.526109 1.957666 -2.131509 0.999419 -5.462555 -3.123571 -6.214708 3.512830 12.281788 6.834005 -4.290324 -0.594202 20.061998 8.457652 3.590749 4.674720 -11.780420 -52.378650 -33.678168 -50.043186 0.000040 -82.041253 0.000045 -66.356519 23.884126 41.870298 -14.733777 1.761982 -4.143292 -107.372509 41.046055 127.439658 -0.000006 29.412115 0.000006 -46.611061 -14.503298 -31.978098 -66.026036 -1.446524 7.693377 32.806785 -5.314201 -1.642145 15.930662 -2.760218 -18.874153 -0.430118 -0.005922 0.394310 -49.346416 -5.916780 -8.121914 70.253066 -8.989723 1.905602 -18.553705 -12.673368 11.168784 -19.926855 0.004390 -0.069325
-0.012708 1.005663 0.019704 20.182380 -31.877707 11.843836 0.504203 6.440053 1.944022 -2.029943 0.901978 -5.420918 -3.014274 -6.305354 3.551673 12.118093 6.829903 -4.433334 -0.737346 20.027403 8.229675 3.544240 4.756003 -11.623042 -52.656180 -33.314364 -50.642396 0.000057 -81.872031 0.000071 -66.283155 23.462284 41.886025 -14.733702 2.115979 -4.463090 -107.859488 41.020094 127.375543 -0.000006 28.757914 0.000009 -46.454389 -14.449703 -31.513539 -65.469811 -2.341249 7.355940 31.646532 -3.753457 -0.697776 15.810935 -1.798181 -19.329446 0.000007 0.000001 0.000003 -49.410958 -4.994576 -8.524438 68.651642 -8.974538 1.062971 -21.486863 -13.893312 10.525387 -17.093104 -0.000024 0.000001
