HIERARCHY
ROOT Hips
{
  OFFSET 0 1.1673769999999999 0
  CHANNELS 6 Xposition Yposition Zposition Xrotation Yrotation Zrotation
  JOINT Spine
  {
    OFFSET 0.000003812944337411511 0.10717500000681812 -0.009311
    CHANNELS 3 Xrotation Yrotation Zrotation
    JOINT Spine1
    {
      OFFSET 0 0.1058532983696241 -0.004285186608692496
      CHANNELS 3 Xrotation Yrotation Zrotation
      JOINT Spine2
      {
        OFFSET -8.470329472543003e-22 0.10599345671141647 -0.007812688101110094
        CHANNELS 3 Xrotation Yrotation Zrotation
        JOINT Neck
        {
          OFFSET -8.470329472543003e-22 0.26240299999999994 -0.04488100000000002
          CHANNELS 3 Xrotation Yrotation Zrotation
          JOINT Head
          {
            OFFSET -4.235164736271502e-22 0.17466899999999996 0.05625600000000003
            CHANNELS 3 Xrotation Yrotation Zrotation
            End Site
            {
              OFFSET -4.235164736271502e-22 0.10756799999999966 0.021070000000000005
            }
          }
        }
        JOINT LeftShoulder
        {
          OFFSET 0.10574399999999999 0.23009199999999996 -0.07323000000000002
          CHANNELS 3 Xrotation Yrotation Zrotation
          JOINT LeftArm
          {
            OFFSET 0.14878212914559852 -0.04653266654569688 -0.030693304075147546
            CHANNELS 3 Xrotation Yrotation Zrotation
            JOINT LeftForeArm
            {
              OFFSET 0.24109000000000003 2.220446049250313e-16 -5.551115123125783e-17
              CHANNELS 3 Xrotation Yrotation Zrotation
              JOINT LeftHand
              {
                OFFSET 0.316792 0 -1.1102230246251565e-16
                CHANNELS 3 Xrotation Yrotation Zrotation
                End Site
                {
                  OFFSET 0.06265729429771016 -0.10569948639925819 0.03859412819617963
                }
              }
            }
          }
        }
        JOINT RightShoulder
        {
          OFFSET -0.10574399999999999 0.23009099999999982 -0.07323000000000002
          CHANNELS 3 Xrotation Yrotation Zrotation
          JOINT RightArm
          {
            OFFSET -0.14878040829228295 -0.04653159475972379 -0.030692917709113934
            CHANNELS 3 Xrotation Yrotation Zrotation
            JOINT RightForeArm
            {
              OFFSET -0.24109000000000003 -6.661338147750939e-16 -2.7755575615628914e-17
              CHANNELS 3 Xrotation Yrotation Zrotation
              JOINT RightHand
              {
                OFFSET -0.31679300000631333 -8.881784197001252e-16 -5.551115123125783e-17
                CHANNELS 3 Xrotation Yrotation Zrotation
                End Site
                {
                  OFFSET -0.06265795211397429 -0.10570764472283312 0.03859362014678265
                }
              }
            }
          }
        }
      }
    }
  }
  JOINT LeftUpLeg
  {
    OFFSET 0.12297511767165623 -0.06742078536803264 -0.010003
    CHANNELS 3 Xrotation Yrotation Zrotation
    JOINT LeftLeg
    {
      OFFSET 0 -0.457033849483632 0.010304509991859542
      CHANNELS 3 Xrotation Yrotation Zrotation
      JOINT LeftFoot
      {
        OFFSET 0 -0.500280623664138 -0.036905110570505176
        CHANNELS 3 Xrotation Yrotation Zrotation
        JOINT LeftToeBase
        {
          OFFSET 0.025950805788189563 -0.14255151365608373 0.19507593811975638
          CHANNELS 3 Xrotation Yrotation Zrotation
          End Site
          {
            OFFSET 0.010732117804750613 -0.000035441498015504746 0.11362327680684622
          }
        }
      }
    }
  }
  JOINT RightUpLeg
  {
    OFFSET -0.12297488233495055 -0.0674172146317622 -0.010003
    CHANNELS 3 Xrotation Yrotation Zrotation
    JOINT RightLeg
    {
      OFFSET 0.00000159348816348992 -0.45703784846455486 0.01030460015485039
      CHANNELS 3 Xrotation Yrotation Zrotation
      JOINT RightFoot
      {
        OFFSET -0.0000015934881634621645 -0.5002806236608007 -0.03690511058134042
        CHANNELS 3 Xrotation Yrotation Zrotation
        JOINT RightToeBase
        {
          OFFSET -0.0259497668227143 -0.14255297441554501 0.19507500887383716
          CHANNELS 3 Xrotation Yrotation Zrotation
          End Site
          {
            OFFSET -0.010733201844058626 -0.000035030229497263656 0.11362417898958707
          }
        }
      }
    }
  }
}
MOTION
Frames: 61
Frame Time: 0.03333333333333333
-0.001156 1.017475 0.006030 -0.252231 0.005524 -1.061474 16.586830 0.243720 0.354925 20.119544 0.469852 0.900696 12.592127 0.364574 0.927905 2.981583 -0.915419 0.127353 -21.725491 3.041513 -1.451454 20.445929 -17.628655 8.705055 -33.570203 -17.336500 -36.862242 -2.640518 -52.136197 -20.395458 -54.784152 -19.506899 -15.020231 18.311833 13.497353 -7.979175 -29.297202 10.275805 43.682538 -39.182470 60.008820 40.506183 -15.081140 -0.977429 14.319029 -36.988788 1.596763 26.364488 49.000229 -4.973995 -8.431554 -11.954535 -8.091967 -9.706842 -3.786438 -12.891421 -1.582420 -40.203238 -11.950382 -22.455118 49.649585 5.895399 -2.735591 -11.017890 3.436721 12.279995 -6.688818 9.507263 11.687755
-0.001156 1.017686 0.006030 -0.097094 0.090146 -1.177197 16.600825 0.250750 0.288344 20.180350 0.492244 0.756803 12.670228 0.404009 0.787762 2.794772 -0.905159 0.112525 -21.971256 2.816030 -1.000451 20.385728 -17.596609 8.658081 -33.467602 -18.351906 -36.784016 -2.643800 -52.191604 -20.399635 -54.784151 -19.506898 -15.020230 18.294606 13.523922 -8.028668 -28.840365 10.610496 43.874817 -39.371493 60.141831 40.724268 -15.366181 -1.035994 14.441301 -37.268646 1.536217 26.301615 49.196683 -5.064163 -8.519634 -12.040654 -8.128521 -9.433744 -3.759947 -12.883803 -1.713288 -40.214474 -12.077479 -22.612752 49.290555 5.913275 -2.668968 -10.811981 3.523058 12.447562 -6.688759 9.507262 11.687786
-0.001156 1.017965 0.006030 0.005368 0.136400 -1.261285 16.556560 0.256682 0.240854 20.175240 0.497450 0.645347 12.715258 0.421409 0.677358 2.622127 -0.890040 0.081541 -22.144642 2.670179 -0.778013 20.214482 -17.519578 8.501299 -33.124520 -18.781366 -36.561629 -2.660271 -52.466496 -20.420444 -54.784153 -19.506900 -15.020233 18.194904 13.539818 -7.960741 -28.402218 10.808264 43.917508 -39.731162 60.369596 41.133179 -15.388959 -1.033070 14.662772 -37.460415 1.552918 26.260763 49.338167 -5.202420 -8.600304 -12.120622 -8.129784 -9.173082 -3.747553 -12.880437 -1.772401 -40.177502 -12.176205 -22.745983 48.964950 5.911539 -2.626162 -10.640942 3.624530 12.606292 -6.688768 9.507262 11.687796
-0.001156 1.018333 0.006030 0.053537 0.132304 -1.307631 16.462575 0.262283 0.208781 20.115285 0.495379 0.558589 12.736439 0.428472 0.590323 2.429984 -0.870541 0.025299 -22.283128 2.538490 -0.623448 19.936516 -17.400916 8.241690 -32.529521 -19.023049 -36.262128 -2.683040 -52.838898 -20.449091 -54.784151 -19.506898 -15.020231 18.021914 13.547493 -7.799208 -27.842993 10.965642 43.831080 -40.183654 60.641867 41.644706 -15.097851 -1.010961 15.035068 -37.543027 1.619742 26.209463 49.417553 -5.356160 -8.636948 -12.197370 -8.056216 -8.967384 -3.744486 -12.879929 -1.781778 -40.093094 -12.228591 -22.836484 48.680283 5.858503 -2.613753 -10.508326 3.759443 12.757869 -6.688763 9.507264 11.687801
-0.001156 1.018762 0.006030 0.079558 0.069263 -1.315282 16.328651 0.268016 0.178827 20.020166 0.495752 0.477313 12.751533 0.436368 0.508727 2.175296 -0.846094 -0.050809 -22.412906 2.312385 -0.360478 19.559172 -17.237012 7.885804 -31.604786 -19.383025 -35.840860 -2.719390 -53.417211 -20.494529 -54.784152 -19.506899 -15.020233 17.789488 13.548944 -7.585628 -26.996389 11.177345 43.580748 -40.785292 60.992147 42.323026 -14.725979 -0.897972 15.490160 -37.540648 1.690671 26.125841 49.446605 -5.452854 -8.630287 -12.272438 -7.938268 -8.842516 -3.743633 -12.879901 -1.782461 -40.019987 -12.250708 -22.883515 48.441749 5.853733 -2.642694 -10.395762 3.851992 12.874803 -6.688740 9.507267 11.687815
-0.001156 1.019176 0.006030 0.131574 -0.046876 -1.290489 16.157708 0.272048 0.137010 19.899053 0.503905 0.378825 12.767784 0.453713 0.410672 1.843777 -0.824918 -0.123697 -22.531135 1.944224 0.070062 19.094067 -17.028025 7.447371 -30.304433 -19.852505 -35.184542 -2.782915 -54.380806 -20.573184 -54.784152 -19.506899 -15.020233 17.507875 13.547676 -7.347522 -25.752840 11.500278 43.131769 -41.630075 61.470631 43.274141 -14.561494 -0.624651 15.876283 -37.537040 1.765978 26.019717 49.432658 -5.541436 -8.598256 -12.323731 -7.752781 -8.763376 -3.740252 -12.878423 -1.808105 -40.036414 -12.261466 -22.949139 48.239898 5.865225 -2.645209 -10.275098 3.997419 12.931248 -6.688764 9.507256 11.687795
-0.001156 1.019483 0.006030 0.223900 -0.204621 -1.237479 15.955158 0.273050 0.079193 19.762879 0.511422 0.253008 12.794171 0.471867 0.285156 1.450899 -0.802962 -0.181924 -22.640412 1.508001 0.622973 18.561680 -16.790751 6.954621 -28.672175 -20.214485 -34.204534 -2.884513 -55.812996 -20.697081 -54.784153 -19.506900 -15.020233 17.181213 13.547632 -7.108996 -24.039927 12.014642 42.471099 -42.805347 62.108977 44.594115 -14.745455 -0.200244 16.010734 -37.578749 1.866601 25.937741 49.385323 -5.662053 -8.596181 -12.334843 -7.532456 -8.679934 -3.728443 -12.875319 -1.863765 -40.175181 -12.269049 -23.064496 48.081885 5.876943 -2.594114 -10.138208 4.233371 12.920540 -6.688733 9.507272 11.687826
-0.001156 1.019637 0.006030 0.339364 -0.381466 -1.167534 15.736180 0.268334 0.015620 19.636737 0.501462 0.117082 12.853769 0.472464 0.147590 1.024058 -0.751673 -0.250068 -22.825778 1.175056 1.247865 17.981763 -16.537360 6.438670 -26.774398 -20.333344 -32.898998 -3.034947 -57.719943 -20.876963 -54.784152 -19.506899 -15.020232 16.816338 13.546631 -6.927940 -21.718878 12.851549 41.564232 -44.505115 62.975517 46.495605 -15.198787 0.335013 15.802329 -37.670523 1.994560 25.909244 49.319071 -5.798608 -8.646944 -12.299532 -7.340117 -8.578721 -3.714103 -12.871596 -1.931427 -40.412753 -12.278089 -23.208582 47.976970 5.901693 -2.509532 -9.990916 4.511795 12.852334 -6.688784 9.507257 11.687781
-0.001156 1.019665 0.006030 0.481706 -0.545862 -1.093667 15.511781 0.250260 -0.036582 19.536606 0.470749 0.010884 12.960560 0.448296 0.037174 0.606451 -0.636403 -0.374995 -23.272483 1.091211 1.937281 17.350648 -16.228625 5.898067 -24.610068 -20.261152 -31.326864 -3.256733 -60.150965 -21.135853 -54.784152 -19.506899 -15.020231 16.424529 13.528302 -6.902790 -18.539568 14.039879 40.286183 -47.158913 64.197118 49.445139 -15.612079 0.918898 15.512172 -37.833643 2.128048 25.905072 49.248871 -5.907834 -8.716010 -12.215780 -7.220779 -8.475121 -3.702380 -12.868622 -1.985961 -40.723628 -12.282417 -23.376131 47.890859 5.947512 -2.390001 -9.813650 4.782761 12.747760 -6.688714 9.507275 11.687824
-0.001156 1.019650 0.006030 0.706533 -0.685144 -0.991747 15.266594 0.239043 -0.072153 19.432039 0.457993 -0.038400 13.081977 0.437323 -0.015050 0.269806 -0.455463 -0.588608 -24.142440 1.234976 2.673805 16.635963 -15.771814 5.281273 -22.159336 -19.997597 -29.541148 -3.598071 -63.221333 -21.523507 -54.784153 -19.506900 -15.020234 16.006096 13.464342 -7.107958 -14.253538 15.297672 38.443824 -51.359586 65.828147 54.066972 -15.521318 1.396096 15.853366 -38.129292 2.285454 25.852451 49.162520 -5.982654 -8.763774 -12.070491 -7.164029 -8.363530 -3.699070 -12.867383 -2.008488 -41.150264 -12.245277 -23.598205 47.788397 6.012833 -2.205604 -9.578018 5.029188 12.609196 -6.688768 9.507263 11.687777
-0.001156 1.019684 0.006030 1.087425 -0.824243 -0.776570 14.965457 0.253139 -0.105600 19.255313 0.510628 -0.046064 13.148401 0.491570 -0.020113 0.094835 -0.252950 -0.877478 -25.417511 1.435774 3.353798 15.809012 -15.097792 4.527383 -19.538396 -19.203760 -27.594716 -4.146512 -66.981184 -22.127887 -54.784152 -19.506899 -15.020231 15.550442 13.336518 -7.492179 -8.847421 16.076943 35.949216 -57.496692 67.665252 60.735416 -14.567369 1.647297 17.507893 -38.594895 2.531035 25.656532 49.006558 -6.067487 -8.801759 -11.844355 -7.074635 -8.203544 -3.695232 -12.867642 -2.005531 -41.790569 -12.103073 -23.956221 47.647303 6.137480 -1.956017 -9.255350 5.243394 12.448084 -6.688764 9.507264 11.687794
-0.001156 1.019766 0.006030 1.641498 -1.002999 -0.344512 14.595945 0.299386 -0.166506 18.974396 0.641403 -0.064814 13.125718 0.629780 -0.030098 0.132400 -0.076303 -1.196653 -26.928990 1.592125 3.802834 14.881757 -14.232308 3.628289 -17.036276 -17.346844 -25.641334 -5.045438 -71.246876 -23.089456 -54.784152 -19.506899 -15.020232 15.044587 13.164085 -7.855012 -2.715474 15.905557 32.981154 -65.145954 69.274063 68.949387 -12.861752 1.905283 20.362982 -39.174273 2.897854 25.232127 48.728837 -6.200274 -8.885431 -11.537320 -6.816269 -7.964656 -3.691290 -12.867498 -2.009444 -42.733065 -11.827800 -24.553745 47.502220 6.343982 -1.669362 -8.853806 5.498966 12.265771 -6.688753 9.507266 11.687804
-0.001156 1.019714 0.006030 2.284420 -1.223170 0.349548 14.203575 0.349815 -0.268196 18.660949 0.792742 -0.127323 13.083401 0.795961 -0.083776 0.394751 0.081185 -1.539671 -28.572063 1.847527 3.899647 13.896406 -13.261621 2.629320 -14.900150 -14.257288 -23.977917 -6.509849 -75.559098 -24.616524 -54.784152 -19.506899 -15.020231 14.489939 13.003871 -7.972635 3.390188 14.647777 29.923935 -72.668288 70.305495 76.959572 -11.127173 2.648194 23.375958 -39.748591 3.359443 24.555190 48.345262 -6.364468 -9.052694 -11.177852 -6.350450 -7.659256 -3.687590 -12.865589 -2.043573 -43.966044 -11.440645 -25.461944 47.433300 6.614888 -1.362902 -8.414725 5.899616 12.050782 -6.688784 9.507262 11.687781
-0.001156 1.019188 0.006030 2.870877 -1.408487 1.264884 13.876623 0.360719 -0.388991 18.472794 0.870919 -0.211889 13.177675 0.892060 -0.167843 0.870425 0.277884 -1.983972 -30.427313 2.490249 3.675998 12.885308 -12.243833 1.573044 -13.118636 -10.493522 -22.922821 -8.785604 -79.332412 -26.946817 -54.784152 -19.506899 -15.020233 13.903788 12.906057 -7.758150 8.563617 12.404511 27.196398 -77.878854 70.757229 82.483683 -10.247016 4.089409 25.382568 -40.240693 3.861066 23.660402 47.952237 -6.506286 -9.281955 -10.795709 -5.802183 -7.321970 -3.684434 -12.863837 -2.075143 -45.369482 -10.974297 -26.682986 47.527967 6.920159 -1.044757 -7.991527 6.456628 11.807861 -6.688758 9.507267 11.687808
-0.001156 1.017883 0.006030 3.307775 -1.403547 2.330773 13.683418 0.307040 -0.479735 18.541566 0.815874 -0.254929 13.538870 0.851157 -0.222445 1.511118 0.550740 -2.599481 -32.512498 3.652169 3.273498 11.867003 -11.200151 0.485853 -11.505012 -7.060023 -22.694294 -11.892065 -82.114056 -30.093527 -54.784152 -19.506899 -15.020232 13.300891 12.869447 -7.267216 12.050725 9.420205 25.133082 -79.150718 70.819713 83.829402 -10.497475 6.051388 25.990307 -40.686665 4.333219 22.550433 47.642644 -6.567016 -9.510044 -10.371075 -5.359567 -6.978513 -3.692404 -12.865960 -2.035472 -46.842892 -10.452195 -28.187232 47.847985 7.255947 -0.733071 -7.613899 7.028896 11.555282 -6.688744 9.507269 11.687819
-0.001156 1.015759 0.006030 3.648151 -1.007354 3.535976 13.629171 0.182206 -0.526668 18.883476 0.624421 -0.216047 14.181993 0.667575 -0.205188 2.209931 0.861423 -3.310254 -34.603910 5.199024 2.760113 10.871771 -10.178956 -0.592158 -10.018196 -4.713679 -23.360688 -15.021808 -83.737512 -33.246988 -54.784152 -19.506898 -15.020231 12.673388 12.823816 -6.549953 13.456167 5.944933 23.910543 -76.247017 70.575633 80.751802 -11.419177 8.220539 25.479569 -41.231619 4.757538 21.159962 47.364042 -6.509219 -9.702254 -9.783038 -5.212077 -6.622273 -3.723665 -12.865508 -1.886500 -48.413000 -9.850658 -29.988082 48.403249 7.629842 -0.440301 -7.281069 7.418921 11.313965 -6.688769 9.507270 11.687803
-0.001156 1.012670 0.006030 4.055257 -0.046747 4.886663 13.656588 0.003038 -0.520483 19.379993 0.339299 -0.066843 14.986754 0.383906 -0.082052 2.834706 1.113596 -3.903909 -36.185427 6.733749 2.071167 9.948478 -9.277711 -1.589884 -8.795152 -3.600043 -24.876197 -16.715225 -84.358692 -34.949552 -54.784151 -19.506898 -15.020231 12.002855 12.678068 -5.614340 12.960963 2.356672 23.481199 -70.058570 69.884746 74.175430 -12.465339 10.305274 24.294947 -42.122889 5.229076 19.503924 47.000842 -6.480551 -9.882807 -8.885595 -5.466810 -6.182080 -3.753114 -12.869115 -1.745774 -50.213190 -9.077494 -32.118943 49.235276 8.024364 -0.107101 -7.012471 7.474944 11.073546 -6.688787 9.507258 11.687783
-0.001156 1.008158 0.006030 4.627922 1.540909 6.329802 13.685347 -0.202168 -0.433741 19.851334 0.023057 0.244823 15.771168 0.061002 0.205631 3.310431 1.225321 -4.215887 -36.685641 7.762812 1.151944 9.131598 -8.569962 -2.446584 -7.883204 -3.431265 -27.104872 -16.723633 -84.361450 -34.958004 -54.784152 -19.506899 -15.020231 11.290543 12.396531 -4.522708 11.328692 -0.789585 23.582386 -61.980734 68.506639 65.535517 -13.555787 12.149152 22.885499 -43.473523 5.843558 17.865591 46.541350 -6.375237 -10.284524 -7.617211 -6.492965 -5.583150 -3.732573 -12.870539 -1.844080 -52.317023 -8.049460 -34.560667 50.468504 8.468914 0.351441 -6.895741 7.101613 10.785781 -6.688821 9.507252 11.687757
-0.001156 1.001452 0.006030 5.241974 3.644626 7.697039 13.648799 -0.385830 -0.203033 20.152352 -0.253085 0.787159 16.387668 -0.232504 0.731879 3.659162 1.182712 -4.248125 -35.725900 7.962978 0.112624 8.415029 -8.034097 -3.148390 -7.041949 -3.835307 -29.884547 -16.237886 -84.196918 -34.469830 -54.784152 -19.506899 -15.020232 10.569209 12.043979 -3.405558 9.598835 -2.820915 23.778736 -53.240899 66.186163 56.069664 -14.833412 13.773604 21.733432 -45.189381 6.610596 16.594067 46.246288 -6.220910 -10.988769 -6.148095 -8.212907 -4.813286 -3.721203 -12.877919 -1.900011 -54.578520 -6.802097 -37.151512 52.295122 9.048332 0.917368 -7.097897 6.269258 10.421285 -6.688773 9.507266 11.687796
-0.001156 0.992531 0.006030 5.539607 6.010294 8.812996 13.497656 -0.494365 0.194802 20.209058 -0.413343 1.568583 16.759622 -0.419398 1.508571 3.965253 1.029333 -4.085899 -33.196876 7.379573 -0.892803 7.760545 -7.568322 -3.723751 -5.941260 -4.480041 -33.135625 -16.165312 -84.171479 -34.396877 -54.784152 -19.506899 -15.020230 9.879702 11.741415 -2.294558 8.555821 -3.206430 23.514627 -44.978693 62.768172 46.922198 -16.105983 15.256640 21.139924 -46.884953 7.537058 15.988670 46.408066 -6.105944 -11.951968 -4.738043 -10.333385 -3.862861 -4.041242 -13.000268 -0.437185 -56.525992 -5.520487 -39.629776 54.726202 9.758070 1.471744 -7.743186 5.081324 10.009483 -6.688808 9.507264 11.687757
-0.001156 0.981663 0.006030 5.102037 8.352191 9.600562 13.182641 -0.470337 0.725081 19.976658 -0.399141 2.465522 16.840067 -0.433517 2.411587 4.311063 0.802057 -3.764882 -29.170442 6.286818 -1.906712 7.126455 -7.063304 -4.222434 -4.527492 -4.981674 -36.874844 -16.594668 -84.318719 -34.828391 -54.784152 -19.506899 -15.020233 9.235866 11.543992 -1.020600 8.384117 -1.974697 22.383258 -38.441825 58.668782 39.439019 -16.929541 16.607328 20.971093 -48.190971 8.735458 16.363550 47.328723 -5.835791 -13.138199 -3.526961 -13.173947 -2.584350 -8.554075 -13.000258 -0.437196 -57.622714 -4.431981 -41.746487 57.708927 10.567050 1.838684 -8.929282 3.633554 9.622865 -6.688773 9.507253 11.687788
-0.001156 0.968951 0.006030 3.629749 10.471196 10.128501 12.658761 -0.282461 1.304426 19.401403 -0.206914 3.248788 16.572925 -0.261406 3.207186 4.741627 0.485608 -3.274621 -23.831701 4.805566 -3.090443 6.488002 -6.452670 -4.701596 -3.023262 -4.907843 -41.054840 -17.307974 -84.546894 -35.545109 -54.784151 -19.506899 -15.020235 8.611782 11.366858 0.621671 8.716089 0.216296 20.541327 -34.438709 55.166931 34.672737 -17.149263 17.744044 20.799611 -51.923104 9.866450 18.480353 52.899860 -5.360032 -14.807498 1.660184 -17.172751 3.849707 -15.736892 -12.971126 -0.836587 -57.476216 -3.662548 -43.405541 61.241410 11.078157 1.937478 -10.768160 2.350905 9.376398 -6.688765 9.507268 11.687810
-0.001156 0.955061 0.006030 1.018325 12.283082 10.535615 11.919756 0.035490 1.841507 18.459071 0.100510 3.722477 15.932004 0.040758 3.693774 5.285491 0.049453 -2.648620 -17.510096 2.818656 -4.391471 5.843471 -5.729106 -5.199566 -1.538483 -4.075601 -45.366956 -18.512003 -84.891242 -36.754240 -54.784152 -19.506898 -15.020232 7.977116 11.067466 2.612558 8.917475 2.814168 18.672745 -32.929393 53.590181 32.829230 -16.898194 18.590199 20.439499 -56.300911 10.552713 22.234011 58.418072 -4.701693 -16.277346 16.816412 -19.660014 8.225252 -23.268949 -12.519903 -4.884182 -55.915897 -3.467002 -44.607601 65.160450 11.532307 1.563979 -13.321361 1.045837 9.340599 -6.688751 9.507280 11.687817
-0.001156 0.945289 0.006030 -2.686653 13.814152 11.094914 11.014557 0.288959 2.124860 17.212294 0.436494 3.866509 14.978128 0.385550 3.847692 5.980050 -0.473928 -1.989626 -10.667426 0.355865 -5.489457 5.212609 -4.956035 -5.703009 0.070073 -2.853559 -49.224628 -21.093593 -85.494249 -39.344932 -54.784151 -19.506898 -15.020230 7.345900 10.607417 4.661380 8.572712 6.141521 17.337176 -33.188896 53.940598 33.167659 -16.018413 19.420708 20.318502 -58.765226 11.661083 25.176186 62.171698 -4.841091 -17.099156 32.278256 -18.297888 15.810025 -36.503514 -12.048593 -2.595523 -52.675608 -4.287291 -45.563462 68.322723 11.532005 0.870039 -16.079221 0.220147 9.518503 -6.688796 9.507258 11.687774
-0.001156 0.941791 0.006030 -7.119508 14.951899 11.643179 10.012260 0.519517 2.316009 15.781412 0.754392 3.834703 13.830005 0.717503 3.822824 6.818643 -0.972752 -1.441618 -3.803986 -2.170121 -6.105863 4.621182 -4.232319 -6.166334 1.818541 -1.918221 -51.961829 -26.266536 -86.337119 -44.530906 -54.784151 -19.506897 -15.020231 6.768745 10.111489 6.395368 7.780335 10.997708 16.472474 -33.947903 54.826482 34.120240 -14.029994 21.100279 21.104724 -60.081786 12.478340 28.996514 64.325831 -3.251086 -17.289864 46.684108 -15.760289 16.053904 -32.942859 -12.496128 0.240199 -48.011309 -6.299481 -46.198650 70.051465 10.724755 0.205723 -18.573003 0.399661 9.911992 -6.688872 9.508278 11.688007
-0.001156 0.945007 0.006030 -11.705226 15.733961 12.274667 8.957988 0.687341 2.385574 14.256110 1.083337 3.791654 12.576169 1.054294 3.786273 7.659117 -1.328987 -1.171711 2.608097 -4.313068 -6.183624 4.074452 -3.575075 -6.585811 3.273124 -1.622853 -53.102329 -34.408317 -87.132180 -52.685725 -54.784151 -19.506896 -15.020229 6.280247 9.772357 7.564030 6.891215 17.427451 15.666338 -34.019732 54.974467 34.228642 -11.078754 24.526503 22.704098 -62.449043 12.084380 33.525653 70.668454 -3.889742 -17.894848 47.379770 -14.570308 19.931923 -15.469539 -12.584006 -1.933012 -42.632823 -9.067576 -46.220936 70.289807 9.748526 -0.547630 -20.522253 0.635462 10.340192 -6.688804 9.507715 11.687904
-0.001156 0.951996 0.006030 -15.895300 16.239359 12.990221 7.872674 0.889841 2.433666 12.666584 1.509493 3.760353 11.245783 1.478198 3.762789 8.247687 -1.501752 -1.293420 8.197617 -6.018546 -5.746955 3.551237 -2.859035 -7.014279 3.739142 -1.844158 -52.573641 -41.792901 -87.568585 -60.078142 -54.784152 -19.506898 -15.020232 5.875562 9.706652 8.093309 6.060558 24.231887 14.726749 -33.384424 54.379139 33.472495 -8.221243 29.364574 23.909448 -64.870185 11.295732 37.592314 76.602552 -5.029254 -18.387653 46.370169 -13.593575 24.578460 -4.416345 -13.000257 -0.437193 -37.242396 -11.932134 -45.755132 69.582369 8.611246 -1.340471 -22.029304 0.856327 10.872721 -6.688920 9.509667 11.688359
-0.001156 0.960829 0.006030 -19.457847 16.617623 13.858324 6.780688 1.184597 2.453957 11.032534 2.098747 3.644969 9.856459 2.062821 3.655505 8.391820 -1.543127 -1.723483 12.817511 -7.504947 -4.795805 3.032409 -1.952973 -7.474687 2.786603 -2.404597 -50.705650 -42.453419 -87.599410 -60.739231 -54.784150 -19.506897 -15.020230 5.534548 9.876303 8.024952 5.048295 29.913956 13.856509 -32.858861 53.881798 32.848126 -6.169089 33.852651 23.699501 -67.383011 10.576235 40.959048 81.576524 -6.209454 -18.917527 45.394849 -11.479866 29.125404 -5.204423 -13.007758 -0.437497 -32.407340 -14.746636 -45.375338 68.327024 7.731031 -2.127086 -23.197246 1.036858 11.360427 -6.689094 9.511072 11.688645
-0.001156 0.970973 0.006030 -22.461114 17.002015 14.858269 5.721056 1.547677 2.373607 9.409179 2.814175 3.375197 8.459342 2.781863 3.391074 8.074957 -1.540518 -2.172412 16.498704 -8.831287 -3.439516 2.529393 -0.900278 -7.896848 0.633825 -3.245433 -47.980662 -39.005837 -87.425402 -57.288392 -54.784152 -19.506896 -15.020230 5.235656 10.128356 7.529714 3.572552 33.831527 13.245660 -32.977214 54.101842 33.019201 -4.738363 36.433591 22.513212 -69.750042 10.176085 43.615380 85.303596 -7.238616 -19.481992 44.365526 -8.605302 32.831372 -5.236194 -12.999531 -0.437321 -28.284302 -17.725861 -45.505610 66.636545 7.530965 -2.761149 -24.060055 1.173034 11.569979 -6.688955 9.508192 11.688221
-0.001156 0.981939 0.006030 -25.052704 17.459052 15.789983 4.738926 1.896233 2.176239 7.880773 3.526026 2.990561 7.134451 3.507684 3.007169 7.287474 -1.534909 -2.392937 19.056476 -9.788963 -2.018800 2.070758 0.118166 -8.188114 -2.022915 -4.193908 -44.740525 -38.862768 -87.417442 -57.145170 -54.784146 -19.506899 -15.020228 4.949244 10.314472 6.851334 1.749198 36.282000 12.678873 -33.801654 55.075406 34.054488 -3.568913 36.889808 21.764887 -71.677302 9.903001 45.658454 87.681307 -8.132036 -19.953204 43.628065 -6.517240 35.423307 -4.977562 -12.992987 -0.436845 -24.475889 -20.883326 -45.722422 64.546308 7.736894 -3.181025 -24.702636 1.205023 11.617828 -6.692994 9.494571 11.694252
-0.001156 0.992955 0.006030 -27.276870 17.979221 16.421224 3.868688 2.162927 1.928059 6.512997 4.119371 2.593029 5.946038 4.118087 2.605808 6.136574 -1.516255 -2.379671 20.521041 -10.227492 -0.843521 1.671595 0.989549 -8.342280 -4.506096 -4.986609 -41.060394 -48.164964 -87.825310 -66.455332 -54.784151 -19.506899 -15.020232 4.652509 10.384067 6.064415 -0.115106 37.770576 11.876726 -35.323374 56.650079 35.914070 -2.549488 36.105333 22.337373 -72.939492 9.495825 47.153602 88.670882 -8.877949 -20.215357 43.745629 -5.912898 36.945986 -4.845996 -12.990054 -0.436672 -20.334576 -23.878569 -45.005000 62.136425 7.670436 -3.538575 -25.275517 0.934961 11.849551 -6.932262 9.351535 12.108487
-0.001156 1.003390 0.006030 -29.059842 18.489686 16.686897 3.115466 2.349958 1.700198 5.308307 4.580258 2.248230 4.897801 4.591250 2.253632 4.685408 -1.448494 -2.347665 20.969539 -10.263498 -0.011377 1.326839 1.753987 -8.437751 -6.370572 -5.563775 -36.868495 -77.885501 -88.342972 -96.191483 -54.784151 -19.506898 -15.020232 4.344827 10.373721 5.021896 -1.864068 38.429606 10.927397 -37.771951 58.802640 38.827175 -1.813770 35.174037 23.734575 -73.318142 8.973725 48.045481 88.236230 -9.389092 -20.228233 44.438167 -6.335984 37.366567 -4.823609 -12.989963 -0.436691 -15.849930 -26.278101 -42.873387 59.834420 6.844192 -3.998399 -25.947719 0.366865 11.796711 -7.391031 9.210507 14.256481
-0.001156 1.012804 0.006030 -30.319184 18.907409 16.682973 2.456122 2.481363 1.520607 4.218923 4.974322 1.947479 3.942281 4.990799 1.942838 2.988097 -1.313821 -2.468908 20.492608 -10.131350 0.539556 1.027947 2.486389 -8.531715 -7.313054 -6.020321 -32.168168 -123.731942 -88.051798 -142.058143 -54.784150 -19.506899 -15.020231 4.038908 10.328019 3.625479 -3.466724 38.127703 10.097907 -41.609198 61.509042 43.262896 -1.477681 34.528057 24.731717 -72.603128 8.560294 48.258390 86.449501 -9.587854 -19.985909 45.199014 -7.341176 36.490560 -4.805696 -12.991175 -0.434905 -11.931615 -28.087937 -39.798969 58.230451 4.872532 -5.065258 -26.858690 0.059826 10.727266 -8.700446 9.066515 13.933644
-0.001156 1.020390 0.006030 -31.011792 19.126612 16.518442 1.874878 2.605083 1.357859 3.219079 5.358126 1.660178 3.050818 5.375902 1.643837 1.151649 -1.130182 -2.699869 19.151997 -9.906304 0.835363 0.776607 3.179749 -8.591027 -7.197186 -6.204090 -27.161721 -149.917844 -86.766497 -168.268346 -54.784150 -19.506899 -15.020231 3.750855 10.254275 2.032571 -4.928098 36.927772 9.445149 -47.290536 64.500372 49.644606 -1.361199 33.990812 24.733611 -70.740407 8.372897 47.909985 83.531609 -9.514782 -19.492251 46.158400 -8.922772 34.303964 -4.794599 -12.992988 -0.435284 -8.771183 -29.536706 -36.936909 56.824538 3.379424 -6.171622 -27.700012 -0.344726 9.654296 -9.965387 8.931197 13.631354
-0.001156 1.025317 0.006030 -31.171309 19.105557 16.169957 1.391780 2.722201 1.210029 2.356066 5.714537 1.400232 2.266718 5.732254 1.371895 -0.702090 -0.934139 -2.861537 17.007014 -9.458698 0.808477 0.581463 3.766074 -8.537923 -6.217820 -5.599300 -22.213873 -162.040376 -84.739103 179.577826 -54.784150 -19.506899 -15.020231 3.498555 10.143032 0.540999 -6.349394 35.259708 8.806839 -54.956273 67.294948 58.042763 -1.264516 33.385379 24.217873 -67.917271 8.391916 47.246961 79.818554 -9.376783 -18.808629 47.458232 -10.977556 31.503280 -4.779546 -12.994929 -0.437006 -6.461413 -30.610807 -34.804057 55.726734 2.227497 -6.923211 -28.569272 -0.261642 8.897392 -10.916785 8.808293 13.417757
-0.001156 1.027251 0.006030 -30.885263 18.916855 15.562036 1.048618 2.801491 1.098867 1.712570 5.966557 1.217608 1.670208 5.984274 1.178678 -2.485400 -0.764885 -2.817877 14.283026 -8.689288 0.456953 0.451518 4.178226 -8.339097 -4.809417 -3.742094 -17.692204 -168.308593 -81.979810 173.269144 -54.784150 -19.506899 -15.020231 3.300197 9.996905 -0.665791 -7.894566 33.632221 8.058675 -64.264335 69.476835 68.051844 -1.292543 32.722189 23.952476 -64.627868 8.630339 46.218511 75.432592 -10.129103 -17.715815 48.483644 -12.784609 28.270337 -4.679843 -12.995919 -0.437033 -4.775697 -31.257317 -33.054557 55.033779 1.583540 -7.476054 -29.434811 -0.196722 8.652591 -11.487488 8.690332 13.307652
-0.001156 1.026660 0.006030 -30.249073 18.748232 14.697809 0.865043 2.812347 1.032511 1.321863 6.056286 1.132704 1.293877 6.074111 1.085967 -4.132117 -0.658716 -2.572803 11.416760 -7.747850 -0.024510 0.395785 4.355157 -8.029498 -3.283319 -0.692019 -13.764624 -171.686742 -78.723459 169.843879 -54.784152 -19.506899 -15.020232 3.166808 9.827461 -1.628740 -9.553873 32.214580 7.225740 -74.634286 70.885277 79.070391 -1.673842 32.017453 24.148960 -61.153186 9.053143 44.563649 70.438864 -12.274697 -16.128687 48.563526 -14.101294 24.446933 -4.490635 -12.996301 -0.437000 -3.339634 -31.475249 -31.289349 54.551545 1.116429 -7.840689 -30.270169 -0.321740 9.080061 -11.598924 8.614158 13.323372
-0.001156 1.024354 0.006030 -29.313533 18.786694 13.682812 0.788911 2.767556 0.985047 1.103512 6.011420 1.107251 1.072702 6.029417 1.054635 -5.569531 -0.625569 -2.255126 8.884162 -6.947134 -0.347957 0.390764 4.311672 -7.689711 -1.600928 2.916503 -10.388156 -173.502938 -75.497429 167.984261 -54.784149 -19.506899 -15.020229 3.067445 9.627356 -2.482471 -10.911180 30.674477 6.324837 -85.500927 71.535415 90.544676 -2.440345 31.273795 24.408791 -57.378978 9.536133 42.249524 64.972699 -14.654908 -14.438211 48.027072 -15.652512 20.291189 -4.288793 -12.996839 -0.436979 -2.351929 -31.258261 -29.617252 54.552955 0.341422 -7.844255 -30.969689 -0.440368 9.582318 -11.951104 8.664404 13.333646
-0.001156 1.021231 0.006030 -28.089251 19.108771 12.646452 0.752929 2.711386 0.917187 0.958144 5.929301 1.079695 0.922848 5.947297 1.021782 -6.704178 -0.618089 -2.018142 6.909114 -6.445714 -0.374623 0.402741 4.138277 -7.379581 0.257405 6.188522 -7.354764 -174.411156 -72.931991 167.051167 -54.784153 -19.506899 -15.020233 2.971586 9.413874 -3.304120 -11.348731 28.475054 5.150973 -96.673864 71.463163 102.322413 -3.480320 30.564740 24.347149 -53.371207 10.137388 39.328705 58.913306 -16.512894 -12.720818 47.361322 -17.546050 14.813811 -4.095245 -12.997394 -0.436983 -1.510327 -30.905962 -27.996047 54.477155 -0.671285 -7.529732 -31.835993 -0.573623 10.108914 -12.107487 8.733288 13.403613
-0.001156 1.018109 0.006030 -26.568483 19.706903 11.671258 0.746359 2.684685 0.801989 0.883400 5.895310 1.012268 0.840823 5.912764 0.950733 -7.462221 -0.575948 -1.936453 5.412717 -6.112840 -0.151132 0.422892 3.963741 -7.135230 1.883198 8.435603 -4.482809 -174.739887 -71.563434 166.722421 -54.784151 -19.506899 -15.020231 2.906417 9.287180 -4.017541 -10.578273 25.111246 3.440547 -108.597233 70.537178 114.927350 -4.478763 29.906770 24.118421 -49.196250 10.846580 35.927728 52.052246 -17.373822 -11.067686 46.534667 -19.836448 7.589742 -3.915899 -12.998415 -0.437047 -0.825878 -30.495926 -26.494391 54.155503 -1.878792 -6.975076 -32.798580 -0.742991 10.656691 -12.039957 8.800716 13.545259
-0.001156 1.015227 0.006030 -24.696078 20.612067 10.761589 0.789903 2.696441 0.634835 0.942178 5.923667 0.904446 0.888624 5.940169 0.843042 -7.880975 -0.459599 -1.987017 4.221108 -5.744639 0.338052 0.442627 3.959410 -7.039179 2.481915 9.575705 -2.054261 -174.599236 -71.696622 166.892985 -54.784153 -19.506898 -15.020233 2.921182 9.364339 -4.383268 -9.197445 19.926079 1.481630 -121.355744 68.293139 128.546150 -4.609005 29.058770 24.313487 -45.109611 11.470671 31.835406 44.324861 -18.095391 -9.289452 44.730930 -22.182671 -0.299511 -3.714382 -13.000257 -0.437190 -0.453177 -30.096173 -25.299688 53.586032 -3.067946 -6.087101 -33.815244 -0.956869 11.116906 -11.707266 8.844383 13.729377
-0.001156 1.011640 0.006030 -22.307405 21.857829 9.819447 0.910686 2.731445 0.434209 1.193291 5.985873 0.779092 1.124257 6.002015 0.722530 -8.074018 -0.278932 -2.114987 3.213832 -5.298954 1.356367 0.449499 4.259153 -7.191320 1.052686 10.172465 -0.855441 -173.922262 -73.384144 167.631716 -54.784149 -19.506898 -15.020232 3.027680 9.620831 -4.170373 -8.896822 12.210965 0.297971 -133.115632 64.359094 141.371351 -3.156330 27.875628 25.551638 -41.556125 11.561021 26.712541 36.038704 -20.311881 -7.012551 41.707886 -23.884422 -6.802658 -3.966487 -13.213241 2.141330 -0.872541 -29.634390 -25.071046 53.179979 -3.091787 -4.446655 -34.344074 -1.456711 12.068752 -10.986347 8.825301 13.865893
-0.001156 1.005112 0.006030 -19.167898 23.185897 8.650177 1.126732 2.795423 0.245952 1.643739 6.101948 0.657023 1.554620 6.119914 0.606663 -7.903212 -0.067422 -2.286337 2.567369 -4.859501 3.254776 0.425286 4.902471 -7.615877 -3.098175 11.268927 -1.558806 -172.282732 -76.590776 169.366066 -54.784150 -19.506899 -15.020231 3.159639 9.820209 -3.310332 -11.638358 1.827365 0.752470 -141.235108 59.695063 150.554802 -1.031214 26.974359 27.877406 -38.784247 10.651851 20.725283 27.810829 -24.787301 -3.888192 38.459478 -24.736260 -10.967358 -8.428502 -13.188651 0.777770 -2.537533 -29.152886 -26.157211 53.290710 -1.750534 -1.908024 -34.960811 -1.981389 12.956962 -9.885646 8.747349 13.910041
-0.001156 0.993562 0.006030 -15.216599 23.858954 7.141979 1.454554 2.948295 0.092515 2.281104 6.372070 0.495016 2.168852 6.394592 0.445539 -7.433409 0.172028 -2.572672 1.436498 -4.483311 5.896184 0.353833 5.819313 -8.211031 -9.433421 13.944219 -3.846457 -167.535869 -81.433249 174.245344 -54.784147 -19.506899 -15.020230 3.239141 9.714568 -1.927900 -18.303489 -10.262245 2.703094 -144.605193 56.934296 154.516026 -0.717853 26.789622 29.736428 -36.598551 8.467598 16.055138 19.867821 -29.333251 -2.134619 35.378611 -25.714493 -10.793696 -18.079749 -11.877770 -2.661681 -6.060172 -28.566952 -28.529555 54.490781 0.734161 0.616127 -36.050373 -2.299172 13.415363 -8.849825 8.764489 13.948714
-0.001156 0.977169 0.006030 -10.835884 23.098414 5.550955 1.919015 3.222783 -0.106750 3.140140 6.838327 0.129394 3.006326 6.864567 0.072245 -6.633044 0.429099 -3.007621 -0.934326 -4.153013 8.606476 0.230073 6.869880 -8.815285 -15.816947 18.203583 -6.440150 -128.323655 -87.567352 -146.365213 -54.784153 -19.506898 -15.020233 3.268652 9.333689 -0.309717 -27.773624 -21.832670 5.394970 -142.730217 58.534866 152.301609 -3.324114 26.491487 28.394402 -41.469098 5.088911 15.552579 24.476350 -27.310087 -1.163464 24.180483 -29.152193 -10.211720 -17.718465 -11.885341 -8.739957 -11.770481 -27.793113 -31.842251 57.249010 3.970961 1.729392 -37.673597 -2.338960 13.081670 -8.475055 8.965387 14.008202
-0.001156 0.960392 0.006030 -6.734677 20.966059 4.555613 2.556527 3.447077 -0.594846 4.313596 7.284322 -0.627245 4.165113 7.305828 -0.694985 -5.633365 0.683333 -3.551463 -4.614586 -3.835306 10.580097 0.066644 7.894697 -9.330658 -19.648743 22.489768 -8.539380 -16.004455 -82.794168 -33.825214 -54.784151 -19.506897 -15.020233 3.304527 8.966729 1.149932 -36.777943 -30.332889 8.366089 -133.316638 64.241800 141.601353 -6.749848 25.792908 22.452085 -45.583040 3.931130 15.354962 30.446305 -26.547017 1.142734 10.058058 -28.979936 -11.381560 -17.766572 -13.000257 -0.437213 -18.443915 -26.436153 -36.111031 60.305732 5.966387 2.058407 -38.873471 -0.430496 14.098331 -8.016329 9.105292 14.123708
-0.001156 0.943517 0.006030 -3.291656 18.535415 4.418955 3.384888 3.414656 -1.332816 5.876566 7.299691 -1.731821 5.720713 7.302225 -1.803664 -5.007638 0.939755 -4.159947 -9.366613 -3.524734 11.421014 -0.098002 8.712710 -9.771227 -19.588391 24.992720 -10.745467 -7.736757 -74.489360 -25.315497 -54.784151 -19.506898 -15.020231 3.368255 8.820675 2.121636 -41.147585 -34.674891 11.898212 -111.686328 70.100353 118.212706 -8.047095 25.291690 13.670106 -47.611846 3.651852 15.678604 31.489548 -28.332569 1.604124 3.572346 -24.898549 -18.092879 -9.972755 -13.015502 -0.438270 -24.756814 -23.994974 -40.388637 63.611047 6.399177 2.235254 -39.842666 2.240952 15.755166 -7.766798 9.188531 14.606335
-0.001156 0.925156 0.006030 -0.422916 17.081678 4.710234 4.381202 3.052995 -1.935958 7.799440 6.692816 -2.825677 7.636135 6.664878 -2.892417 -5.060823 1.188054 -4.750774 -14.402257 -3.195922 11.428075 -0.204819 9.133088 -10.187199 -16.643000 24.653084 -14.009912 -5.814916 -68.249558 -23.169663 -54.784151 -19.506899 -15.020231 3.437610 8.822611 2.593594 -38.814436 -35.233989 16.564927 -82.605862 71.394918 87.491034 -6.373095 24.737462 5.878010 -51.491729 3.234039 15.492357 34.860355 -28.882662 1.560022 2.081610 -22.431869 -22.263291 -7.433285 -13.025136 -0.438778 -30.179788 -20.966243 -43.754764 68.079394 5.241465 2.329967 -41.598447 4.643862 15.449409 -9.217251 9.050982 15.753807
-0.001156 0.911748 0.006030 1.970980 16.800271 5.037673 5.486791 2.584014 -2.297966 9.921746 5.773366 -3.560662 9.741989 5.713188 -3.618652 -5.455865 1.377707 -5.213379 -18.573049 -2.875311 11.301170 -0.212922 9.083301 -10.569894 -13.661790 21.176343 -18.011926 -5.368110 -65.221087 -22.544101 -54.784148 -19.506900 -15.020235 3.497290 8.813421 2.872088 -32.261092 -32.864729 21.659546 -63.212970 69.233832 66.922241 -3.353677 23.777489 1.694588 -56.195149 2.869743 14.865513 39.797217 -27.715606 0.983638 0.823159 -22.479926 -20.544099 -6.136478 -13.034220 -0.439036 -33.910207 -18.805979 -46.405621 70.883051 4.221622 2.418300 -43.064158 6.874695 15.315437 -10.335814 7.742993 16.729697
-0.001156 0.907267 0.006030 4.148394 16.951182 5.166316 6.564252 2.213143 -2.478696 11.969911 5.058584 -3.966032 11.763356 4.970552 -4.016791 -6.028721 1.511159 -5.572418 -21.690710 -2.743843 11.517721 -0.138892 8.727316 -10.857332 -12.960359 15.233916 -21.230037 -5.435812 -64.357292 -22.465278 -54.784153 -19.506896 -15.020228 3.562492 8.785962 3.214572 -26.344322 -29.107439 25.526485 -54.032631 66.969840 57.031841 -1.079976 22.751235 0.398210 -59.174737 3.329553 14.172095 41.411126 -27.263527 0.498461 0.855786 -22.543231 -19.364444 -6.199539 -13.043431 -0.439267 -36.377984 -17.718769 -48.279240 71.400277 3.786073 2.534492 -43.721202 8.918028 15.533923 -10.704255 5.730801 17.359420
-0.001156 0.909404 0.006030 6.335677 16.623796 5.193066 7.435013 2.029550 -2.617647 13.629725 4.744529 -4.309362 13.391583 4.630625 -4.353113 -6.611798 1.585974 -5.938286 -23.606149 -3.002171 12.081453 -0.034024 8.333864 -11.005713 -14.499541 8.189294 -22.603236 -5.528620 -63.561442 -22.402867 -54.784151 -19.506902 -15.020233 3.647962 8.822901 3.556717 -23.751005 -25.642865 27.757579 -49.284565 65.296890 51.838839 -0.471156 22.009628 -0.386782 -61.062825 4.495655 14.132164 41.188578 -26.978751 -0.063174 1.442621 -22.587445 -18.396309 -6.854514 -13.057031 -0.439469 -38.531101 -17.077165 -49.658675 70.365325 4.065039 2.694064 -43.477648 10.785080 16.113398 -10.357463 3.839521 17.753357
-0.001156 0.913968 0.006030 8.547868 15.604417 5.341502 7.997569 1.937212 -2.751749 14.721665 4.623321 -4.651692 14.451421 4.483720 -4.685011 -7.168727 1.547420 -6.380564 -24.613094 -3.802665 12.609454 0.081931 7.996796 -11.022971 -16.842251 1.504800 -22.350323 -5.434489 -61.695786 -22.117945 -54.784151 -19.506899 -15.020232 3.737600 8.912791 3.686117 -24.018558 -23.240118 28.689002 -46.109868 63.913190 48.322392 -1.272012 21.787335 -1.764943 -62.497520 5.943372 14.773570 40.379470 -26.506076 -0.954145 2.086138 -22.632970 -17.393463 -7.326374 -13.065421 -0.439707 -41.024715 -16.241326 -50.824423 69.121307 4.319856 2.848756 -42.744078 12.656391 16.578923 -10.037382 2.544823 18.181535
-0.001156 0.917456 0.006030 10.566868 14.223418 5.685152 8.315083 1.823662 -2.817423 15.352146 4.449919 -4.792972 15.048018 4.290834 -4.812782 -7.671940 1.334430 -6.817665 -25.413653 -5.139468 12.809721 0.236284 7.593842 -10.943252 -18.960322 -3.589492 -21.312206 -5.278519 -59.260955 -21.744139 -54.784151 -19.506900 -15.020233 3.809315 8.971644 3.549062 -25.440561 -21.898558 28.331757 -43.893372 62.787651 45.839604 -2.863859 22.084934 -3.067308 -63.911565 7.390449 15.771046 39.867509 -25.920255 -2.109341 2.633220 -22.665648 -16.215675 -7.621893 -13.069246 -0.439717 -44.155102 -14.892238 -51.812563 69.337023 2.968803 2.892900 -42.312189 14.936731 15.815568 -11.172799 2.126387 18.883157
-0.001156 0.918146 0.006030 12.118287 12.693120 6.090363 8.547894 1.666811 -2.748059 15.814984 4.187700 -4.651403 15.472056 4.021432 -4.658174 -7.984902 0.959860 -7.111023 -26.441064 -6.874956 12.835750 0.443455 7.038228 -10.789389 -20.591485 -6.527039 -19.998965 -5.236018 -57.344868 -21.483353 -54.784151 -19.506897 -15.020231 3.870703 9.000046 3.272058 -26.928215 -21.375212 26.775685 -42.649209 62.083431 44.432782 -4.798487 22.571323 -3.450965 -65.412436 8.479036 16.969562 40.331901 -25.255564 -3.272215 2.813448 -22.715867 -14.911265 -7.948134 -13.074308 -0.439921 -46.893267 -13.519708 -52.853225 69.614851 2.204701 2.986364 -41.788750 16.904717 15.457110 -11.888367 1.943994 19.597506
-0.001156 0.915981 0.006030 13.097100 10.822552 6.528391 8.803313 1.519315 -2.642094 16.310454 3.907308 -4.435388 15.923537 3.743191 -4.431788 -8.070559 0.450656 -7.263180 -27.710745 -9.060984 13.040618 0.666896 6.436198 -10.583794 -21.695102 -7.560198 -18.368398 -5.342545 -56.376321 -21.385392 -54.784151 -19.506902 -15.020234 3.951649 9.091182 2.983378 -28.291068 -21.432916 24.645699 -42.172051 61.789767 43.888381 -6.738437 22.985826 -3.046339 -66.892428 9.195235 18.562909 41.866040 -24.613430 -4.399730 2.498912 -22.786654 -13.538945 -8.228998 -13.080357 -0.440102 -49.261594 -12.127371 -53.934275 70.012302 2.064312 3.132000 -41.049710 18.585876 15.523034 -12.187917 2.234090 20.318388
-0.001156 0.912205 0.006030 13.652188 8.452388 7.124361 9.069810 1.384739 -2.616781 16.816363 3.628398 -4.370746 16.382327 3.467786 -4.358888 -8.023831 -0.191473 -7.385347 -28.967863 -11.961352 13.559570 0.861228 5.942778 -10.374126 -22.260849 -7.386567 -16.371824 -5.534217 -55.971590 -21.379115 -54.784151 -19.506898 -15.020231 4.064427 9.281735 2.736514 -29.547522 -21.843938 22.738022 -42.056488 61.705293 43.753376 -8.400963 23.324834 -2.583152 -68.073210 9.597609 20.502464 43.960794 -23.881447 -5.546150 1.724639 -22.861788 -12.274713 -8.281673 -13.083937 -0.440068 -51.506705 -10.566405 -55.036937 70.442864 2.456510 3.321902 -39.901250 20.059182 15.940307 -12.128198 3.115765 21.023192
-0.001156 0.907949 0.006030 14.051236 5.775083 7.963152 9.290464 1.240716 -2.661947 17.223063 3.323390 -4.438297 16.740040 3.164252 -4.419332 -7.973171 -0.978215 -7.525877 -30.038936 -15.704570 14.190644 1.023537 5.567450 -10.196650 -22.419144 -6.647639 -14.391682 -5.743589 -55.650190 -21.384714 -54.784151 -19.506900 -15.020232 4.187488 9.480696 2.571610 -30.625579 -22.393290 21.408561 -42.006535 61.659134 43.692661 -9.725419 23.612988 -2.507789 -68.814654 9.721021 22.415337 46.087296 -22.886768 -6.696839 0.621412 -22.925616 -11.302962 -8.067949 -13.088909 -0.440102 -53.776481 -8.781444 -56.121629 70.808771 3.125343 3.535811 -38.398282 21.405488 16.552980 -11.848788 4.354680 21.686815
-0.001156 0.903989 0.006030 14.451603 3.169259 8.971289 9.451500 1.075577 -2.687410 17.501030 2.987883 -4.463380 16.967380 2.829751 -4.438582 -7.985367 -1.879569 -7.613363 -30.925504 -20.000307 14.662929 1.183929 5.199170 -10.037876 -22.418984 -5.693443 -12.968839 -5.966925 -55.384951 -21.398146 -54.784151 -19.506895 -15.020230 4.290840 9.567695 2.544461 -31.508350 -22.887623 20.544307 -42.000325 61.638666 43.681515 -10.855560 23.776437 -2.714116 -69.176087 9.696056 23.998269 47.927265 -21.691607 -7.782500 -0.573980 -22.973673 -10.648128 -7.719483 -13.093977 -0.440080 -55.996716 -6.929478 -57.109388 71.064006 3.767375 3.750074 -36.788498 22.692961 17.150423 -11.538729 5.568141 22.286508
-0.001156 0.900705 0.006030 14.829812 0.836245 9.989368 9.588064 0.899572 -2.642977 17.713210 2.648895 -4.347809 17.126864 2.491110 -4.318765 -8.049798 -2.801709 -7.571673 -31.613867 -24.285580 14.924364 1.362229 4.766615 -9.864132 -22.491526 -4.678870 -12.310622 -6.246316 -55.441964 -21.471090 -54.784151 -19.506899 -15.020233 4.366515 9.513567 2.663706 -32.217852 -23.193557 19.987904 -42.197123 61.738861 43.900892 -11.922101 23.785523 -2.885533 -69.275709 9.678381 25.286534 49.399632 -20.524706 -8.767384 -1.660121 -23.012214 -10.198163 -7.405649 -13.098324 -0.440049 -58.017391 -5.231026 -57.921373 71.219867 4.233192 3.952951 -35.256407 23.957216 17.587720 -11.310684 6.564831 22.795130
-0.001156 0.898344 0.006030 15.097909 -1.292420 10.901102 9.737555 0.729160 -2.541529 17.931340 2.332397 -4.128989 17.290617 2.171076 -4.096741 -8.106762 -3.637703 -7.427302 -31.996842 -28.126377 15.123567 1.550811 4.303793 -9.669147 -22.728121 -3.775637 -12.231573 -6.603518 -55.907894 -21.630080 -54.784151 -19.506896 -15.020231 4.429334 9.387699 2.852686 -32.678656 -23.291230 19.745206 -42.716932 62.025182 44.486088 -12.941392 23.760806 -2.843791 -69.123262 9.719369 26.473350 50.519427 -19.517515 -9.653736 -2.589801 -23.045990 -9.884375 -7.191448 -13.102240 -0.439967 -59.772143 -3.821710 -58.497024 71.286684 4.514290 4.143618 -33.807669 25.212725 17.819973 -11.184729 7.403403 23.188441
-0.001156 0.897050 0.006030 15.220655 -3.374490 11.685704 9.908173 0.573849 -2.415218 18.182217 2.048005 -3.876654 17.485606 1.878541 -3.841351 -8.150477 -4.365924 -7.291342 -32.211519 -31.468903 15.282924 1.733606 3.877019 -9.472018 -23.062600 -3.205111 -12.451873 -7.010486 -56.551358 -21.840693 -54.784152 -19.506900 -15.020232 4.499213 9.282571 3.012152 -32.784209 -23.231706 19.832216 -43.507093 62.452143 45.374889 -13.883359 23.849509 -2.595415 -68.683744 9.776375 27.627074 51.380713 -18.623852 -10.452854 -3.442239 -23.072476 -9.680610 -7.020358 -13.105800 -0.439856 -61.297149 -2.714578 -58.811408 71.257461 4.649933 4.324896 -32.358898 26.463940 17.860800 -11.134473 8.212916 23.455372
