HIERARCHY
ROOT Hips
{
  OFFSET 0 1.1673769999999999 0
  CHANNELS 6 Xposition Yposition Zposition Xrotation Yrotation Zrotation
  JOINT Spine
  {
    OFFSET 0.000003812944337411511 0.10717500000681812 -0.009311
    CHANNELS 3 Xrotation Yrotation Zrotation
    JOINT Spine1
    {
      OFFSET 0 0.1058532983696241 -0.004285186608692496
      CHANNELS 3 Xrotation Yrotation Zrotation
      JOINT Spine2
      {
        OFFSET -8.470329472543003e-22 0.10599345671141647 -0.007812688101110094
        CHANNELS 3 Xrotation Yrotation Zrotation
        JOINT Neck
        {
          OFFSET -8.470329472543003e-22 0.26240299999999994 -0.04488100000000002
          CHANNELS 3 Xrotation Yrotation Zrotation
          JOINT Head
          {
            OFFSET -4.235164736271502e-22 0.17466899999999996 0.05625600000000003
            CHANNELS 3 Xrotation Yrotation Zrotation
            End Site
            {
              OFFSET -4.235164736271502e-22 0.10756799999999966 0.021070000000000005
            }
          }
        }
        JOINT LeftShoulder
        {
          OFFSET 0.10574399999999999 0.23009199999999996 -0.07323000000000002
          CHANNELS 3 Xrotation Yrotation Zrotation
          JOINT LeftArm
          {
            OFFSET 0.14878212914559852 -0.04653266654569688 -0.030693304075147546
            CHANNELS 3 Xrotation Yrotation Zrotation
            JOINT LeftForeArm
            {
              OFFSET 0.24109000000000003 2.220446049250313e-16 -5.551115123125783e-17
              CHANNELS 3 Xrotation Yrotation Zrotation
              JOINT LeftHand
              {
                OFFSET 0.316792 0 -1.1102230246251565e-16
                CHANNELS 3 Xrotation Yrotation Zrotation
                End Site
                {
                  OFFSET 0.1860100809690719 -0.01695989067700676 -0.061207551691790735
                }
              }
            }
          }
        }
        JOINT RightShoulder
        {
          OFFSET -0.10574399999999999 0.23009099999999982 -0.07323000000000002
          CHANNELS 3 Xrotation Yrotation Zrotation
          JOINT RightArm
          {
            OFFSET -0.14878040829228295 -0.04653159475972379 -0.030692917709113934
            CHANNELS 3 Xrotation Yrotation Zrotation
            JOINT RightForeArm
            {
              OFFSET -0.24109000000000003 -6.661338147750939e-16 -2.7755575615628914e-17
              CHANNELS 3 Xrotation Yrotation Zrotation
              JOINT RightHand
              {
                OFFSET -0.31679300000631333 -8.881784197001252e-16 -5.551115123125783e-17
                CHANNELS 3 Xrotation Yrotation Zrotation
                End Site
                {
                  OFFSET -0.06265795211397429 -0.10570764472283312 0.03859362014678265
                }
              }
            }
          }
        }
      }
    }
  }
  JOINT LeftUpLeg
  {
    OFFSET 0.12297511767165623 -0.06742078536803264 -0.010003
    CHANNELS 3 Xrotation Yrotation Zrotation
    JOINT LeftLeg
    {
      OFFSET 0 -0.457033849483632 0.010304509991859542
      CHANNELS 3 Xrotation Yrotation Zrotation
      JOINT LeftFoot
      {
        OFFSET 0 -0.500280623664138 -0.036905110570505176
        CHANNELS 3 Xrotation Yrotation Zrotation
        JOINT LeftToeBase
        {
          OFFSET 0.025950805788189563 -0.14255151365608373 0.19507593811975638
          CHANNELS 3 Xrotation Yrotation Zrotation
          End Site
          {
            OFFSET 0.010732117804750613 -0.000035441498015504746 0.11362327680684622
          }
        }
      }
    }
  }
  JOINT RightUpLeg
  {
    OFFSET -0.12297488233495055 -0.0674172146317622 -0.010003
    CHANNELS 3 Xrotation Yrotation Zrotation
    JOINT RightLeg
    {
      OFFSET 0.00000159348816348992 -0.45703784846455486 0.01030460015485039
      CHANNELS 3 Xrotation Yrotation Zrotation
      JOINT RightFoot
      {
        OFFSET -0.0000015934881634621645 -0.5002806236608007 -0.03690511058134042
        CHANNELS 3 Xrotation Yrotation Zrotation
        JOINT RightToeBase
        {
          OFFSET -0.0259497668227143 -0.14255297441554501 0.19507500887383716
          CHANNELS 3 Xrotation Yrotation Zrotation
          End Site
          {
            OFFSET -0.010733201844058626 -0.000035030229497263656 0.11362417898958707
          }
        }
      }
    }
  }
}
MOTION
Frames: 16
Frame Time: 0.03333333333333333
-0.142640 0.924874 -0.001622 9.402860 40.831804 -1.165688 6.516949 4.824273 -3.952196 13.411246 9.371199 -8.346940 13.411266 9.371221 -8.346959 2.337691 -28.731734 15.506802 -4.897477 -7.425024 16.769666 1.140219 -2.617226 -6.405511 -1.252351 6.575834 -47.185880 23.574599 -56.573294 11.405795 14.473050 -7.493898 19.788153 2.079656 14.832139 -19.916479 -53.499119 17.322131 21.313170 -25.464961 50.844243 32.364482 28.526719 21.484375 -15.259966 -69.608378 -9.403762 -22.363199 48.856187 -37.537029 -6.167539 6.806001 0.661750 -2.341457 -2.695586 -8.989226 2.943408 -11.279531 -43.076250 -5.297090 67.248048 -9.747856 3.733562 -31.329996 -1.026765 10.123150 -39.188086 -3.141923 -5.737783
-0.142640 0.936458 -0.001622 7.607983 35.824527 -1.932661 6.639928 4.796990 -3.686690 13.639153 9.289373 -7.870026 13.639159 9.289362 -7.870028 0.944904 -27.646493 16.986995 -6.850750 -5.349094 15.504298 1.169696 -2.978364 -4.874013 5.298381 6.829820 -50.343945 37.068455 -68.244310 20.841583 16.336781 -4.724681 24.612564 2.467077 15.194133 -14.678797 -49.259683 7.299147 16.680719 -30.498279 54.252020 35.525679 26.085811 20.437862 -13.381228 -67.011976 -10.356808 -18.833882 49.279907 -35.494398 -5.151206 6.264403 0.666848 -2.145248 -2.695473 -8.989898 2.944682 -8.966469 -38.121094 -4.712664 66.842084 -10.631712 6.592736 -28.798115 -1.506994 11.655304 -38.212684 -3.864879 -3.834494
-0.142640 0.949887 -0.001622 5.877398 29.355186 -2.449809 6.829899 4.594173 -3.548518 13.995119 8.832751 -7.628868 13.995122 8.832763 -7.628873 -0.502776 -25.331291 17.372457 -8.601014 -2.289208 13.974329 1.245535 -3.624778 -3.254533 9.444712 5.106652 -52.942334 60.687388 -77.506875 40.651897 17.725524 -2.227243 28.921426 1.736836 12.930961 -7.511501 -45.918898 1.586540 14.092290 -32.444063 57.387033 37.685044 23.762312 21.154482 -11.220753 -63.985444 -10.936883 -14.867266 49.409127 -32.277349 -4.165682 5.517246 0.636947 -2.002271 -2.694746 -8.990539 2.946290 -6.962691 -26.313667 -5.121153 67.692426 -13.938569 14.703591 -26.278907 -2.073933 13.781580 -36.246331 -4.686949 -1.613212
-0.142640 0.964591 -0.001622 3.951837 21.241025 -2.571224 6.986292 4.020045 -3.437987 14.253124 7.631150 -7.386161 14.253124 7.631158 -7.386161 -2.760597 -21.584988 15.006839 -9.033271 1.021875 13.410504 1.256624 -3.362628 -1.245153 10.303703 2.000953 -56.988584 94.251025 -80.943906 72.822272 19.055679 -1.211703 30.249406 1.379647 11.310359 -2.506975 -44.977789 -2.612761 18.135268 -31.515120 60.999214 36.979782 24.572933 19.014208 -5.846604 -60.280713 -10.997501 -10.516885 49.366310 -27.722122 -3.235143 4.410549 0.581287 -2.014750 -2.693715 -8.991109 2.947479 -5.190239 -15.827753 -6.112403 68.558157 -17.352146 20.791290 -26.264105 -2.391317 13.987904 -32.679873 -4.972129 0.724204
-0.142640 0.980028 -0.001622 2.045034 11.871651 -2.718821 7.000297 3.445553 -3.259110 14.225127 6.435647 -7.000997 14.225131 6.435659 -7.000998 -2.852132 -16.930695 12.983630 -10.846312 5.035468 11.983338 1.296146 -3.370969 -0.573722 8.293585 -0.545584 -60.421790 115.821432 -81.046222 95.488121 19.290219 -0.601618 28.757548 1.262334 11.115887 1.009447 -41.626246 -5.694231 23.018177 -26.381306 66.307011 33.673071 24.691280 17.878546 -1.208139 -56.114800 -10.707388 -6.356014 49.325190 -21.726892 -1.882243 2.912774 0.503124 -2.618898 -2.692140 -8.991453 2.948399 -5.342762 -16.726837 -7.561644 66.451697 -17.606954 15.340130 -27.178913 -2.472070 12.663630 -29.656698 -3.401230 4.079284
-0.142640 0.996659 -0.001622 0.561413 2.272440 -3.340269 7.004138 2.997816 -2.996701 14.190295 5.497808 -6.509072 14.190297 5.497808 -6.509068 -2.386517 -12.676746 13.171220 -12.204799 10.181695 7.795953 1.174219 -1.932755 1.894615 2.697642 -4.298765 -64.496534 98.831923 -80.150939 80.572516 19.085797 -0.545788 27.709725 1.197786 11.379268 4.753232 -36.167251 -8.779710 27.466659 -22.026132 69.864620 29.900840 22.682556 18.775649 6.208306 -51.869020 -9.940875 -2.493880 48.774163 -15.377172 -0.193255 1.524630 0.470329 -3.745972 -2.690098 -8.991525 2.948685 -6.089172 -16.279783 -8.609124 63.587430 -18.234807 10.837590 -27.125269 -2.774677 12.192041 -26.287944 -0.545494 6.274277
-0.142640 1.014933 -0.001622 -0.375831 -6.671363 -4.210848 6.699493 2.770658 -2.254319 13.539459 5.099032 -5.092157 13.539463 5.099033 -5.092160 -0.721447 -7.368693 6.871317 -13.577830 12.858630 7.846790 1.241659 -2.183453 -2.004936 -2.527732 -4.096672 -62.960543 73.560099 -78.723170 58.112368 18.149480 -1.528799 23.275031 1.238501 12.686498 5.002714 -28.889781 -14.232392 32.934511 -18.721933 70.680174 27.178577 19.251837 17.857003 13.579703 -47.763556 -9.021870 0.871924 47.178918 -9.696907 1.437845 0.572365 0.496991 -5.294584 -2.659361 -8.910831 2.996069 -6.320303 -14.531611 -8.580781 59.100008 -20.136721 7.935895 -26.733773 -3.123530 12.547320 -21.788143 0.443178 7.414143
-0.142640 1.033759 -0.001622 -0.885255 -14.804004 -4.598275 6.401299 2.667620 -1.700458 12.918768 4.944980 -4.043390 12.918771 4.944975 -4.043391 -0.076252 -2.723398 1.096525 -13.578018 15.334993 7.684967 1.143768 -0.399635 -4.527106 -7.606350 -4.537096 -62.169436 43.709668 -72.635661 29.924947 16.986172 -2.213518 21.508927 1.248275 14.173369 6.298171 -21.011735 -19.732316 38.329987 -10.516245 71.034214 18.915339 18.658969 14.072732 16.102020 -44.199474 -7.392466 4.190520 45.166015 -8.014455 2.174874 0.379892 0.465449 -6.880069 -2.627257 -8.336119 3.001392 -5.832367 -11.937707 -8.139440 52.997518 -22.214192 5.966902 -26.035366 -3.599492 13.331945 -16.297320 0.767641 7.347561
-0.142640 1.050207 -0.001622 -1.149581 -22.350506 -4.134251 6.190455 2.884092 -1.586481 12.506284 5.390935 -3.874528 12.506280 5.390934 -3.874527 -2.369122 0.402439 -1.836879 -10.874528 17.683967 6.530129 1.145015 0.511166 -6.240847 -11.271008 -4.041774 -60.821258 28.852049 -65.284056 16.629082 16.138218 -2.752319 21.706058 1.101745 14.220986 8.694634 -12.366179 -24.646953 44.650890 -6.405502 69.789744 14.425032 16.719891 16.854149 15.218134 -41.236347 -5.363398 7.166668 43.427831 -8.965962 1.997306 0.402169 0.353398 -8.554042 -2.488533 -7.365220 3.008888 -4.825201 -9.020128 -8.023366 45.956737 -24.114934 4.106308 -25.040464 -4.010056 15.219438 -10.251278 0.316262 5.784184
-0.142640 1.061714 -0.001622 -1.495814 -29.195529 -3.214005 5.943901 3.096294 -1.780111 12.033106 5.813560 -4.266510 12.033114 5.813555 -4.266509 -4.603471 2.216001 -1.616879 -7.636125 20.134218 4.097376 1.077222 2.784476 -6.605221 -12.897944 -3.165395 -59.894005 21.122235 -60.440624 10.600820 15.033817 -2.604040 19.595628 0.811684 14.416347 12.231181 -3.918975 -27.945985 50.108259 -6.005180 66.907858 13.592456 13.957969 17.522292 10.603085 -38.408636 -2.826201 10.064615 41.708422 -11.562666 0.833827 -0.249788 0.379031 -9.638937 -2.106842 -6.179643 3.230216 -3.868766 -5.416152 -8.630120 40.322333 -25.896862 3.130505 -23.213699 -4.754302 18.308105 -5.382021 -0.436781 2.941528
-0.142640 1.068685 -0.001622 -2.211926 -34.679797 -2.522642 5.825741 3.414820 -1.838005 11.813746 6.472275 -4.353787 11.813746 6.472281 -4.353789 -4.610999 2.820870 -2.626742 -7.225034 20.696438 2.992458 1.123486 2.574450 -6.711244 -13.225009 -0.607494 -59.848562 16.056051 -57.225948 8.525107 15.011389 -2.677958 18.458095 0.678546 13.735765 13.866213 1.257151 -29.658044 55.242380 -0.910815 62.031919 6.751877 15.755038 18.363158 8.977749 -35.024974 -0.162246 12.434688 38.853068 -14.793486 -0.689963 -1.681004 0.598870 -9.568668 -2.353326 -5.011866 2.338738 -3.492541 -5.585306 -9.664960 35.968873 -24.743405 0.996666 -22.103123 -5.813890 21.227418 -1.376289 -1.487025 -1.083299
-0.142640 1.072590 -0.001622 -3.068261 -38.334739 -2.349537 5.684141 3.542242 -1.767729 11.521847 6.763068 -4.084848 11.521845 6.763068 -4.084848 -3.736894 2.599583 -2.416736 -6.969114 21.266710 1.037795 1.115868 3.213166 -6.339055 -13.666183 1.816993 -62.094796 13.162661 -53.991478 8.895140 16.584317 -2.550269 19.519107 0.694955 12.084187 13.760139 3.728205 -28.919146 58.693482 -2.301444 55.719021 6.368144 13.504180 19.202613 7.162948 -31.616020 1.380413 12.448208 36.249753 -14.372027 0.033059 -3.201056 0.719092 -9.334672 -3.244314 -4.168700 1.116979 -4.441714 -6.868858 -11.097672 35.022110 -21.267416 -0.860399 -20.561539 -5.882912 20.973127 -2.065345 0.317836 -0.203703
-0.142640 1.075445 -0.001622 -3.688762 -40.479137 -2.684811 5.491853 3.670356 -1.468838 11.120786 7.065583 -3.436714 11.120785 7.065606 -3.436719 -2.685619 1.888919 -1.085059 -6.667774 21.953114 -1.229787 1.230153 1.695039 -7.128263 -13.684256 4.927885 -63.796869 9.919477 -53.118025 9.410817 17.244480 -1.349366 18.889558 0.740872 11.042381 12.799298 4.637231 -28.035886 60.576760 -4.218663 51.144084 6.439043 10.306853 18.412741 7.178815 -29.912176 2.723191 12.224298 35.212539 -13.468696 1.220434 -3.874887 0.814256 -9.354020 -2.543846 -3.382732 0.713862 -5.300438 -7.601559 -12.263739 35.592510 -18.173775 -1.021551 -20.163620 -5.029976 19.401999 -3.312759 -0.026283 1.120719
-0.142640 1.077798 -0.001622 -4.269888 -41.789314 -3.309719 5.519353 3.792403 -1.149340 11.163532 7.341814 -2.827868 11.163525 7.341843 -2.827873 -3.491137 1.509299 -0.709781 -6.364052 22.113098 -1.765538 1.274019 1.414473 -7.537925 -13.949257 4.754394 -64.443344 8.501200 -51.703439 8.086091 16.423303 -0.167502 17.848880 0.853054 11.390388 12.547852 4.564814 -27.544234 60.430211 -4.761670 49.531902 5.885706 8.336565 15.507577 9.613321 -29.094136 3.788686 12.746942 34.978759 -13.263312 1.416546 -4.306481 0.831398 -9.017468 -2.319107 -3.216988 0.802967 -5.307113 -9.554988 -13.138547 34.743197 -14.846101 -0.979873 -20.068521 -4.401879 18.280433 -3.351383 -0.277285 1.217093
-0.142640 1.079393 -0.001622 -5.116206 -42.633662 -3.864678 5.646894 4.071117 -1.071601 11.427261 7.905096 -2.715773 11.427257 7.905101 -2.715773 -3.978234 0.776049 -1.222672 -6.819193 21.330123 -0.344171 1.294233 1.534624 -7.497010 -13.876733 2.944782 -63.787836 9.948319 -49.266965 6.606596 16.247969 0.215361 17.663686 1.082027 11.283973 11.986806 4.030926 -26.472367 60.074383 -5.826645 47.403439 7.211181 6.204437 12.831659 10.669432 -28.208362 4.767682 13.515800 34.564129 -13.552390 0.792293 -4.334973 0.779816 -8.645877 -2.323533 -3.217099 0.805020 -4.801873 -11.240813 -14.182316 33.769452 -11.986530 -0.491312 -20.040461 -4.147364 17.714526 -2.875647 -0.341273 0.684152
-0.142640 1.080122 -0.001622 -6.087256 -43.035591 -4.032461 5.832632 4.647442 -1.228635 11.836538 9.037600 -3.083966 11.836543 9.037614 -3.083970 -4.303104 -1.272935 0.206303 -6.271893 20.437792 -0.377160 1.392452 -0.696062 -7.877894 -14.260071 2.394317 -63.277169 9.865119 -47.524994 5.927988 16.172858 0.915266 18.795474 1.410907 9.461517 9.792894 1.220034 -24.270775 60.532886 -6.660738 41.858404 8.043804 6.225276 12.322351 11.673388 -27.166506 5.743282 13.940165 33.903175 -14.126026 -0.205157 -4.199169 0.710947 -8.119441 -2.323533 -3.217104 0.805024 -4.339411 -13.721214 -15.564539 32.726505 -9.003396 -0.418610 -20.572873 -4.057388 17.077126 -1.784963 -0.356716 0.333179
