HIERARCHY
ROOT Hips
{
  OFFSET 0 1.1673769999999999 0
  CHANNELS 6 Xposition Yposition Zposition Xrotation Yrotation Zrotation
  JOINT Spine
  {
    OFFSET 0.000003812944337411511 0.10717500000681812 -0.009311
    CHANNELS 3 Xrotation Yrotation Zrotation
    JOINT Spine1
    {
      OFFSET 0 0.1058532983696241 -0.004285186608692496
      CHANNELS 3 Xrotation Yrotation Zrotation
      JOINT Spine2
      {
        OFFSET -8.470329472543003e-22 0.10599345671141647 -0.007812688101110094
        CHANNELS 3 Xrotation Yrotation Zrotation
        JOINT Neck
        {
          OFFSET -8.470329472543003e-22 0.26240299999999994 -0.04488100000000002
          CHANNELS 3 Xrotation Yrotation Zrotation
          JOINT Head
          {
            OFFSET -4.235164736271502e-22 0.17466899999999996 0.05625600000000003
            CHANNELS 3 Xrotation Yrotation Zrotation
            End Site
            {
              OFFSET -4.235164736271502e-22 0.10756799999999966 0.021070000000000005
            }
          }
        }
        JOINT LeftShoulder
        {
          OFFSET 0.10574399999999999 0.23009199999999996 -0.07323000000000002
          CHANNELS 3 Xrotation Yrotation Zrotation
          JOINT LeftArm
          {
            OFFSET 0.14878212914559852 -0.04653266654569688 -0.030693304075147546
            CHANNELS 3 Xrotation Yrotation Zrotation
            JOINT LeftForeArm
            {
              OFFSET 0.24109000000000003 2.220446049250313e-16 -5.551115123125783e-17
              CHANNELS 3 Xrotation Yrotation Zrotation
              JOINT LeftHand
              {
                OFFSET 0.316792 0 -1.1102230246251565e-16
                CHANNELS 3 Xrotation Yrotation Zrotation
                End Site
                {
                  OFFSET 0.06265729429771016 -0.10569948639925819 0.03859412819617963
                }
              }
            }
          }
        }
        JOINT RightShoulder
        {
          OFFSET -0.10574399999999999 0.23009099999999982 -0.07323000000000002
          CHANNELS 3 Xrotation Yrotation Zrotation
          JOINT RightArm
          {
            OFFSET -0.14878040829228295 -0.04653159475972379 -0.030692917709113934
            CHANNELS 3 Xrotation Yrotation Zrotation
            JOINT RightForeArm
            {
              OFFSET -0.24109000000000003 -6.661338147750939e-16 -2.7755575615628914e-17
              CHANNELS 3 Xrotation Yrotation Zrotation
              JOINT RightHand
              {
                OFFSET -0.31679300000631333 -8.881784197001252e-16 -5.551115123125783e-17
                CHANNELS 3 Xrotation Yrotation Zrotation
                End Site
                {
                  OFFSET -0.06265795211397429 -0.10570764472283312 0.03859362014678265
                }
              }
            }
          }
        }
      }
    }
  }
  JOINT LeftUpLeg
  {
    OFFSET 0.12297511767165623 -0.06742078536803264 -0.010003
    CHANNELS 3 Xrotation Yrotation Zrotation
    JOINT LeftLeg
    {
      OFFSET 0 -0.457033849483632 0.010304509991859542
      CHANNELS 3 Xrotation Yrotation Zrotation
      JOINT LeftFoot
      {
        OFFSET 0 -0.500280623664138 -0.036905110570505176
        CHANNELS 3 Xrotation Yrotation Zrotation
        JOINT LeftToeBase
        {
          OFFSET 0.025950805788189563 -0.14255151365608373 0.19507593811975638
          CHANNELS 3 Xrotation Yrotation Zrotation
          End Site
          {
            OFFSET 0.010732117804750613 -0.000035441498015504746 0.11362327680684622
          }
        }
      }
    }
  }
  JOINT RightUpLeg
  {
    OFFSET -0.12297488233495055 -0.0674172146317622 -0.010003
    CHANNELS 3 Xrotation Yrotation Zrotation
    JOINT RightLeg
    {
      OFFSET 0.00000159348816348992 -0.45703784846455486 0.01030460015485039
      CHANNELS 3 Xrotation Yrotation Zrotation
      JOINT RightFoot
      {
        OFFSET -0.0000015934881634621645 -0.5002806236608007 -0.03690511058134042
        CHANNELS 3 Xrotation Yrotation Zrotation
        JOINT RightToeBase
        {
          OFFSET -0.0259497668227143 -0.14255297441554501 0.19507500887383716
          CHANNELS 3 Xrotation Yrotation Zrotation
          End Site
          {
            OFFSET -0.010733201844058626 -0.000035030229497263656 0.11362417898958707
          }
        }
      }
    }
  }
}
MOTION
Frames: 43
Frame Time: 0.03333333333333333
0.090186 0.915777 0.030608 30.841217 31.279492 -14.475925 16.088468 13.834495 -1.897419 13.122413 9.773395 -1.697863 13.084797 9.824952 -1.610769 14.941683 -8.005039 -6.274033 -58.064991 -52.491449 -0.720279 0.637599 3.331602 -10.781023 49.996637 11.261906 -61.493245 -179.999996 -76.263747 -179.999996 22.290503 -21.339602 39.543758 11.032552 36.350781 -7.776127 -43.976250 28.518550 53.336740 0.000003 55.454309 -0.000001 30.777815 2.175705 -8.416001 -88.520109 -7.191219 1.181776 59.557458 -9.233328 0.251265 -1.128785 -21.674017 -15.842115 -1.058926 0.000001 -0.000003 -50.803891 -14.816440 -32.897995 79.428958 -10.260456 1.030730 -25.568897 -13.288468 31.181029 -1.071981 0.000006 -0.000004
0.090186 0.900770 0.030608 32.661999 30.495496 -16.057435 18.263642 10.860963 -2.895406 14.595818 7.607736 -2.508528 14.593929 7.610161 -2.485662 14.904097 -7.541438 -11.315724 -50.251162 -50.588739 2.122336 0.727240 3.232140 -11.783650 48.601516 11.632869 -61.645293 -179.999978 -74.715863 -179.999953 15.419669 -23.606953 39.381012 12.020140 41.447983 -13.218029 -20.915393 28.290784 46.292563 0.000023 79.032863 -0.000018 26.351125 2.808949 -8.977048 -91.921778 -7.261190 2.498220 61.370049 -9.259518 0.091976 -1.124288 -23.775963 -15.079748 -0.898633 0.000001 -0.000000 -53.667142 -14.062236 -31.944341 82.423793 -10.268704 0.522345 -26.398871 -13.297881 31.144600 -1.028089 -0.000004 0.000003
0.090186 0.892710 0.030608 32.806292 29.305091 -16.109074 20.190854 7.266932 -3.951352 16.022136 5.025380 -3.408899 16.025722 5.017024 -3.393608 14.528279 -6.728088 -15.778639 -44.082068 -46.394735 2.978556 0.997567 2.559621 -11.784549 44.546339 12.656511 -60.417130 179.999955 -73.576054 179.999955 12.154956 -21.304052 40.164457 11.441914 43.478876 -16.200273 -7.156763 32.547465 42.183972 179.999930 87.841229 -179.999922 16.197656 3.658030 -8.743639 -93.005698 -6.585577 4.158157 62.262456 -9.266290 0.424291 -1.624050 -25.134389 -15.350957 -0.913539 0.000003 0.000003 -55.146891 -13.533917 -31.257960 83.941860 -10.278007 -0.058831 -27.209355 -13.848458 31.114992 -1.132885 -0.000002 -0.000009
0.090186 0.893632 0.030608 31.657150 27.740088 -14.723614 21.336779 4.024915 -5.000120 17.020188 2.787104 -4.265963 17.021696 2.822153 -4.240097 14.657589 -5.927298 -18.794527 -39.503034 -42.446278 3.134186 1.229424 2.194135 -11.785567 35.265702 16.037624 -54.865296 179.999907 -75.574670 179.999911 11.190200 -13.414206 37.789368 10.695476 43.509234 -16.877605 -0.630034 34.394323 38.484817 -179.999951 79.224804 179.999950 3.332780 4.502923 -8.138521 -91.975238 -5.870194 5.421079 62.277280 -9.255859 1.086702 -2.887447 -24.283027 -16.848270 -0.681158 0.000002 -0.000009 -55.250768 -12.117251 -30.799314 84.072068 -10.300371 -0.119827 -27.516632 -13.664735 31.128533 -1.444862 -0.000001 0.000000
0.090186 0.900282 0.030608 30.282402 25.720446 -12.666739 21.261713 2.195322 -5.757193 17.145893 1.598952 -4.825967 17.148039 1.697357 -4.801325 15.351478 -5.509504 -19.747672 -36.986464 -39.086295 1.573147 0.854444 3.028541 -11.785697 21.483971 15.779422 -46.446634 -179.999999 -83.283400 -179.999999 10.946935 -9.703642 34.287552 10.353454 41.783470 -15.991221 -0.093162 33.148726 36.740229 -179.999995 73.092882 -179.999992 -9.399774 5.388596 -7.481716 -90.133440 -5.573644 6.063661 61.465516 -9.255697 1.611551 -3.107933 -22.130962 -17.822370 -0.679796 0.000003 -0.000010 -54.970194 -9.146102 -29.898069 83.537358 -10.334686 0.096496 -26.946979 -12.878681 31.149274 -1.805286 -0.000010 0.000005
0.090186 0.907152 0.030608 28.355827 22.996690 -10.429496 20.313391 1.444777 -6.152916 16.567888 1.172641 -5.010292 16.568411 1.346967 -4.995005 15.790453 -5.263270 -19.127777 -36.450225 -36.038899 -0.031760 0.170219 4.290348 -11.768514 10.254864 10.960126 -41.286008 -0.003567 -89.890313 -0.003557 8.691867 -10.073689 34.702350 10.117521 38.932768 -14.435922 -2.203210 32.315654 37.606046 179.999995 70.692560 -179.999992 -17.372777 6.050216 -6.965657 -87.955644 -6.307824 6.602923 60.818726 -9.257431 1.890194 -2.323581 -19.166699 -18.043742 -1.261296 0.000003 0.000001 -54.232239 -5.662492 -28.269126 82.886873 -10.319109 0.175403 -26.885077 -12.659531 31.195362 -1.796841 0.000006 0.000003
0.090186 0.912665 0.030608 25.852458 19.561079 -8.657192 18.894615 1.045683 -6.066174 15.586471 0.926209 -4.811541 15.582851 1.179049 -4.811074 15.737847 -4.969544 -17.813943 -36.800888 -33.948848 0.272356 -0.132890 4.951624 -11.755336 3.742958 5.949760 -38.435563 0.000775 -88.737349 0.000791 8.580715 -8.858688 33.973943 9.839594 36.302840 -12.878603 -3.111641 32.606708 39.578202 -179.999976 70.784433 179.999973 -18.348488 6.187075 -6.813140 -85.282989 -8.265254 7.940591 60.310764 -9.235496 1.663969 -1.613506 -16.118315 -18.528000 -1.959346 0.000005 -0.000004 -53.343333 -3.456356 -26.751547 81.930593 -9.317677 0.360416 -27.445416 -12.814783 31.382734 -1.550161 -0.000010 -0.000005
0.090186 0.919488 0.030608 23.151822 15.836918 -7.277886 17.458976 0.971607 -5.624457 14.564620 0.838226 -4.373477 14.554586 1.166129 -4.386004 15.617319 -4.766252 -15.716992 -37.290422 -33.006097 1.303052 -0.082914 5.097062 -11.758274 -1.671637 0.482553 -37.232335 -179.996866 -89.772069 -179.996884 11.001202 -7.374448 29.413425 9.175223 33.513247 -11.169974 -1.902244 33.591889 41.418120 -179.999979 70.958879 179.999995 -15.050549 5.852431 -6.932862 -81.890132 -10.229033 9.924656 59.457113 -9.211748 1.381659 -1.022429 -13.289443 -19.373738 -2.346418 -0.000002 0.000000 -52.280894 -2.964702 -25.789610 80.102754 -8.359658 0.630806 -28.357652 -12.251812 31.553764 -1.321491 0.000003 -0.000006
0.090186 0.929587 0.030608 20.400515 11.686186 -5.533112 16.381188 1.770694 -5.302776 13.723579 1.408196 -4.006349 13.688540 1.851217 -4.023042 15.650969 -4.904435 -11.935963 -39.191069 -32.735855 0.716649 0.303190 4.486541 -11.775731 -5.725182 -8.059587 -37.880778 179.998747 -88.542327 179.998756 9.127638 -5.884310 28.667106 7.638349 28.381191 -9.104182 -0.197549 36.798116 43.007500 -179.999990 71.208681 179.999987 -11.711737 5.347084 -6.972677 -77.729405 -11.073150 11.201892 58.870008 -9.211227 2.260153 -1.191996 -9.259781 -19.891604 -1.123960 0.000001 -0.000006 -50.667130 -3.444328 -25.357441 76.792754 -7.108109 0.283515 -29.951681 -11.976107 31.711242 -1.161620 -0.000004 -0.000007
0.090186 0.941842 0.030608 18.124709 6.966100 -3.827679 15.314409 2.799022 -5.039935 12.750127 2.174113 -3.707857 12.668448 2.722136 -3.736091 15.302598 -4.928343 -7.288470 -42.038169 -30.862724 -1.160021 0.820767 2.558740 -10.974206 -7.724745 -16.243468 -38.397053 179.998746 -89.251646 179.998758 6.546620 -5.175075 32.047974 5.667278 21.036899 -7.468189 0.801514 42.865819 44.204994 -179.999988 72.530091 179.999991 -9.922071 4.921479 -6.806649 -73.038027 -11.314788 12.818838 57.815095 -9.212569 3.098727 -2.283112 -4.786655 -20.580063 -0.663368 0.000002 0.000001 -48.941530 -4.450677 -25.494026 72.292232 -4.201419 0.127876 -32.324958 -11.915050 31.998965 -1.064378 0.000008 -0.000006
0.090186 0.955019 0.030608 16.500077 2.095270 -2.352399 14.283414 2.678733 -4.815256 11.873964 2.166928 -3.362574 11.775020 2.753053 -3.404341 14.524434 -4.374140 -4.308692 -43.623730 -26.201985 -2.141596 0.970727 1.139523 -8.264986 -10.071303 -19.701282 -39.276086 -0.000829 -89.261448 -0.000825 10.094936 -5.466726 32.551299 4.189996 15.204204 -7.025547 1.735881 48.980412 44.110652 -179.999920 74.137959 179.999927 -7.510834 4.566540 -6.619741 -68.219167 -10.744706 15.667638 55.454967 -9.229681 3.152281 -3.301332 -1.491711 -21.514641 -0.595685 -0.000001 0.000005 -47.565805 -4.623902 -25.395339 67.999665 -0.276140 0.893325 -34.595508 -11.780089 31.794777 -0.891687 -0.000009 0.000001
0.090186 0.968510 0.030608 15.079049 -2.668869 -1.141863 13.457482 1.689864 -4.184755 11.250693 1.443419 -2.850483 11.177112 2.012150 -2.903581 14.019475 -3.511662 -3.785797 -44.849803 -20.247233 -2.381545 0.972202 1.065043 -8.041719 -12.131853 -19.963118 -37.523657 -0.000129 -88.414822 -0.000122 15.692673 -6.814338 30.986828 3.654091 13.476868 -7.486734 3.407180 51.983337 42.144122 -179.999976 74.560874 179.999983 -1.508016 4.160669 -6.570407 -63.522016 -9.738831 18.666129 52.811496 -9.154476 2.915936 -3.498595 1.073571 -21.969434 -0.556989 -0.000001 -0.000002 -47.452624 -3.903539 -24.506378 65.927680 2.781014 1.575282 -35.574177 -10.508413 28.127937 -0.738790 0.000000 0.000013
0.090186 0.980632 0.030608 13.522774 -7.102894 -0.194131 12.815103 0.644973 -3.219187 10.717089 0.583994 -2.240248 10.678409 1.110721 -2.307916 13.916129 -2.642315 -4.205901 -46.308762 -14.196201 -2.606299 0.964822 1.289453 -8.656093 -14.379721 -18.983014 -35.849280 0.000080 -87.574139 0.000071 19.891063 -7.888521 28.982801 3.795731 14.321622 -8.101704 4.764636 51.861245 39.836271 -179.999946 73.762283 179.999950 7.553509 3.739440 -6.619369 -59.322829 -7.959732 21.507740 50.528537 -7.958567 2.768901 -2.858161 1.507906 -21.969498 -0.549406 -0.000001 -0.000003 -47.397309 -3.544289 -23.530552 64.228469 5.525390 1.663364 -34.672493 -9.186356 25.505389 -0.577621 -0.000003 -0.000006
0.090186 0.991482 0.030608 12.055570 -11.143018 0.748100 12.413488 -0.350573 -2.583468 10.362295 -0.178330 -1.805880 10.353743 0.319644 -1.885714 13.962165 -1.839851 -4.431741 -47.235742 -8.742355 -2.633392 1.014289 1.012523 -8.496464 -17.460355 -16.748273 -35.882878 -0.000070 -86.525467 -0.000067 23.628891 -8.527356 27.255791 3.986002 15.081411 -8.428879 4.913874 50.576508 38.597318 -179.999970 72.490305 179.999981 15.414799 3.497791 -6.661547 -55.396150 -5.554329 24.226609 48.020739 -6.785679 2.289327 -1.929623 1.340907 -22.086423 -0.559000 0.000004 -0.000002 -47.255795 -3.268077 -22.391805 62.817866 7.617780 1.233933 -33.362336 -8.037409 23.402502 -0.471553 -0.000004 0.000007
0.090186 1.001849 0.030608 10.865143 -14.618058 1.922817 12.117184 -1.310835 -2.486791 10.117236 -0.808803 -1.582293 10.133059 -0.335788 -1.669465 13.993737 -1.186138 -4.499749 -47.552950 -4.393570 -2.587192 1.079287 0.523195 -7.899688 -20.253560 -14.342406 -36.471335 0.000100 -85.212934 0.000106 25.084920 -9.109445 26.815204 3.959185 14.953919 -8.452510 4.537320 49.173663 38.024096 179.999947 70.909718 -179.999956 18.534142 3.519495 -6.623161 -50.718570 -4.572988 26.351489 44.838958 -4.194215 0.250280 -0.913489 1.207155 -22.608146 -0.568644 0.000001 0.000002 -46.808432 -2.106412 -21.246250 61.601836 8.278418 0.997604 -32.197258 -6.852757 21.957154 -0.394779 -0.000002 -0.000000
0.090186 1.009728 0.030608 9.942972 -17.505353 3.141294 11.813337 -2.020939 -2.320706 9.852536 -1.274432 -1.308229 9.887010 -0.815605 -1.400239 13.661321 -0.693462 -4.644470 -47.381328 -0.976871 -2.802086 1.099971 0.269603 -7.423370 -22.007779 -12.714719 -37.138796 -0.000038 -83.895008 -0.000034 24.332024 -9.395609 26.185767 3.821936 14.400618 -8.314227 4.369847 47.483826 37.432087 179.999969 68.863477 -179.999976 17.623729 3.666835 -6.491824 -46.278247 -4.328516 27.476775 42.300732 -1.225241 -1.742230 -0.320093 1.163871 -23.247221 -0.555322 -0.000002 0.000001 -46.387213 -0.800661 -20.533314 60.745330 8.312965 0.739155 -31.377612 -5.583983 21.175266 -0.338288 0.000006 0.000001
0.090186 1.013974 0.030608 9.263707 -20.001147 4.269822 11.503909 -2.392291 -1.806996 9.546168 -1.570150 -0.944493 9.596018 -1.104375 -1.039608 12.978890 -0.327765 -4.606615 -46.983849 1.898456 -3.485327 1.105599 0.040408 -6.828919 -22.865214 -11.263716 -38.146074 0.000028 -82.936997 0.000040 24.015445 -9.339119 25.056513 3.675905 13.795101 -8.148710 4.321148 45.370120 36.755903 179.999980 66.640382 -179.999995 16.394531 3.748853 -6.331081 -43.503366 -2.946798 27.824113 41.023971 -0.594259 -2.151216 -0.646768 1.259186 -23.634174 -0.446825 0.000004 -0.000004 -46.382902 -0.071772 -20.348415 60.423269 8.309153 0.108770 -30.972831 -4.086376 20.857192 -0.289664 -0.000013 0.000005
0.090186 1.016141 0.030608 8.789757 -22.288226 5.358091 11.167701 -2.603562 -1.246235 9.212417 -1.763473 -0.595811 9.274807 -1.294364 -0.690005 12.239865 0.011648 -4.256192 -46.421211 4.815628 -4.500291 1.106557 -0.125260 -6.365887 -22.905447 -10.010350 -38.677923 -0.000023 -82.317434 -0.000026 24.055917 -9.475342 24.390079 3.548837 13.278181 -8.072916 3.924439 43.161046 36.273131 179.999984 64.867494 -179.999987 17.363595 3.726578 -6.198395 -41.410777 -1.360863 27.972621 40.302526 -1.088691 -2.343310 -1.666037 1.479573 -23.893816 -0.250040 0.000003 -0.000006 -46.550956 0.722663 -20.408239 60.370687 8.285843 -0.360745 -30.833237 -2.628360 20.657813 -0.241408 -0.000006 0.000001
0.090186 1.017528 0.030608 8.424642 -24.399862 6.307046 10.835798 -2.859954 -0.665023 8.899818 -1.988181 -0.224463 8.974525 -1.534703 -0.314738 11.450541 0.434306 -4.081054 -45.476857 7.972461 -5.408762 1.070015 0.109371 -6.539236 -22.243640 -9.265192 -38.156958 -0.000000 -82.099038 0.000009 23.303445 -9.431006 24.120216 3.479380 13.008893 -8.094325 2.949551 41.241416 36.228797 179.999991 63.860443 -179.999984 19.065542 3.708433 -6.092039 -39.739730 0.138654 28.094227 40.066573 -0.921564 -2.543630 -2.457382 1.670088 -24.207744 -0.309353 -0.000000 -0.000001 -46.582851 1.757756 -20.415436 60.341860 8.273043 -0.571121 -30.844562 -1.556125 20.474095 -0.184077 0.000005 -0.000004
0.090186 1.018457 0.030608 8.217958 -26.211446 7.144449 10.518411 -3.199573 -0.128203 8.618081 -2.271355 0.135014 8.704859 -1.846951 0.050069 10.671406 0.922191 -4.159262 -44.533691 10.827753 -5.736177 1.020081 0.470485 -6.899592 -21.093325 -8.322978 -37.338494 0.000084 -82.542117 0.000086 22.300555 -8.962185 24.042689 3.489366 12.990657 -8.022912 1.446480 39.705382 36.790217 -179.999997 63.363136 -179.999989 17.926036 3.768838 -5.964723 -38.739569 1.861582 28.077742 40.180489 -0.316581 -2.397316 -3.055640 1.798539 -24.134605 -0.334701 -0.000005 -0.000005 -46.596032 2.813078 -20.302737 60.331888 8.276190 -0.798605 -30.868006 -0.930066 20.378893 -0.122279 -0.000013 0.000005
0.090186 1.018186 0.030608 8.209864 -27.742506 7.931568 10.225668 -3.412943 0.266295 8.373746 -2.450566 0.412821 8.465411 -2.059767 0.333559 10.018597 1.341191 -4.109735 -44.371881 12.814272 -5.453974 0.995843 0.621046 -7.006438 -19.902213 -7.018959 -36.960689 0.000055 -83.563691 0.000065 22.475081 -8.512739 24.235966 3.482028 12.794861 -7.571407 -0.539336 38.467987 38.070770 179.999999 62.967090 -179.999993 13.117814 3.876571 -5.820826 -38.367719 3.509631 27.945931 40.697022 0.116282 -2.124471 -3.987087 1.928367 -23.318229 -0.377771 0.000003 -0.000003 -46.766302 4.057565 -20.098499 60.448524 8.284095 -0.953315 -30.749373 -0.577607 20.355987 -0.081856 -0.000002 -0.000000
0.090186 1.016852 0.030608 8.204401 -29.103271 8.611270 10.059865 -3.420461 0.484305 8.250960 -2.456733 0.586331 8.339545 -2.091866 0.510193 9.175869 1.670627 -3.599854 -44.183391 14.211729 -5.164114 0.983090 0.688375 -7.027251 -19.027356 -5.871985 -36.744451 -0.000162 -84.969890 -0.000154 24.412437 -7.931869 25.393362 3.301701 11.835227 -6.558747 -3.103474 37.489714 40.105204 179.999996 62.597856 179.999982 7.841954 3.967715 -5.734112 -38.225324 4.966815 27.584135 41.458836 0.524009 -1.499266 -5.104749 2.111966 -22.793317 -0.436063 0.000004 0.000001 -46.996224 5.291549 -19.905243 60.648075 8.307859 -1.142141 -30.534501 -0.379238 20.406847 -0.042073 0.000012 0.000001
0.090186 1.015184 0.030608 8.316934 -30.142122 9.146549 10.021335 -3.366385 0.562382 8.235581 -2.401201 0.692281 8.320462 -2.047280 0.616719 7.797808 1.929206 -2.399740 -43.405165 15.453368 -5.310602 0.968544 0.700946 -6.857385 -18.499100 -4.610120 -36.654157 -0.000179 -86.870838 -0.000178 26.658918 -7.333123 27.195552 2.963364 10.108487 -5.101886 -6.210292 36.636198 42.690413 -179.999988 62.436813 179.999972 5.137108 3.992241 -5.702532 -38.250707 5.558338 27.026538 42.440678 1.356330 -0.870255 -5.776698 2.269483 -22.867788 -0.435676 -0.000003 -0.000010 -47.341317 6.144561 -19.794959 60.814280 8.322265 -1.419495 -30.424293 -0.214678 20.385772 0.004728 0.000009 0.000006
0.090186 1.012725 0.030608 8.756729 -30.801316 9.578612 10.038998 -3.271309 0.672002 8.247790 -2.327988 0.791154 8.329942 -1.976000 0.716273 6.240979 2.062550 -1.110693 -43.500048 16.169929 -5.397478 0.952647 0.670652 -6.539055 -18.255164 -3.197987 -36.836199 0.000064 -89.055578 0.000071 27.511558 -7.291052 28.402166 2.650214 8.353892 -3.610824 -9.416104 35.546364 45.252889 179.999990 62.546097 -179.999996 4.604798 3.963786 -5.671796 -38.786395 5.355415 26.833435 43.775302 1.994170 -0.946720 -6.292430 2.380362 -22.827385 -0.416130 -0.000003 -0.000001 -47.907870 6.906392 -19.666164 60.963601 8.309723 -1.553333 -30.358818 -0.091014 20.304697 0.024169 -0.000005 -0.000007
0.090186 1.009636 0.030608 9.410082 -31.101240 9.946844 10.072918 -3.148419 0.846538 8.262097 -2.256081 0.882997 8.341692 -1.904950 0.809262 4.851607 2.098447 -0.286631 -44.527529 16.146419 -5.066491 0.935647 0.691523 -6.358629 -18.120975 -2.057292 -37.036737 -179.999961 -88.779494 -179.999967 27.449520 -7.685588 29.097939 2.463823 7.216006 -2.435183 -12.133244 33.966980 47.215297 179.999988 62.786659 -179.999987 4.245857 3.941217 -5.629808 -39.975670 5.586803 27.135390 45.093707 1.599497 -1.223798 -7.056822 2.516907 -22.734459 -0.387318 -0.000004 -0.000013 -48.609369 7.623195 -19.583311 61.075939 8.347067 -1.559948 -29.998038 -0.229538 20.239797 0.056635 -0.000006 -0.000003
0.090186 1.006651 0.030608 10.103939 -30.905509 10.193831 10.104901 -2.992316 0.962812 8.281546 -2.152072 0.960194 8.357342 -1.801750 0.887332 3.596777 2.063714 0.420217 -45.325966 15.753189 -4.704709 0.935835 0.627451 -6.172425 -17.959251 -1.591862 -37.327193 -179.999939 -86.747654 -179.999932 27.827240 -7.694803 29.899922 2.370125 6.646369 -1.619280 -14.089030 32.024123 48.446872 179.999973 63.024263 -179.999995 3.322607 3.945087 -5.608352 -41.673596 6.301866 27.506955 46.207097 0.547671 -1.180232 -7.887005 2.666209 -22.737204 -0.329552 0.000004 -0.000007 -49.338636 7.906312 -19.784637 61.091822 8.470370 -1.557287 -29.292524 -0.539399 20.267108 0.154418 0.000001 -0.000004
0.090186 1.003692 0.030608 10.746734 -30.208507 10.259770 10.150071 -2.759080 1.030976 8.318371 -1.982105 1.025361 8.388137 -1.630631 0.952909 2.654155 1.939774 1.093175 -46.060213 15.073955 -4.478016 0.964005 0.358513 -5.787131 -17.785880 -1.860253 -38.014093 179.999878 -84.983375 179.999878 29.075558 -7.147041 30.747579 2.314800 6.309619 -1.073330 -15.429639 30.036669 49.147809 -179.999998 63.255046 179.999993 2.247404 3.960845 -5.624607 -43.616691 6.649361 27.681396 47.423914 -0.444760 -1.071318 -8.574885 2.793807 -22.777178 -0.270389 0.000001 -0.000003 -49.932108 7.937089 -20.271949 61.017702 8.605314 -1.492642 -28.530277 -0.929057 20.588802 0.240620 -0.000012 0.000004
0.090186 1.000683 0.030608 11.413142 -29.275289 10.193137 10.232243 -2.479378 1.110467 8.376434 -1.789072 1.070634 8.439011 -1.436689 0.999260 1.829521 1.790326 1.357081 -46.865046 13.994428 -4.077238 0.973266 0.223244 -5.530015 -17.753098 -2.561794 -38.763980 179.999940 -83.509028 179.999948 30.574130 -7.228945 31.003196 2.279738 6.068036 -0.736379 -16.520055 28.262859 49.613592 179.999958 63.554468 -179.999974 1.277157 3.982149 -5.652933 -45.676687 6.327560 27.677592 48.890867 -1.118766 -1.111478 -8.919651 2.837236 -22.655520 -0.331239 -0.000008 0.000002 -50.390968 8.047117 -20.584896 60.857445 8.755762 -1.582730 -27.516961 -1.881051 21.274486 0.142407 0.000010 0.000004
0.090186 0.997767 0.030608 12.277544 -28.245093 10.079128 10.267309 -2.249122 1.128584 8.391931 -1.625826 1.101387 8.446985 -1.284385 1.033498 0.754045 1.638883 1.136925 -47.281480 12.520521 -3.531763 0.929506 0.513803 -5.751786 -17.831926 -3.627939 -39.066455 -179.999954 -82.550178 -179.999937 31.893813 -8.573422 31.152070 2.275556 5.980771 -0.553424 -17.635623 26.807700 50.092605 -179.999999 63.993272 -179.999990 0.262035 4.021799 -5.660845 -47.717204 5.361671 27.502806 50.304641 -1.324754 -1.361447 -9.081805 2.827594 -22.346145 -0.410458 -0.000003 0.000001 -50.931624 8.198462 -20.650618 60.597012 8.975508 -1.756545 -26.182660 -3.293989 22.135114 -0.029398 -0.000004 -0.000001
0.090186 0.994674 0.030608 13.167257 -27.070786 9.923308 10.231159 -2.090220 0.993561 8.358324 -1.492347 1.065861 8.405920 -1.172197 1.002904 -0.344652 1.413225 0.844789 -47.586338 10.848105 -3.335183 0.875535 0.934140 -6.221405 -17.832606 -5.132010 -39.137982 -179.999941 -82.297388 -179.999946 32.916945 -9.581334 31.597706 2.329051 6.194102 -0.543132 -18.764079 25.600097 50.539951 179.999965 64.601068 -179.999976 -0.957254 4.091840 -5.644097 -49.655929 4.237346 27.098690 51.524216 -1.388645 -1.534480 -9.320027 2.859295 -22.214196 -0.455947 0.000002 -0.000004 -51.476419 8.372044 -21.044438 60.346338 9.114994 -1.535241 -24.957241 -4.334776 23.062719 -0.186306 0.000006 -0.000006
0.090186 0.991538 0.030608 13.841755 -25.888638 9.622834 10.293559 -2.007168 0.919217 8.402633 -1.441438 1.000917 8.445836 -1.138652 0.941336 -1.339187 1.247047 0.279511 -48.287701 9.244550 -2.954885 0.817886 1.442817 -6.941319 -17.922918 -6.692151 -39.088691 -179.999926 -82.349246 -179.999926 33.168899 -9.527190 31.445827 2.447311 6.742495 -0.759574 -19.749765 24.499085 50.742407 -179.999972 65.373945 179.999964 -2.344384 4.183880 -5.623431 -51.662566 3.649525 26.649973 52.771755 -1.877294 -1.245453 -9.603834 2.909578 -22.235807 -0.493891 0.000003 -0.000010 -51.901405 8.172887 -21.680165 60.138758 9.097466 -1.385078 -23.973356 -4.923519 23.945608 -0.328580 0.000012 0.000003
0.090186 0.988728 0.030608 14.284747 -24.794911 9.093946 10.476254 -1.877831 0.937517 8.546109 -1.383153 0.940219 8.585391 -1.090046 0.882222 -2.309370 1.159986 -0.479045 -48.819464 7.596950 -2.090616 0.765196 1.935408 -7.735713 -18.213758 -8.146547 -39.027105 -179.999983 -82.589729 -179.999964 33.483696 -9.343488 31.242250 2.570767 7.301817 -1.029321 -20.569776 23.463744 50.848305 179.999993 66.309977 179.999986 -3.708365 4.273029 -5.627452 -53.628878 3.358244 26.380038 54.088839 -2.653360 -0.843698 -9.797868 2.927016 -22.200012 -0.573928 0.000002 -0.000001 -52.143291 7.831312 -22.197167 60.053712 9.103735 -1.235209 -23.301232 -5.560051 23.993689 -0.435641 0.000011 0.000003
0.090186 0.985417 0.030608 14.473653 -23.721779 8.431595 10.703550 -1.554841 0.760066 8.722383 -1.136495 0.806640 8.752452 -0.850432 0.751504 -3.246158 0.942151 -1.017793 -48.789115 5.398329 -1.322615 0.747854 2.131892 -8.127966 -18.571218 -9.862437 -39.465611 -179.999973 -83.031634 -179.999979 34.247725 -9.544823 31.609160 2.607899 7.430401 -1.010763 -21.310645 22.554703 51.317581 -179.999991 67.409386 179.999993 -4.746620 4.341882 -5.675048 -55.249641 3.009387 26.258531 55.375931 -3.580287 -0.696249 -10.162898 2.990353 -22.238385 -0.619058 -0.000006 0.000002 -52.121300 7.466537 -22.816108 60.062074 8.951641 -1.020992 -23.001950 -5.813842 24.139348 -0.481237 -0.000008 0.000002
0.090186 0.981926 0.030608 14.492445 -22.706876 7.814463 10.931925 -1.146471 0.391107 8.901124 -0.791019 0.586418 8.919766 -0.511832 0.535055 -3.990796 0.562402 -1.710019 -48.582226 2.297651 -0.680365 0.750501 2.147732 -8.225098 -18.781474 -11.666388 -40.284638 179.999988 -83.204816 179.999991 34.595763 -9.542505 31.917277 2.544054 7.060848 -0.586351 -21.948381 21.809533 52.308441 179.999970 68.631808 -179.999976 -5.128559 4.391345 -5.760850 -56.582273 2.701077 26.149648 56.632651 -4.587286 -0.733853 -10.568263 3.040427 -22.115899 -0.634817 -0.000002 -0.000002 -52.103010 6.799661 -23.519070 60.231567 8.856250 -1.148734 -22.842528 -5.816507 24.348656 -0.499188 0.000002 0.000000
0.090186 0.980001 0.030608 14.421155 -21.777659 7.285341 11.196668 -0.696159 0.106941 9.115744 -0.438365 0.378557 9.123986 -0.155951 0.329183 -4.430872 0.119725 -2.782151 -48.478822 -1.255588 -0.256395 0.743574 2.373926 -8.911589 -19.020669 -14.029646 -40.104081 179.999979 -83.163999 179.999988 35.614048 -8.736758 31.974781 2.431924 6.435590 0.088521 -22.400529 21.239167 53.595896 179.999999 69.933809 179.999992 -4.829614 4.423036 -5.858656 -57.769610 2.684300 25.908164 57.769504 -5.588603 -0.708519 -10.738738 2.954567 -21.389254 -0.731100 -0.000003 0.000012 -51.756980 6.375292 -24.205066 60.148724 8.485995 -1.143315 -22.664485 -5.746118 24.247956 -0.483429 0.000005 0.000003
0.090186 0.978950 0.030608 14.300341 -20.943457 6.788588 11.486891 -0.237531 -0.082944 9.341734 -0.096443 0.207631 9.340142 0.197041 0.159078 -4.555042 -0.263879 -3.971982 -48.425787 -4.448173 0.013705 0.731001 2.777097 -10.193350 -19.477874 -16.718115 -38.706048 -179.999968 -83.196411 -179.999972 38.162124 -7.915091 31.237867 2.309461 5.756161 0.818918 -22.661069 20.892556 54.949155 179.999992 71.307247 -179.999973 -4.277393 4.428508 -5.943507 -58.793910 2.920141 25.719848 58.733164 -6.666636 -0.623407 -10.920417 2.843182 -20.507457 -0.840496 0.000001 0.000008 -50.865292 6.556155 -24.797636 59.675507 7.937162 -0.697190 -22.623843 -5.755947 24.290069 -0.435604 -0.000003 0.000000
0.090186 0.977506 0.030608 14.104159 -20.218288 6.339657 11.773434 0.151012 -0.409857 9.548516 0.212432 -0.035074 9.537782 0.515353 -0.083041 -4.363159 -0.581873 -4.949389 -48.370829 -7.095799 0.316440 0.726511 2.959341 -10.824970 -19.915725 -18.752376 -37.708866 -179.999927 -83.209536 -179.999929 39.766016 -7.942543 29.501582 2.214244 5.225967 1.360451 -22.681272 20.788047 56.124328 179.999959 72.680408 -179.999974 -3.919087 4.412785 -6.008569 -59.531553 3.172372 25.595406 59.524115 -7.618579 -0.468177 -11.140395 2.818189 -20.147199 -0.872652 0.000001 0.000000 -50.085891 6.683633 -25.041070 59.514331 7.159955 -0.685633 -22.643096 -5.826496 24.485908 -0.426118 0.000013 0.000000
0.090186 0.976382 0.030608 13.976728 -19.522440 6.030419 12.048213 0.332133 -0.821690 9.738224 0.375515 -0.323048 9.722485 0.683460 -0.371508 -4.135789 -0.776460 -5.755392 -48.254770 -8.902533 0.578771 0.720003 2.976567 -10.780191 -20.264582 -19.884970 -37.275311 -179.999986 -83.088788 -179.999977 39.609328 -8.210929 28.451183 2.193970 5.126485 1.430265 -22.380913 20.873484 56.786606 179.999983 73.941476 -179.999995 -3.867159 4.432733 -6.057715 -60.087392 3.229071 24.972211 60.140812 -7.939669 0.093400 -11.176544 2.828157 -20.151978 -0.909176 -0.000006 0.000005 -49.657474 6.650863 -25.102908 59.627487 6.157470 -1.002017 -22.575106 -5.836707 24.477776 -0.438992 0.000007 0.000002
0.090186 0.975223 0.030608 13.933172 -18.905764 5.804283 12.298077 0.320233 -1.233701 9.906371 0.401103 -0.590640 9.889934 0.705937 -0.639524 -3.942057 -0.808462 -6.529932 -48.036037 -9.864085 0.943357 0.712920 2.975179 -10.651473 -20.907170 -20.292417 -36.974511 -179.999994 -82.965359 -179.999998 39.651042 -8.091493 28.451265 2.264106 5.520115 1.024556 -21.836053 21.112363 56.888202 -179.999973 75.126778 179.999961 -3.991714 4.568286 -6.096310 -60.575571 3.149951 24.266696 60.607700 -7.936441 0.709145 -11.150947 2.856800 -20.334026 -0.950575 -0.000005 -0.000005 -49.357473 6.649638 -25.152355 59.683309 5.565188 -1.210158 -22.643331 -5.829490 24.331991 -0.384637 -0.000008 -0.000000
0.090186 0.975245 0.030608 13.885231 -18.501048 5.540752 12.518439 0.313315 -1.566848 10.050588 0.418171 -0.820918 10.033729 0.719876 -0.870488 -3.645842 -0.812533 -7.228775 -47.728206 -10.767461 1.584456 0.711418 2.984626 -10.662917 -21.793742 -20.645548 -36.686730 -179.999904 -83.246168 -179.999916 39.894869 -8.025739 28.486271 2.381302 6.106465 0.537152 -21.166192 21.494907 56.879479 179.999934 76.358115 -179.999946 -4.010289 4.776417 -6.142697 -60.772010 3.220041 24.140592 60.570631 -8.231096 0.879378 -11.345601 2.924913 -20.571643 -0.757293 0.000003 0.000003 -48.997617 6.493742 -25.044070 59.404700 5.062072 -1.354109 -22.814909 -5.848966 24.196746 -0.130554 0.000011 0.000005
0.090186 0.977157 0.030608 14.049043 -18.294509 5.324027 12.595451 0.420638 -1.857138 10.091182 0.509141 -1.039689 10.071116 0.817682 -1.091157 -3.209312 -0.866849 -7.637093 -47.195933 -11.653472 2.132191 0.714728 2.976857 -10.699310 -22.250909 -21.191168 -36.240473 179.999973 -84.060166 179.999992 39.489622 -8.347024 28.798824 2.452792 6.459556 0.430794 -20.399857 22.040133 57.375864 179.999972 77.657434 -179.999986 -3.572376 4.823229 -6.218120 -60.911752 3.324130 24.251276 60.070098 -8.438640 0.920499 -11.304853 2.922997 -20.616882 -0.639049 0.000002 0.000002 -49.143057 6.274952 -24.716716 59.210768 4.212218 -1.375486 -22.160367 -5.649356 23.889122 -0.465665 0.000005 0.000001
0.090186 0.980097 0.030608 14.375116 -17.951833 4.779840 12.494961 0.647499 -2.401305 9.984864 0.730291 -1.382911 9.959533 1.038865 -1.435307 -2.676625 -0.995796 -7.249684 -46.739381 -12.197185 2.470386 0.724706 2.681961 -10.180720 -22.050547 -22.232440 -35.876341 -179.999988 -84.727991 -179.999973 37.862780 -7.511852 27.993303 2.400814 6.276983 0.884224 -19.724279 22.873051 58.721120 -179.999906 79.053732 179.999910 -2.553920 4.547404 -6.299786 -61.046103 2.986645 24.565142 59.210666 -8.479217 0.808483 -11.059687 2.892081 -20.630745 -0.416972 0.000001 -0.000003 -48.957815 5.353472 -24.288827 58.230676 3.734006 -1.273383 -22.130975 -5.639580 23.872587 -0.141208 -0.000003 0.000001
0.090186 0.984532 0.030608 14.470272 -17.719845 4.211763 12.464519 0.775297 -2.874412 9.930981 0.878027 -1.668444 9.902061 1.188920 -1.722836 -2.173599 -1.104099 -6.808876 -46.745998 -12.548906 2.769458 0.741782 2.368167 -9.610266 -21.493093 -22.980834 -35.701329 179.999959 -85.664372 179.999953 36.719737 -6.873938 27.668512 2.231603 5.514191 1.763442 -19.520861 24.063122 60.844715 179.999958 80.639445 -179.999946 -1.122100 4.091706 -6.336320 -60.666800 2.630172 24.908280 57.979554 -8.374497 0.668656 -10.562464 2.843193 -20.831163 -0.274124 0.000001 0.000007 -48.578137 4.348963 -23.741392 57.190231 3.334275 -1.283464 -21.878289 -5.605533 23.966603 -0.028569 0.000008 -0.000006
