HIERARCHY
ROOT Hips
{
  OFFSET 0 1.1673769999999999 0
  CHANNELS 6 Xposition Yposition Zposition Xrotation Yrotation Zrotation
  JOINT Spine
  {
    OFFSET 0.000003812944337411511 0.10717500000681812 -0.009311
    CHANNELS 3 Xrotation Yrotation Zrotation
    JOINT Spine1
    {
      OFFSET 0 0.1058532983696241 -0.004285186608692496
      CHANNELS 3 Xrotation Yrotation Zrotation
      JOINT Spine2
      {
        OFFSET -8.470329472543003e-22 0.10599345671141647 -0.007812688101110094
        CHANNELS 3 Xrotation Yrotation Zrotation
        JOINT Neck
        {
          OFFSET -8.470329472543003e-22 0.26240299999999994 -0.04488100000000002
          CHANNELS 3 Xrotation Yrotation Zrotation
          JOINT Head
          {
            OFFSET -4.235164736271502e-22 0.17466899999999996 0.05625600000000003
            CHANNELS 3 Xrotation Yrotation Zrotation
            End Site
            {
              OFFSET -4.235164736271502e-22 0.10756799999999966 0.021070000000000005
            }
          }
        }
        JOINT LeftShoulder
        {
          OFFSET 0.10574399999999999 0.23009199999999996 -0.07323000000000002
          CHANNELS 3 Xrotation Yrotation Zrotation
          JOINT LeftArm
          {
            OFFSET 0.14878212914559852 -0.04653266654569688 -0.030693304075147546
            CHANNELS 3 Xrotation Yrotation Zrotation
            JOINT LeftForeArm
            {
              OFFSET 0.24109000000000003 2.220446049250313e-16 -5.551115123125783e-17
              CHANNELS 3 Xrotation Yrotation Zrotation
              JOINT LeftHand
              {
                OFFSET 0.316792 0 -1.1102230246251565e-16
                CHANNELS 3 Xrotation Yrotation Zrotation
                End Site
                {
                  OFFSET 0.1995166749313234 -0.0432441138377333 0.06217329198086369
                }
              }
            }
          }
        }
        JOINT RightShoulder
        {
          OFFSET -0.10574399999999999 0.23009099999999982 -0.07323000000000002
          CHANNELS 3 Xrotation Yrotation Zrotation
          JOINT RightArm
          {
            OFFSET -0.14878040829228295 -0.04653159475972379 -0.030692917709113934
            CHANNELS 3 Xrotation Yrotation Zrotation
            JOINT RightForeArm
            {
              OFFSET -0.24109000000000003 -6.661338147750939e-16 -2.7755575615628914e-17
              CHANNELS 3 Xrotation Yrotation Zrotation
              JOINT RightHand
              {
                OFFSET -0.31679300000631333 -8.881784197001252e-16 -5.551115123125783e-17
                CHANNELS 3 Xrotation Yrotation Zrotation
                End Site
                {
                  OFFSET -0.1860088733733346 -0.01696332989209126 -0.06120760506959064
                }
              }
            }
          }
        }
      }
    }
  }
  JOINT LeftUpLeg
  {
    OFFSET 0.12297511767165623 -0.06742078536803264 -0.010003
    CHANNELS 3 Xrotation Yrotation Zrotation
    JOINT LeftLeg
    {
      OFFSET 0 -0.457033849483632 0.010304509991859542
      CHANNELS 3 Xrotation Yrotation Zrotation
      JOINT LeftFoot
      {
        OFFSET 0 -0.500280623664138 -0.036905110570505176
        CHANNELS 3 Xrotation Yrotation Zrotation
        JOINT LeftToeBase
        {
          OFFSET 0.025950805788189563 -0.14255151365608373 0.19507593811975638
          CHANNELS 3 Xrotation Yrotation Zrotation
          End Site
          {
            OFFSET 0.010732117804750613 -0.000035441498015504746 0.11362327680684622
          }
        }
      }
    }
  }
  JOINT RightUpLeg
  {
    OFFSET -0.12297488233495055 -0.0674172146317622 -0.010003
    CHANNELS 3 Xrotation Yrotation Zrotation
    JOINT RightLeg
    {
      OFFSET 0.00000159348816348992 -0.45703784846455486 0.01030460015485039
      CHANNELS 3 Xrotation Yrotation Zrotation
      JOINT RightFoot
      {
        OFFSET -0.0000015934881634621645 -0.5002806236608007 -0.03690511058134042
        CHANNELS 3 Xrotation Yrotation Zrotation
        JOINT RightToeBase
        {
          OFFSET -0.0259497668227143 -0.14255297441554501 0.19507500887383716
          CHANNELS 3 Xrotation Yrotation Zrotation
          End Site
          {
            OFFSET -0.010733201844058626 -0.000035030229497263656 0.11362417898958707
          }
        }
      }
    }
  }
}
MOTION
Frames: 19
Frame Time: 0.03333333333333333
-0.006497 1.030007 0.017715 14.661811 -29.079314 2.933505 0.443637 6.707506 2.476924 -2.029946 0.901971 -5.420917 -3.014274 -6.305350 3.551673 12.118093 6.829914 -4.433334 -0.737338 20.027397 8.229672 3.544254 4.756010 -11.623009 -52.656188 -33.314356 -50.642404 0.000002 -81.872031 0.000016 -66.283131 23.462306 41.886041 -14.733701 2.115968 -4.463085 -107.859469 41.020087 127.375547 -0.000006 28.757955 0.000011 -46.454371 -14.449738 -31.513560 -65.637835 9.952661 17.043791 60.800587 -9.103077 -4.028217 -9.015536 -1.178512 -18.712837 0.000007 0.000002 -0.000002 -33.760403 -12.817702 -7.729473 56.591783 5.632966 8.883315 -27.354120 -27.811638 -0.060462 -13.425990 0.000004 0.000012
-0.006497 1.036647 0.017715 14.983902 -27.273151 1.398643 0.575238 6.909071 3.078611 -1.986760 0.782298 -5.315938 -2.948078 -6.451266 3.650487 12.099376 6.805042 -3.967792 -1.772256 19.504526 8.756029 3.372940 4.338906 -11.084538 -52.479554 -32.955054 -48.711505 -0.000025 -82.123179 -0.000003 -67.662545 23.925337 40.954403 -14.937467 3.707315 -3.999622 -107.115360 41.511902 125.979931 -0.000006 29.709243 -0.000002 -47.072140 -14.952354 -33.847791 -65.509863 11.275940 12.437507 51.095910 -9.545163 -6.676317 -10.487998 -2.004617 -16.705762 0.000005 0.000001 0.000000 -34.430233 -15.917847 -5.328850 62.697347 4.372517 9.914370 -13.487398 -27.002371 7.914418 -27.326926 0.007594 -0.043258
-0.006497 1.034099 0.017715 15.313283 -27.615375 -0.110400 0.631814 7.717521 3.671211 -1.952381 1.187156 -5.213230 -2.893561 -6.077210 3.757523 12.236500 6.707376 -3.176340 -2.536584 19.261155 9.703748 3.199077 3.839949 -10.518283 -52.451262 -32.601194 -47.195164 0.000024 -82.347770 0.000038 -68.580506 24.490131 40.305393 -15.132260 5.610176 -3.175374 -104.819995 41.959674 123.496260 0.000011 31.546021 -0.000013 -46.939764 -15.849929 -36.003643 -65.922296 8.849676 8.172924 46.487371 -10.357279 -6.464469 -11.253910 -3.990136 -5.369970 0.000293 0.000003 0.000004 -37.215198 -18.282198 -5.930517 69.267613 3.814252 9.849016 5.475555 -15.266786 20.325139 -45.924028 4.187338 -6.007164
-0.006497 1.019886 0.017715 15.491457 -29.518308 -1.010859 0.476815 8.671595 4.190164 -1.923368 1.979483 -5.124488 -2.846830 -5.308720 3.863984 12.632854 6.546323 -2.490279 -2.962463 19.404543 10.208746 3.089981 3.901411 -10.152647 -52.638244 -32.898451 -46.570054 -0.000071 -81.308414 -0.000061 -69.091643 24.506534 38.391217 -15.277241 8.536941 -2.551965 -101.394905 42.412977 119.849998 -0.000001 33.141496 -0.000003 -46.393540 -16.637040 -38.463527 -65.388381 4.148589 4.559814 46.619632 -9.037117 -2.294019 -8.262250 -7.961201 5.684917 0.000278 0.000010 0.000001 -41.997333 -18.845881 -9.175921 78.380815 3.364486 9.896093 5.107437 -6.405078 21.102319 -31.656338 5.373176 -11.786960
-0.006497 0.993511 0.017715 15.691119 -31.881748 -1.393276 0.180492 9.639099 5.144740 -1.910096 2.712201 -4.912410 -2.805609 -4.589394 4.097487 12.803661 6.383169 -2.322846 -3.365794 19.685322 9.837476 2.970184 4.174646 -9.751209 -53.092844 -32.776298 -46.602243 -0.000003 -79.781102 0.000008 -69.687270 24.120011 36.354527 -15.334795 12.357925 -2.457511 -98.772400 42.951259 115.975592 -0.000005 33.379343 -0.000008 -46.145237 -17.333973 -40.287064 -67.419853 -3.087263 4.140139 54.290631 -9.464029 2.217105 -4.275765 -6.037491 1.927496 0.000032 -0.000007 -0.000001 -48.425182 -16.944897 -14.616414 84.706448 3.669491 9.936972 -1.506509 -6.293045 20.786374 -20.157661 2.020541 -9.521666
-0.006497 0.965927 0.017715 16.630565 -34.328891 -1.111924 -0.149012 10.929407 6.278465 -1.939733 3.224999 -4.709164 -2.817558 -4.079214 4.312112 12.389557 6.264721 -2.297482 -4.189294 19.930971 9.583542 2.743457 4.123144 -8.981035 -53.368614 -31.438055 -46.776569 -0.000093 -79.269019 -0.000092 -70.232397 23.701960 34.921478 -15.384224 15.733533 -2.436317 -96.750375 43.389982 112.703753 0.000001 33.827061 -0.000002 -45.593891 -18.305355 -41.833861 -69.202883 -8.579842 7.394964 63.422791 -9.678075 4.390127 -8.500242 -3.844993 -3.969750 -0.000006 -0.000016 0.000006 -54.801553 -13.445795 -19.753656 83.376892 3.847918 9.959078 -6.894613 -9.037837 20.248863 -15.992790 0.733005 -6.152993
-0.006497 0.945105 0.017715 18.193235 -35.655871 0.749240 -0.323554 11.527626 6.070562 -2.091502 3.347498 -4.726679 -2.979291 -3.954855 4.292482 11.766435 6.309508 -2.175651 -4.723098 20.392653 9.785083 2.555248 4.224119 -8.337155 -53.006097 -30.038879 -46.873952 -0.000045 -79.762561 -0.000066 -70.495476 23.475585 34.361084 -15.447357 18.201916 -2.610127 -94.063421 43.237193 109.944452 0.000002 35.442810 -0.000000 -44.841217 -19.309212 -43.204396 -69.414515 -10.269613 12.927639 69.013510 -9.793318 4.709132 -15.081209 -4.367928 -8.246033 0.016534 -0.000013 0.000001 -58.694635 -9.279144 -24.320155 73.813524 5.002225 9.965462 -10.481896 -15.068107 19.790769 -10.369325 -0.000014 0.000004
-0.006497 0.930916 0.017715 19.528301 -35.670051 2.979732 -0.379548 11.236147 5.488375 -2.238610 3.004289 -4.757259 -3.132015 -4.294802 4.253615 11.445711 6.528077 -2.492014 -4.747834 21.130569 9.302088 2.674074 4.522069 -8.734143 -52.329439 -29.450489 -46.501431 0.000057 -80.364056 0.000051 -71.060852 23.153685 34.634994 -15.364251 20.323183 -3.399492 -91.876263 43.321394 107.748377 -0.000004 36.734144 -0.000012 -44.964159 -20.074778 -43.915119 -67.596693 -10.976251 17.972604 70.829400 -9.844038 4.890270 -20.325111 -5.848715 -12.117998 -0.062635 0.000005 -0.000003 -58.973263 -5.077502 -28.634682 58.575824 6.383709 10.009049 -11.769770 -21.223262 15.281685 -11.209606 -0.000028 -0.000011
-0.006497 0.922840 0.017715 20.123452 -35.177711 4.712039 -0.320515 10.565767 4.988284 -2.269529 2.596332 -4.804379 -3.163572 -4.699624 4.200484 11.482107 6.738925 -2.997494 -4.675884 21.657863 8.550118 3.016090 4.360621 -9.870596 -51.695362 -29.405251 -45.490692 -0.000035 -80.902985 -0.000027 -72.115596 22.794812 35.427935 -15.216081 21.811837 -4.212063 -90.633461 44.183149 106.114992 0.000000 37.570233 0.000002 -45.938056 -20.888575 -44.304299 -63.893906 -11.128862 22.733910 69.996739 -9.800879 5.488278 -24.288502 -7.003453 -15.117662 -0.487044 -0.000011 0.000000 -55.692717 -0.255161 -34.292695 40.141722 8.726706 10.314209 -1.331323 -23.741135 19.646970 -11.244790 0.000018 0.000008
-0.006497 0.920696 0.017715 19.486581 -34.533193 5.526893 -0.170104 9.566727 4.302030 -2.238644 2.336804 -4.938579 -3.147234 -4.955227 4.063827 11.817079 6.840174 -2.998417 -4.098871 21.861199 8.386466 3.260390 3.893591 -10.697846 -50.872486 -29.618012 -44.633264 0.000017 -81.429506 0.000011 -73.109698 22.530307 36.499007 -15.260045 21.947053 -4.274633 -89.582973 44.930234 105.416994 -0.000020 38.436784 0.000013 -46.548517 -21.853682 -44.386277 -58.014760 -9.904663 27.923133 65.773217 -9.612526 6.560502 -26.416346 -8.647411 -19.201125 -1.529075 -0.000013 0.000007 -48.554690 -0.805428 -36.034606 22.708255 8.513146 4.909101 2.995198 -27.282429 26.202085 -11.773837 0.000014 0.000015
-0.006497 0.920492 0.017715 18.021324 -34.652187 4.511318 -0.237295 9.018053 5.111779 -2.207561 2.019127 -4.944988 -3.130740 -5.251323 4.052437 12.523154 6.904428 -3.127937 -2.904451 22.179231 7.755016 3.428897 3.890275 -11.279127 -50.211116 -29.632686 -44.648819 -0.000024 -82.003535 -0.000007 -73.775330 22.375175 37.843549 -15.358384 21.064451 -4.216764 -90.136787 45.034242 106.729846 -0.000016 37.971057 0.000007 -46.367112 -22.587207 -43.315409 -49.877009 -10.945867 32.357911 61.122712 -9.102838 8.697291 -26.131801 -7.796643 -22.429899 -6.626228 0.000002 -0.000005 -46.271838 -1.376518 -35.463668 21.499068 8.224333 3.296394 6.072916 -28.528336 28.168904 -12.483320 0.000003 -0.000001
-0.006497 0.920214 0.017715 16.662556 -35.511688 3.642164 -0.275753 8.681779 5.959331 -2.202222 1.772253 -4.914967 -3.139852 -5.470096 4.074402 13.064024 7.024136 -3.592407 -1.796946 22.973478 6.539704 3.577781 4.567142 -11.773820 -50.408093 -29.281467 -45.608970 -0.000030 -82.736529 -0.000036 -73.746642 22.797808 39.179167 -15.346388 19.889775 -4.459957 -92.423275 44.691463 109.342186 0.000004 36.534469 0.000002 -46.088659 -22.791450 -41.675610 -40.863439 -15.723698 34.755140 59.649459 -7.530067 10.249482 -19.400561 -3.767215 -21.081329 -15.302119 0.000002 0.000010 -49.707846 0.204795 -33.312164 33.930414 9.701931 4.863111 8.404197 -26.406910 27.655896 -12.191115 -0.000001 -0.000000
-0.006497 0.923214 0.017715 16.029046 -37.211520 3.437698 -0.262431 8.628558 6.084366 -2.286164 1.910619 -4.879865 -3.239691 -5.311429 4.100052 13.149744 7.100070 -3.970988 -0.699647 23.759467 6.007794 3.625232 5.226433 -11.911050 -51.105802 -28.365463 -47.035884 0.000081 -83.968214 0.000071 -73.033050 23.990735 40.536123 -15.307712 18.498043 -4.295332 -94.631055 44.234103 111.843833 0.000009 35.882056 -0.000006 -45.760958 -23.047135 -40.440059 -35.572687 -21.552989 35.652539 61.642038 -6.085773 10.449143 -1.569230 0.063491 -15.876065 -23.733563 0.812070 -7.988005 -52.682444 1.914410 -28.114218 45.695159 8.454443 4.426361 4.146331 -22.543034 24.847135 -7.818107 0.000004 0.000002
-0.006497 0.928740 0.017715 15.491199 -38.430298 2.851321 -0.185560 8.599339 6.230180 -2.312748 2.004676 -4.818240 -3.275138 -5.198492 4.151939 13.094683 7.110779 -4.212529 0.513520 24.028797 5.952591 3.557979 5.315883 -11.676621 -51.355344 -27.358989 -48.575293 0.000040 -85.366244 0.000048 -71.736041 24.866512 42.080022 -15.246996 16.594594 -3.861076 -95.701169 44.198658 113.653142 0.000016 36.478669 -0.000019 -45.460628 -23.226595 -39.263839 -35.294783 -24.385071 34.366342 65.184067 -8.014228 10.107800 14.804610 -0.599681 -9.974031 -23.831099 7.822041 -25.729660 -53.826624 2.636029 -21.678915 55.014349 6.980650 3.081982 -4.100578 -22.242833 21.406064 -3.289702 0.000023 0.000008
-0.006497 0.938900 0.017715 14.478847 -37.470342 2.414738 0.230969 7.866898 5.965924 -2.101873 1.548711 -4.850060 -3.060118 -5.634733 4.114648 12.971101 7.212369 -4.559621 0.958314 24.059358 5.369149 3.454552 5.088819 -11.322719 -51.295361 -26.952367 -50.352459 0.000153 -86.033012 0.000168 -69.699562 24.647851 43.421253 -15.135333 14.161521 -4.013461 -96.909222 44.786310 115.353690 -0.000002 36.823015 -0.000007 -45.792176 -22.266119 -37.345365 -41.255910 -25.013292 29.380188 73.163254 -10.595449 8.729691 13.331276 -1.822007 -8.432829 -16.950667 10.258449 -32.485657 -52.152569 0.759831 -18.302823 61.074889 7.421658 3.061347 -12.753029 -24.333134 16.704927 -3.194564 -0.000022 -0.000001
-0.006497 0.955730 0.017715 13.930602 -35.514416 2.676593 0.600513 7.165259 5.366237 -1.924971 1.113050 -4.907131 -2.875321 -6.060858 4.054527 12.659636 7.272633 -4.931985 0.671950 23.734995 4.999881 3.380085 4.842007 -11.060899 -51.519438 -27.260451 -52.035863 0.000025 -85.620895 0.000024 -67.758573 23.886702 43.942278 -15.055077 11.267249 -4.546907 -99.615672 45.160146 118.044640 -0.000001 35.547456 0.000004 -46.315173 -20.477535 -35.039700 -51.059485 -21.082891 24.154377 79.324875 -10.298707 5.445439 4.684691 -2.499343 -10.094403 -17.780343 5.738105 -19.017690 -48.713206 -2.653419 -16.861354 63.157066 8.516621 4.213025 -20.684896 -25.867133 10.754775 -3.469660 -0.000002 0.000007
-0.006497 0.995464 0.017715 14.306811 -32.320530 3.242606 0.575562 7.029542 3.679294 -1.977010 1.075984 -5.197224 -2.950738 -6.114079 3.768990 12.214041 7.056974 -4.732226 -0.026007 21.942895 6.660647 3.419179 4.820015 -11.186554 -52.203810 -30.253437 -52.025235 -0.000069 -83.535127 -0.000066 -66.567153 23.439431 42.890422 -14.906315 6.104488 -4.638895 -104.487817 43.308312 123.446243 0.000001 31.835095 0.000002 -46.408245 -17.177649 -32.816260 -61.942876 -3.869828 19.903552 73.160423 -9.789618 0.423998 -4.704264 -1.408532 -14.847751 -8.914097 0.411391 -2.240091 -40.702011 -8.445912 -12.199638 60.001419 8.235927 6.499899 -27.429037 -27.312606 2.992972 -7.311333 0.000005 0.000008
-0.006497 1.021556 0.017715 14.597010 -30.053335 3.151077 0.468929 6.870459 2.700841 -2.026742 1.003794 -5.398405 -3.014208 -6.199210 3.572979 12.111917 6.890309 -4.482923 -0.543208 20.577000 7.919124 3.498973 4.828458 -11.461499 -52.522354 -32.531209 -51.083507 -0.000014 -82.285367 -0.000000 -66.326412 23.459718 42.092811 -14.775310 3.084779 -4.493231 -106.984083 41.600633 126.433421 -0.000003 29.595277 0.000005 -46.399176 -15.155715 -31.895292 -65.471325 7.009365 18.184141 64.848114 -9.211121 -2.770438 -8.534759 -1.130293 -17.638679 -1.326359 -0.048340 1.142056 -34.982890 -11.765769 -8.591710 56.673045 6.534223 8.080934 -28.967131 -27.678707 -0.277072 -11.739333 0.000003 0.000006
-0.006497 1.030007 0.017715 14.661811 -29.079314 2.933505 0.443637 6.707506 2.476924 -2.029946 0.901971 -5.420917 -3.014274 -6.305350 3.551673 12.118093 6.829914 -4.433334 -0.737338 20.027397 8.229672 3.544254 4.756010 -11.623009 -52.656188 -33.314356 -50.642404 0.000002 -81.872031 0.000016 -66.283131 23.462306 41.886041 -14.733701 2.115968 -4.463085 -107.859469 41.020087 127.375547 -0.000006 28.757955 0.000011 -46.454371 -14.449738 -31.513560 -65.637835 9.952661 17.043791 60.800587 -9.103077 -4.028217 -9.015536 -1.178512 -18.712837 0.000007 0.000002 -0.000002 -33.760403 -12.817702 -7.729473 56.591783 5.632966 8.883315 -27.354120 -27.811638 -0.060462 -13.425990 0.000004 0.000012
