HIERARCHY
ROOT Hips
{
  OFFSET 4.3602899495453355e-8 1.1673772430419926 0.00903120994567871
  CHANNELS 6 Xposition Yposition Zposition Xrotation Yrotation Zrotation
  JOINT Spine
  {
    OFFSET 0.00000400409843159832 0.10717498984890383 -0.009311363000479054
    CHANNELS 3 Xrotation Yrotation Zrotation
    JOINT Spine1
    {
      OFFSET -1.157133440709887e-8 0.10585321386790758 -0.004285265132451881
      CHANNELS 3 Xrotation Yrotation Zrotation
      JOINT Spine2
      {
        OFFSET -1.2021792727953998e-8 0.10599313230062335 -0.007812673855060945
        CHANNELS 3 Xrotation Yrotation Zrotation
        JOINT Neck
        {
          OFFSET -3.2927685248284505e-8 0.26240295415719994 -0.044881304131893486
          CHANNELS 3 Xrotation Yrotation Zrotation
          JOINT Head
          {
            OFFSET -1.1268817613937174e-8 0.1746685200511402 0.056256497133401515
            CHANNELS 3 Xrotation Yrotation Zrotation
            End Site
            {
              OFFSET -8.617178878150887e-9 0.10756811731632654 0.02107021751552555
            }
          }
        }
        JOINT LeftShoulder
        {
          OFFSET 0.10574355691983202 0.2300922422130116 -0.07323001980788171
          CHANNELS 3 Xrotation Yrotation Zrotation
          JOINT LeftArm
          {
            OFFSET 0.14878172464754674 -0.04653430124026747 -0.03069340943884992
            CHANNELS 3 Xrotation Yrotation Zrotation
            JOINT LeftForeArm
            {
              OFFSET 0.2410901499999964 2.514874553050106e-8 -2.5644150081216566e-8
              CHANNELS 3 Xrotation Yrotation Zrotation
              JOINT LeftHand
              {
                OFFSET 0.3167439969976485 9.305862591624248e-8 0.0055278706856974474
                CHANNELS 3 Xrotation Yrotation Zrotation
                End Site
                {
                  OFFSET 0.06210611293049251 -0.1056924643799253 0.03949498917827464
                }
              }
            }
          }
        }
        JOINT RightShoulder
        {
          OFFSET -0.10574409307527087 0.23009141295444557 -0.07322999494236766
          CHANNELS 3 Xrotation Yrotation Zrotation
          JOINT RightArm
          {
            OFFSET -0.14878099894090208 -0.04653001551703495 -0.030692881610262193
            CHANNELS 3 Xrotation Yrotation Zrotation
            JOINT RightForeArm
            {
              OFFSET -0.24108999999999764 -2.5144341053717767e-8 2.9072947757557976e-8
              CHANNELS 3 Xrotation Yrotation Zrotation
              JOINT RightHand
              {
                OFFSET -0.3167448378500485 -3.304013818095086e-8 0.005523816194027642
                CHANNELS 3 Xrotation Yrotation Zrotation
                End Site
                {
                  OFFSET -0.06210627893580878 -0.10570000668807578 0.039495226662701347
                }
              }
            }
          }
        }
      }
    }
  }
  JOINT LeftUpLeg
  {
    OFFSET 0.12297482524469029 -0.06742086731113295 -0.010003017167751174
    CHANNELS 3 Xrotation Yrotation Zrotation
    JOINT LeftLeg
    {
      OFFSET 3.29102216173327e-8 -0.45703384336647745 0.010304781301190422
      CHANNELS 3 Xrotation Yrotation Zrotation
      JOINT LeftFoot
      {
        OFFSET 6.562466081661e-8 -0.5002806931369024 -0.03690416879508984
        CHANNELS 3 Xrotation Yrotation Zrotation
        JOINT LeftToeBase
        {
          OFFSET 0.02595079309341415 -0.14255124139316394 0.19507613876404925
          CHANNELS 3 Xrotation Yrotation Zrotation
          End Site
          {
            OFFSET 0.010732212189788037 -0.00003523758576667464 0.11362316400109373
          }
        }
      }
    }
  }
  JOINT RightUpLeg
  {
    OFFSET -0.12297503780805406 -0.0674172528256134 -0.01000298679994319
    CHANNELS 3 Xrotation Yrotation Zrotation
    JOINT RightLeg
    {
      OFFSET 0.0000015762103336008915 -0.45703794623816363 0.010304776602924667
      CHANNELS 3 Xrotation Yrotation Zrotation
      JOINT RightFoot
      {
        OFFSET -0.0000014796473382927555 -0.5002806877425285 -0.03690424189268969
        CHANNELS 3 Xrotation Yrotation Zrotation
        JOINT RightToeBase
        {
          OFFSET -0.02594992229596689 -0.1425528302873685 0.19507509351502048
          CHANNELS 3 Xrotation Yrotation Zrotation
          End Site
          {
            OFFSET -0.01073336011005574 -0.000035035181829541786 0.11362416403777789
          }
        }
      }
    }
  }
}
MOTION
Frames: 100
Frame Time: 0.03333333333333333
-0.001345 1.117885 0.001372 -16.911061 -39.013169 -9.265811 7.991438 -0.039480 -0.274908 16.413454 -0.125521 -0.745994 16.413512 -0.192918 -0.721092 0.367405 7.480962 0.837545 -6.982132 21.597269 11.882992 -37.571066 -4.822553 1.546508 -41.628496 -7.015330 -61.684876 0.000040 -63.995962 0.000022 -119.791948 2.323841 31.680486 -41.176284 -8.605684 -9.941650 -46.818989 58.243453 100.947863 -179.999928 82.556122 179.999920 -52.653342 -17.344188 -28.558953 -20.411593 43.640158 27.396047 22.790476 0.511234 -0.681447 2.033070 1.282317 -2.909428 -0.000028 0.000003 0.000006 4.355704 5.220308 -5.960536 30.814795 -0.308438 1.078307 -20.557855 -17.480079 4.479751 -0.020487 -0.000012 -0.000001
-0.001345 1.117933 0.001372 -16.888319 -39.011662 -9.230692 7.976261 -0.056949 -0.268756 16.391464 -0.164763 -0.729956 16.391639 -0.232122 -0.705128 0.389519 7.523638 0.856752 -6.939740 21.730477 11.826338 -37.455371 -5.273693 3.037176 -41.176113 -8.376058 -62.253076 0.000026 -58.595429 0.000014 -122.316266 2.956597 26.334078 -36.935123 -8.062819 -7.598162 -48.154047 57.830200 99.636443 -179.999858 85.891242 179.999853 -49.112705 -17.453187 -26.128810 -20.356386 43.641772 27.353498 22.757819 0.512903 -0.676166 2.033728 1.288317 -2.943083 -0.004530 -0.000004 0.000005 4.382929 5.210122 -5.977738 30.794711 -0.319877 1.083285 -20.577120 -17.465394 4.469033 0.001443 -0.000002 -0.000001
-0.001345 1.117976 0.001372 -16.848619 -38.992034 -9.157749 7.961471 -0.076876 -0.249252 16.370850 -0.206174 -0.688024 16.371264 -0.274225 -0.663443 0.357934 7.593841 0.828831 -6.988734 21.909718 11.755490 -37.135388 -6.407483 5.439874 -40.331573 -7.828730 -63.185918 0.000012 -55.581801 0.000008 -124.064297 3.215394 22.367530 -32.831776 -7.210637 -5.624649 -49.824581 57.041524 98.765590 -179.998279 89.335509 179.998274 -45.695475 -17.217601 -23.709907 -20.257947 43.619623 27.226861 22.699411 0.535896 -0.650501 2.052208 1.300573 -2.983038 -0.026426 -0.000004 -0.000000 4.396376 5.191428 -6.016752 30.787219 -0.324074 1.088382 -20.608611 -17.473885 4.457568 -0.000750 -0.000002 0.000001
-0.001345 1.117993 0.001372 -16.788879 -38.966164 -9.028292 7.951222 -0.093739 -0.213547 16.358371 -0.238588 -0.625579 16.358963 -0.307704 -0.601471 0.204862 7.680941 0.718895 -7.078570 22.018353 11.609345 -37.412446 -5.866334 5.730216 -38.578766 -9.128871 -63.808687 0.000015 -56.068227 0.000005 -124.706457 2.025654 20.587188 -29.067156 -6.126776 -4.016165 -49.475408 56.042751 96.578253 -0.000577 88.908515 0.000573 -42.404168 -16.619542 -21.280265 -20.081166 43.565168 26.972614 22.634028 0.587140 -0.607242 2.062449 1.343992 -3.032407 -0.051612 -0.000002 -0.000000 4.389716 5.159388 -6.108912 30.808955 -0.294657 1.083813 -20.658069 -17.512646 4.454033 -0.019395 0.000005 -0.000001
-0.001345 1.118000 0.001372 -16.694129 -38.893796 -8.820407 7.943206 -0.095814 -0.161666 16.351959 -0.246983 -0.558351 16.353157 -0.316082 -0.533354 -0.124123 7.720630 0.539690 -7.165864 21.778432 11.298349 -37.973240 -4.585772 5.073156 -35.420326 -10.862661 -64.349881 0.000044 -60.590132 0.000031 -123.969338 -1.012504 20.619301 -25.532709 -5.090216 -2.338995 -45.211592 55.155595 91.202657 -179.997127 89.783067 179.997113 -39.468279 -15.510740 -18.603447 -19.835618 43.489765 26.589666 22.549482 0.659723 -0.574202 2.073111 1.374018 -3.055504 -0.049850 0.000004 0.000001 4.363747 5.102496 -6.263533 30.855395 -0.238556 1.076217 -20.723043 -17.603698 4.459492 -0.027460 0.000028 -0.000003
-0.001345 1.117952 0.001372 -16.530816 -38.624048 -8.503425 7.928552 -0.066633 -0.095164 16.332585 -0.196924 -0.492767 16.332731 -0.255455 -0.474552 -0.573061 7.641480 0.308376 -7.332025 20.868882 10.771611 -38.594955 -3.321296 4.219758 -32.121774 -13.150300 -64.906632 0.000054 -65.234828 0.000042 -121.956596 -4.384208 20.884928 -22.523394 -4.432766 -0.221629 -39.182402 54.200983 84.338323 179.999907 87.403083 -179.999928 -37.272611 -14.001868 -15.791368 -19.613623 43.387471 26.124025 22.458752 0.729224 -0.575602 2.104889 1.250914 -2.985139 -0.024405 0.000005 -0.000004 4.335354 4.999944 -6.451488 30.920720 -0.192808 1.098681 -20.812777 -17.837453 4.449536 -0.021285 -0.000013 0.000010
-0.001345 1.117711 0.001372 -16.274414 -37.949612 -8.048521 7.904568 -0.010923 0.002248 16.289201 -0.082249 -0.385007 16.294093 -0.150083 -0.340621 -0.972674 7.468163 -0.062572 -7.815607 19.181138 10.194282 -39.213167 -2.205499 3.193396 -29.126760 -15.121932 -65.329576 0.000030 -68.176288 0.000019 -114.387148 -6.644052 21.474069 -19.809151 -3.973674 2.359586 -32.365006 52.794744 76.587096 179.999928 84.709896 -179.999947 -35.782823 -12.331535 -13.197033 -19.517844 43.203670 25.600405 22.410286 0.786191 -0.594622 2.175362 0.814127 -2.772007 -0.003433 -0.000006 0.000001 4.330547 4.833155 -6.618103 31.028993 -0.181899 1.186044 -20.966570 -18.375380 4.376796 -0.028885 -0.000011 0.000004
-0.001345 1.117224 0.001372 -15.960609 -36.823786 -7.477722 7.879363 0.034088 0.168372 16.240913 0.022684 -0.150695 16.250830 -0.061510 -0.096453 -1.217674 7.319406 -0.706679 -8.284917 17.267260 9.195751 -39.759454 -1.249001 2.131743 -25.893921 -15.436145 -65.356060 0.000074 -70.720737 0.000067 -98.672727 -8.350623 22.613818 -17.097999 -3.306470 4.925389 -25.143683 50.668569 68.136221 -179.999941 81.338515 179.999950 -35.015587 -10.225235 -11.137369 -19.515464 42.892679 24.979743 22.415780 0.867269 -0.589952 2.289344 0.039758 -2.440461 -0.000018 -0.000001 -0.000002 4.385172 4.607293 -6.734551 31.186200 -0.181055 1.330729 -21.208159 -19.295535 4.217588 -0.062206 0.000004 0.000003
-0.001345 1.116702 0.001372 -15.680891 -35.554441 -6.890819 7.852307 0.053375 0.403809 16.192959 0.065101 0.212889 16.206805 -0.008887 0.235798 -1.392688 7.254617 -1.534317 -8.189774 15.584271 7.983931 -40.275402 -0.275503 0.973730 -22.118904 -14.816487 -65.036097 0.000037 -73.118464 0.000039 -76.488812 -12.001531 22.767895 -15.004567 -2.704945 7.106580 -19.599527 48.618155 61.405151 -179.999998 78.351671 179.999960 -34.966156 -8.015946 -9.789474 -19.431308 42.525281 24.256078 22.415686 0.994655 -0.571677 2.411457 -0.834265 -2.090720 -0.000055 0.000002 -0.000003 4.522850 4.352311 -6.846160 31.325302 -0.138854 1.467894 -21.486595 -20.378020 4.030271 -0.095809 0.000005 -0.000009
-0.001345 1.116577 0.001372 -15.499613 -34.688894 -6.404576 7.798258 0.089425 0.661670 16.103573 0.115370 0.618586 16.162798 0.019980 0.581623 -1.657240 7.259134 -2.301558 -7.294934 14.116217 6.597404 -40.659566 0.135750 0.630738 -17.373452 -13.623683 -65.731357 0.000070 -75.375016 0.000054 -52.389419 -19.236606 23.391696 -14.007399 -2.636369 9.027943 -16.583814 47.475608 57.608518 -179.999995 76.513687 179.999990 -35.519701 -6.455422 -8.602296 -19.093802 42.299067 23.532469 22.307165 1.101566 -0.625090 2.476174 -1.396149 -1.837240 -0.000145 0.000001 -0.000002 4.725401 4.119902 -7.050369 31.322851 -0.050220 1.509179 -21.673967 -21.147373 3.951839 -0.105258 -0.000032 -0.000005
-0.001345 1.116946 0.001372 -15.395274 -34.572386 -6.051797 7.710614 0.187482 0.900681 15.957890 0.270682 1.008994 16.117466 0.047633 0.895434 -2.092497 7.329730 -2.935783 -5.636265 12.730890 5.029779 -40.836580 0.342810 1.136772 -13.303612 -13.941543 -68.637922 0.000037 -74.509608 0.000028 -34.272768 -26.905087 25.950422 -14.509753 -3.489237 10.451478 -16.929764 47.855244 57.944989 -179.999961 76.634387 179.999957 -36.649060 -6.030160 -7.181342 -18.506272 42.331647 22.921404 22.122243 1.102211 -0.803198 2.390535 -1.367974 -1.746739 -0.026922 0.000001 -0.000001 4.916732 3.958332 -7.420257 31.163271 0.034799 1.409275 -21.706971 -21.268022 4.096010 -0.093430 0.000007 0.000005
-0.001345 1.117170 0.001372 -15.297079 -34.985859 -5.747017 7.635033 0.326672 1.096796 15.819421 0.503581 1.360826 16.070458 0.081745 1.181578 -2.652960 7.431023 -3.503954 -3.656904 11.270757 3.364023 -40.898368 1.851897 0.769627 -12.351998 -15.915211 -71.522657 0.000048 -72.395032 0.000038 -29.635656 -30.557461 25.627739 -16.014193 -4.569251 10.827705 -19.045591 48.881767 60.615126 179.999945 77.733977 -179.999956 -38.449478 -5.769889 -6.134710 -17.892852 42.486464 22.441005 22.132985 1.030312 -1.056658 2.061722 -0.910315 -1.781915 -0.098044 0.000016 -0.000006 4.999970 3.859069 -7.941169 31.059372 0.108532 1.214531 -21.724911 -20.924852 4.420809 -0.080333 0.000009 0.000007
-0.001345 1.116966 0.001372 -15.165370 -35.284826 -5.363885 7.574470 0.486784 1.228403 15.724400 0.805464 1.590178 16.022834 0.118831 1.454546 -3.199165 7.456577 -3.961026 -1.772537 9.778608 1.701575 -40.867433 3.802058 -0.217559 -12.357338 -16.091845 -71.795610 0.000060 -72.695466 0.000056 -35.855282 -26.177243 16.423717 -17.710942 -5.282948 9.976881 -20.644283 49.744241 62.988252 -179.999962 78.407772 179.999944 -40.757717 -4.388604 -6.306391 -17.355043 42.574700 21.933895 22.311242 1.017766 -1.319111 1.655161 -0.580132 -1.778736 -0.147919 0.000007 0.000001 5.035150 3.771803 -8.486054 31.098281 0.187858 1.018772 -21.840099 -20.716565 4.743710 -0.076863 0.000022 -0.000002
-0.001345 1.116515 0.001372 -15.038800 -34.949159 -4.874118 7.543864 0.603768 1.306023 15.698812 1.044353 1.677910 15.975414 0.156847 1.714684 -3.606424 7.379554 -4.216253 -0.084738 8.538280 0.109730 -40.867381 4.735252 -0.919190 -13.586323 -17.273513 -70.306455 0.000082 -72.448607 0.000073 -42.942696 -19.451986 8.706119 -19.531456 -5.993791 8.448857 -22.154953 51.098263 65.749211 -179.999974 79.134977 179.999941 -42.679699 -2.001644 -7.674497 -16.872058 42.500192 21.288636 22.457125 1.112287 -1.525551 1.402467 -0.802884 -1.626206 -0.148551 -0.000002 -0.000001 5.202111 3.644072 -8.890393 31.198867 0.248657 0.882757 -22.061645 -21.095936 4.908618 -0.064655 -0.000002 -0.000002
-0.001345 1.116028 0.001372 -14.988471 -34.018018 -4.385066 7.568054 0.605560 1.390040 15.748090 1.059190 1.757405 15.927682 0.194348 1.958026 -3.834235 7.379764 -4.397622 1.525674 7.909900 -1.406355 -40.993650 4.251450 -0.866798 -16.204298 -17.382199 -68.463479 0.000072 -71.664065 0.000055 -49.854323 -10.513382 3.355371 -21.321593 -6.865246 7.105215 -24.203699 52.950999 69.312083 179.999976 80.187954 -179.999995 -43.739792 0.442781 -9.436707 -16.425334 42.250377 20.547398 22.500480 1.268139 -1.582874 1.357341 -1.475766 -1.403661 -0.111516 -0.000006 -0.000005 5.569704 3.439215 -9.089179 31.269272 0.281629 0.827006 -22.341661 -21.968457 4.882898 -0.038459 -0.000003 0.000005
-0.001345 1.115811 0.001372 -15.019954 -33.019674 -4.022826 7.615039 0.488407 1.534617 15.808208 0.839646 1.963898 15.878929 0.223932 2.190349 -3.923254 7.631595 -4.700230 3.163164 8.132020 -2.962573 -41.175390 3.092341 -0.184577 -19.908092 -15.429177 -67.004360 -0.000006 -70.306266 0.000001 -55.753207 0.741675 -0.318074 -22.974118 -7.710110 6.399775 -26.742846 54.789510 73.211974 179.999963 81.479279 -179.999973 -44.271010 2.110858 -10.803517 -15.978968 41.933156 19.833726 22.399256 1.446631 -1.489545 1.455278 -2.162662 -1.260623 -0.059626 0.000010 -0.000005 6.014057 3.159872 -9.173523 31.230008 0.331891 0.851221 -22.575295 -22.816458 4.741678 -0.036641 0.000015 0.000003
-0.001345 1.115897 0.001372 -15.072240 -32.495772 -3.823854 7.643409 0.329549 1.712427 15.817948 0.538950 2.259895 15.831393 0.241986 2.416428 -3.978159 8.070319 -5.084261 4.856098 9.201070 -4.546254 -41.278223 2.266197 0.723133 -24.086067 -12.229087 -65.923550 0.000050 -68.086258 0.000035 -59.569539 12.838484 -3.529279 -24.491292 -8.423479 6.174982 -29.310941 56.294417 76.923954 -179.999784 82.769824 179.999760 -44.743371 2.897144 -11.431001 -15.559192 41.706218 19.300916 22.220259 1.606193 -1.360527 1.555570 -2.485940 -1.269743 -0.004125 0.000011 -0.000002 6.323605 2.876868 -9.290052 31.126298 0.445776 0.912013 -22.706310 -23.193499 4.609570 -0.074302 -0.000004 -0.000004
-0.001345 1.116130 0.001372 -15.110936 -32.557429 -3.733928 7.644855 0.242644 1.846481 15.781574 0.374555 2.494227 15.790101 0.272792 2.607754 -4.084047 8.489448 -5.370792 6.609478 10.871516 -6.138242 -41.363284 1.666713 1.597485 -27.502037 -8.593270 -64.840481 0.000041 -65.586872 0.000035 -61.120897 24.015637 -7.414378 -25.960796 -9.089076 5.928816 -31.486797 57.421367 80.101533 -179.999995 83.790081 179.999979 -45.439079 3.264045 -11.547848 -15.165587 41.646980 18.968885 22.035461 1.703201 -1.296081 1.582235 -2.381332 -1.395427 -0.000076 -0.000004 -0.000002 6.431646 2.688533 -9.483180 31.047697 0.579724 0.929399 -22.749866 -23.077571 4.578134 -0.111127 -0.000018 -0.000004
-0.001345 1.116387 0.001372 -15.160280 -32.851001 -3.661439 7.634818 0.280581 1.899281 15.746372 0.442739 2.579929 15.754669 0.363117 2.694967 -4.239327 8.761040 -5.473714 8.401236 12.783858 -7.706609 -41.440537 1.255116 2.215219 -29.424643 -5.425205 -63.975396 0.000029 -63.264639 0.000024 -60.776758 32.707240 -12.938087 -27.442692 -9.845126 5.349339 -33.339176 58.210838 82.828325 -179.999848 84.452577 179.999844 -46.299502 3.555802 -11.602521 -14.724515 41.680912 18.682426 21.828026 1.769812 -1.295227 1.587943 -2.120813 -1.543268 -0.000047 0.000010 -0.000002 6.471840 2.615608 -9.685107 31.015899 0.661161 0.862458 -22.762831 -22.822868 4.631009 -0.107886 -0.000019 0.000002
-0.001345 1.116377 0.001372 -15.317711 -33.001581 -3.582392 7.608127 0.386844 1.860606 15.713379 0.636162 2.495706 15.713751 0.529396 2.618952 -4.388274 8.923301 -5.444654 10.171050 14.647492 -9.198916 -41.433011 0.979853 2.442655 -30.012350 -3.284000 -63.164751 0.000035 -61.232857 0.000027 -60.735798 38.388017 -17.554097 -28.926544 -10.741032 4.473882 -35.018756 58.666303 85.268839 179.999958 84.996760 -179.999982 -47.283911 3.919344 -11.655672 -14.187644 41.647947 18.366886 21.661320 1.953240 -1.299835 1.606877 -2.057768 -1.692853 -0.000043 0.000001 0.000001 6.626589 2.583657 -9.817343 31.084076 0.774880 0.749092 -22.887993 -22.814255 4.615817 -0.073143 0.000014 0.000000
-0.001345 1.116036 0.001372 -15.586304 -33.156365 -3.525886 7.552580 0.498173 1.732326 15.648185 0.833913 2.252133 15.656764 0.736882 2.385528 -4.464301 9.096265 -5.388885 11.847087 16.346058 -10.553229 -41.394946 0.648604 2.542636 -28.569463 -1.066401 -62.518559 0.000050 -60.457371 0.000031 -62.455050 41.455668 -19.108485 -30.349117 -11.714467 3.560449 -36.662973 59.059142 87.526058 -179.999820 85.628841 179.999806 -48.471772 4.368477 -11.553065 -13.552703 41.511407 18.053654 21.581156 2.507631 -1.282321 1.601175 -2.280292 -1.927806 0.000001 -0.000009 0.000003 6.840501 2.554684 -9.942454 31.283356 1.212297 0.654574 -23.194462 -23.093433 4.392031 -0.048712 -0.000016 -0.000004
-0.001345 1.115552 0.001372 -15.892483 -33.336323 -3.466155 7.485996 0.612522 1.558589 15.573349 1.033858 1.925294 15.585313 0.946968 2.048631 -4.395377 9.330427 -5.368962 13.368612 17.890661 -11.704639 -41.322216 0.342066 2.666354 -24.358582 2.015105 -62.005648 0.000034 -61.009688 0.000014 -68.517129 42.644623 -15.548836 -31.597921 -12.791163 2.977649 -38.175596 59.276081 89.647745 -179.999894 86.248921 179.999886 -49.494271 4.457104 -11.030895 -12.892508 41.411211 17.764303 21.517448 3.121621 -1.273667 1.593568 -2.586380 -2.180427 -0.000064 -0.000000 0.000004 7.053298 2.499380 -10.118127 31.549521 1.741377 0.611365 -23.576036 -23.377590 4.089098 -0.059161 -0.000005 -0.000006
-0.001345 1.114956 0.001372 -16.231388 -33.529819 -3.408111 7.410881 0.729124 1.350944 15.491550 1.235476 1.537028 15.506868 1.150191 1.655191 -4.150890 9.558342 -5.353371 14.668141 19.293590 -12.580126 -41.197222 0.134110 2.658148 -18.334388 5.546744 -61.402340 0.000008 -61.015556 -0.000001 -78.209719 42.217323 -7.855390 -32.597359 -14.067000 2.887322 -39.563193 59.261564 91.762553 179.999985 86.876018 179.999998 -50.191787 3.999119 -10.062060 -12.261935 41.468740 17.576621 21.458834 3.451444 -1.320946 1.587323 -2.775581 -2.396247 -0.000026 -0.000003 -0.000001 7.267480 2.388516 -10.354622 31.861643 2.088540 0.618917 -23.964943 -23.396132 3.843880 -0.081850 -0.000009 0.000004
-0.001345 1.114280 0.001372 -16.598129 -33.725128 -3.356605 7.329606 0.847047 1.121022 15.405154 1.438185 1.109199 15.426040 1.353136 1.227445 -3.828388 9.698137 -5.263236 15.652157 20.485513 -13.094177 -40.998489 0.161863 2.201628 -12.502243 8.480003 -60.635767 0.000024 -58.780054 0.000010 -87.047948 40.101724 0.294954 -33.428325 -15.483227 2.945198 -40.951611 58.993427 94.032714 179.999953 87.545915 -179.999970 -50.670335 3.271347 -8.925097 -11.656910 41.659714 17.484643 21.400280 3.476587 -1.434328 1.583965 -2.813797 -2.567110 -0.000073 0.000009 -0.000004 7.489164 2.216373 -10.633317 32.198415 2.231468 0.652550 -24.337791 -23.148031 3.684950 -0.090300 -0.000002 0.000003
-0.001345 1.113555 0.001372 -16.987727 -33.910451 -3.316269 7.244486 0.965485 0.880420 15.316136 1.641423 0.663663 15.344145 1.559125 0.779485 -3.580117 9.761932 -5.058550 16.236237 21.305513 -13.162398 -40.690708 0.734381 1.164132 -8.361979 10.146575 -59.641816 0.000019 -54.120099 0.000015 -91.351422 37.359105 5.920499 -34.286525 -16.744138 2.580381 -42.313072 58.431925 96.372452 179.999573 88.245967 -179.999588 -51.096226 2.796575 -7.994382 -11.048508 41.885312 17.433596 21.340880 3.307663 -1.588619 1.582855 -2.715291 -2.716498 -0.000058 -0.000002 -0.000004 7.736279 2.046772 -10.886833 32.542019 2.228793 0.648276 -24.691613 -22.799758 3.600370 -0.092575 0.000002 0.000002
-0.001345 1.112813 0.001372 -17.395168 -34.073932 -3.291553 7.157705 1.083652 0.640735 15.226115 1.844602 0.222276 15.261944 1.766061 0.331649 -3.442196 9.832328 -4.798246 16.430868 21.550192 -12.799429 -40.210710 1.839338 0.066898 -4.432737 8.074597 -57.835238 0.000030 -48.663306 0.000026 -92.754195 33.619998 7.784232 -35.293368 -17.456672 1.560121 -43.263541 57.443397 98.375693 -179.999652 88.873363 179.999639 -51.286529 2.772077 -7.194804 -10.437411 42.112164 17.388559 21.278133 2.952312 -1.735523 1.582706 -2.455512 -2.866650 -0.000051 -0.000004 -0.000003 8.036250 1.988632 -11.039061 32.875929 2.031454 0.550856 -25.010939 -22.464117 3.613918 -0.098057 -0.000034 -0.000002
-0.001345 1.112111 0.001372 -17.815245 -34.203582 -3.286452 7.071312 1.200492 0.413417 15.136312 2.047179 -0.193091 15.179431 1.972694 -0.075954 -3.410458 9.928289 -4.625046 16.331617 21.121578 -12.030987 -39.671112 2.789209 -0.843236 3.706130 3.288869 -56.008378 0.000025 -50.192666 0.000011 -90.574154 27.508836 8.587293 -36.725597 -17.501235 -0.412170 -43.547394 55.727487 100.312830 179.999983 89.424757 -179.999994 -50.870191 3.035126 -5.891840 -9.822729 42.314320 17.327851 21.200494 2.875262 -1.834103 1.603737 -2.487250 -3.030074 -0.001061 0.000003 -0.000003 8.382913 1.841528 -11.147872 33.118235 2.020244 0.400151 -25.317963 -22.284474 3.564250 -0.497051 0.000041 0.000002
-0.001345 1.111436 0.001372 -18.242650 -34.287033 -3.306196 6.987300 1.315024 0.211417 15.047560 2.248612 -0.560546 15.096408 2.176465 -0.438646 -3.603675 9.965692 -4.486012 16.055391 20.189189 -10.866768 -39.151218 3.660738 -1.657895 13.003825 -3.301674 -52.641196 0.000006 -54.244536 -0.000001 -88.217647 21.657822 12.000122 -37.905047 -17.462824 -2.181946 -43.634497 54.013873 101.850717 179.998088 89.951708 -179.998114 -50.189874 3.112165 -3.870712 -9.157319 42.307516 17.243361 21.176304 3.572717 -1.977283 1.607316 -3.135021 -3.189872 -0.041607 -0.000004 -0.000004 8.716079 1.496919 -11.257019 33.342110 2.736246 0.233999 -25.741786 -22.613605 3.191387 -1.200694 0.000010 0.000003
-0.001345 1.110808 0.001372 -18.671869 -34.312735 -3.353342 6.907519 1.426683 0.045192 14.960348 2.448372 -0.858192 15.016089 2.376520 -0.755450 -3.941376 9.898276 -4.140673 15.710044 19.130036 -9.396358 -38.665364 4.417753 -2.289046 22.936316 -9.647805 -47.653327 0.000019 -60.935540 0.000016 -85.761365 18.415445 17.230387 -38.468062 -17.800585 -3.220910 -44.215328 53.099485 102.795942 -0.000525 89.452674 0.000521 -50.127131 3.144567 -1.993189 -8.425459 42.032075 17.102417 21.167678 3.889051 -2.179030 1.586751 -3.187769 -3.360503 -0.058286 0.000006 0.000001 9.041252 0.970108 -11.288747 33.582667 3.110199 -0.154480 -26.052726 -22.598648 3.117352 -1.774024 0.000004 0.000005
-0.001345 1.110299 0.001372 -19.097179 -34.268606 -3.430748 6.833831 1.534574 -0.074122 14.874840 2.646026 -1.064113 14.940945 2.574531 -0.998113 -3.974948 9.799676 -3.806697 15.369485 18.207246 -7.850874 -38.230471 5.026621 -2.646549 32.139128 -13.850982 -42.230745 0.000030 -68.824042 0.000015 -82.373613 19.050067 20.265604 -38.592433 -18.131494 -3.590504 -44.921948 53.160424 102.550301 -0.001511 88.941707 0.001484 -51.090877 3.589482 -1.486884 -7.774837 41.810491 16.939146 21.130459 3.107703 -2.262141 1.551507 -2.231878 -3.538276 -0.054476 -0.000003 0.000002 9.425253 0.422841 -11.317869 33.706160 2.428719 -0.521280 -26.110097 -21.671077 3.576145 -1.902531 0.000004 0.000002
-0.001345 1.109935 0.001372 -19.512459 -34.141927 -3.542786 6.767843 1.637407 -0.133491 14.790908 2.841077 -1.156366 14.868148 2.775336 -1.095785 -3.628418 9.711483 -3.783148 15.033500 17.353048 -6.468333 -37.865202 5.454956 -2.638943 39.423930 -15.298756 -38.081563 0.000012 -77.801467 0.000000 -77.341928 22.830530 18.254025 -38.562186 -18.227121 -3.553046 -45.134475 53.196625 101.760923 -0.000632 88.557076 0.000611 -52.008123 4.018868 -2.005963 -7.334552 41.915772 16.898676 21.087397 2.115955 -2.163060 1.526861 -1.466674 -3.699809 -0.010696 0.000005 -0.000002 9.914568 0.051481 -11.409022 33.681936 1.626857 -0.557093 -26.142760 -20.754450 3.940864 -1.687561 0.000002 -0.000002
-0.001345 1.109739 0.001372 -19.911446 -33.920668 -3.691969 6.711232 1.734357 -0.121599 14.708204 3.033107 -1.113008 14.777846 2.975745 -0.930593 -3.165519 9.597540 -3.993474 14.648497 16.331581 -5.345596 -37.591701 5.684921 -2.203505 45.181738 -14.167250 -35.604721 0.000272 -88.198014 0.000263 -68.628448 29.836892 8.241891 -38.537819 -18.147147 -3.505021 -45.102670 52.966681 101.086421 -0.000114 88.166519 0.000092 -52.559692 4.374740 -2.887436 -7.018328 42.103449 16.975069 21.094241 1.754715 -2.035800 1.491308 -1.516557 -3.810452 -0.000081 0.000006 -0.000004 10.494111 -0.208078 -11.475311 33.541099 1.323083 -0.412140 -26.234803 -20.411860 3.972850 -1.488463 0.000002 -0.000004
-0.001345 1.109974 0.001372 -20.288527 -33.411180 -3.960551 6.675594 1.814713 0.085317 14.619624 3.216797 -0.694333 14.664988 3.154523 -0.540517 -2.688980 9.473613 -4.364625 14.181003 15.048090 -4.478357 -37.387207 5.304171 -0.455144 49.764604 -12.191199 -36.290967 179.999900 -80.678196 179.999891 -48.333433 27.453726 -14.287315 -38.522844 -17.884784 -3.456463 -44.510596 52.337891 100.382320 -0.000072 87.874188 0.000066 -52.467533 4.334263 -3.629651 -6.931850 42.213454 17.317128 21.200042 1.874963 -2.007102 1.419959 -2.287721 -3.750820 -0.116576 0.000008 -0.000004 11.313508 -0.392309 -11.299371 33.069493 1.235173 -0.226879 -26.210836 -20.622084 3.863015 -1.314193 0.000003 0.000000
-0.001345 1.110470 0.001372 -20.627034 -32.448341 -4.043680 6.641226 1.874838 0.418576 14.489682 3.360788 -0.058690 14.539231 3.283602 -0.001744 -2.282521 9.370116 -4.843107 13.617295 13.606858 -3.833549 -37.359536 4.601614 1.748390 54.323252 -11.185374 -36.788984 179.999942 -70.873427 179.999930 -29.044290 22.174932 -25.599664 -38.514462 -17.491147 -3.409897 -42.960139 51.374816 99.457420 -0.000617 87.831052 0.000615 -51.575673 3.949666 -4.168899 -6.713898 42.222975 17.425377 21.167280 1.873925 -2.047801 1.444168 -3.240517 -3.503468 -0.191331 -0.000007 -0.000000 12.352228 -0.604385 -11.033501 32.425178 0.960706 -0.119091 -26.119781 -21.190831 3.819052 -1.160622 0.000022 0.000009
-0.001345 1.110525 0.001372 -20.908346 -31.531463 -3.805887 6.605771 1.911290 0.692150 14.371436 3.442418 0.430264 14.426787 3.345187 0.507632 -2.104613 9.294006 -5.330017 12.835331 12.163766 -3.158551 -37.387429 3.480304 3.335792 58.040256 -9.333910 -36.667829 179.999969 -62.930004 179.999947 -15.605626 20.645204 -28.292180 -38.487559 -17.229639 -3.332857 -41.785716 50.906929 98.629337 -0.000153 87.743483 0.000130 -51.022153 3.919040 -4.762591 -6.171876 42.112636 16.943747 21.063889 1.580159 -2.040598 1.491794 -3.653384 -3.266192 -0.000033 0.000003 -0.000000 13.133772 -0.829720 -11.040998 32.143295 0.767448 -0.126038 -26.168978 -21.848290 3.833202 -1.025432 0.000015 -0.000000
-0.001345 1.109941 0.001372 -21.084584 -30.954638 -3.394125 6.589537 1.885344 0.881757 14.310335 3.388083 0.737566 14.342587 3.342935 0.857059 -2.264737 9.198252 -5.657422 11.571767 10.841147 -2.326491 -37.408981 2.250438 3.849425 58.858442 -6.039055 -36.094962 179.999972 -58.956646 179.999962 -10.566679 18.554944 -29.237374 -38.401289 -17.396447 -3.144859 -41.432560 50.673905 98.714412 -0.000339 87.540108 0.000337 -50.595676 3.905894 -4.786952 -5.590682 41.905824 16.125542 21.120834 0.944804 -1.970467 1.416125 -3.260548 -3.104245 -0.000084 -0.000010 0.000022 13.421741 -1.086786 -11.376784 32.330953 0.847101 -0.208361 -26.360587 -22.378069 3.895327 -0.919444 0.000007 0.000001
-0.001345 1.109300 0.001372 -21.134948 -30.839662 -2.995091 6.567789 1.843928 1.018619 14.266921 3.306272 0.908169 14.266364 3.289875 1.058610 -2.625431 9.036810 -5.777336 9.575121 9.705686 -1.554267 -37.430806 1.437745 3.661272 58.736814 -3.132513 -36.134287 179.999982 -57.232003 179.999956 -10.225100 14.924261 -29.453751 -38.277807 -17.880308 -2.895938 -41.703802 50.946270 99.177106 -0.000157 87.281308 0.000149 -50.689794 4.193531 -4.381480 -5.075456 41.740766 15.292857 21.209965 0.366150 -1.962587 1.275116 -2.513768 -2.983038 -0.000216 -0.000011 0.000138 13.291640 -1.319381 -11.923416 32.710973 1.111306 -0.311590 -26.529436 -22.584517 4.024509 -0.844347 -0.000025 0.000003
-0.001345 1.109005 0.001372 -21.134174 -31.120172 -2.752953 6.522444 1.832934 1.152983 14.193014 3.288715 1.054981 14.152027 3.188943 1.230154 -2.911381 8.837709 -5.848529 6.823255 8.712895 -0.957395 -37.422202 1.741233 3.196736 57.260697 -2.577233 -37.733127 179.999987 -56.910724 179.999971 -10.121644 14.242628 -31.255646 -38.191864 -18.236997 -2.740756 -41.975520 51.092175 99.849192 -0.000251 86.991845 0.000227 -50.818855 4.500385 -3.549876 -4.611251 41.670461 14.658759 21.247407 0.212349 -2.083909 1.110547 -1.923462 -2.881068 -0.000302 -0.000019 0.000214 12.990835 -1.500536 -12.529276 33.012805 1.374463 -0.405728 -26.557366 -22.382340 4.254696 -0.780236 0.000000 0.000000
-0.001345 1.109195 0.001372 -21.188922 -31.559283 -2.702005 6.469672 1.852780 1.307269 14.100674 3.327739 1.253183 13.963534 3.031107 1.485134 -3.035541 8.650426 -5.987393 3.532741 7.748421 -0.628083 -37.374480 2.676978 2.458248 55.800893 -1.948967 -40.592283 179.999972 -57.186765 179.999945 -10.957137 16.042713 -34.549217 -38.135584 -18.341737 -2.635684 -42.080958 51.529952 100.055983 0.000086 86.656277 -0.000113 -51.359589 5.169168 -2.770143 -4.107920 41.637567 14.184843 21.182778 0.381986 -2.239179 0.966273 -1.545021 -2.816305 -0.000184 -0.000010 0.000170 12.789119 -1.661332 -13.065810 33.083294 1.535132 -0.485727 -26.425738 -21.917536 4.560557 -0.706457 -0.000012 0.000001
-0.001345 1.109762 0.001372 -21.278028 -31.931001 -2.785050 6.441147 1.874412 1.458534 14.040991 3.364009 1.490290 13.700674 2.807948 1.857871 -3.172760 8.462103 -6.084229 -0.025695 6.850849 -0.455252 -37.299305 3.296424 1.370183 53.886673 -0.100977 -44.285222 179.999998 -57.592479 179.999965 -12.465376 20.114039 -36.795377 -38.000684 -18.577015 -2.325324 -42.267281 52.097378 100.206597 -0.000202 86.318989 0.000207 -52.278372 5.862600 -1.734321 -3.654800 41.579207 13.829410 21.056918 0.627970 -2.316370 0.860244 -1.279469 -2.794231 -0.000208 0.000000 0.000122 12.762186 -1.788275 -13.418495 32.919366 1.622712 -0.555571 -26.192286 -21.489421 4.850070 -0.620661 0.000020 0.000006
-0.001345 1.110536 0.001372 -21.229138 -32.232675 -2.925321 6.427898 1.868784 1.593321 14.003077 3.346740 1.736582 13.389497 2.515812 2.311034 -3.503489 8.263916 -6.022061 -3.596019 6.302099 -0.303192 -37.218813 3.538470 0.156095 51.960654 2.040414 -48.779321 179.999981 -58.718495 179.999960 -15.571605 25.172666 -34.214208 -37.738989 -19.166467 -1.716854 -43.261332 53.104754 100.731270 -0.000159 86.041615 0.000150 -54.228609 6.578210 -0.326623 -3.508012 41.479884 13.674276 20.975694 0.952511 -2.316868 0.761090 -1.138871 -2.807368 -0.000167 -0.000003 0.000096 12.730996 -1.811827 -13.539979 32.603940 1.779191 -0.609720 -25.918939 -21.294228 5.026183 -0.534184 0.000015 -0.000008
-0.001345 1.113219 0.001372 -20.931371 -32.637016 -3.064361 6.162336 1.567662 1.940705 13.479248 2.726647 2.431386 13.053349 2.153722 2.782164 -4.741936 8.412573 -6.096796 -6.868175 6.286021 -0.020997 -37.149400 2.832921 -0.369195 32.918085 -0.613321 -55.341974 179.999929 -77.413541 179.999909 -20.182234 33.703506 -35.498351 -37.209298 -19.652499 -0.561249 -45.430193 55.777967 102.197230 0.000078 86.024686 -0.000098 -57.061593 6.906623 0.663625 -3.123386 41.612978 13.233946 20.159907 1.238281 -2.339392 0.940654 -0.961988 -2.694118 -0.000169 -0.000003 0.000038 12.864096 -1.453454 -13.568656 31.521079 1.448229 -0.616616 -25.107468 -20.982881 5.459385 -0.222009 -0.000012 -0.000003
-0.001345 1.115289 0.001372 -20.488273 -33.236755 -3.189608 5.875889 1.250112 2.265550 12.906298 2.055399 3.043549 12.698950 1.738713 3.208535 -5.786659 8.638850 -6.184932 -9.482716 6.491386 0.615765 -37.020547 2.246447 -0.529175 23.253915 -1.265266 -61.757482 -179.999913 -85.784061 -179.999923 -37.821130 37.108011 -24.120479 -36.851584 -19.651906 0.217563 -47.313531 57.799532 103.970101 -0.000098 86.197060 0.000064 -58.990915 6.369123 1.506522 -3.093424 41.749153 13.068434 19.699944 1.648927 -2.453097 0.919063 -0.801499 -2.605980 -0.000050 0.000011 0.000010 12.716747 -1.092912 -13.634901 30.654104 1.329743 -0.629280 -24.433754 -20.632331 5.832191 -0.012632 -0.000005 0.000000
-0.001345 1.116917 0.001372 -20.072735 -33.920315 -3.312864 5.627338 0.954196 2.490899 12.404296 1.424110 3.470483 12.327015 1.327015 3.528964 -6.658589 8.810342 -6.242970 -11.254450 6.295752 1.745646 -36.859277 1.515758 -0.574247 11.103640 0.703513 -64.511633 0.000410 -86.833318 0.000403 -67.547891 29.869107 -2.533497 -36.618534 -19.517374 0.696223 -48.969611 59.581532 105.563146 -0.000136 86.497951 0.000126 -59.118342 5.226055 1.234553 -3.122690 41.909863 13.021021 19.416100 2.045881 -2.625038 0.797388 -0.613869 -2.543043 -0.000032 0.000002 0.000005 12.516853 -0.754236 -13.713368 29.940111 1.311203 -0.705797 -23.870100 -20.285606 6.189755 0.120485 -0.000017 0.000003
-0.001345 1.118604 0.001372 -19.756423 -34.421213 -3.437614 5.416363 0.677198 2.606742 11.989181 0.843037 3.712154 11.946101 0.988965 3.706039 -7.490237 8.831049 -6.237848 -12.361826 5.351111 3.324218 -36.589475 -0.217449 0.643441 -2.304006 5.108260 -64.504975 0.000107 -83.578753 0.000093 -86.231809 14.743857 20.034925 -36.430580 -19.513642 1.030712 -50.535883 61.479873 106.854272 -0.000218 86.802970 0.000216 -59.043032 5.015978 0.342825 -3.029500 42.122575 12.973784 19.003961 2.258119 -2.773414 0.772333 -0.471411 -2.484423 -0.000039 0.000004 0.000000 12.534677 -0.468328 -13.709280 29.148249 1.148169 -0.777923 -23.319767 -19.970808 6.528235 0.279738 0.000013 0.000004
-0.001345 1.119640 0.001372 -19.520253 -34.539833 -3.533518 5.281172 0.495862 2.649102 11.734139 0.468724 3.798085 11.569826 0.747793 3.764875 -7.928516 8.637857 -6.242705 -12.484128 3.563780 4.785158 -36.656872 -0.079052 0.041295 -14.829664 7.240516 -63.618233 0.000148 -80.579846 0.000130 -90.268835 8.748065 31.814497 -36.325909 -19.572267 1.206693 -51.374262 62.594356 107.546527 -0.000090 86.879111 0.000080 -58.659540 5.032766 -0.334560 -3.174531 42.255161 13.149842 18.790004 2.438515 -2.823726 0.793911 -0.655605 -2.471245 -0.000019 0.000006 -0.000003 12.642594 -0.326449 -13.559716 28.571189 0.971334 -0.729077 -23.008002 -19.841188 6.628447 0.514479 -0.000010 -0.000002
-0.001345 1.120031 0.001372 -19.324156 -34.381631 -3.571552 5.164371 0.415913 2.671213 11.536780 0.300698 3.822312 11.204045 0.577207 3.774887 -7.936152 8.350677 -6.282704 -11.633004 1.574387 5.970000 -36.620857 -0.429084 0.768845 -22.102753 4.440619 -61.786598 0.000110 -78.551005 0.000100 -94.793942 4.739030 30.989464 -36.311471 -19.609348 1.223679 -51.269485 62.850016 107.593439 0.000102 86.667391 -0.000123 -57.550134 5.313704 -0.712146 -3.539653 42.286860 13.466593 18.746033 2.569276 -2.779900 0.869652 -1.011996 -2.503997 -0.000091 0.000001 -0.000001 12.720989 -0.253452 -13.286482 28.281418 1.019156 -0.611579 -22.959803 -20.098018 6.426233 0.622653 0.000006 0.000003
-0.001345 1.120141 0.001372 -19.184714 -34.199656 -3.549546 4.989941 0.345270 2.679022 11.204393 0.106505 3.872478 10.840857 0.459009 3.778529 -7.719512 8.068900 -6.389871 -10.094556 -0.569961 7.324798 -36.984443 1.914191 -1.312035 -26.137886 -3.770228 -57.076215 0.000080 -75.991824 0.000071 -95.898984 6.721719 17.576089 -36.304374 -19.640175 1.224061 -51.398098 63.132965 108.007140 -0.000198 86.022209 0.000164 -55.858321 6.486557 -1.130697 -3.812048 42.324362 13.696373 18.678042 2.543419 -2.684222 0.985219 -1.241442 -2.591541 -0.000017 0.000003 -0.000001 12.803571 -0.107623 -12.993488 28.173127 1.696966 -0.518998 -23.142481 -21.053030 5.877634 0.123634 -0.000009 0.000004
-0.001345 1.119815 0.001372 -19.211594 -34.012972 -3.477342 4.742459 0.388902 2.630562 10.733540 0.117277 3.857450 10.465428 0.422349 3.764526 -7.175227 7.799266 -6.554959 -7.937027 -2.745260 8.683544 -37.190942 3.343791 -1.901108 -25.979626 -12.222230 -51.342226 0.000033 -73.630889 0.000033 -94.447949 10.808564 4.239342 -36.299533 -19.670749 1.218734 -51.169116 63.378968 108.054214 -0.000110 84.989970 0.000101 -53.149908 10.180837 -1.938120 -3.824872 42.273261 13.738511 18.611735 2.571543 -2.567315 1.126505 -1.432974 -2.731578 -0.000086 0.000004 0.000000 12.895583 0.012398 -12.759086 28.350455 3.177766 -0.491485 -23.634357 -22.747010 4.940456 -1.177625 -0.000021 -0.000000
-0.001345 1.119171 0.001372 -19.506919 -33.565827 -3.381442 4.439236 0.592120 2.544574 10.204355 0.465758 3.736350 10.077589 0.533716 3.702719 -6.416522 7.530674 -6.644955 -5.536209 -4.706139 9.904229 -37.335071 3.314871 -0.573363 -21.410540 -19.444381 -46.303018 0.000050 -71.130331 0.000033 -87.736119 13.719424 -1.797705 -36.296406 -19.701787 1.210569 -49.609042 63.506372 106.635220 0.000129 83.803219 -0.000140 -51.036963 14.325773 -3.234458 -3.518244 42.128675 13.605887 18.505433 2.676125 -2.455233 1.346973 -1.849030 -2.827638 -0.005001 -0.000003 0.000000 13.209221 0.022308 -12.540753 28.688281 4.442556 -0.517555 -24.249610 -24.423176 4.022920 -2.468767 -0.000030 -0.000004
-0.001345 1.118569 0.001372 -20.035155 -32.591006 -3.278935 4.178568 0.858570 2.498352 9.770468 0.937230 3.586173 9.711455 0.828608 3.586288 -5.652187 7.263394 -6.589410 -3.535920 -6.321489 11.064647 -37.420746 2.251104 1.944403 -16.329130 -26.278115 -41.845432 0.000063 -68.615943 0.000060 -80.269227 8.561058 3.422929 -36.294530 -19.732089 1.200670 -46.620977 63.495246 103.667903 -0.000091 82.871493 0.000078 -49.396528 15.843526 -4.894947 -2.997846 41.933056 13.415313 18.298305 2.772052 -2.339804 1.689529 -2.713831 -2.807307 -0.057603 0.000007 0.000002 13.982308 -0.103486 -12.205296 28.860135 4.758628 -0.525607 -24.751631 -25.667234 3.399268 -2.893419 0.000007 -0.000005
-0.001345 1.117982 0.001372 -20.638920 -30.991560 -3.128541 3.995169 1.109176 2.499641 9.482866 1.389502 3.458485 9.410960 1.252247 3.444074 -4.960947 7.007845 -6.485809 -2.318360 -7.752632 12.284694 -37.535000 1.555453 4.361648 -13.936307 -30.887993 -40.939349 0.000058 -68.740446 0.000053 -69.186152 6.396319 8.831349 -36.293600 -19.760599 1.190135 -42.541739 63.238730 99.469941 -0.000015 82.492912 0.000006 -48.245193 13.891555 -6.682992 -2.571140 41.635178 13.301064 18.125299 2.830643 -2.171646 2.104146 -4.067676 -2.664391 -0.103357 0.000007 -0.000005 15.143137 -0.361507 -11.671905 28.784747 4.331681 -0.423599 -25.148522 -26.732144 2.934502 -2.663153 0.000004 -0.000006
-0.001345 1.117239 0.001372 -21.186088 -28.820000 -2.847975 3.849435 1.331830 2.514869 9.272687 1.815714 3.352331 9.177448 1.720022 3.310813 -4.227774 6.773110 -6.505703 -1.683963 -9.277482 13.453724 -37.870035 2.309643 5.478764 -13.893803 -33.960021 -42.760973 0.000053 -71.332567 0.000046 -56.630323 6.384902 12.217448 -36.293118 -19.786111 1.180114 -37.487066 62.692888 94.235352 -0.000031 82.721662 0.000018 -47.246482 9.967459 -8.825416 -2.396039 41.162308 13.248989 18.078700 2.872577 -1.941589 2.554772 -5.818469 -2.405522 -0.126915 -0.000001 -0.000001 16.479061 -0.745640 -10.967142 28.562055 3.661399 -0.169305 -25.570152 -27.988244 2.387389 -2.409288 0.000028 -0.000002
-0.001345 1.116293 0.001372 -21.662028 -26.199429 -2.384847 3.689648 1.548171 2.537224 9.066083 2.269099 3.256683 9.042243 2.143135 3.209179 -3.338198 6.555472 -6.709321 -1.181717 -10.967902 14.246106 -38.102216 2.487264 7.093617 -13.731267 -35.321733 -45.244759 0.000025 -75.363941 0.000024 -46.228619 5.182533 14.098536 -36.399116 -19.556316 1.146570 -31.730231 61.025639 88.851813 -0.000014 83.372823 0.000010 -45.658909 6.156318 -10.745390 -2.382643 40.551995 13.136985 18.077552 2.868298 -1.696036 3.087360 -7.836912 -2.004031 -0.124147 -0.000003 0.000003 17.844468 -1.166950 -10.118829 28.313830 3.012124 0.165047 -26.095539 -29.659671 1.659319 -2.319127 -0.000038 -0.000009
-0.001345 1.114958 0.001372 -22.111005 -23.309195 -1.747256 3.524857 1.744349 2.571979 8.886900 2.725322 3.172572 9.012421 2.487801 3.129675 -2.375419 6.353364 -6.996351 -0.561617 -12.603183 14.513226 -38.342641 2.496939 8.058943 -17.100113 -39.269890 -48.773412 0.000059 -71.955832 0.000056 -40.526779 2.412445 14.958206 -36.736656 -18.802157 1.065012 -26.073138 57.378763 84.854234 0.000004 84.290093 -0.000004 -42.637904 3.767779 -11.645519 -2.506799 39.926808 12.650809 18.111601 1.375634 -1.045347 3.659129 -8.541413 -1.679510 -0.116590 0.000006 -0.000005 19.081288 -1.448533 -9.153905 28.262460 0.370875 0.359156 -26.169158 -29.936191 1.967546 -2.219418 -0.000007 -0.000005
-0.001345 1.113405 0.001372 -22.536845 -20.407313 -0.978168 3.418329 1.875137 2.624869 8.808059 3.047897 3.114589 9.025788 2.784063 3.068868 -1.532073 6.196049 -7.241302 0.137149 -13.840721 14.420468 -38.271107 1.000231 10.225154 -23.267336 -41.385196 -55.112237 0.000056 -68.075962 0.000044 -34.350867 -1.270945 16.627657 -37.119606 -17.868238 0.943687 -22.573794 53.530997 83.416992 0.000006 84.354610 -0.000025 -39.251133 1.509139 -12.032116 -2.579075 39.316535 11.797296 18.079616 -0.801402 -0.231073 4.318275 -8.514673 -1.373883 -0.135688 0.000009 0.000001 20.043903 -1.521451 -8.160337 28.472821 -2.881435 0.400806 -26.044166 -29.933119 2.697038 -1.890145 -0.000011 -0.000002
-0.001345 1.111713 0.001372 -22.887868 -17.800030 -0.141078 3.412675 1.919238 2.712163 8.859729 3.162147 3.107502 9.074244 3.019059 3.040221 -0.946511 6.123603 -7.402430 0.722833 -14.416539 14.040595 -38.215999 -0.121839 11.832009 -33.713573 -42.862450 -63.106215 0.000022 -60.885022 0.000017 -29.074498 -4.835457 15.376518 -37.408490 -16.974743 0.761877 -21.572304 50.558919 83.852136 -0.000065 82.612901 0.000046 -36.193700 0.289504 -11.789814 -2.542380 38.694532 10.707308 17.941471 -2.649105 0.475885 5.066478 -8.473974 -1.017052 -0.192286 -0.000002 -0.000001 20.513239 -1.523655 -7.374681 29.035013 -5.840078 0.432443 -25.916710 -29.928353 3.445969 -1.510615 -0.000023 -0.000002
-0.001345 1.110048 0.001372 -23.102485 -15.742684 0.676962 3.468718 1.934418 2.845280 8.994627 3.209364 3.162860 9.152094 3.126866 3.084671 -0.650625 6.139885 -7.502518 0.888852 -14.311274 13.272281 -38.390723 -0.065776 12.043161 -44.547769 -44.966840 -71.779780 0.000045 -52.585646 0.000036 -25.341426 -8.973729 11.149608 -37.402586 -16.402771 0.463336 -22.164868 49.510597 83.882210 -0.000009 79.763830 0.000003 -34.932166 -0.158272 -11.569374 -2.402370 38.060373 9.442878 17.607131 -3.924146 1.042754 5.899969 -8.415848 -0.662260 -0.282891 -0.000001 0.000001 20.363567 -1.613783 -7.010653 29.972215 -7.976753 0.588820 -25.892428 -29.925203 3.998204 -1.172297 0.000002 -0.000001
-0.001345 1.108399 0.001372 -23.137345 -14.305616 1.369255 3.562517 1.945529 3.052178 9.180598 3.246606 3.303716 9.247396 3.152333 3.227094 -0.582474 6.208900 -7.562035 0.400998 -13.742862 12.180106 -38.539665 0.111828 11.886074 -53.178136 -46.321869 -79.788942 0.000022 -46.440688 0.000014 -22.467312 -12.712162 5.282933 -37.158107 -16.141192 0.143820 -23.860178 49.951317 83.837998 -0.000050 76.457219 0.000043 -34.639614 -1.571816 -11.357466 -2.364260 37.457547 8.254368 17.235472 -4.633235 1.448612 6.692799 -8.338435 -0.323248 -0.382706 0.000004 -0.000003 19.644668 -1.794767 -7.038153 31.198562 -9.178826 0.876527 -26.001606 -29.925429 4.291168 -0.890598 0.000012 -0.000007
-0.001345 1.106801 0.001372 -22.980217 -13.296174 1.896876 3.669772 1.944137 3.324156 9.381386 3.263395 3.531525 9.347282 3.173979 3.459249 -0.646140 6.285392 -7.547731 -0.608099 -12.951077 11.037020 -38.661177 0.390963 11.191374 -57.043645 -47.217186 -85.388726 0.000011 -44.608787 0.000001 -19.556360 -15.675875 -1.006452 -36.898678 -16.088273 -0.080697 -25.751747 50.530493 84.102170 -0.000004 73.548589 -0.000007 -33.383100 -5.653503 -10.757946 -2.625574 37.038820 7.365749 16.949406 -5.104291 1.690951 7.394538 -8.272746 0.049743 -0.433792 -0.000000 -0.000001 18.558143 -1.990033 -7.253357 32.504280 -9.758425 1.253731 -26.172667 -29.926463 4.390856 -0.638749 0.000004 -0.000003
-0.001345 1.105011 0.001372 -22.677047 -12.323958 2.335691 3.768164 1.904769 3.707468 9.561223 3.168696 3.812491 9.478880 3.080596 3.748450 -0.758998 6.333108 -7.393048 -1.650832 -11.950416 9.881853 -38.752633 0.738808 10.077652 -56.011944 -47.882960 -87.496266 0.000026 -46.181969 0.000019 -16.969906 -18.495243 -7.843346 -36.740048 -16.375376 -0.010494 -26.694135 50.989090 84.169032 -0.000007 72.112709 -0.000002 -29.874800 -11.892605 -9.945431 -3.343660 37.111527 6.935564 16.929439 -6.278232 1.754169 7.981988 -7.980234 0.534974 -0.411048 -0.000012 0.000000 17.377609 -2.031864 -7.305231 33.756077 -10.097635 1.552373 -26.395466 -29.987397 4.380509 -0.474159 0.000015 0.000003
-0.001345 1.103288 0.001372 -22.333550 -11.146976 2.752412 3.850562 1.776196 4.085092 9.705125 2.882637 4.076182 9.613984 2.795349 4.023393 -0.850769 6.341404 -7.095223 -2.873576 -10.557367 8.699187 -38.809601 1.063327 8.976451 -52.394258 -48.334356 -86.436163 0.000007 -49.279966 -0.000002 -15.840324 -21.339544 -15.075537 -36.746405 -16.616797 -0.122180 -27.300462 51.586652 84.208653 -0.000052 71.532482 0.000033 -25.504637 -17.347497 -9.328070 -4.265435 37.595808 6.814173 17.055282 -8.375784 1.679289 8.500170 -7.395683 1.084028 -0.390626 -0.000002 -0.000000 16.415525 -1.927036 -7.010186 34.732353 -10.100226 1.667689 -26.722018 -29.986388 4.134008 -0.432562 0.000003 0.000003
-0.001345 1.101950 0.001372 -22.028195 -10.191683 2.991618 3.917122 1.585242 4.370874 9.808069 2.486015 4.282652 9.715534 2.399004 4.242927 -0.850165 6.330170 -6.739382 -4.542111 -8.787527 7.477099 -38.832410 1.317698 8.292020 -45.978391 -48.649707 -81.739699 0.000027 -56.236353 0.000018 -16.320304 -22.278959 -20.412316 -36.841918 -16.696749 -0.448322 -28.268369 52.565889 84.517244 -0.000005 71.042672 -0.000008 -22.266342 -20.416214 -9.157621 -5.214199 38.184879 7.030841 17.286730 -9.667182 1.553943 8.841595 -7.554221 1.619939 -0.371128 0.000005 -0.000002 15.719207 -1.788401 -6.603862 35.377199 -10.100093 1.724797 -26.995220 -29.986145 3.885146 -0.397106 0.000006 -0.000003
-0.001345 1.101103 0.001372 -21.725544 -10.505454 2.664975 3.959355 1.416648 4.548467 9.855136 2.170619 4.435806 9.766667 2.083259 4.407495 -0.701235 6.323376 -6.427918 -6.680452 -6.670469 6.253748 -38.940005 2.009997 7.499348 -35.492357 -49.636547 -72.667202 0.000019 -68.304609 0.000010 -18.765819 -21.382718 -20.696084 -36.916214 -16.728202 -0.686971 -29.970618 53.722875 85.874129 -0.000003 69.839478 0.000011 -20.416444 -21.119161 -9.010126 -6.450639 38.760330 8.065067 17.914917 -9.674651 1.379149 8.688404 -7.876528 1.873058 -0.352366 -0.000005 0.000001 15.000230 -1.511682 -6.349496 35.829498 -10.096949 1.720748 -27.036810 -29.985319 3.877598 -0.310077 -0.000003 0.000004
-0.001345 1.103344 0.001372 -21.412620 -12.681553 1.590484 4.209931 1.228764 4.255475 10.230328 1.862134 4.276156 10.155636 1.776619 4.266982 -0.386657 6.608574 -5.621696 -9.085592 -4.164311 5.089612 -38.674432 2.694572 6.169027 -28.593315 -46.441775 -65.588128 0.000076 -79.195299 0.000052 -17.993012 -20.507270 -18.116795 -37.179461 -16.200547 -1.913285 -31.887462 55.567820 87.875836 0.000021 70.056820 -0.000027 -22.102215 -19.916802 -10.470185 -7.193021 39.307871 9.770676 18.210616 -9.703545 1.151705 7.985106 -6.538022 1.230204 -0.334217 0.000001 -0.000002 14.994972 -1.132137 -6.342501 34.918718 -10.093597 1.652611 -26.492380 -29.987482 4.135421 -0.124170 -0.000011 0.000003
-0.001345 1.105793 0.001372 -21.187255 -16.085274 0.098468 4.482832 1.088992 3.890794 10.654072 1.667895 4.058873 10.590603 1.584210 4.064210 -0.134701 6.922036 -4.998181 -11.559378 -1.209822 4.018701 -38.218254 3.435483 4.697890 -27.109361 -42.862613 -62.753887 0.000164 -82.740536 0.000157 -15.968340 -19.447536 -15.912632 -37.205455 -15.487269 -2.921758 -34.250815 56.845912 90.564650 -0.000038 70.384739 0.000025 -24.158298 -18.363797 -11.407010 -7.934569 39.861709 11.849130 18.787090 -9.340675 0.892127 6.885593 -4.453515 0.329575 -0.316502 -0.000005 0.000003 14.763887 -0.560941 -6.707943 34.076010 -10.087139 1.540712 -25.719422 -27.360265 4.752704 -0.041628 0.000001 -0.000001
-0.001345 1.108316 0.001372 -21.028834 -19.695749 -1.374254 4.791986 0.957302 3.484338 11.164345 1.481179 3.777761 11.111450 1.399877 3.795023 -0.015461 7.231753 -4.425179 -13.970678 2.140745 3.047510 -37.465997 4.104037 3.075491 -27.800262 -38.355372 -62.360491 0.000158 -84.245898 0.000155 -12.449431 -16.801614 -13.875699 -36.956634 -14.647257 -3.841622 -36.530887 58.033319 92.770261 -0.000035 71.264433 0.000030 -27.110432 -17.075505 -12.534277 -8.416767 40.519607 13.735733 19.199012 -7.596416 0.607749 5.826629 -3.600162 -0.429331 -0.299079 0.000005 -0.000000 14.407793 0.099370 -7.224596 33.282290 -10.081402 1.400781 -24.917563 -24.134031 5.466166 -0.000969 -0.000009 0.000001
-0.001345 1.110913 0.001372 -20.797500 -23.098940 -2.705231 5.140061 0.811607 3.064976 11.749650 1.248368 3.467498 11.707305 1.169139 3.495418 0.039503 7.532296 -3.835591 -16.228484 5.706013 2.201442 -36.374739 4.782377 1.284175 -29.948165 -33.823905 -63.262475 0.000119 -82.389490 0.000105 -8.169611 -15.929525 -12.740174 -36.352016 -13.849048 -4.421685 -38.087565 59.306604 93.741423 -0.000031 73.062589 0.000039 -30.771887 -16.625139 -13.979654 -8.841422 41.273650 15.345274 19.379070 -6.119847 0.310736 4.962813 -2.701754 -1.092251 -0.281785 -0.000001 -0.000002 13.881184 0.766199 -7.657730 32.462615 -8.470192 1.243566 -24.429586 -22.634319 5.389148 0.036356 -0.000005 -0.000001
-0.001345 1.113627 0.001372 -20.437498 -26.415164 -4.018605 5.503341 0.664414 2.651904 12.353201 1.010984 3.162186 12.322123 0.932151 3.199495 0.153715 7.851097 -3.267378 -18.324879 9.249336 1.553423 -34.950282 5.500645 -0.520817 -31.349564 -29.577099 -63.477369 0.000136 -81.380498 0.000131 -3.633402 -14.170554 -11.307497 -35.484688 -12.954199 -4.761117 -38.938144 60.077730 94.039957 -0.000028 75.348783 0.000026 -34.022590 -16.746029 -15.396869 -9.476130 42.024424 16.943363 19.464423 -4.733198 0.007172 4.230815 -1.774671 -1.686686 -0.264495 0.000003 0.000003 13.117409 1.423315 -7.948004 31.575181 -6.762735 1.072154 -23.815050 -21.322815 5.299223 0.074750 0.000018 0.000005
-0.001345 1.116385 0.001372 -20.109873 -29.453527 -5.251191 5.861100 0.543479 2.230319 12.944985 0.818869 2.829505 12.926732 0.738862 2.875957 0.338478 8.163311 -2.681103 -20.308380 12.538978 1.163528 -33.291302 5.958439 -2.093731 -32.277250 -26.398435 -63.536556 0.000084 -78.632594 0.000073 -2.408436 -11.933533 -8.836044 -35.062268 -12.100162 -5.295491 -41.506704 60.021499 96.456983 -0.000043 76.467697 0.000030 -36.460362 -16.937533 -16.367470 -10.089345 42.791644 18.391864 19.374203 -3.603546 -0.294936 3.698706 -0.834159 -2.166561 -0.247003 -0.000003 0.000000 12.337207 2.041772 -8.113818 30.637308 -5.359711 0.892597 -23.052970 -20.022972 5.335042 0.118615 0.000010 0.000010
-0.001345 1.118989 0.001372 -19.851343 -32.264918 -6.413969 6.227422 0.455717 1.788659 13.560845 0.676059 2.434329 13.557626 0.593970 2.492261 0.534859 8.403963 -1.966830 -22.038419 15.430757 0.969693 -31.360889 5.869162 -3.599093 -34.276763 -23.735262 -63.683076 0.000017 -73.349358 0.000014 -6.799677 -9.869932 -7.353722 -34.988998 -11.324562 -6.143658 -45.830900 59.141456 100.784253 -0.000016 76.724114 0.000001 -37.943686 -16.818729 -16.671312 -10.692461 43.545669 19.706302 19.229003 -2.647411 -0.587714 3.288105 0.106598 -2.535061 -0.229221 0.000009 0.000000 11.533078 2.627877 -8.212725 29.740243 -4.175415 0.711692 -22.210836 -18.749724 5.469064 0.172400 -0.000006 -0.000004
-0.001345 1.121203 0.001372 -19.651859 -34.887389 -7.527298 6.613395 0.363955 1.348332 14.216826 0.513069 2.025658 14.229514 0.428770 2.097605 0.780043 8.572894 -1.076546 -23.037039 17.966706 0.798406 -29.060110 5.214001 -5.414388 -38.779374 -20.819904 -63.753132 0.000051 -66.323132 0.000045 -19.757150 -8.427448 -9.296108 -35.083051 -10.564402 -7.256170 -51.775303 58.451377 105.724187 -0.000044 76.616689 0.000042 -39.858023 -16.041804 -17.068929 -11.407193 44.228082 20.969491 19.236628 -1.793547 -0.863756 2.868386 1.037808 -2.796399 -0.210946 -0.000006 0.000005 10.667959 3.184306 -8.275932 28.954449 -3.128324 0.536550 -21.344183 -17.520344 5.687570 0.240483 0.000001 0.000004
-0.001345 1.123067 0.001372 -19.507438 -37.495796 -8.664582 6.998036 0.225299 0.922884 14.864569 0.247045 1.639589 14.890601 0.163319 1.726527 1.156890 8.698346 0.038245 -22.806511 20.291829 0.512384 -26.376648 4.209451 -7.833596 -45.728809 -17.270044 -63.343708 0.000030 -59.340146 0.000012 -40.355235 -4.754314 -13.485711 -35.134989 -9.716305 -8.405009 -58.926378 57.858275 110.784527 -0.000058 76.435119 0.000037 -42.454758 -15.052348 -17.671549 -12.263706 44.796250 22.240449 19.475347 -0.837971 -1.116881 2.357484 1.949422 -3.003113 -0.192040 -0.000009 -0.000003 9.695662 3.715313 -8.336292 28.247877 -1.998274 0.374270 -20.448765 -16.343025 5.939880 0.327327 0.000016 -0.000003
-0.001345 1.122859 0.001372 -19.417586 -39.903501 -9.751097 7.072264 0.163224 0.848904 14.993654 0.114848 1.523713 15.017918 0.037208 1.615930 1.337789 8.604838 0.649434 -21.290537 22.412429 0.103526 -24.938573 2.970267 -7.666002 -51.132845 -13.963725 -62.698545 0.000028 -51.254084 0.000022 -62.476328 2.349680 -12.462119 -36.354872 -10.168938 -8.523173 -66.418716 57.397851 117.916936 -0.000058 74.750789 0.000027 -44.120490 -15.331987 -17.447935 -13.784328 45.032652 24.030678 20.493872 0.015652 -1.343434 1.665519 2.829959 -3.306262 -0.172351 -0.000000 -0.000003 8.348470 4.189344 -8.159084 28.398280 -0.931698 0.231721 -20.041293 -15.230536 6.031689 0.437323 -0.000035 0.000001
-0.001345 1.123085 0.001372 -19.364601 -41.920915 -10.702292 7.169655 0.107446 0.761390 15.167074 -0.018063 1.337805 15.189127 -0.086827 1.434934 1.367958 8.586270 1.128453 -18.919497 24.119235 -0.338718 -23.567608 2.210342 -7.474395 -56.226359 -11.751613 -61.621167 0.000013 -46.690238 0.000002 -81.007825 10.174393 -4.147447 -37.694565 -10.344243 -8.732263 -71.332440 56.357787 122.826055 -0.000030 74.568910 0.000027 -45.553232 -16.076454 -17.645293 -14.969349 45.237575 25.446758 21.196980 0.650652 -1.526158 1.144068 3.662532 -3.539763 -0.151729 -0.000001 -0.000005 7.300178 4.544463 -7.985032 28.281093 -0.106158 0.114613 -19.543021 -14.209101 6.168888 0.574927 0.000005 0.000007
-0.001345 1.123604 0.001372 -19.293148 -43.027033 -11.275636 7.288372 0.084613 0.673850 15.389000 -0.076405 1.137852 15.409648 -0.139313 1.235456 1.177159 8.652061 1.345597 -16.227965 25.211200 -0.709593 -22.271091 1.811996 -6.940358 -60.655103 -11.031673 -60.979477 0.000010 -44.815351 0.000012 -96.910550 13.712277 6.584210 -39.057016 -9.965038 -9.340142 -73.229814 55.499111 124.464900 -0.000109 76.056615 0.000092 -47.359347 -16.958140 -18.977599 -15.653663 45.274359 26.153337 21.528402 0.778646 -1.584376 0.865463 4.439599 -3.625349 -0.128689 -0.000000 -0.000001 6.733820 4.660928 -7.864805 27.976034 0.151789 0.028320 -19.063681 -13.380819 6.393357 0.838888 0.000006 -0.000002
-0.001345 1.124102 0.001372 -19.189415 -43.533066 -11.588115 7.378760 0.097487 0.594243 15.558604 -0.041308 0.993517 15.579096 -0.103511 1.088536 0.899930 8.712453 1.405203 -13.554539 25.767518 -0.927204 -21.089780 1.712368 -6.362620 -63.866751 -11.105250 -60.805713 0.000022 -45.714817 0.000018 -109.198835 13.134154 16.654667 -40.251936 -9.479140 -9.895437 -72.429074 55.211094 123.637504 -0.000022 79.171486 0.000011 -49.034039 -18.311988 -20.935106 -16.221736 45.378787 26.629973 21.684846 0.483405 -1.586532 0.729889 5.032660 -3.584321 -0.118503 -0.000011 -0.000001 6.454135 4.773138 -7.669928 27.661845 0.361136 -0.099038 -18.697404 -13.187473 6.523211 1.109191 -0.000010 -0.000002
-0.001345 1.124331 0.001372 -19.067210 -43.770151 -11.780405 7.403974 0.151443 0.513334 15.594755 0.092199 0.912182 15.617103 0.028340 1.007544 0.736529 8.680282 1.487750 -11.002431 26.056800 -0.927956 -20.083610 1.607822 -5.895447 -65.386317 -11.425410 -60.610187 0.000026 -49.070996 0.000012 -117.040336 10.253595 24.175471 -41.061025 -9.177557 -10.072890 -69.359653 55.574852 121.054759 -0.000008 83.495306 0.000006 -50.272854 -20.133762 -22.968085 -16.852918 45.525457 27.140918 21.850448 0.249212 -1.567289 0.646312 5.226991 -3.513367 -0.120487 -0.000003 -0.000001 6.262994 4.996673 -7.471117 27.471707 0.400975 -0.088664 -18.468362 -13.189130 6.554827 1.131218 0.000011 0.000004
-0.001345 1.124287 0.001372 -18.935061 -43.922197 -11.934306 7.395263 0.240447 0.421685 15.558668 0.299258 0.846285 15.584614 0.233997 0.946257 0.699018 8.649546 1.148790 -8.492790 26.232112 -0.672233 -19.298802 1.221835 -5.567432 -64.485010 -11.873103 -59.748006 0.000031 -54.448456 0.000009 -121.266572 6.606622 28.730548 -41.310304 -8.818308 -10.056174 -64.307681 56.340477 116.718684 -0.000027 88.516226 0.000013 -51.087167 -21.863417 -24.802589 -17.558886 45.636540 27.733180 22.084268 0.283492 -1.546723 0.572835 5.056231 -3.462789 -0.124486 0.000001 -0.000004 6.060267 5.286956 -7.295555 27.411108 0.329551 0.073802 -18.346239 -13.186205 6.502560 0.880362 0.000026 0.000000
-0.001345 1.124049 0.001372 -18.785536 -43.964410 -12.040934 7.413659 0.327049 0.314007 15.572895 0.491925 0.734699 15.603199 0.426323 0.840805 0.640081 8.568186 1.004523 -5.952351 26.280187 -0.151637 -18.752206 0.732347 -5.607819 -61.701215 -12.031728 -59.003610 0.000025 -61.108872 0.000020 -122.389698 3.109933 31.202997 -40.928882 -8.368050 -9.773750 -57.333692 57.231803 110.510008 179.999938 85.984073 -179.999957 -51.312739 -23.266857 -26.206356 -18.255220 45.631118 28.286907 22.379439 0.422513 -1.521710 0.491197 4.771264 -3.419488 -0.135438 -0.000006 -0.000000 5.859023 5.517359 -7.141131 27.426773 0.226322 0.285499 -18.290955 -13.189993 6.419983 0.610072 0.000032 0.000002
-0.001345 1.123743 0.001372 -18.599360 -43.804618 -12.063469 7.469601 0.386069 0.187361 15.659057 0.618992 0.547808 15.695538 0.549605 0.648046 0.588516 8.445722 0.995605 -5.037531 25.946619 0.964618 -18.380797 0.599460 -6.325005 -60.328157 -12.978317 -58.952791 0.000065 -65.402211 0.000055 -122.176305 0.853334 32.888111 -40.346988 -7.801434 -9.354896 -50.960154 57.505056 104.497322 -179.999921 81.590865 179.999902 -51.405801 -24.108266 -27.294340 -18.891279 45.518973 28.721071 22.691485 0.384084 -1.494654 0.401835 4.582462 -3.341338 -0.162509 -0.000000 -0.000003 5.731209 5.619741 -6.985663 27.435798 0.020947 0.448625 -18.261491 -13.204893 6.386927 0.519706 0.000005 0.000004
-0.001345 1.123440 0.001372 -18.471919 -43.651821 -12.076599 7.531532 0.431022 0.052786 15.754879 0.721235 0.329744 15.791421 0.665133 0.446451 0.543974 8.312287 0.980365 -4.626607 25.482073 2.324070 -18.107177 0.651966 -6.907047 -60.496961 -13.237286 -60.124320 0.000027 -66.795194 0.000026 -120.682777 0.526960 33.653632 -39.676065 -7.132156 -8.849464 -46.438906 57.514553 100.001060 -179.999956 79.306972 179.999953 -51.235425 -24.043611 -27.801214 -19.357644 45.419432 29.039888 22.957207 0.344012 -1.475402 0.315242 4.431306 -3.279674 -0.193018 0.000002 0.000000 5.654811 5.669277 -6.870511 27.462619 -0.144418 0.552714 -18.259286 -13.217125 6.375839 0.570211 0.000001 0.000004
-0.001345 1.123099 0.001372 -18.355375 -43.360058 -12.051726 7.584217 0.469493 -0.058383 15.830623 0.824178 0.161219 15.873909 0.760422 0.282184 0.505724 8.172772 0.960474 -4.611200 24.920485 3.843392 -17.905745 0.497406 -6.946601 -60.996301 -13.479950 -61.086383 0.000048 -66.763133 0.000039 -119.755269 0.593919 33.716098 -39.010442 -6.383116 -8.290856 -43.363083 57.268841 96.450205 179.999990 78.141637 179.999998 -51.259072 -23.797431 -28.276101 -19.781771 45.324799 29.335413 23.213218 0.319278 -1.455285 0.236359 4.126500 -3.206392 -0.212209 -0.000004 -0.000001 5.680504 5.701033 -6.703481 27.481227 -0.222046 0.590381 -18.307166 -13.473015 6.330445 0.622993 0.000021 0.000005
-0.001345 1.122707 0.001372 -18.198542 -42.841260 -11.903904 7.627009 0.477436 -0.126935 15.889449 0.872218 0.064123 15.932863 0.792627 0.170564 0.473040 8.032036 0.937629 -4.884073 24.296407 5.440321 -17.849379 0.105530 -6.954642 -60.857749 -14.645214 -60.816234 0.000046 -66.370800 0.000041 -120.254145 0.164020 33.255950 -38.392110 -5.653490 -7.761916 -40.984380 56.949391 93.471932 -179.999962 77.357140 179.999940 -51.332917 -23.591155 -28.823594 -20.115285 45.178225 29.477196 23.424206 0.333020 -1.415940 0.201413 3.641559 -3.109079 -0.229122 0.000001 0.000002 5.784480 5.704890 -6.540495 27.524804 -0.309836 0.632155 -18.422180 -13.939936 6.244214 0.583957 0.000002 0.000003
-0.001345 1.122346 0.001372 -17.977057 -42.176869 -11.577004 7.655626 0.433415 -0.163956 15.926717 0.807439 -0.010566 15.966613 0.729285 0.081436 0.445180 7.894979 0.913489 -5.340101 23.646148 7.034884 -17.941800 -0.528417 -6.560398 -60.222035 -15.628539 -59.891397 0.000076 -65.975409 0.000063 -121.433466 -0.436150 32.569810 -37.826080 -5.045644 -7.337949 -39.598732 56.720617 91.343410 -179.999940 77.005954 179.999922 -51.499077 -23.314481 -29.362790 -20.221679 44.960363 29.278489 23.508759 0.376282 -1.355200 0.241751 3.144722 -2.999863 -0.250686 -0.000003 0.000004 5.879907 5.634533 -6.481293 27.622921 -0.366417 0.693381 -18.592243 -14.521785 6.126876 0.478374 -0.000004 0.000003
-0.001345 1.122035 0.001372 -17.716986 -41.536276 -11.121410 7.671678 0.354865 -0.193049 15.943956 0.660592 -0.106957 15.981273 0.593776 -0.021394 0.421413 7.766475 0.889736 -5.876762 23.008573 8.549775 -18.280750 -0.984383 -6.383396 -59.580674 -16.693025 -58.864012 0.000041 -65.191586 0.000042 -122.602686 -0.735912 31.828790 -37.324577 -4.635173 -7.066956 -39.317364 56.729891 90.168350 -179.999943 77.210012 179.999939 -51.764145 -22.771731 -29.770823 -20.101238 44.714689 28.775169 23.467907 0.428726 -1.290312 0.338251 2.780584 -2.900611 -0.269182 0.000003 -0.000003 5.894139 5.510409 -6.552419 27.792950 -0.383335 0.755333 -18.789311 -15.070648 6.015117 0.406898 -0.000007 0.000001
-0.001345 1.121719 0.001372 -17.475931 -41.039701 -10.663963 7.682847 0.279745 -0.221982 15.953271 0.514019 -0.215074 15.985114 0.448519 -0.135869 0.401026 7.651371 0.868043 -6.394174 22.425135 9.910570 -18.819164 -1.273262 -6.192776 -59.399453 -16.852236 -58.680160 0.000044 -64.233899 0.000037 -122.746788 -0.364037 31.391938 -36.902021 -4.419040 -6.934810 -39.791348 56.951841 89.652318 -179.999962 77.762163 179.999950 -52.146174 -22.028152 -30.071042 -19.907882 44.505106 28.209980 23.382098 0.476849 -1.238827 0.448936 2.554071 -2.823385 -0.281038 0.000000 0.000000 5.817447 5.438132 -6.651684 28.032950 -0.393075 0.766891 -18.984559 -15.544962 5.938414 0.405821 -0.000025 -0.000003
-0.001345 1.121405 0.001372 -17.299440 -40.715153 -10.308991 7.691360 0.225558 -0.240496 15.957137 0.410401 -0.294536 15.981146 0.339337 -0.225963 0.383260 7.554597 0.850085 -6.794700 21.939619 11.045152 -19.511507 -1.446211 -5.876299 -58.864679 -16.914814 -58.494170 0.000016 -63.505033 0.000021 -122.995779 -0.137011 30.958635 -36.554369 -4.334611 -6.885439 -40.402461 57.298652 89.352545 -179.999939 78.312359 179.999923 -52.564004 -21.264967 -30.297081 -19.766968 44.368081 27.782531 23.300089 0.518203 -1.207275 0.558807 2.406620 -2.768351 -0.284467 0.000004 -0.000004 5.690189 5.473523 -6.680855 28.299238 -0.419131 0.710079 -19.146972 -15.948954 5.895908 0.426569 -0.000009 0.000003
-0.001345 1.121145 0.001372 -17.195502 -40.540375 -10.084200 7.695433 0.185089 -0.239167 15.951752 0.326598 -0.331886 15.970376 0.256065 -0.270951 0.367410 7.480964 0.837551 -6.982139 21.597271 11.882991 -20.379259 -1.437928 -5.528059 -58.165650 -16.708037 -58.568525 0.000043 -62.903869 0.000023 -123.013771 0.144248 30.609144 -36.283479 -4.362403 -6.899347 -41.174150 57.707819 89.389406 -179.999873 78.925219 179.999851 -52.917535 -20.539690 -30.345779 -19.697688 44.296385 27.532320 23.220747 0.550716 -1.191473 0.671864 2.315780 -2.735750 -0.271722 0.000003 -0.000001 5.544528 5.543357 -6.656475 28.545051 -0.438044 0.641037 -19.264425 -16.229506 5.857484 0.431517 -0.000001 0.000007
-0.001345 1.120919 0.001372 -17.145674 -40.474581 -9.965989 7.700060 0.150600 -0.220981 15.950538 0.264502 -0.331579 15.967604 0.197209 -0.275506 0.367413 7.480960 0.837552 -6.982128 21.597273 11.882995 -21.460284 -1.306810 -4.999459 -57.215907 -16.179412 -58.875707 0.000064 -62.473850 0.000047 -122.902378 0.419914 30.302196 -36.154886 -4.535706 -6.998911 -42.119345 58.188134 89.796798 -179.999972 79.578999 179.999964 -53.232893 -19.844915 -30.263221 -19.696076 44.262283 27.429996 23.152547 0.561237 -1.181851 0.785724 2.284786 -2.725268 -0.237968 0.000002 0.000001 5.378741 5.546200 -6.643824 28.770321 -0.412645 0.634665 -19.355679 -16.331257 5.787135 0.430387 -0.000014 -0.000005
-0.001345 1.120644 0.001372 -17.131187 -40.446797 -9.921609 7.719433 0.126207 -0.197461 15.980043 0.228457 -0.318200 15.998176 0.160980 -0.266479 0.367405 7.480971 0.837546 -6.982127 21.597273 11.882991 -22.775127 -1.197112 -4.266779 -55.997734 -15.434413 -59.281433 0.000045 -62.249872 0.000040 -122.769881 0.621154 30.047600 -36.205895 -4.848533 -7.181428 -43.117598 58.567918 90.577827 -179.999990 80.174532 179.999975 -53.388529 -19.286541 -30.056711 -19.781154 44.237694 27.454022 23.120069 0.546369 -1.164133 0.899315 2.272691 -2.728734 -0.187944 -0.000001 -0.000001 5.193545 5.473420 -6.641033 29.004234 -0.346544 0.703537 -19.447954 -16.312840 5.668640 0.430505 -0.000014 -0.000003
-0.001345 1.120312 0.001372 -17.138878 -40.360455 -9.913458 7.767496 0.116503 -0.181138 16.062735 0.213656 -0.328564 16.080689 0.141257 -0.281730 0.367406 7.480959 0.837548 -6.982136 21.597273 11.882992 -24.302809 -1.278905 -3.448935 -54.589165 -14.682933 -59.616570 0.000015 -62.202192 -0.000004 -122.665961 0.718058 29.884541 -36.422727 -5.254772 -7.420015 -43.935171 58.704309 91.520168 -179.999959 80.605244 179.999926 -53.334880 -18.895910 -29.781809 -19.934067 44.195231 27.548625 23.108096 0.531153 -1.120701 1.033420 2.198177 -2.733425 -0.132463 0.000007 0.000001 5.024967 5.397079 -6.584078 29.249982 -0.282921 0.791978 -19.550320 -16.337097 5.512092 0.418533 -0.000003 0.000000
-0.001345 1.119985 0.001372 -17.146918 -40.151469 -9.892679 7.843384 0.113444 -0.179551 16.190540 0.201569 -0.384740 16.204673 0.125248 -0.341772 0.367414 7.480960 0.837552 -6.982137 21.597285 11.882992 -25.995354 -1.617093 -2.686338 -53.088362 -14.023795 -59.826028 0.000053 -62.275888 0.000031 -122.538482 0.748682 29.852742 -36.769107 -5.716091 -7.695633 -44.432433 58.586313 92.438235 -179.999822 80.844140 179.999800 -53.110260 -18.631530 -29.490998 -20.083622 44.110893 27.611619 23.069006 0.543832 -1.044464 1.209274 2.022372 -2.730779 -0.084784 -0.000004 0.000002 4.907626 5.353311 -6.455975 29.481802 -0.247625 0.860560 -19.659142 -16.508530 5.333672 0.399495 0.000005 0.000004
-0.001345 1.119626 0.001372 -17.126320 -39.844808 -9.824933 7.922435 0.101933 -0.192090 16.321314 0.172495 -0.477094 16.330524 0.097575 -0.436096 0.367407 7.480960 0.837555 -6.982132 21.597271 11.882992 -27.791433 -2.138665 -2.021116 -51.536516 -13.360621 -59.977384 0.000030 -62.430730 0.000005 -122.298772 0.792327 29.966524 -37.216324 -6.217133 -8.006272 -44.715754 58.343061 93.354526 -179.999946 80.981214 179.999938 -52.833578 -18.415958 -29.209894 -20.221380 43.984989 27.616339 23.021234 0.571653 -0.953741 1.401797 1.784598 -2.718529 -0.055457 -0.000011 -0.000001 4.810835 5.322994 -6.302356 29.717807 -0.233322 0.918565 -19.788528 -16.787929 5.144781 0.384223 -0.000027 -0.000000
-0.001345 1.119267 0.001372 -17.067102 -39.534725 -9.719937 7.974069 0.080127 -0.214040 16.409633 0.121129 -0.572777 16.416717 0.050192 -0.533594 0.367412 7.480952 0.837550 -6.982134 21.597278 11.882995 -29.627065 -2.703452 -1.407435 -49.876325 -12.494273 -60.132308 0.000031 -62.702370 0.000032 -121.929551 0.938272 30.216801 -37.754603 -6.743098 -8.350549 -45.067185 58.154551 94.527400 -179.999953 81.146756 179.999928 -52.575076 -18.206705 -28.982164 -20.367313 43.872103 27.614927 22.968652 0.574730 -0.880254 1.587328 1.552077 -2.702309 -0.045874 -0.000004 -0.000001 4.708169 5.313942 -6.152406 29.945570 -0.249863 0.973415 -19.927595 -17.073940 4.965093 0.338433 -0.000005 -0.000003
-0.001345 1.118944 0.001372 -16.992813 -39.304502 -9.614077 7.992384 0.052872 -0.236942 16.441912 0.055077 -0.642623 16.448972 -0.013432 -0.606872 0.367408 7.480959 0.837549 -6.982127 21.597279 11.882996 -31.447406 -3.178419 -0.824755 -48.113578 -11.492484 -60.326973 0.000025 -62.977586 0.000012 -121.520207 1.171854 30.493858 -38.380118 -7.257896 -8.710189 -45.573440 58.093509 95.967265 -179.999913 81.444619 179.999919 -52.402742 -17.984549 -28.766142 -20.517319 43.809530 27.646930 22.915626 0.545815 -0.831375 1.747064 1.373369 -2.698748 -0.051130 -0.000005 -0.000002 4.599529 5.342159 -6.012849 30.149732 -0.297993 1.013873 -20.058802 -17.296747 4.814998 0.211071 -0.000010 0.000004
-0.001345 1.118643 0.001372 -16.938310 -39.170746 -9.523708 7.993390 0.021163 -0.253647 16.438117 -0.015058 -0.680892 16.443833 -0.082473 -0.649542 0.367412 7.480965 0.837546 -6.982140 21.597274 11.882983 -33.197996 -3.528791 -0.263298 -46.342117 -10.529691 -60.576486 0.000039 -63.165971 0.000029 -121.118613 1.453718 30.780267 -39.071195 -7.708597 -9.050588 -46.084529 58.123762 97.454785 -179.999961 81.815433 179.999945 -52.396553 -17.742717 -28.614280 -20.612451 43.772056 27.665341 22.877520 0.519418 -0.788944 1.863652 1.272485 -2.725228 -0.060109 -0.000009 -0.000003 4.500119 5.370809 -5.917073 30.339043 -0.344104 1.038369 -20.183869 -17.426473 4.701436 0.034741 -0.000016 -0.000002
-0.001345 1.118354 0.001372 -16.916366 -39.097892 -9.434822 7.990773 -0.013187 -0.262177 16.425127 -0.077806 -0.701541 16.427804 -0.144357 -0.673835 0.367408 7.480970 0.837546 -6.982130 21.597264 11.882992 -34.831999 -3.809286 0.265013 -44.608123 -9.577263 -60.857359 0.000033 -63.380327 0.000027 -120.757378 1.718744 31.052009 -39.786562 -8.062005 -9.348581 -46.465034 58.186290 98.814101 -179.999963 82.147478 179.999948 -52.432140 -17.573739 -28.511917 -20.596505 43.727757 27.602851 22.849863 0.513412 -0.743551 1.939163 1.247838 -2.780005 -0.058989 -0.000012 0.000003 4.425502 5.348346 -5.901295 30.521861 -0.360928 1.058467 -20.311703 -17.464885 4.617866 -0.074491 0.000025 0.000001
-0.001345 1.118094 0.001372 -16.912934 -39.048664 -9.340726 7.989680 -0.038171 -0.267533 16.416220 -0.123141 -0.720547 16.416475 -0.189963 -0.695133 0.367408 7.480963 0.837549 -6.982133 21.597282 11.882987 -36.306938 -4.197189 0.875675 -42.982040 -8.446282 -61.199337 0.000011 -63.648313 0.000007 -120.376991 1.997254 31.318849 -40.501622 -8.336960 -9.622835 -46.715355 58.244916 100.007533 -179.999933 82.415457 179.999917 -52.500097 -17.449538 -28.496170 -20.500235 43.680880 27.482394 22.818199 0.509500 -0.704873 1.992598 1.268324 -2.845058 -0.039320 -0.000005 0.000002 4.378293 5.282795 -5.939094 30.689096 -0.352284 1.074525 -20.440371 -17.458160 4.551127 -0.076065 -0.000001 -0.000003
-0.001345 1.117885 0.001372 -16.911050 -39.013163 -9.265797 7.991444 -0.039463 -0.274917 16.413454 -0.125524 -0.745993 16.413510 -0.192913 -0.721093 0.367407 7.480959 0.837549 -6.982133 21.597267 11.882996 -37.571066 -4.822561 1.546482 -41.628496 -7.015354 -61.684880 0.000033 -63.995961 0.000021 -119.791923 2.323826 31.680496 -41.176287 -8.605670 -9.941670 -46.818984 58.243449 100.947864 179.999950 82.556122 -179.999957 -52.653372 -17.344193 -28.558943 -20.411693 43.640107 27.396114 22.790621 0.511235 -0.681454 2.033020 1.282321 -2.909428 0.000025 0.000001 0.000001 4.355716 5.220302 -5.960536 30.814742 -0.308449 1.078295 -20.557836 -17.480073 4.479761 -0.020490 0.000001 -0.000007
