HIERARCHY
ROOT Hips
{
  OFFSET 0 1.1673769999999999 0
  CHANNELS 6 Xposition Yposition Zposition Xrotation Yrotation Zrotation
  JOINT Spine
  {
    OFFSET 0.000003812944337411511 0.10717500000681812 -0.009311
    CHANNELS 3 Xrotation Yrotation Zrotation
    JOINT Spine1
    {
      OFFSET 0 0.1058532983696241 -0.004285186608692496
      CHANNELS 3 Xrotation Yrotation Zrotation
      JOINT Spine2
      {
        OFFSET -8.470329472543003e-22 0.10599345671141647 -0.007812688101110094
        CHANNELS 3 Xrotation Yrotation Zrotation
        JOINT Neck
        {
          OFFSET -8.470329472543003e-22 0.26240299999999994 -0.04488100000000002
          CHANNELS 3 Xrotation Yrotation Zrotation
          JOINT Head
          {
            OFFSET -4.235164736271502e-22 0.17466899999999996 0.05625600000000003
            CHANNELS 3 Xrotation Yrotation Zrotation
            End Site
            {
              OFFSET -4.235164736271502e-22 0.10756799999999966 0.021070000000000005
            }
          }
        }
        JOINT LeftShoulder
        {
          OFFSET 0.10574399999999999 0.23009199999999996 -0.07323000000000002
          CHANNELS 3 Xrotation Yrotation Zrotation
          JOINT LeftArm
          {
            OFFSET 0.14878212914559852 -0.04653266654569688 -0.030693304075147546
            CHANNELS 3 Xrotation Yrotation Zrotation
            JOINT LeftForeArm
            {
              OFFSET 0.24109000000000003 2.220446049250313e-16 -5.551115123125783e-17
              CHANNELS 3 Xrotation Yrotation Zrotation
              JOINT LeftHand
              {
                OFFSET 0.316792 0 -1.1102230246251565e-16
                CHANNELS 3 Xrotation Yrotation Zrotation
                End Site
                {
                  OFFSET 0.1995166749313234 -0.0432441138377333 0.06217329198086369
                }
              }
            }
          }
        }
        JOINT RightShoulder
        {
          OFFSET -0.10574399999999999 0.23009099999999982 -0.07323000000000002
          CHANNELS 3 Xrotation Yrotation Zrotation
          JOINT RightArm
          {
            OFFSET -0.14878040829228295 -0.04653159475972379 -0.030692917709113934
            CHANNELS 3 Xrotation Yrotation Zrotation
            JOINT RightForeArm
            {
              OFFSET -0.24109000000000003 -6.661338147750939e-16 -2.7755575615628914e-17
              CHANNELS 3 Xrotation Yrotation Zrotation
              JOINT RightHand
              {
                OFFSET -0.31679300000631333 -8.881784197001252e-16 -5.551115123125783e-17
                CHANNELS 3 Xrotation Yrotation Zrotation
                End Site
                {
                  OFFSET -0.06265795211397429 -0.10570764472283312 0.03859362014678265
                }
              }
            }
          }
        }
      }
    }
  }
  JOINT LeftUpLeg
  {
    OFFSET 0.12297511767165623 -0.06742078536803264 -0.010003
    CHANNELS 3 Xrotation Yrotation Zrotation
    JOINT LeftLeg
    {
      OFFSET 0 -0.457033849483632 0.010304509991859542
      CHANNELS 3 Xrotation Yrotation Zrotation
      JOINT LeftFoot
      {
        OFFSET 0 -0.500280623664138 -0.036905110570505176
        CHANNELS 3 Xrotation Yrotation Zrotation
        JOINT LeftToeBase
        {
          OFFSET 0.025950805788189563 -0.14255151365608373 0.19507593811975638
          CHANNELS 3 Xrotation Yrotation Zrotation
          End Site
          {
            OFFSET 0.010732117804750613 -0.000035441498015504746 0.11362327680684622
          }
        }
      }
    }
  }
  JOINT RightUpLeg
  {
    OFFSET -0.12297488233495055 -0.0674172146317622 -0.010003
    CHANNELS 3 Xrotation Yrotation Zrotation
    JOINT RightLeg
    {
      OFFSET 0.00000159348816348992 -0.45703784846455486 0.01030460015485039
      CHANNELS 3 Xrotation Yrotation Zrotation
      JOINT RightFoot
      {
        OFFSET -0.0000015934881634621645 -0.5002806236608007 -0.03690511058134042
        CHANNELS 3 Xrotation Yrotation Zrotation
        JOINT RightToeBase
        {
          OFFSET -0.0259497668227143 -0.14255297441554501 0.19507500887383716
          CHANNELS 3 Xrotation Yrotation Zrotation
          End Site
          {
            OFFSET -0.010733201844058626 -0.000035030229497263656 0.11362417898958707
          }
        }
      }
    }
  }
}
MOTION
Frames: 25
Frame Time: 0.03333333333333333
-0.003530 1.130500 0.013143 9.351666 -19.356345 -0.695769 2.747156 1.955762 2.645761 2.722508 -4.399252 0.711483 3.360622 -8.808127 4.639113 12.118096 6.829908 -4.433335 -0.737337 20.027397 8.229672 3.544242 4.755992 -11.623055 -54.038825 -33.116420 -50.381536 -0.000068 -81.882343 -0.000055 -58.768370 25.992608 38.870339 -14.733699 2.115967 -4.463087 -107.662452 41.165972 127.346483 0.000011 29.080675 -0.000008 -49.752457 -7.371289 -31.498734 -45.289600 7.122485 5.509178 66.617935 2.548088 0.069903 -5.872708 -0.102632 1.720930 0.000003 -0.000000 -0.000001 -19.668152 -2.107052 4.611180 21.783186 0.730991 -0.050347 -10.803570 1.005665 -1.238916 -0.000025 0.000000 -0.000001
-0.003530 1.137705 0.013143 10.760595 -20.235279 -0.039292 2.245842 2.627685 2.465982 2.296268 -4.056168 0.576913 2.921865 -8.463198 4.500609 12.049646 6.733684 -4.618611 -1.259771 19.870215 7.933559 3.511151 4.998045 -11.559250 -54.528312 -33.469834 -50.824247 0.000008 -81.721132 0.000018 -59.210755 25.816149 39.219773 -14.772604 2.198896 -4.768572 -107.744013 41.437872 126.873288 0.000006 29.629889 -0.000008 -50.075858 -7.846917 -31.655052 -50.268258 6.341384 8.044558 53.303454 4.194612 0.124680 -6.296128 0.135773 0.051010 -0.000004 -0.000002 0.000001 -13.023586 -3.927620 2.155400 16.226301 4.161273 0.730235 -12.493499 1.000571 -1.483551 -1.596829 -0.000006 0.000002
-0.003530 1.139532 0.013143 11.819821 -21.802258 1.467080 1.852748 3.617195 1.020295 1.939834 -3.486825 0.349794 2.540924 -7.899448 4.267228 11.710238 6.632663 -4.684730 -1.748088 19.790050 8.009809 3.123297 5.479070 -10.511899 -55.322872 -32.962810 -51.735560 -0.000016 -82.057479 -0.000022 -58.386877 25.267589 39.449790 -14.758751 2.584444 -5.122293 -107.006722 40.537026 125.744696 -0.000011 30.479236 -0.000000 -48.921790 -7.365275 -31.254527 -50.936619 5.716394 10.054819 34.940158 7.596541 0.250255 -7.057037 0.227533 -0.430004 0.000011 0.000003 -0.000002 -8.081675 -6.228928 -1.363087 13.154638 8.171926 1.660163 -13.516014 0.950861 -1.917434 -4.803968 -0.000006 0.000002
-0.003530 1.135939 0.013143 12.111671 -24.423631 2.148375 1.549622 5.126268 0.251240 1.663790 -2.681652 0.148831 2.248451 -7.090242 4.060769 11.444183 6.485628 -4.688188 -1.674978 19.748675 8.170237 2.586979 6.304941 -9.136483 -55.944477 -32.234309 -52.929084 0.000038 -82.607958 0.000029 -57.894953 25.483466 40.008313 -14.632896 3.249430 -5.146245 -105.684474 39.449181 124.348075 0.000002 31.681963 -0.000003 -47.753611 -7.654866 -31.044028 -45.053145 5.182522 12.739299 10.016854 9.997498 0.523454 -6.701429 2.676813 1.404526 -0.000007 0.000001 -0.000002 -3.862727 -8.641285 -4.527915 11.975368 9.563645 2.168729 -13.981187 3.054864 -2.146571 -9.709453 -0.000001 0.000003
-0.003530 1.124645 0.013143 11.413292 -29.771537 -0.106783 1.007501 9.108286 2.697439 1.372356 -1.871626 0.125731 1.951635 -6.252438 4.031316 11.683627 6.241728 -4.924939 -0.525476 19.593339 7.688521 2.242066 7.289861 -8.371428 -55.943547 -31.541753 -54.658838 -0.000024 -82.974945 -0.000027 -57.546427 26.095848 40.525941 -14.460006 3.902097 -4.849140 -104.273009 39.297592 123.428700 0.000002 32.746590 -0.000004 -47.204988 -8.713281 -31.008732 -44.313764 2.373489 18.976716 5.346433 10.063922 0.853066 -13.400781 8.092862 3.127685 0.000008 -0.000001 -0.000002 -0.109943 -10.856719 -6.209672 13.061284 8.888815 2.171995 -12.886096 7.274440 -2.540141 -15.734203 0.000002 0.000005
-0.003530 1.115142 0.013143 10.156080 -30.978090 -0.553252 0.608714 8.950690 3.214673 1.123048 -1.386823 -0.098943 1.689194 -5.768001 3.804033 12.142297 6.238313 -4.784486 0.742671 19.848622 7.804360 2.259173 8.227305 -8.596950 -54.946978 -31.798706 -54.880318 -0.000082 -83.090227 -0.000068 -57.574235 26.413782 40.281095 -14.359747 4.279171 -4.658879 -102.975013 39.121375 123.472995 0.000006 33.123339 0.000002 -46.900139 -9.018150 -31.391483 -41.721010 0.958725 18.783868 5.687548 10.103744 0.990150 -16.274649 8.758945 3.729047 0.000001 0.000003 -0.000001 1.774404 -11.376774 -10.101452 18.087563 7.492008 1.893151 -8.596259 3.999294 -4.289823 -20.534570 -0.017216 1.200806
-0.003530 1.103323 0.013143 8.537546 -30.188943 1.349545 0.721728 6.912517 0.938422 0.995925 -1.382600 -0.471503 1.542909 -5.784448 3.432884 12.483370 6.443617 -4.433968 1.774139 20.513276 8.237489 2.500588 8.834023 -9.344466 -54.190644 -32.448615 -54.145265 0.000016 -83.007558 0.000024 -57.609380 26.488706 39.820959 -14.373558 4.365798 -4.863126 -103.050276 38.857552 124.278999 0.000002 32.352961 0.000009 -47.217033 -8.302621 -31.425555 -39.298332 1.424035 13.713169 11.097720 10.365958 0.848741 -13.299091 5.364122 1.646243 0.000007 -0.000000 -0.000002 -1.293106 -7.719856 -15.748550 30.958319 3.683240 0.919359 4.459602 -0.498010 -4.604394 -27.709840 -2.212608 13.830702
-0.003530 1.084828 0.013143 6.935944 -29.225133 2.718696 0.963718 5.158278 -0.815607 1.084037 -1.854640 -0.745130 1.616414 -6.273420 3.161866 12.390941 6.737296 -4.068362 1.844736 21.240635 9.023987 2.686950 8.783286 -9.828524 -54.381265 -32.984722 -52.760387 -0.000002 -83.259553 0.000005 -58.353477 26.316001 40.711600 -14.435015 4.300685 -5.199640 -104.596989 38.430170 124.951248 -0.000003 31.148733 -0.000002 -47.727497 -7.657190 -30.474015 -42.292515 1.756466 9.622361 24.827499 10.279297 0.547078 -2.272922 1.097208 -4.305584 -0.000003 -0.000002 0.000003 -4.674491 -0.250917 -18.352870 43.471921 4.477862 0.315135 20.382826 -2.184330 -3.502896 -21.019679 -11.721792 31.691454
-0.003530 1.073325 0.013143 5.898273 -27.741256 3.202499 1.468115 3.926369 -1.403508 1.522440 -2.714346 -1.003118 2.032659 -7.137999 2.901959 11.867418 7.010472 -3.801374 0.380706 21.636295 10.078850 2.681296 8.117823 -9.713220 -55.127680 -32.823156 -50.980183 0.000034 -84.315313 0.000041 -58.961212 26.202199 42.477709 -14.463103 4.138321 -5.172260 -106.023179 37.452004 125.104104 0.000006 30.670827 -0.000011 -47.235241 -7.185075 -29.028283 -41.621273 3.105223 5.647463 31.327000 7.711803 0.359636 3.383280 -0.265909 -2.808633 -0.000011 0.000004 -0.000001 -11.710667 8.064504 -16.744662 60.897293 5.201834 0.001605 19.586616 -1.873310 -1.041009 -5.678117 -0.912219 9.121050
-0.003530 1.076960 0.013143 5.461848 -25.339333 3.115889 2.153958 2.697205 -0.992539 2.126949 -3.541321 -1.088369 2.628802 -7.956392 2.812055 11.483082 7.122567 -3.810800 -1.297968 21.548504 10.306860 2.594322 7.348095 -9.360887 -55.642021 -32.048622 -50.058234 0.000088 -85.557832 0.000090 -58.958657 26.156654 43.771406 -14.464090 3.827939 -4.756292 -106.268052 36.700936 125.015489 0.000004 31.325208 0.000004 -45.873872 -7.307566 -28.185957 -39.415224 3.920262 2.159146 36.517008 6.035463 0.280140 -2.021817 0.029121 -0.826305 -0.000025 0.000004 0.000000 -20.908318 11.780227 -11.078627 72.316503 3.853400 -0.174697 12.601948 -0.657214 -0.540488 -1.865583 -0.096982 2.978577
-0.003530 1.089891 0.013143 5.524814 -23.947332 2.879199 2.677522 2.230034 -0.118877 2.586097 -3.839292 -0.821798 3.112454 -8.240022 3.079383 11.609028 7.027752 -4.161379 -1.572748 21.256143 9.026727 2.683334 7.039723 -9.554729 -55.957444 -31.836499 -50.861767 -0.000124 -85.453246 -0.000115 -58.684618 25.503686 43.701290 -14.482911 3.536674 -4.497166 -106.330495 37.342281 125.002102 0.000005 31.764145 0.000011 -45.175011 -7.865138 -28.140925 -34.560272 4.276013 -0.766877 37.886468 6.071937 0.258827 -9.012194 0.169191 0.994596 0.000001 0.000003 0.000000 -31.051307 12.355350 -4.818512 76.345617 -0.679186 -0.347610 3.785372 0.484095 -0.383122 -2.791491 -0.218219 4.471374
-0.003530 1.107321 0.013143 5.974442 -24.285539 2.986802 2.780159 2.501195 0.409382 2.697821 -3.728804 -0.354877 3.262561 -8.125117 3.550933 11.993059 6.920640 -4.582008 -0.561465 21.211857 7.425719 3.032408 7.205738 -10.522599 -55.506297 -32.013622 -52.419943 -0.000058 -84.464882 -0.000037 -58.459906 24.056361 42.369150 -14.553721 3.410755 -4.819486 -106.496203 39.059410 125.441381 -0.000013 31.713018 0.000001 -45.204968 -8.400267 -28.875088 -26.832420 4.781196 -3.606912 34.513963 7.055410 0.271291 -14.781426 0.067402 2.693781 0.000011 -0.000002 -0.000003 -39.149211 11.923992 0.391758 72.294969 -4.946223 -0.538858 -2.090731 0.569436 -2.130147 -2.247281 -0.140303 3.571236
-0.003530 1.120087 0.013143 6.650230 -24.497987 3.264654 2.606708 2.375355 0.442953 2.584632 -3.877135 0.081002 3.181543 -8.285503 3.992267 12.107778 7.041912 -4.724666 0.212948 21.672234 7.022290 3.393882 7.213557 -11.494271 -54.451500 -32.048836 -52.841903 -0.000099 -83.902605 -0.000085 -59.462518 22.547110 41.163886 -14.700529 3.207002 -5.564202 -107.233145 40.439341 126.438968 -0.000003 31.484179 0.000003 -45.436229 -9.208188 -30.104739 -17.520347 5.341902 -6.345707 27.316983 7.011750 0.260958 -17.110747 -0.147918 4.033179 0.000008 0.000001 -0.000003 -44.018090 10.561514 3.971882 62.039872 -5.066605 -0.515750 -4.401963 1.240933 -4.965057 0.000010 0.000008 0.000000
-0.003530 1.124022 0.013143 7.285800 -22.898914 3.440263 2.413920 1.134585 0.071633 2.453937 -4.661044 0.403428 3.067945 -9.091307 4.321136 11.864770 7.389296 -4.500781 0.019569 22.472719 7.760295 3.494123 6.649648 -11.698788 -53.389402 -31.564458 -51.689869 -0.000023 -84.343671 -0.000006 -61.356345 21.496157 41.013297 -14.917427 2.678190 -6.327242 -108.651331 40.483414 127.743544 -0.000012 30.945530 -0.000007 -45.398512 -9.925441 -30.894012 -7.742282 5.585300 -8.918060 18.472050 5.136573 0.180474 -16.867197 -0.637667 6.556094 -2.183539 0.000003 0.000000 -45.983740 8.253964 5.434153 47.681637 -0.552447 -0.269186 -5.407335 1.668282 -3.288693 0.000011 0.000004 0.000003
-0.003530 1.121233 0.013143 7.687584 -19.974200 3.144456 2.257286 -0.742317 -0.060906 2.350145 -5.789913 0.678655 2.971429 -10.236271 4.606658 11.618102 7.739426 -4.147151 -0.393514 23.152418 8.435720 3.341877 5.814646 -11.184835 -52.761058 -30.496889 -50.360893 0.000249 -85.433917 0.000238 -62.135102 20.842353 41.939124 -15.151919 1.910152 -6.844841 -110.281467 39.621953 129.008059 -0.000002 29.905864 0.000002 -45.161665 -9.474038 -30.118332 -0.244242 5.336604 -10.478324 13.784657 2.903130 0.071309 -15.967266 -1.063176 8.266071 -7.915281 -0.000003 -0.000003 -45.031560 5.513701 5.630152 29.420510 1.598995 -0.062665 -6.096200 0.992868 3.305411 -0.000004 -0.000004 0.000000
-0.003530 1.115314 0.013143 7.771359 -15.663954 4.040704 1.983400 -3.794815 -1.438809 2.137003 -6.805968 0.756838 2.741193 -11.269777 4.705208 11.711106 8.003901 -3.759545 -0.173568 23.494191 8.812465 3.170992 5.130345 -10.625681 -52.353709 -29.417476 -49.288719 -0.000042 -86.828341 -0.000037 -61.299179 21.334611 43.919678 -15.345390 1.142808 -7.075445 -111.433852 38.473707 130.082006 0.000008 28.480883 -0.000014 -45.706563 -7.809929 -27.783379 8.029290 4.058003 -12.629852 7.956091 0.430872 0.068318 -11.987338 -1.078792 9.305466 -11.831431 -0.000003 0.000003 -40.398500 3.380657 3.752247 7.667027 -3.869459 -0.358309 -4.522747 0.355850 8.813597 0.000015 -0.000002 -0.000004
-0.003530 1.102433 0.013143 7.186706 -8.563282 6.987003 1.344873 -9.483333 -4.761576 1.781775 -7.517715 0.559184 2.336185 -11.996850 4.529384 12.066038 8.125229 -3.550698 0.677600 23.307009 8.957769 3.133949 4.640399 -10.458317 -52.065799 -28.895983 -48.552609 -0.000249 -87.868980 -0.000242 -60.147950 23.526147 46.174845 -15.485752 0.507124 -7.142257 -112.042012 37.699163 130.925698 0.000004 26.933459 -0.000006 -47.891473 -6.333531 -25.295291 15.216587 2.816807 -15.160316 5.649888 -4.535758 0.065565 -5.957093 -0.791031 9.996476 -20.712219 -0.011159 0.092409 -40.865005 1.442647 -0.965790 1.830258 -10.147551 -1.648574 -7.322125 -3.535757 9.504203 0.000008 -0.000001 -0.000003
-0.003530 1.088853 0.013143 6.569114 -5.681799 8.048062 0.966147 -10.683550 -5.472263 1.593288 -7.843928 0.426348 2.122073 -12.311590 4.394020 12.179149 7.931519 -3.938876 1.329838 22.338687 8.206583 3.151719 4.224528 -10.454363 -52.116449 -28.812411 -49.126787 -0.000012 -87.719480 0.000002 -59.324982 25.820664 46.953978 -15.564543 0.114448 -7.148321 -112.215959 38.255288 131.226530 0.000009 26.227129 -0.000003 -50.641290 -6.123910 -24.500150 22.617984 2.621804 -15.927081 2.576375 -6.880908 -0.030942 3.452364 -0.242942 9.940727 -33.038744 -0.173128 0.695322 -40.430213 0.467372 -2.078271 1.443165 -10.145676 -2.470017 -7.173311 -6.409589 3.267269 0.000026 -0.000004 -0.000005
-0.003530 1.067824 0.013143 6.188712 -8.342005 4.394491 1.483328 -6.489980 -0.645318 1.765184 -7.614903 0.778537 2.366244 -12.042489 4.721793 11.998917 7.486282 -4.703588 1.494138 20.957613 6.765259 3.119996 3.936498 -10.329248 -52.875917 -29.481957 -50.643624 -0.000061 -86.331076 -0.000045 -60.311052 26.732217 46.412557 -15.526433 0.210912 -7.073811 -111.691476 40.113147 130.081098 -0.000016 27.562554 0.000007 -52.398987 -8.211988 -26.346592 16.358808 6.686233 -12.136465 22.360276 -5.980930 -0.286349 9.205442 -0.325308 2.427016 -47.315331 -4.324822 8.362798 -42.875777 0.114282 3.788404 11.046475 -10.710266 -2.502000 -2.533058 -2.425998 -10.376018 0.000001 -0.000007 -0.000008
-0.003530 1.044820 0.013143 5.651643 -11.115547 -0.185041 2.076582 -3.029129 4.588610 2.222991 -6.866959 1.378977 2.928635 -11.267479 5.302153 11.725489 7.164398 -5.037555 1.195378 20.150239 6.185352 3.089049 3.911419 -10.243575 -54.099293 -30.990192 -51.005369 0.000012 -84.738155 0.000010 -63.542041 27.013935 45.616994 -15.355648 0.848541 -6.877610 -110.415472 41.069035 127.814465 -0.000004 29.678436 0.000002 -52.583708 -11.670772 -29.623496 7.735333 8.660931 -5.930776 40.477837 -7.523894 -0.496524 17.906729 -2.017041 -10.530400 -39.516415 -24.214563 28.130543 -45.321767 -0.457477 8.020728 21.850810 -10.510240 -2.753708 10.416497 -3.529656 -6.127559 -0.000008 -0.000000 0.000002
-0.003530 1.037524 0.013143 5.330152 -13.109565 -1.785058 2.531212 -1.558870 5.602874 2.687101 -6.043578 1.656910 3.416550 -10.439220 5.578475 11.563772 6.989877 -5.108042 0.879536 19.923846 6.356827 3.123120 4.102335 -10.370818 -54.903554 -31.780395 -50.747943 0.000019 -84.138641 0.000027 -65.314730 28.042410 44.987759 -15.130816 1.636873 -6.509443 -108.877934 40.825169 126.145100 0.000008 31.129768 -0.000011 -52.220785 -13.741153 -31.891752 -1.981341 9.005581 -2.564554 56.967396 -9.295604 -0.580478 16.491791 -4.180212 -11.186734 -21.021410 -7.010794 16.959855 -46.382017 -0.829927 9.892263 33.574984 -9.566762 -2.752065 6.691572 -2.143878 -3.494186 0.000004 -0.000005 -0.000000
-0.003530 1.051106 0.013143 5.577519 -15.493757 -2.551789 2.833090 -0.062844 5.388038 2.945715 -5.496249 1.664812 3.672021 -9.890681 5.594302 11.683411 6.949014 -4.960593 0.852834 19.954419 7.257007 3.174310 4.305403 -10.545073 -54.551212 -31.574610 -50.455587 -0.000142 -84.298341 -0.000122 -64.494180 28.405346 44.265914 -14.925222 2.131461 -5.809003 -107.560706 40.151314 125.910807 -0.000009 31.246036 -0.000001 -50.787151 -13.436137 -32.019713 -13.883189 8.382603 -0.328148 69.721114 -8.873939 -0.370999 9.664113 -1.474197 -8.209237 -11.782619 -2.163849 10.013043 -43.193587 -1.239983 10.982260 38.405458 -9.206078 -2.668501 -1.276623 -0.180869 -2.601236 -0.000083 0.000008 0.000002
-0.003530 1.095360 0.013143 7.347546 -17.861396 -1.813709 2.900395 1.217632 3.767202 2.908158 -4.934008 1.171593 3.588743 -9.333761 5.104451 11.990290 6.907079 -4.613074 0.290585 19.992303 8.217209 3.338398 4.521689 -11.029696 -53.926301 -31.962734 -50.383949 -0.000008 -83.330216 0.000002 -60.865376 27.331497 41.485193 -14.763760 2.190552 -4.762858 -107.280893 40.436855 126.833760 -0.000002 29.838979 0.000002 -49.729127 -9.927812 -31.222675 -32.528944 7.465097 2.924044 72.774992 -0.742409 -0.142966 -0.830076 -0.833786 -2.116200 -5.408640 -0.580532 4.855385 -31.029800 -1.370785 8.189961 31.775199 -4.886648 -1.737689 -7.977694 0.904251 -1.754071 -0.000006 0.000007 0.000001
-0.003530 1.122083 0.013143 8.776213 -18.953052 -0.974829 2.827174 1.749293 2.814267 2.795821 -4.560881 0.818617 3.443821 -8.967283 4.748516 12.104176 6.857232 -4.447231 -0.395352 20.019795 8.328042 3.489954 4.674693 -11.465550 -53.943539 -32.789919 -50.337232 -0.000089 -82.279980 -0.000071 -59.137507 26.350107 39.583334 -14.729613 2.120143 -4.433225 -107.613747 40.995392 127.305168 0.000007 29.121552 -0.000007 -49.753621 -7.857645 -31.224835 -42.542605 7.111732 4.831163 69.298828 2.684877 0.061668 -5.173497 -0.626762 0.876705 -0.377399 -0.004564 0.346316 -22.819651 -1.812451 5.565906 25.188442 -0.971322 -0.587648 -10.745158 1.052343 -1.320883 -0.000015 0.000000 -0.000001
-0.003530 1.130500 0.013143 9.351666 -19.356345 -0.695769 2.747156 1.955762 2.645761 2.722508 -4.399252 0.711483 3.360622 -8.808127 4.639113 12.118096 6.829908 -4.433335 -0.737337 20.027397 8.229672 3.544242 4.755992 -11.623055 -54.038825 -33.116420 -50.381536 -0.000068 -81.882343 -0.000055 -58.768370 25.992608 38.870339 -14.733699 2.115967 -4.463087 -107.662452 41.165972 127.346483 0.000011 29.080675 -0.000008 -49.752457 -7.371289 -31.498734 -45.289600 7.122485 5.509178 66.617935 2.548088 0.069903 -5.872708 -0.102632 1.720930 0.000003 -0.000000 -0.000001 -19.668152 -2.107052 4.611180 21.783186 0.730991 -0.050347 -10.803570 1.005665 -1.238916 -0.000025 0.000000 -0.000001
