HIERARCHY
ROOT Hips
{
  OFFSET 0 1.1673769999999999 0
  CHANNELS 6 Xposition Yposition Zposition Xrotation Yrotation Zrotation
  JOINT Spine
  {
    OFFSET 0.000003812944337411511 0.10717500000681812 -0.009311
    CHANNELS 3 Xrotation Yrotation Zrotation
    JOINT Spine1
    {
      OFFSET 0 0.1058532983696241 -0.004285186608692496
      CHANNELS 3 Xrotation Yrotation Zrotation
      JOINT Spine2
      {
        OFFSET -8.470329472543003e-22 0.10599345671141647 -0.007812688101110094
        CHANNELS 3 Xrotation Yrotation Zrotation
        JOINT Neck
        {
          OFFSET -8.470329472543003e-22 0.26240299999999994 -0.04488100000000002
          CHANNELS 3 Xrotation Yrotation Zrotation
          JOINT Head
          {
            OFFSET -4.235164736271502e-22 0.17466899999999996 0.05625600000000003
            CHANNELS 3 Xrotation Yrotation Zrotation
            End Site
            {
              OFFSET -4.235164736271502e-22 0.10756799999999966 0.021070000000000005
            }
          }
        }
        JOINT LeftShoulder
        {
          OFFSET 0.10574399999999999 0.23009199999999996 -0.07323000000000002
          CHANNELS 3 Xrotation Yrotation Zrotation
          JOINT LeftArm
          {
            OFFSET 0.14878212914559852 -0.04653266654569688 -0.030693304075147546
            CHANNELS 3 Xrotation Yrotation Zrotation
            JOINT LeftForeArm
            {
              OFFSET 0.24109000000000003 2.220446049250313e-16 -5.551115123125783e-17
              CHANNELS 3 Xrotation Yrotation Zrotation
              JOINT LeftHand
              {
                OFFSET 0.316792 0 -1.1102230246251565e-16
                CHANNELS 3 Xrotation Yrotation Zrotation
                End Site
                {
                  OFFSET 0.06265729429771016 -0.10569948639925819 0.03859412819617963
                }
              }
            }
          }
        }
        JOINT RightShoulder
        {
          OFFSET -0.10574399999999999 0.23009099999999982 -0.07323000000000002
          CHANNELS 3 Xrotation Yrotation Zrotation
          JOINT RightArm
          {
            OFFSET -0.14878040829228295 -0.04653159475972379 -0.030692917709113934
            CHANNELS 3 Xrotation Yrotation Zrotation
            JOINT RightForeArm
            {
              OFFSET -0.24109000000000003 -6.661338147750939e-16 -2.7755575615628914e-17
              CHANNELS 3 Xrotation Yrotation Zrotation
              JOINT RightHand
              {
                OFFSET -0.31679300000631333 -8.881784197001252e-16 -5.551115123125783e-17
                CHANNELS 3 Xrotation Yrotation Zrotation
                End Site
                {
                  OFFSET -0.06265795211397429 -0.10570764472283312 0.03859362014678265
                }
              }
            }
          }
        }
      }
    }
  }
  JOINT LeftUpLeg
  {
    OFFSET 0.12297511767165623 -0.06742078536803264 -0.010003
    CHANNELS 3 Xrotation Yrotation Zrotation
    JOINT LeftLeg
    {
      OFFSET 0 -0.457033849483632 0.010304509991859542
      CHANNELS 3 Xrotation Yrotation Zrotation
      JOINT LeftFoot
      {
        OFFSET 0 -0.500280623664138 -0.036905110570505176
        CHANNELS 3 Xrotation Yrotation Zrotation
        JOINT LeftToeBase
        {
          OFFSET 0.025950805788189563 -0.14255151365608373 0.19507593811975638
          CHANNELS 3 Xrotation Yrotation Zrotation
          End Site
          {
            OFFSET 0.010732117804750613 -0.000035441498015504746 0.11362327680684622
          }
        }
      }
    }
  }
  JOINT RightUpLeg
  {
    OFFSET -0.12297488233495055 -0.0674172146317622 -0.010003
    CHANNELS 3 Xrotation Yrotation Zrotation
    JOINT RightLeg
    {
      OFFSET 0.00000159348816348992 -0.45703784846455486 0.01030460015485039
      CHANNELS 3 Xrotation Yrotation Zrotation
      JOINT RightFoot
      {
        OFFSET -0.0000015934881634621645 -0.5002806236608007 -0.03690511058134042
        CHANNELS 3 Xrotation Yrotation Zrotation
        JOINT RightToeBase
        {
          OFFSET -0.0259497668227143 -0.14255297441554501 0.19507500887383716
          CHANNELS 3 Xrotation Yrotation Zrotation
          End Site
          {
            OFFSET -0.010733201844058626 -0.000035030229497263656 0.11362417898958707
          }
        }
      }
    }
  }
}
MOTION
Frames: 103
Frame Time: 0.03333333333333333
0.100039 0.897050 0.298654 15.220655 -3.374490 11.685704 9.908173 0.573849 -2.415218 18.182217 2.048005 -3.876654 17.485606 1.878541 -3.841351 -8.150477 -4.365924 -7.291342 -32.211519 -31.468903 15.282924 1.733606 3.877019 -9.472018 -23.062600 -3.205111 -12.451873 -7.010486 -56.551358 -21.840693 -54.784152 -19.506900 -15.020232 4.499213 9.282571 3.012152 -32.784209 -23.231706 19.832216 -43.507093 62.452143 45.374889 -13.883359 23.849509 -2.595415 -68.683744 9.776375 27.627074 51.380713 -18.623852 -10.452854 -3.442239 -23.072476 -9.680610 -7.020358 -13.105800 -0.439856 -61.297149 -2.714578 -58.811408 71.257461 4.649933 4.324896 -32.358898 26.463940 17.860800 -11.134473 8.212916 23.455372
0.100039 0.896808 0.298654 15.238501 -5.492383 12.378515 10.082751 0.434784 -2.281919 18.448280 1.790403 -3.620903 17.694140 1.612689 -3.582610 -8.143879 -5.010461 -7.199715 -32.425843 -34.428065 15.322989 1.905995 3.505669 -9.281321 -23.373548 -3.043652 -12.799418 -7.420755 -57.099416 -22.047059 -54.784152 -19.506899 -15.020232 4.587365 9.247715 3.114266 -32.576551 -23.046633 20.135648 -44.397341 62.911922 46.372851 -14.702608 24.042818 -2.229777 -67.932106 9.809278 28.771374 51.969559 -17.712849 -11.199354 -4.246465 -23.070311 -9.636544 -6.809406 -13.108846 -0.439697 -62.670091 -1.851002 -58.873060 71.129123 4.676212 4.499523 -30.856235 27.707702 17.735032 -11.125447 9.042314 23.594486
0.100039 0.897252 0.298654 15.238585 -7.636603 13.036122 10.240341 0.300755 -2.157598 18.692957 1.544662 -3.371754 17.879087 1.363403 -3.331354 -8.088796 -5.602917 -7.089394 -32.749350 -37.076799 15.185155 2.074200 3.164424 -9.082979 -23.600560 -3.103709 -13.179769 -7.819659 -57.501321 -22.232452 -54.784151 -19.506899 -15.020232 4.692014 9.268009 3.207799 -32.251920 -22.740724 20.485554 -45.243864 63.326650 47.317998 -15.323533 24.205744 -1.862961 -66.983549 9.844792 29.873695 52.337406 -16.724502 -11.887097 -5.000623 -23.045166 -9.755274 -6.527150 -13.111000 -0.439488 -63.975424 -1.131527 -58.718466 70.935814 4.636520 4.671517 -29.312504 28.923504 17.497485 -11.104454 9.860883 23.612065
0.100039 0.897989 0.298654 15.307984 -9.775428 13.708702 10.375479 0.163676 -2.050630 18.893292 1.298054 -3.142875 18.017647 1.117583 -3.101847 -8.057022 -6.153574 -6.902902 -33.208504 -39.402655 14.915159 2.244156 2.829437 -8.863292 -23.755774 -3.111181 -13.511140 -8.229847 -57.882166 -22.424323 -54.784150 -19.506896 -15.020230 4.799476 9.287340 3.339630 -31.996742 -22.338705 20.771918 -45.971911 63.665155 48.127667 -15.732525 24.284535 -1.593151 -65.985728 9.939304 30.950905 52.514590 -15.679075 -12.548435 -5.654713 -23.002109 -9.985635 -6.199351 -13.112755 -0.439255 -65.292267 -0.468835 -58.374652 70.712473 4.565380 4.844343 -27.747216 30.094484 17.199827 -11.025503 10.621829 23.511266
0.100039 0.898795 0.298654 15.487520 -11.885616 14.436500 10.500894 0.021538 -1.955654 19.060778 1.048844 -2.933264 18.121519 0.869238 -2.892859 -8.105176 -6.640244 -6.670781 -33.761081 -41.361505 14.621488 2.414596 2.506204 -8.632621 -23.843619 -2.982117 -13.741831 -8.669723 -58.320234 -22.644799 -54.784152 -19.506900 -15.020232 4.895037 9.250852 3.483664 -31.890401 -21.910855 20.964081 -46.527189 63.910047 48.742834 -16.074292 24.379402 -1.397002 -65.015523 10.129006 32.005561 52.518546 -14.606856 -13.194162 -6.185013 -22.945383 -10.298132 -5.880927 -13.114281 -0.438979 -66.658006 0.183731 -57.867269 70.480766 4.475946 5.019660 -26.172585 31.215094 16.870342 -10.869462 11.304011 23.298381
0.100039 0.899653 0.298654 15.759856 -13.950545 15.246103 10.631570 -0.124451 -1.854642 19.224876 0.799708 -2.713886 18.220405 0.618348 -2.674754 -8.220014 -7.027816 -6.496909 -34.363236 -42.925154 14.345682 2.578748 2.226799 -8.423275 -23.822235 -2.875461 -13.883512 -9.122458 -58.739615 -22.874185 -54.784151 -19.506899 -15.020232 4.974986 9.154252 3.540418 -31.954296 -21.589546 21.093370 -46.906548 64.067670 49.161239 -16.529614 24.577674 -1.104509 -64.049000 10.406972 32.979260 52.363420 -13.506638 -13.800676 -6.615115 -22.872942 -10.703489 -5.625871 -13.115605 -0.438690 -68.054516 0.837288 -57.238456 70.245842 4.362740 5.197229 -24.594175 32.289679 16.508507 -10.648909 11.912268 22.990167
0.100039 0.900588 0.298654 16.080177 -15.955497 16.149599 10.768591 -0.274522 -1.732752 19.398661 0.547972 -2.451642 18.327403 0.363504 -2.414395 -8.357870 -7.297919 -6.475867 -34.987020 -44.104293 14.025217 2.729056 2.025328 -8.265302 -23.669578 -2.984289 -13.999189 -9.552521 -59.016993 -23.071440 -54.784151 -19.506899 -15.020232 5.046984 9.035961 3.414642 -32.194083 -21.535114 21.235426 -47.238523 64.200749 49.526528 -17.089853 24.817809 -0.596865 -63.086285 10.789045 33.703533 52.032754 -12.826822 -14.189951 -7.015331 -22.263537 -11.204447 -5.415174 -13.115536 -0.438244 -69.436385 1.491631 -56.543210 70.008232 4.218320 5.376716 -23.018047 33.323996 16.107035 -10.386774 12.462342 22.607972
0.100039 0.901576 0.298654 16.416010 -17.886167 17.137740 10.903682 -0.429438 -1.589313 19.572186 0.288926 -2.139163 18.432400 0.102221 -2.104880 -8.504583 -7.469485 -6.617403 -35.621164 -44.970998 13.571772 2.863477 1.901798 -8.158989 -23.459345 -3.308968 -14.159817 -9.952922 -59.151356 -23.229175 -54.784151 -19.506897 -15.020231 5.121832 8.934307 3.119363 -32.545069 -21.780720 21.434428 -47.704491 64.390000 50.040066 -17.553074 24.997016 -0.032907 -62.107442 11.241662 34.122061 51.536909 -12.660520 -14.327214 -7.410116 -20.980886 -11.782394 -5.161952 -13.114227 -0.437683 -70.765736 2.140488 -55.820186 69.778283 4.040495 5.558260 -21.464141 34.320733 15.663109 -10.100972 12.960411 22.164512
0.100039 0.902575 0.298654 16.761034 -19.728539 18.171817 11.032937 -0.587431 -1.432764 19.734306 0.024040 -1.794522 18.524451 -0.164205 -1.764371 -8.671757 -7.592379 -6.838907 -36.289823 -45.651370 12.947642 2.998722 1.804722 -8.071161 -23.321069 -3.641941 -14.400238 -10.362162 -59.288548 -23.392713 -54.784152 -19.506899 -15.020232 5.204707 8.854469 2.795324 -32.839713 -22.109437 21.632487 -48.338193 64.645507 50.738539 -17.778156 25.122732 0.271699 -61.059855 11.694003 34.387840 50.941606 -12.465640 -14.411988 -7.747417 -19.643799 -12.418760 -4.842145 -13.111971 -0.437058 -72.019189 2.758040 -55.070390 69.575726 3.827903 5.742464 -19.972019 35.281417 15.169363 -9.806580 13.389634 21.659269
0.100039 0.903575 0.298654 17.128497 -21.476290 19.195934 11.157163 -0.742874 -1.268897 19.880137 -0.237175 -1.439429 18.598755 -0.428825 -1.414009 -8.851314 -7.712813 -7.037540 -37.035244 -46.259039 12.180488 3.143549 1.666703 -7.961363 -23.312826 -3.765291 -14.697705 -10.822375 -59.559542 -23.611400 -54.784151 -19.506898 -15.020231 5.294147 8.777396 2.583387 -32.907754 -22.211584 21.745812 -48.983718 64.897095 51.448716 -17.859800 25.256312 0.224387 -60.026662 12.192789 34.625497 50.237911 -12.336045 -14.464015 -7.977311 -18.272204 -13.053390 -4.531959 -13.109859 -0.436515 -73.186895 3.301580 -54.262707 69.417074 3.577360 5.929705 -18.583306 36.209902 14.608350 -9.520185 13.719031 21.087078
0.100039 0.904586 0.298654 17.546661 -23.147232 20.170186 11.270319 -0.888687 -1.099413 19.997744 -0.481028 -1.087466 18.643560 -0.680307 -1.066649 -9.007500 -7.838009 -7.173419 -37.852475 -46.814830 11.351191 3.305073 1.464518 -7.817792 -23.355166 -3.643420 -14.982770 -11.327509 -59.926661 -23.878183 -54.784152 -19.506900 -15.020233 5.387783 8.695000 2.484164 -32.709694 -22.002246 21.813456 -49.499213 65.088689 52.014271 -17.995574 25.382581 0.086407 -59.083460 12.784459 34.983799 49.417372 -12.279475 -14.531359 -8.054928 -16.974872 -13.642303 -4.373566 -13.109272 -0.436007 -74.284546 3.734837 -53.350099 69.302624 3.287427 6.120259 -17.304690 37.112276 13.963892 -9.442448 13.864849 20.301504
0.100039 0.905548 0.298654 18.056015 -24.787354 21.089592 11.360983 -1.019792 -0.929625 20.070564 -0.698148 -0.752368 18.642274 -0.909131 -0.735704 -9.120636 -7.937098 -7.273264 -38.665352 -47.237592 10.571878 3.473665 1.243102 -7.658103 -23.302414 -3.400240 -15.167037 -11.825995 -60.233182 -24.133621 -54.784152 -19.506899 -15.020232 5.488573 8.629940 2.385014 -32.355874 -21.676854 22.009284 -49.942746 65.247232 52.499790 -18.242720 25.418359 0.193133 -58.268214 13.494303 35.628814 48.508479 -12.092012 -14.725404 -7.954356 -16.053996 -14.168610 -4.363055 -13.109738 -0.437692 -75.356310 4.040948 -52.283648 69.217472 2.961134 6.314245 -16.098138 37.994211 13.234970 -9.593667 13.846523 19.298264
0.100039 0.906303 0.298654 18.689767 -26.440920 21.967950 11.428095 -1.137626 -0.771028 20.101004 -0.894051 -0.452155 18.597353 -1.118412 -0.439753 -9.216516 -7.982703 -7.362954 -39.392764 -47.443919 9.933008 3.632958 1.066213 -7.499912 -23.064754 -3.129957 -15.176426 -12.277715 -60.384349 -24.332146 -54.784151 -19.506897 -15.020231 5.603924 8.616612 2.210368 -31.999970 -21.433705 22.482819 -50.475697 65.435955 53.083130 -18.470244 25.316938 0.655842 -57.632809 14.344791 36.643655 47.551911 -11.772514 -15.075936 -7.691315 -15.549805 -14.618346 -4.366507 -13.110205 -0.437238 -76.442668 4.218408 -51.035128 69.151314 2.605569 6.512158 -14.919836 38.857909 12.435900 -9.712616 13.784457 18.278317
0.100039 0.906655 0.298654 19.445402 -28.099446 22.813919 11.486534 -1.251399 -0.632497 20.118328 -1.089577 -0.194273 18.537954 -1.325969 -0.187084 -9.335230 -7.990962 -7.424103 -40.030178 -47.480727 9.438427 3.787549 0.940029 -7.339028 -22.665942 -2.791003 -14.990923 -12.693389 -60.427672 -24.486779 -54.784151 -19.506898 -15.020231 5.736862 8.663582 1.998418 -31.711117 -21.259013 23.213026 -51.139203 65.667237 53.808999 -18.537933 25.104694 1.379967 -57.194317 15.279797 37.973349 46.614165 -11.359279 -15.537432 -7.321222 -15.363460 -15.015078 -4.367817 -13.110545 -0.434929 -77.589479 4.314525 -49.616298 69.242239 2.198916 6.716591 -13.822975 39.738926 11.334227 -9.593790 13.735933 17.396255
0.100039 0.906499 0.298654 20.273677 -29.676254 23.628876 11.554009 -1.370491 -0.510601 20.155119 -1.304853 0.036718 18.496586 -1.550306 0.036862 -9.481857 -8.015317 -7.422873 -40.646626 -47.541481 9.004675 3.949548 0.796212 -7.154908 -22.221768 -2.308663 -14.669701 -13.107789 -60.460314 -24.637957 -54.784151 -19.506898 -15.020231 5.880860 8.739848 1.832122 -31.448021 -21.024805 24.031960 -51.810202 65.893259 54.541945 -18.459609 24.812676 2.258060 -56.914445 16.156881 39.376652 45.755370 -10.927227 -15.977208 -6.926871 -15.257933 -15.425669 -4.367622 -13.110573 -0.433105 -78.753916 4.374536 -48.134866 69.519079 1.760187 6.930460 -12.859736 40.626024 9.960273 -9.220852 13.662582 16.688417
0.100039 0.905885 0.298654 21.098325 -31.040008 24.419776 11.639358 -1.496852 -0.393418 20.225196 -1.541758 0.267245 18.487285 -1.793655 0.258431 -9.625077 -8.101657 -7.354112 -41.310880 -47.822568 8.533013 4.135734 0.550517 -6.933722 -21.883919 -1.738799 -14.330384 -13.529858 -60.505480 -24.796325 -54.784151 -19.506897 -15.020231 6.024252 8.800582 1.744880 -31.142319 -20.707505 24.767064 -52.345349 66.065242 55.125094 -18.364163 24.436109 3.257294 -56.700459 16.816983 40.508135 44.991621 -10.545792 -16.237506 -6.587272 -14.981883 -15.933394 -4.365910 -13.110379 -0.431549 -79.823213 4.441734 -46.771899 69.843249 1.345155 7.154278 -12.028760 41.462404 8.698783 -8.865553 13.447423 16.004331
0.100039 0.905085 0.298654 21.850511 -32.089230 25.195922 11.744708 -1.620569 -0.271621 20.329246 -1.781713 0.512447 18.511116 -2.038142 0.493350 -9.734407 -8.256769 -7.235870 -42.053871 -48.366270 7.957502 4.353638 0.172554 -6.676699 -21.785891 -1.274422 -14.096416 -13.934866 -60.506834 -24.933945 -54.784151 -19.506898 -15.020231 6.159634 8.820464 1.717855 -30.788937 -20.417798 25.330427 -52.659537 66.158580 55.466127 -18.359764 24.000170 4.369601 -56.457178 17.196255 41.104812 44.280811 -10.261448 -16.229943 -6.328377 -14.391090 -16.565969 -4.362689 -13.109952 -0.429760 -80.758465 4.582918 -45.662261 70.182292 0.955364 7.387136 -11.347882 42.246682 7.612009 -8.553358 13.078735 15.390256
0.100039 0.904287 0.298654 22.490644 -32.810025 25.953877 11.872528 -1.730629 -0.149071 20.468031 -1.996840 0.767349 18.569400 -2.255595 0.737632 -9.801930 -8.457702 -7.075748 -42.887800 -49.053947 7.238604 4.594458 -0.300469 -6.391185 -21.994865 -1.076208 -14.052532 -14.304779 -60.429132 -25.030423 -54.784151 -19.506897 -15.020231 6.287026 8.802175 1.733214 -30.448012 -20.229255 25.699336 -52.670375 66.149162 55.475457 -18.491139 23.604706 5.560136 -56.150905 17.368903 41.186637 43.569573 -10.039374 -16.017172 -6.099197 -13.592312 -17.269950 -4.357998 -13.109397 -0.427733 -81.560059 4.820130 -44.851106 70.528496 0.583565 7.628120 -10.810020 42.986289 6.701027 -8.289252 12.588547 14.857772
0.100039 0.903636 0.298654 23.020346 -33.282872 26.662185 12.025418 -1.816121 -0.033063 20.640519 -2.166526 1.015843 18.661517 -2.425048 0.976041 -9.835203 -8.674634 -6.871679 -43.816828 -49.724985 6.366465 4.841943 -0.796136 -6.086993 -22.460406 -1.124130 -14.211407 -14.663300 -60.330722 -25.113393 -54.784151 -19.506898 -15.020232 6.411178 8.765565 1.789429 -30.180817 -20.057603 25.874798 -52.304398 66.011834 55.072645 -18.765493 23.329373 6.764518 -55.826557 17.489485 41.018510 42.840244 -9.802861 -15.761796 -5.824572 -12.852734 -17.928782 -4.349590 -13.108714 -0.424927 -82.236195 5.099961 -44.284750 70.854323 0.212704 7.874917 -10.374280 43.692209 5.930690 -8.075438 12.037933 14.415224
0.100039 0.903145 0.298654 23.471241 -33.627848 27.275435 12.185792 -1.874246 0.075311 20.834005 -2.291289 1.245468 18.774477 -2.548447 1.196352 -9.848052 -8.876731 -6.652762 -44.819273 -50.277662 5.392383 5.079586 -1.235510 -5.785572 -22.994061 -1.268052 -14.494732 -15.058357 -60.315905 -25.238411 -54.784152 -19.506899 -15.020232 6.538985 8.737682 1.860333 -30.013139 -19.747634 25.888089 -51.634073 65.764728 54.335773 -19.142026 23.115444 7.894123 -55.568246 17.672812 40.914371 42.138112 -9.503777 -15.608769 -5.482264 -12.408846 -18.444188 -4.333938 -13.107951 -0.420489 -82.800158 5.336649 -43.861611 71.134006 -0.174437 8.125303 -9.994627 44.373117 5.260006 -7.913705 11.487622 14.067398
0.100039 0.902547 0.298654 23.873839 -33.928974 27.763463 12.346693 -1.916425 0.180774 21.026243 -2.390875 1.456481 18.885503 -2.649339 1.398807 -9.860315 -9.032170 -6.497878 -45.867653 -50.689814 4.406543 5.292762 -1.547977 -5.522703 -23.347173 -1.415775 -14.767458 -15.509802 -60.419861 -25.428793 -54.784151 -19.506898 -15.020232 6.677246 8.744573 1.874534 -29.946949 -19.244301 25.813355 -50.933551 65.498227 53.564302 -19.546949 22.808457 8.842070 -55.452075 17.921148 41.056125 41.560835 -9.159381 -15.610642 -5.115596 -12.325344 -18.790451 -4.317037 -13.107107 -0.415785 -83.288752 5.486501 -43.508312 71.397486 -0.582621 8.379638 -9.652138 45.034586 4.656406 -8.066558 10.909357 13.585887
0.100039 0.901529 0.298654 24.234945 -34.195888 28.125843 12.493463 -1.955859 0.288729 21.200163 -2.483170 1.656784 18.976646 -2.748833 1.590930 -9.892994 -9.123128 -6.489403 -46.992588 -50.997852 3.442306 5.473131 -1.696603 -5.326858 -23.387020 -1.620894 -14.924669 -15.989440 -60.576217 -25.652382 -54.784151 -19.506898 -15.020232 6.828007 8.799205 1.763114 -29.970675 -18.641562 25.723915 -50.515425 65.329968 53.102065 -19.976676 22.310028 9.530744 -55.512912 18.157611 41.429866 41.201828 -8.822962 -15.735059 -4.784579 -12.501661 -18.993076 -4.308060 -13.104634 -0.412739 -83.744864 5.566040 -43.224713 71.697546 -1.007444 8.639994 -9.348851 45.678612 4.107471 -8.238046 10.387113 13.155260
0.100039 0.899840 0.298654 24.537197 -34.377545 28.390464 12.625812 -1.997567 0.391709 21.353756 -2.562931 1.843857 19.046139 -2.840783 1.770391 -9.956912 -9.160697 -6.638605 -48.281591 -51.248102 2.434733 5.625744 -1.708396 -5.189689 -23.235220 -1.968199 -14.954002 -16.464534 -60.717988 -25.871912 -54.784152 -19.506900 -15.020232 6.995331 8.894222 1.528510 -30.051091 -18.078282 25.629465 -50.495852 65.311208 53.078178 -20.546125 21.642278 9.991225 -55.745203 18.302139 41.899909 41.103304 -8.539647 -15.920595 -4.521205 -12.797928 -19.092662 -4.307291 -13.101727 -0.411441 -84.212810 5.637109 -43.072871 72.094682 -1.441153 8.908913 -9.097506 46.305693 3.610134 -8.390826 9.929147 12.766530
0.100039 0.897908 0.298654 24.771524 -34.416272 28.586283 12.753565 -2.021185 0.478481 21.497611 -2.603868 1.995829 19.105482 -2.893458 1.915881 -10.050733 -9.165354 -6.866570 -49.743351 -51.404902 1.337843 5.767717 -1.664918 -5.067378 -23.210594 -2.440851 -14.922468 -16.950233 -60.875344 -26.105142 -54.784151 -19.506898 -15.020231 7.170991 9.011229 1.250706 -30.149764 -17.620828 25.478093 -50.703800 65.378780 53.304795 -21.351965 20.879782 10.375843 -56.135933 18.349984 42.228838 41.225392 -8.392978 -15.983549 -4.359825 -13.041105 -19.148988 -4.309783 -13.098683 -0.410817 -84.676364 5.713407 -43.117983 72.507948 -1.901257 9.182445 -8.867061 46.913362 3.186515 -8.561309 9.541329 12.462548
0.100039 0.895974 0.298654 24.928437 -34.268496 28.729726 12.889535 -2.022936 0.525175 21.648389 -2.583424 2.089264 19.172409 -2.878856 2.004694 -10.170035 -9.121981 -7.067347 -51.186766 -51.263212 0.272192 5.915463 -1.641278 -4.917612 -23.595581 -2.953663 -14.914302 -17.491192 -61.125609 -26.403535 -54.784151 -19.506898 -15.020231 7.348411 9.138707 1.014189 -30.265984 -17.235818 25.227939 -50.803741 65.405897 53.412606 -22.298326 20.074735 10.828025 -56.568569 18.242405 42.324641 41.478631 -8.283502 -16.019250 -4.254533 -13.210566 -19.143349 -4.313367 -13.095606 -0.410221 -85.066388 5.890375 -43.231981 73.010664 -2.456203 9.507364 -8.710159 46.885219 2.794457 -8.758535 9.696595 12.416594
0.100039 0.894559 0.298654 25.009042 -33.939181 28.776219 13.046655 -1.990070 0.542993 21.826005 -2.504560 2.126367 19.266832 -2.799328 2.039554 -10.307618 -8.962921 -7.179256 -52.323112 -50.449438 -0.532004 6.072647 -1.652025 -4.733656 -24.426748 -3.476036 -14.975611 -18.089123 -61.460896 -26.768972 -54.784151 -19.506898 -15.020231 7.531403 9.276174 0.839620 -30.444500 -16.831575 24.904409 -50.543386 65.298323 53.124157 -23.125209 19.277895 11.322511 -56.979539 17.966792 42.181704 41.765253 -8.158533 -16.056104 -4.179990 -13.353700 -19.069554 -4.316871 -13.092168 -0.409807 -85.343797 6.103033 -43.446595 73.228687 -2.619452 9.647622 -8.643334 46.861348 2.743680 -8.862572 9.725836 12.450021
0.100039 0.893875 0.298654 25.000823 -33.444366 28.660885 13.231476 -1.935767 0.551276 22.045160 -2.392179 2.135052 19.402759 -2.684164 2.049030 -10.436779 -8.600951 -7.193473 -53.016505 -48.502400 -0.982299 6.232126 -1.665042 -4.539154 -25.490534 -4.056781 -15.094963 -18.678124 -61.765079 -27.126587 -54.784152 -19.506900 -15.020232 7.718176 9.422036 0.687964 -30.725622 -16.331165 24.588334 -49.934996 65.054946 52.451925 -23.626252 18.588124 11.702458 -57.388234 17.559132 41.886491 42.050770 -8.013986 -16.095128 -4.105597 -13.543209 -18.914433 -4.321347 -13.088624 -0.409748 -85.418990 6.304944 -43.738841 73.165201 -2.527961 9.638704 -8.717797 46.823724 3.071512 -8.916926 9.453394 12.601942
0.100039 0.893863 0.298654 24.894097 -32.805220 28.346686 13.436026 -1.877360 0.555905 22.295460 -2.271279 2.136238 19.568857 -2.562415 2.050822 -10.497361 -7.973138 -7.122805 -53.353243 -44.989211 -1.228214 6.388844 -1.660509 -4.354942 -26.502653 -4.713757 -15.215299 -19.194789 -61.945680 -27.404991 -54.784152 -19.506899 -15.020232 7.906954 9.566783 0.506774 -31.094180 -15.761758 24.365946 -49.235242 64.767222 51.677405 -23.807812 18.093748 11.902975 -57.850969 17.086351 41.551559 42.361447 -7.834457 -16.136421 -4.006056 -13.884516 -18.656430 -4.323331 -13.085068 -0.408959 -85.277899 6.443519 -44.021777 72.930233 -2.366360 9.477797 -8.995110 46.534300 3.744502 -8.857556 9.107994 12.806106
0.100039 0.894291 0.298654 24.694919 -32.039968 27.859321 13.636539 -1.819710 0.556194 22.534036 -2.154942 2.118251 19.722194 -2.447372 2.035173 -10.415065 -7.061346 -6.991444 -53.456992 -39.688079 -1.462400 6.546946 -1.659777 -4.176841 -27.306360 -5.329181 -15.266270 -19.662527 -62.051357 -27.631677 -54.784152 -19.506900 -15.020233 8.095680 9.702814 0.261284 -31.475903 -15.281297 24.289878 -48.783564 64.573310 51.175974 -23.831751 17.753316 12.066194 -58.414601 16.625745 41.229588 42.726098 -7.678489 -16.169755 -3.890247 -14.409289 -18.282105 -4.324223 -13.081397 -0.407519 -84.924512 6.526188 -44.412084 72.584558 -2.187122 9.310399 -9.397251 46.152536 4.617773 -8.882953 8.715712 13.081604
0.100039 0.894875 0.298654 24.412343 -31.152383 27.268847 13.810369 -1.766592 0.532653 22.716119 -2.050792 2.050376 19.818150 -2.342750 1.969524 -10.156351 -5.908580 -6.842349 -53.351769 -32.854153 -1.693045 6.713108 -1.690015 -3.989281 -27.936303 -5.709600 -15.202061 -20.176571 -62.226545 -27.914838 -54.784152 -19.506900 -15.020232 8.288105 9.834618 -0.060084 -31.771179 -15.066512 24.360977 -48.832503 64.586167 51.228547 -23.830413 17.408096 12.369733 -59.048021 16.202475 40.921427 43.180447 -7.523857 -16.282539 -3.764310 -15.126319 -17.751464 -4.325712 -13.077706 -0.405513 -84.465190 6.635443 -44.921711 72.326830 -2.013990 9.141533 -9.969844 45.723055 5.336711 -8.957733 8.318620 13.416334
0.100039 0.895463 0.298654 24.051695 -30.139215 26.622732 13.958410 -1.720342 0.472130 22.839834 -1.964826 1.917673 19.855185 -2.251097 1.838184 -9.778685 -4.640128 -6.730789 -53.019332 -25.396345 -1.745088 6.884968 -1.737786 -3.796738 -28.516688 -5.789750 -15.013224 -20.800916 -62.552759 -28.326790 -54.784152 -19.506899 -15.020232 8.486441 9.974217 -0.459399 -31.901006 -15.161340 24.539588 -49.453636 64.833099 51.914058 -23.779680 16.977074 12.762786 -59.748746 15.823557 40.542045 43.772004 -7.429050 -16.400103 -3.683202 -15.934693 -17.097833 -4.330142 -13.073728 -0.403221 -83.872602 6.789286 -45.603626 72.071669 -1.819415 8.970214 -10.662213 45.219505 6.141797 -9.068462 7.940111 13.810788
0.100039 0.896077 0.298654 23.635643 -29.009863 25.917347 14.104263 -1.679253 0.386850 22.947774 -1.895346 1.738336 19.875911 -2.172739 1.659931 -9.422041 -3.442788 -6.718442 -52.508765 -18.669514 -1.444562 7.044514 -1.731062 -3.637645 -29.102471 -5.754070 -14.716178 -21.481281 -62.939903 -28.805961 -54.784152 -19.506899 -15.020232 8.696138 10.133928 -0.971456 -31.858491 -15.481699 24.805251 -50.552922 65.255691 53.125142 -23.551061 16.619725 12.963803 -60.489447 15.435783 40.087428 44.508391 -7.356241 -16.543377 -3.649733 -16.791313 -16.326770 -4.366673 -13.069552 -0.401279 -83.139630 6.959124 -46.431693 71.809899 -1.612973 8.795479 -11.474368 44.646897 7.005974 -9.228875 7.563984 14.269333
0.100039 0.896818 0.298654 23.226640 -27.799892 25.130756 14.267988 -1.640607 0.308501 23.075557 -1.838580 1.551063 19.915420 -2.111505 1.474863 -9.226075 -2.476449 -6.874687 -51.976540 -13.823523 -0.786316 7.160828 -1.562220 -3.550219 -29.633816 -5.888055 -14.375726 -22.042330 -63.161856 -29.155874 -54.784152 -19.506899 -15.020232 8.923527 10.329231 -1.696255 -31.745673 -15.963915 25.213907 -51.981677 65.773894 54.694332 -23.087742 16.607602 12.750740 -61.293268 15.011372 39.629135 45.357744 -7.272523 -16.709635 -3.654712 -17.738924 -15.465116 -4.520427 -13.065843 -0.399710 -82.280311 7.072019 -47.307464 71.514963 -1.417885 8.614711 -12.394468 44.015532 7.869675 -9.460363 7.155591 14.791421
0.100039 0.897430 0.298654 22.890164 -26.558374 24.272712 14.440751 -1.617459 0.255065 23.214833 -1.802660 1.386139 19.964879 -2.082557 1.314101 -9.235007 -1.786826 -7.230905 -51.639406 -11.145476 0.071822 7.210417 -1.159366 -3.515291 -30.050964 -6.278405 -14.125118 -22.313585 -63.027420 -29.186587 -54.784152 -19.506899 -15.020232 9.175357 10.579146 -2.714834 -31.736475 -16.611096 25.830127 -53.663786 66.337853 56.534288 -22.504104 17.005855 12.177396 -62.207033 14.544932 39.261283 46.297839 -7.209046 -16.880173 -3.693810 -18.769622 -14.566233 -4.641854 -13.061787 -0.398610 -81.356843 7.095092 -48.132866 71.212156 -1.232940 8.428743 -13.407036 43.328237 8.733834 -9.729988 6.708644 15.329328
0.100039 0.897992 0.298654 22.640750 -25.334569 23.365572 14.611903 -1.613045 0.222113 23.341539 -1.797041 1.239003 20.000185 -2.092923 1.171751 -9.375427 -1.308900 -7.697976 -51.648430 -9.979835 0.950564 7.205325 -0.580409 -3.459249 -30.413082 -6.731277 -14.058478 -22.323423 -62.581283 -28.929417 -54.784152 -19.506899 -15.020232 9.452527 10.887617 -3.920737 -31.956207 -17.350855 26.557017 -55.590039 66.926712 58.632232 -22.016092 17.557918 11.465494 -63.177258 14.033994 38.978957 47.295528 -7.160891 -17.051995 -3.781922 -19.844487 -13.663427 -4.726407 -13.057459 -0.397650 -80.385591 7.007425 -48.870145 70.873911 -1.061156 8.236459 -14.466978 42.591464 9.585110 -10.021756 6.250747 15.864368
0.100039 0.898625 0.298654 22.416245 -24.156522 22.421319 14.782640 -1.606708 0.176748 23.460853 -1.800806 1.069696 20.027975 -2.110447 1.006538 -9.518563 -0.944062 -8.083995 -51.973778 -9.295077 1.748307 7.196547 -0.015988 -3.334936 -30.846908 -7.039634 -14.085514 -22.320338 -62.130034 -28.662872 -54.784152 -19.506899 -15.020232 9.740598 11.223804 -5.012343 -32.378768 -17.953294 27.119486 -57.708070 67.510566 60.929107 -21.782078 17.906604 10.762703 -64.088557 13.478735 38.713895 48.332195 -7.146092 -17.224318 -3.944807 -20.874693 -12.769576 -4.854180 -13.053007 -0.396781 -79.332789 6.809213 -49.552055 70.496708 -0.919611 8.036285 -15.544015 41.815378 10.394236 -10.346185 5.839870 16.398175
0.100039 0.899261 0.298654 22.141005 -23.025149 21.443430 14.951678 -1.573680 0.086290 23.594734 -1.759088 0.837343 20.071930 -2.070257 0.778559 -9.563316 -0.617259 -8.246916 -52.449029 -8.318351 2.412743 7.238491 0.352098 -3.158106 -31.405041 -7.232583 -14.026888 -22.546912 -61.988027 -28.662448 -54.784152 -19.506900 -15.020232 10.014093 11.530208 -5.737212 -32.843612 -18.200662 27.297706 -59.854179 68.040810 63.247214 -21.829738 17.875562 10.107102 -64.866689 12.894804 38.431823 49.408148 -7.178101 -17.403124 -4.187681 -21.849289 -11.883499 -5.051480 -13.048877 -0.396010 -78.158419 6.513837 -50.234390 70.090750 -0.798401 7.829268 -16.619564 41.002061 11.182513 -10.684973 5.510406 16.919962
0.100039 0.899864 0.298654 21.803130 -21.920281 20.443255 15.117844 -1.484813 -0.046901 23.735384 -1.622914 0.538322 20.125047 -1.922642 0.486523 -9.479136 -0.278385 -8.201306 -52.917988 -6.712875 2.885945 7.346967 0.486812 -2.964921 -32.021216 -7.503354 -13.840983 -23.055959 -62.216664 -28.989441 -54.784152 -19.506899 -15.020232 10.255303 11.755335 -6.095683 -33.181508 -18.101646 27.106152 -61.831723 68.479941 65.376028 -22.158300 17.536805 9.604551 -65.541989 12.329363 38.121311 50.503833 -7.310294 -17.564287 -4.483781 -22.754547 -10.987153 -5.263763 -13.044697 -0.395307 -76.870516 6.133635 -50.931616 69.649232 -0.698788 7.615020 -17.669771 40.158052 11.951489 -11.034389 5.255592 17.434676
0.100039 0.900327 0.298654 21.437818 -20.800733 19.452507 15.265580 -1.342275 -0.196472 23.847950 -1.392517 0.208141 20.152093 -1.673775 0.167301 -9.300969 0.110053 -8.060019 -53.300970 -4.415600 3.135016 7.497506 0.480103 -2.765216 -32.593375 -7.973105 -13.643741 -23.741561 -62.656562 -29.523090 -54.784151 -19.506898 -15.020232 10.464403 11.882344 -6.262718 -33.347015 -17.852719 26.707943 -63.546473 68.825493 67.216987 -22.803941 17.074517 9.456173 -66.276684 11.876261 37.683248 51.503010 -8.092126 -17.518157 -4.815586 -23.010893 -10.067930 -5.465861 -13.040357 -0.394655 -75.518047 5.702665 -51.645903 69.180460 -0.616290 7.394096 -18.688914 39.286932 12.710019 -11.381275 5.040695 17.938919
0.100039 0.900603 0.298654 21.052946 -19.615094 18.501476 15.390932 -1.178039 -0.340895 23.924415 -1.120912 -0.109838 20.143661 -1.381710 -0.137636 -9.089373 0.565701 -7.923548 -53.571118 -1.533947 3.215388 7.658742 0.436345 -2.565070 -33.107965 -8.582516 -13.561840 -24.471857 -63.131306 -30.113795 -54.784152 -19.506899 -15.020232 10.653237 11.935632 -6.389843 -33.435996 -17.626421 26.259447 -65.025959 69.099329 68.802131 -23.693124 16.625589 9.708850 -66.992872 11.492716 37.129775 52.449854 -9.013945 -17.408233 -5.117580 -23.115136 -9.133187 -5.683067 -13.036012 -0.394101 -74.116370 5.253478 -52.407367 68.707309 -0.543156 7.167823 -19.699955 38.388890 13.474940 -11.714873 4.835066 18.418616
0.100039 0.900922 0.298654 20.607313 -18.334425 17.591057 15.514968 -1.023922 -0.474607 24.004224 -0.870608 -0.398494 20.138387 -1.110526 -0.414172 -8.879268 1.066067 -7.837057 -53.711446 1.617511 3.243137 7.819276 0.397205 -2.364838 -33.675463 -9.174026 -13.634413 -25.184932 -63.569611 -30.692228 -54.784151 -19.506898 -15.020232 10.835813 11.962882 -6.526575 -33.570825 -17.458173 25.865282 -66.308988 69.319692 70.174530 -24.551139 16.229627 10.115637 -67.587039 11.160297 36.400824 53.327061 -9.874082 -17.235283 -5.385044 -23.221407 -8.234564 -5.919588 -13.031685 -0.393590 -72.616025 4.764891 -53.245393 68.234834 -0.493439 6.935229 -20.732545 37.470856 14.222684 -12.054226 4.629982 18.862786
0.100039 0.901480 0.298654 20.073648 -16.983547 16.703620 15.657106 -0.887998 -0.610097 24.125996 -0.659402 -0.678497 20.174569 -0.876699 -0.683887 -8.656165 1.539036 -7.777379 -53.674839 4.540288 3.298255 7.986434 0.343779 -2.164218 -34.423195 -9.621830 -13.807061 -25.905959 -64.001773 -31.287114 -54.784151 -19.506897 -15.020231 11.022493 12.004830 -6.657986 -33.775433 -17.288889 25.581100 -67.360083 69.489068 71.297403 -25.143960 15.885014 10.370181 -68.019849 10.882437 35.484162 54.122269 -10.667999 -16.915203 -5.648099 -23.316547 -7.441437 -6.149068 -13.027384 -0.393153 -70.989257 4.185197 -54.126415 67.757674 -0.482626 6.694894 -21.786274 36.543740 14.923829 -12.410326 4.437195 19.254326
0.100039 0.902286 0.298654 19.501687 -15.644178 15.824420 15.813547 -0.751767 -0.767224 24.280402 -0.450800 -0.990481 20.243482 -0.640398 -0.985516 -8.392103 1.902477 -7.705163 -53.387686 6.738859 3.405950 8.166960 0.251707 -1.962405 -35.356208 -9.902508 -13.980286 -26.695220 -64.485579 -31.965606 -54.784151 -19.506898 -15.020231 11.216667 12.076685 -6.762521 -33.963976 -17.054751 25.416130 -68.128147 69.606891 72.117215 -25.566641 15.608678 10.380089 -68.316912 10.640346 34.538810 54.812718 -11.426196 -16.528557 -5.882121 -23.394966 -6.731156 -6.352268 -13.023080 -0.392777 -69.302023 3.479748 -54.932648 67.259138 -0.513449 6.446060 -22.814219 35.620956 15.562313 -12.769064 4.274319 19.576563
0.100039 0.903177 0.298654 18.989062 -14.407629 14.948826 15.971515 -0.595830 -0.958815 24.434944 -0.204022 -1.360809 20.313155 -0.357451 -1.343380 -8.112657 2.122753 -7.592350 -52.836597 7.961709 3.615139 8.348565 0.149394 -1.761175 -36.355746 -10.089144 -14.101954 -27.545736 -65.005905 -32.719532 -54.784152 -19.506901 -15.020232 11.416625 12.169032 -6.864400 -34.046175 -16.749684 25.375208 -68.676146 69.688266 72.701785 -26.116306 15.439326 10.224829 -68.607807 10.450847 33.751892 55.426942 -12.189034 -16.128178 -6.063798 -23.462357 -6.061060 -6.525313 -13.018792 -0.392441 -67.676395 2.662005 -55.534336 66.725418 -0.572261 6.189268 -23.757900 34.713328 16.144570 -13.101188 4.152703 19.820229
0.100039 0.904012 0.298654 18.595151 -13.301651 14.076934 16.134606 -0.424455 -1.179188 24.586654 0.075150 -1.778387 20.380386 -0.033854 -1.746965 -7.902710 2.243224 -7.476608 -52.163976 8.328802 4.003761 8.505113 0.108853 -1.566623 -37.312883 -10.270910 -14.229513 -28.320286 -65.439878 -33.397741 -54.784152 -19.506900 -15.020231 11.619363 12.259390 -7.041309 -34.025662 -16.436053 25.484870 -69.207764 69.764954 73.268630 -26.895658 15.391039 9.996461 -68.976971 10.310883 33.202631 55.987743 -12.973682 -15.760882 -6.179259 -23.528104 -5.394748 -6.681410 -13.014464 -0.392154 -66.182469 1.773000 -55.889035 66.159328 -0.645612 5.925677 -24.604304 33.825489 16.686459 -13.392604 4.063514 19.986965
0.100039 0.904764 0.298654 18.302435 -12.251197 13.209093 16.314514 -0.259858 -1.407864 24.755438 0.343878 -2.203001 20.464247 0.283738 -2.158725 -7.811167 2.332353 -7.399948 -51.637095 8.253739 4.553548 8.632154 0.147418 -1.383318 -38.197617 -10.451922 -14.452844 -28.871784 -65.679739 -33.840225 -54.784151 -19.506897 -15.020232 11.821572 12.327644 -7.330598 -33.965283 -16.179382 25.714053 -69.916811 69.863406 74.024213 -27.699617 15.408874 9.789334 -69.419341 10.181221 32.777239 56.502222 -13.762318 -15.403159 -6.239731 -23.593862 -4.749827 -6.859901 -13.010123 -0.391919 -64.785832 0.843758 -56.068062 65.582615 -0.739508 5.655536 -25.410273 32.956068 17.194674 -13.661733 3.962089 20.087438
0.100039 0.905493 0.298654 18.060777 -11.117245 12.343513 16.500348 -0.115938 -1.626647 24.930933 0.574138 -2.598652 20.553760 0.564901 -2.544541 -7.757488 2.406811 -7.300370 -51.477354 8.183614 5.098182 8.773887 0.152181 -1.197196 -38.968575 -10.539561 -14.736766 -29.288449 -65.815898 -34.145457 -54.784151 -19.506898 -15.020232 12.017328 12.371674 -7.612928 -33.910588 -15.971916 25.873930 -70.764828 69.976582 74.927309 -28.312793 15.400169 9.720787 -69.892389 10.018131 32.275802 56.955045 -14.530772 -15.007761 -6.244968 -23.648324 -4.153581 -7.089044 -13.006032 -0.391725 -63.396885 -0.120851 -56.185560 65.023710 -0.885308 5.377427 -26.273031 32.102235 17.656669 -13.950184 3.769998 20.134387
0.100039 0.906190 0.298654 17.848758 -9.787221 11.476573 16.658005 0.012434 -1.836993 25.064702 0.779862 -2.960133 20.600374 0.825686 -2.898609 -7.588157 2.426085 -7.028104 -51.706015 8.326210 5.480666 8.990738 -0.042028 -0.994563 -39.506536 -10.444814 -14.909301 -29.923298 -66.131366 -34.700788 -54.784151 -19.506898 -15.020232 12.199297 12.407780 -7.665249 -33.817880 -15.719762 25.726765 -71.431675 70.063865 75.637259 -28.784177 15.330093 9.866827 -70.394241 9.805609 31.559655 57.345434 -15.258378 -14.518680 -6.189309 -23.697204 -3.633789 -7.303908 -13.002326 -0.391571 -61.952846 -1.130202 -56.309110 64.510640 -1.117644 5.089635 -27.280948 31.260224 18.060771 -14.290154 3.412553 20.132635
0.100039 0.906803 0.298654 17.682943 -8.248499 10.594966 16.768491 0.141179 -2.045609 25.127578 0.993142 -3.305287 20.575245 1.099022 -3.236141 -7.247402 2.369662 -6.526846 -52.156955 8.576273 5.746148 9.289981 -0.463057 -0.769554 -39.735518 -10.180004 -14.867037 -31.094770 -66.834522 -35.851447 -54.784151 -19.506898 -15.020231 12.365405 12.450735 -7.400052 -33.616833 -15.379920 25.234194 -71.608090 70.089901 75.825294 -29.327136 15.254314 10.217902 -70.963654 9.573291 30.659649 57.672114 -15.997535 -13.934102 -6.053603 -23.740743 -3.172268 -7.464929 -12.998344 -0.391434 -60.450654 -2.202748 -56.414945 64.051433 -1.459052 4.790742 -28.462249 30.431143 18.399942 -14.692303 2.865070 20.071888
0.100039 0.907248 0.298654 17.583210 -6.576881 9.682511 16.853748 0.276567 -2.245645 25.151574 1.225080 -3.643518 20.511181 1.389270 -3.564127 -6.844130 2.290085 -5.952784 -52.627097 8.683577 6.131718 9.602950 -0.933290 -0.536596 -39.767529 -9.853986 -14.734811 -32.773189 -67.819856 -37.557088 -54.784151 -19.506898 -15.020232 12.524162 12.499418 -7.005167 -33.294436 -15.065396 24.643204 -71.364835 70.065529 75.566993 -30.015454 15.234786 10.699713 -71.632660 9.363649 29.710061 57.951074 -16.829241 -13.277491 -5.839655 -23.781817 -2.744013 -7.608461 -12.994499 -0.391328 -58.937290 -3.294403 -56.466617 63.612623 -1.744740 4.491930 -29.488273 29.612887 18.832949 -15.142580 2.167359 19.932265
0.100039 0.907437 0.298654 17.546694 -4.863935 8.731251 16.956713 0.409977 -2.418229 25.202467 1.457149 -3.962401 20.474745 1.667916 -3.869808 -6.518861 2.260566 -5.533306 -53.011917 8.467808 6.850406 9.847061 -1.232628 -0.325603 -39.840232 -9.588806 -14.736311 -34.580709 -68.781480 -39.403077 -54.784153 -19.506900 -15.020231 12.689200 12.546808 -6.768615 -32.923848 -14.943350 24.259928 -71.115125 70.040483 75.301837 -30.678099 15.257019 11.181118 -72.395721 9.192539 28.826612 58.219503 -17.776166 -12.582317 -5.568425 -23.818193 -2.333952 -7.784161 -12.990714 -0.391247 -57.465125 -4.309998 -56.472221 63.156081 -1.676142 4.213915 -29.865732 28.800656 19.605540 -15.616248 1.387398 19.700164
0.100039 0.907274 0.298654 17.558739 -3.161343 7.748008 17.102570 0.529705 -2.555036 25.322595 1.665761 -4.247313 20.508794 1.908635 -4.140310 -6.297152 2.287590 -5.326824 -53.316240 7.893579 7.883365 10.002414 -1.301699 -0.141813 -40.119596 -9.441821 -14.939009 -36.158718 -69.529694 -41.006080 -54.784151 -19.506897 -15.020231 12.867305 12.594114 -6.786172 -32.605883 -15.033015 24.162723 -71.198960 70.057048 75.391559 -31.104105 15.247847 11.516064 -73.229889 9.040740 28.033395 58.520939 -18.786925 -11.873541 -5.264490 -23.852164 -1.940504 -7.994491 -12.987145 -0.391198 -56.021815 -5.352942 -56.350947 62.747223 -1.583571 3.934113 -30.247981 28.011564 20.391182 -16.091538 0.574399 19.379905
0.100039 0.906606 0.298654 17.614857 -1.487359 6.755271 17.286085 0.629605 -2.672299 25.508363 1.843487 -4.501285 20.609296 2.110435 -4.380700 -6.109650 2.309892 -5.203021 -53.580068 7.029600 9.000351 10.112044 -1.254498 0.022204 -40.600896 -9.402720 -15.209744 -37.458504 -70.087972 -42.319159 -54.784152 -19.506899 -15.020232 13.052814 12.646052 -6.920327 -32.396922 -15.170600 24.184691 -71.620171 70.115053 75.840123 -31.297419 15.141599 11.704445 -74.131399 8.876891 27.287207 58.894556 -19.795410 -11.154726 -4.949121 -23.882971 -1.576787 -8.230561 -12.983671 -0.391168 -54.633567 -6.383400 -56.128740 62.391858 -1.461805 3.652843 -30.646016 27.244759 21.194253 -16.541255 -0.249508 18.983441
0.100039 0.905369 0.298654 17.723304 0.139806 5.772435 17.486923 0.710304 -2.784497 25.731737 1.992699 -4.735040 20.748073 2.281878 -4.602360 -5.901230 2.279737 -5.047974 -53.815209 5.999935 9.965259 10.223251 -1.217538 0.183388 -41.179754 -9.445273 -15.398851 -38.511930 -70.506872 -43.379968 -54.784151 -19.506897 -15.020232 13.237654 12.702753 -7.030371 -32.305670 -15.180930 24.154161 -72.162407 70.186248 76.417188 -31.484636 14.917867 11.966589 -75.107915 8.694262 26.557871 59.349811 -20.770498 -10.426435 -4.628639 -23.907093 -1.247756 -8.498081 -12.980280 -0.391140 -53.331318 -7.364611 -55.825069 62.088261 -1.309653 3.370005 -31.062857 26.502024 22.013520 -16.946991 -1.073040 18.524187
0.100039 0.903633 0.298654 17.886721 1.692513 4.807286 17.689449 0.772309 -2.882137 25.969973 2.108782 -4.944455 20.902915 2.417038 -4.800650 -5.667247 2.213212 -4.896654 -54.003644 4.951224 10.688453 10.346515 -1.223292 0.346962 -41.771805 -9.563546 -15.480686 -39.091660 -70.711643 -43.950155 -54.784152 -19.506900 -15.020231 13.424187 12.765828 -7.146650 -32.334504 -15.034754 24.078783 -72.630820 70.247289 76.915616 -31.861847 14.611701 12.499611 -76.154028 8.513586 25.866187 59.869957 -21.707748 -9.706567 -4.295044 -23.922969 -0.938414 -8.798895 -12.977104 -0.391124 -52.133358 -8.279899 -55.444045 61.827610 -1.129933 3.084890 -31.490489 25.789462 22.840206 -17.304389 -1.880428 18.011803
0.100039 0.901526 0.298654 18.093504 3.146629 3.875457 17.887415 0.811541 -2.950823 26.213993 2.181251 -5.113443 21.065290 2.501275 -4.959189 -5.415523 2.154350 -4.845177 -54.135058 4.000463 11.203561 10.469581 -1.245519 0.509443 -42.354809 -9.778858 -15.511719 -38.875378 -70.583328 -43.690352 -54.784151 -19.506898 -15.020232 13.621850 12.841221 -7.388723 -32.496961 -14.825427 24.083891 -72.963195 70.292205 77.269329 -32.373194 14.319936 13.169035 -77.236003 8.355915 25.234417 60.426217 -22.579972 -9.025122 -3.941459 -23.931422 -0.634897 -9.121419 -12.973943 -0.391108 -51.046685 -9.117346 -55.001476 61.602201 -0.925303 2.797071 -31.921074 25.113610 23.665358 -17.610789 -2.650412 17.454211
0.100039 0.899233 0.298654 18.339365 4.470102 3.015057 18.078797 0.827987 -2.996669 26.457567 2.211629 -5.243242 21.228611 2.538179 -5.079842 -5.151804 2.118241 -4.911502 -54.238235 3.183363 11.561401 10.589574 -1.277406 0.669961 -42.937749 -10.116054 -15.529749 -37.924498 -70.135050 -42.664242 -54.784150 -19.506894 -15.020228 13.832621 12.926251 -7.785837 -32.797936 -14.642671 24.236848 -73.207764 70.327236 77.529731 -32.786587 14.175959 13.585854 -78.293728 8.211477 24.670696 60.970962 -23.251026 -8.450106 -3.568950 -24.020575 -0.335406 -9.427975 -12.971065 -0.391090 -50.096209 -9.845449 -54.529735 61.396121 -0.708870 2.505079 -32.334781 24.487239 24.470673 -17.865416 -3.356898 16.878415
0.100039 0.896929 0.298654 18.640625 5.592681 2.283106 18.261882 0.830867 -3.050422 26.691173 2.220201 -5.364710 21.382298 2.556589 -5.194221 -4.902227 2.088190 -5.033688 -54.368181 2.474597 11.778354 10.717892 -1.343487 0.831064 -43.532368 -10.544685 -15.537646 -36.729577 -69.556238 -41.389662 -54.784150 -19.506895 -15.020229 14.045463 13.003066 -8.245161 -33.224756 -14.499732 24.478351 -73.453345 70.362297 77.791152 -32.963382 14.246473 13.511942 -79.213886 7.949567 24.315533 61.401641 -23.040810 -8.305390 -3.129371 -24.855260 -0.003254 -9.656264 -12.968514 -0.391087 -49.351273 -10.397246 -54.065747 61.192885 -0.502431 2.207024 -32.704202 23.929164 25.228914 -18.055729 -3.957859 16.334188
0.100039 0.894927 0.298654 19.013685 6.414625 1.715290 18.439399 0.832860 -3.125944 26.912693 2.227247 -5.508101 21.523437 2.582601 -5.332604 -4.713079 2.053538 -5.164730 -54.554598 1.871094 11.856476 10.862856 -1.457477 0.996035 -44.157575 -10.958265 -15.556313 -35.742616 -69.057658 -40.347651 -54.784152 -19.506899 -15.020233 14.248443 13.054827 -8.671578 -33.767730 -14.349423 24.694538 -73.783078 70.406010 78.141836 -32.986826 14.444403 13.094698 -80.057876 7.709641 24.006740 61.745891 -22.685614 -8.261710 -2.748956 -25.609655 0.296486 -9.773627 -12.966136 -0.391056 -48.882465 -10.731875 -53.616782 60.937097 -0.335692 1.899952 -32.981281 23.464953 25.910547 -18.157323 -4.396896 15.876324
0.100039 0.893365 0.298654 19.441689 6.866287 1.321813 18.620571 0.833458 -3.213970 27.135165 2.230097 -5.666384 21.665429 2.610520 -5.488024 -4.607442 2.026740 -5.308079 -54.764096 1.431540 11.815608 11.020775 -1.605851 1.160759 -44.834648 -11.263281 -15.640026 -35.028033 -68.698109 -39.610578 -54.784151 -19.506896 -15.020230 14.439635 13.081010 -9.046641 -34.421353 -14.133497 24.801121 -74.269837 70.465030 78.659086 -33.025264 14.583249 12.703464 -80.829744 7.521237 23.727922 62.028325 -22.397683 -8.209141 -2.489010 -26.032968 0.523871 -9.819117 -12.964488 -0.391052 -48.716915 -10.835094 -53.181160 60.612594 -0.223697 1.583054 -33.148608 23.109458 26.500536 -18.147957 -4.630502 15.537974
0.100039 0.892197 0.298654 19.864429 6.959161 1.086651 18.813940 0.822535 -3.288079 27.372976 2.207101 -5.800389 21.823434 2.610894 -5.622084 -4.545794 2.023226 -5.467512 -54.917358 1.221235 11.697461 11.187554 -1.774136 1.323300 -45.546821 -11.497577 -15.818213 -34.398796 -68.388969 -38.979695 -54.784152 -19.506899 -15.020232 14.623349 13.092961 -9.388376 -35.142735 -13.826717 24.769640 -74.975796 70.543582 79.408614 -33.121126 14.507686 12.613804 -81.494932 7.349854 23.490778 62.282507 -22.157232 -8.133599 -2.367259 -26.135228 0.663630 -9.858588 -12.963253 -0.391154 -48.801883 -10.742709 -52.762361 60.236704 -0.161774 1.257607 -33.223744 22.860832 27.005755 -18.022898 -4.653590 15.318177
0.100039 0.891274 0.298654 20.201790 6.764439 0.984048 19.016822 0.793791 -3.328125 27.623084 2.145650 -5.875858 21.994368 2.565988 -5.700864 -4.440933 2.040885 -5.614782 -54.937956 1.240949 11.543384 11.366104 -1.967812 1.484031 -46.226560 -11.808421 -16.044779 -33.737676 -68.066156 -38.329770 -54.784151 -19.506896 -15.020230 14.804188 13.105742 -9.700107 -35.825287 -13.460159 24.631191 -75.907949 70.638973 80.397537 -33.135973 14.191727 12.831723 -82.012386 7.167270 23.283465 62.542073 -21.977375 -8.019679 -2.379536 -25.928711 0.711398 -9.906787 -12.962375 -0.392276 -49.036600 -10.518666 -52.373908 59.844075 -0.131984 0.925908 -33.244671 22.705565 27.447968 -17.790981 -4.489029 15.191502
0.100039 0.890418 0.298654 20.386380 6.346612 0.990605 19.215663 0.754258 -3.329738 27.866227 2.058740 -5.884959 22.159307 2.488199 -5.715104 -4.225118 2.065350 -5.720994 -54.794059 1.430979 11.369050 11.558645 -2.196380 1.644044 -46.821251 -12.288244 -16.225064 -33.139814 -67.787768 -37.763835 -54.784151 -19.506899 -15.020232 14.987124 13.136372 -9.985158 -36.344100 -13.103365 24.474882 -76.990246 70.740718 81.544899 -32.885462 13.758250 13.130426 -82.354904 6.974250 23.142818 62.827790 -21.863730 -7.887717 -2.491600 -25.490811 0.695086 -9.935386 -12.960794 -0.396124 -49.333190 -10.219599 -52.025488 59.472358 -0.112294 0.590444 -33.253975 22.627118 27.850537 -17.457130 -4.156189 15.125713
0.100039 0.889524 0.298654 20.378408 5.732649 1.088248 19.397681 0.716619 -3.295762 28.085073 1.970028 -5.835696 22.301144 2.401837 -5.670392 -3.901867 2.086743 -5.790332 -54.513849 1.729959 11.162718 11.760151 -2.454841 1.803510 -47.363130 -12.883373 -16.296608 -32.727919 -67.637901 -37.415505 -54.784151 -19.506896 -15.020230 15.174668 13.189866 -10.259621 -36.641355 -12.806323 24.395810 -78.148543 70.840252 82.772008 -32.324130 13.382532 13.254457 -82.509484 6.791593 23.139817 63.144830 -21.815006 -7.767602 -2.665700 -24.928044 0.648275 -9.922372 -12.959295 -0.395180 -49.642966 -9.882204 -51.711622 59.146870 -0.086507 0.252730 -33.278488 22.615434 28.227207 -17.019638 -3.658427 15.095044
0.100039 0.888539 0.298654 20.157325 4.939046 1.264226 19.560032 0.686653 -3.227743 28.275735 1.890394 -5.733462 22.416083 2.317550 -5.570965 -3.529997 2.104704 -5.845329 -54.168608 2.115027 10.906853 11.965240 -2.733137 1.962667 -47.937763 -13.505263 -16.278914 -32.426583 -67.576725 -37.204344 -54.784150 -19.506896 -15.020230 15.358045 13.238512 -10.509647 -36.770591 -12.548499 24.405420 -79.425742 70.938729 84.124087 -31.614927 13.137721 13.157580 -82.462392 6.621971 23.299588 63.492451 -21.839085 -7.665974 -2.890184 -24.297923 0.572856 -9.886374 -12.957395 -0.396781 -49.939748 -9.528091 -51.427643 58.884538 -0.044433 -0.086321 -33.334696 22.664835 28.585824 -16.477120 -2.999652 15.081165
0.100039 0.887423 0.298654 19.707748 4.000816 1.508108 19.706649 0.661973 -3.126005 28.443155 1.815343 -5.576936 22.508842 2.230754 -5.416183 -3.158412 2.122179 -5.884964 -53.818113 2.601732 10.593717 12.183374 -3.049395 2.126895 -48.585438 -14.172509 -16.223980 -31.957040 -67.446173 -36.847134 -54.784150 -19.506895 -15.020229 15.518426 13.240462 -10.676016 -36.860457 -12.254086 24.414349 -80.911507 71.038373 85.695910 -31.014686 12.956339 13.039059 -82.157059 6.390107 23.647388 63.842979 -21.661581 -7.696688 -3.137733 -23.908249 0.467772 -9.842813 -12.956302 -0.398518 -50.195127 -9.173831 -51.183706 58.699428 0.020860 -0.426197 -33.436224 22.770093 28.934655 -15.835109 -2.199063 15.069188
0.100039 0.886153 0.298654 19.018838 2.959829 1.806824 19.837862 0.638071 -2.994002 28.586374 1.737172 -5.366555 22.578405 2.135178 -5.207792 -2.781874 2.132765 -5.866163 -53.459754 3.227738 10.211787 12.433392 -3.442370 2.302945 -49.230301 -14.961778 -16.105445 -31.197132 -67.174885 -36.226996 -54.784151 -19.506898 -15.020233 15.653644 13.194623 -10.725516 -37.026168 -11.868287 24.333187 -82.543222 71.130737 87.420980 -30.667714 12.752263 13.113071 -81.549960 6.048225 24.167114 64.173991 -21.117714 -7.908183 -3.396068 -23.903437 0.306466 -9.772200 -12.955615 -0.400210 -50.381296 -8.833636 -50.994051 58.603286 0.114180 -0.766747 -33.593272 22.927187 29.280618 -15.102796 -1.284214 15.045954
0.100039 0.884715 0.298654 18.097076 1.835786 2.140514 19.945172 0.610978 -2.839118 28.689669 1.649347 -5.110188 22.608599 2.026608 -4.954739 -2.362587 2.124299 -5.729891 -53.041061 4.024117 9.729070 12.727214 -3.939169 2.497928 -49.726938 -15.856578 -15.787176 -30.370390 -66.900822 -35.582444 -54.784151 -19.506899 -15.020233 15.783079 13.154898 -10.708184 -37.304975 -11.410031 24.164361 -84.111363 71.204512 89.077948 -30.512511 12.524245 13.415623 -80.684739 5.670970 24.738643 64.534266 -20.515306 -8.135454 -3.706594 -23.899231 0.072342 -9.601222 -12.953265 -0.401338 -50.490802 -8.514856 -50.855763 58.602122 0.238718 -1.107922 -33.809243 23.135103 29.627509 -14.286461 -0.278354 14.999263
0.100039 0.883079 0.298654 16.969033 0.624891 2.476133 20.021545 0.575538 -2.665939 28.736458 1.543068 -4.815430 22.582994 1.896828 -4.665671 -1.888936 2.090437 -5.468691 -52.531926 4.971743 9.124307 13.059669 -4.532604 2.712349 -49.986752 -16.726505 -15.150953 -29.743865 -66.819347 -35.200884 -54.784153 -19.506900 -15.020231 15.926094 13.165529 -10.705748 -37.668456 -10.930555 23.962485 -85.565418 71.260464 90.613661 -30.379871 12.296979 13.878796 -79.588977 5.241894 25.363015 64.918984 -19.886979 -8.354322 -4.072398 -23.893419 -0.262769 -9.257363 -12.952105 -0.403303 -50.535354 -8.224376 -50.740082 58.701066 0.396450 -1.449893 -34.085487 23.394509 29.976577 -13.391306 0.800025 14.916471
0.100039 0.881231 0.298654 15.657990 -0.677947 2.760985 20.075918 0.527746 -2.470394 28.737888 1.411770 -4.477524 22.512905 1.736842 -4.336477 -1.388549 2.042575 -5.161147 -51.961373 5.989840 8.439020 13.404967 -5.166596 2.937723 -50.034524 -17.452715 -14.258575 -29.339356 -66.959294 -35.103250 -54.784152 -19.506900 -15.020232 16.080197 13.211971 -10.742909 -38.078938 -10.420340 23.740931 -87.159563 71.306190 92.296722 -30.124512 12.006693 14.454568 -78.298337 4.747339 26.050297 65.337669 -19.322418 -8.528242 -4.503708 -23.883111 -0.708570 -8.774331 -12.951081 -0.405584 -50.516516 -7.987979 -50.601209 58.903913 0.587591 -1.792908 -34.418374 23.708809 30.325985 -12.430702 1.932842 14.782747
0.100039 0.879197 0.298654 14.157344 -2.064627 2.929959 20.130211 0.471782 -2.244258 28.734532 1.264436 -4.082157 22.438925 1.553228 -3.952101 -0.835623 2.001079 -4.918439 -51.286888 7.010810 7.760521 13.737896 -5.782531 3.162968 -49.946465 -18.025628 -13.338393 -28.935033 -67.156323 -35.044595 -54.784152 -19.506900 -15.020232 16.229253 13.251057 -10.779909 -38.517449 -9.787698 23.465842 -89.107950 71.339123 94.353176 -29.654264 11.531035 15.090015 -76.808300 4.156388 26.826159 65.812386 -18.819002 -8.640475 -5.019629 -23.854944 -1.270813 -8.291741 -12.950285 -0.408062 -50.416297 -7.808620 -50.431015 59.186259 0.984978 -2.124069 -34.508569 24.090897 30.849884 -11.425840 3.107045 14.581638
0.100039 0.876985 0.298654 12.438358 -3.525806 2.938394 20.198500 0.420351 -1.990270 28.759002 1.129318 -3.625135 22.393553 1.375418 -3.506029 -0.183929 1.975563 -4.771923 -50.438611 8.028723 7.139396 14.058298 -6.383173 3.386144 -49.744902 -18.494024 -12.600672 -28.322994 -67.248164 -34.795926 -54.784151 -19.506898 -15.020233 16.366045 13.268797 -10.779838 -38.967710 -8.941688 23.123409 -91.182004 71.348905 96.541882 -28.920116 10.833463 15.702076 -75.088132 3.461614 27.709068 66.355096 -18.378018 -8.658989 -5.641416 -23.776895 -1.972353 -7.914399 -12.949644 -0.410585 -50.225522 -7.621719 -50.287294 59.472452 1.959329 -2.414544 -33.647066 24.571526 31.981012 -10.384019 4.322531 14.297759
0.100039 0.874578 0.298654 10.495670 -5.073627 2.787607 20.274116 0.387519 -1.725561 28.802825 1.036217 -3.128380 22.368529 1.237719 -3.017717 0.580364 1.959140 -4.658059 -49.339233 9.088228 6.548814 14.385940 -7.020835 3.616657 -49.378193 -18.855226 -12.107109 -27.517978 -67.235809 -34.370225 -54.784153 -19.506901 -15.020232 16.496260 13.283663 -10.749403 -39.407971 -7.869666 22.754973 -92.832321 71.340960 98.283179 -27.943421 10.013368 16.239636 -73.101432 2.669128 28.713386 66.952321 -17.949649 -8.604782 -6.377056 -23.643654 -2.826056 -7.613322 -12.949303 -0.413381 -49.898743 -7.585369 -50.069548 59.843419 2.899244 -2.711113 -32.800271 25.132944 33.136769 -9.289595 5.587278 13.925080
0.100039 0.872139 0.298654 8.386412 -6.741737 2.507834 20.335914 0.381091 -1.461580 28.824495 0.995058 -2.630650 22.322907 1.153858 -2.524712 1.447251 1.940762 -4.508542 -47.898740 10.230644 5.918903 14.730004 -7.716758 3.861836 -48.795368 -19.027852 -11.822355 -26.679701 -67.236927 -33.937362 -54.784152 -19.506900 -15.020232 16.627284 13.314254 -10.712269 -39.847657 -6.630443 22.431767 -93.651668 71.336899 99.147456 -26.819926 9.206615 16.703113 -70.821510 1.783508 29.835429 67.524997 -17.440489 -8.538083 -7.212967 -23.460712 -3.857284 -7.268387 -12.949205 -0.416284 -49.502525 -7.647144 -49.779360 60.275178 3.778211 -3.015232 -31.932185 25.796775 34.295528 -8.144672 6.899606 13.481664
0.100039 0.869870 0.298654 6.212199 -8.550970 2.138837 20.362451 0.394924 -1.206456 28.780079 0.992575 -2.154827 22.213204 1.110921 -2.050294 2.403339 1.915883 -4.314466 -46.092084 11.459168 5.188732 15.074072 -8.424385 4.111364 -48.016396 -18.901157 -11.728656 -25.915114 -67.340325 -33.609977 -54.784152 -19.506900 -15.020231 16.761598 13.368040 -10.673458 -40.344169 -5.304808 22.218073 -93.593460 71.349749 99.085323 -25.661533 8.485897 17.097647 -68.273643 0.838667 31.044815 67.973459 -16.823367 -8.487395 -8.120527 -23.225239 -5.095081 -6.818961 -12.949438 -0.419280 -49.164232 -7.718445 -49.392434 60.825647 4.527128 -3.333324 -31.067928 26.613032 35.309296 -7.317510 8.143816 12.682307
0.100039 0.868135 0.298654 4.078977 -10.460295 1.693144 20.338444 0.412149 -0.948956 28.640588 1.000501 -1.684112 22.010566 1.076139 -1.579878 3.442028 1.887502 -4.110034 -43.955478 12.755914 4.333359 15.398161 -9.075875 4.363055 -47.107129 -18.386743 -11.842784 -25.224847 -67.551081 -33.385157 -54.784153 -19.506900 -15.020232 16.899623 13.448750 -10.624550 -40.927212 -3.943564 22.154316 -92.863621 71.375171 98.314560 -24.548008 7.862225 17.411091 -65.540261 -0.066574 32.338904 68.160966 -16.168880 -8.463867 -8.991861 -22.920258 -6.497016 -6.294105 -12.949995 -0.422457 -49.323480 -7.455197 -48.781160 62.561001 4.580710 -3.736863 -30.904517 27.998616 34.424179 -6.696370 9.289212 11.682835
0.100039 0.867019 0.298654 2.067626 -12.344341 1.183529 20.257977 0.408494 -0.681926 28.394142 0.980253 -1.177659 21.702795 1.007650 -1.076501 4.520711 1.860935 -3.916006 -41.552849 14.089134 3.362776 15.701917 -9.653254 4.626851 -46.061330 -17.459755 -12.142596 -24.578986 -67.845493 -33.226702 -54.784151 -19.506898 -15.020233 17.039259 13.551366 -10.559646 -41.501228 -2.519830 22.250314 -91.791040 71.401310 97.182239 -23.511070 7.339084 17.629930 -62.756307 -0.874650 33.624221 68.007206 -15.487327 -8.391830 -9.717291 -22.543532 -8.063771 -5.731487 -12.950945 -0.425494 -49.428230 -7.271865 -48.058804 63.989494 4.377731 -4.199638 -31.234670 30.129425 33.955374 -6.690596 9.510693 11.691388
0.100039 0.866764 0.298654 0.230441 -14.039051 0.617939 20.125042 0.364127 -0.387377 28.045140 0.893150 -0.611510 21.294083 0.865152 -0.520804 5.543032 1.836075 -3.711097 -38.962133 15.399083 2.297550 16.002225 -10.199600 4.911730 -44.743365 -16.173544 -12.558660 -23.957704 -68.206039 -33.109526 -54.784151 -19.506898 -15.020231 17.173231 13.654173 -10.473247 -41.883586 -0.941186 22.483450 -90.732740 71.420523 96.065248 -22.529755 6.935692 17.757861 -60.022287 -1.576358 34.775022 67.430720 -14.766456 -8.201728 -10.194697 -22.104153 -9.785625 -5.125679 -12.952316 -0.428925 -49.497535 -7.154538 -47.161253 65.416624 4.163430 -4.547471 -31.494748 31.959500 33.227281 -6.690662 9.510680 11.691321
0.100039 0.867622 0.298654 -1.389674 -15.414340 0.052856 19.949315 0.270533 -0.079244 27.611034 0.724303 -0.000396 20.801808 0.636497 0.070353 6.422184 1.803844 -3.462025 -36.266410 16.590228 1.152121 16.316214 -10.766827 5.224333 -43.044445 -14.619237 -13.075267 -23.304479 -68.580359 -32.969125 -54.784152 -19.506899 -15.020232 17.293325 13.731797 -10.361166 -41.963262 0.847711 22.815699 -89.882546 71.433305 95.167952 -21.606460 6.658172 17.832281 -57.417130 -2.150098 35.680096 66.309669 -13.969888 -7.868523 -10.281338 -21.624396 -11.633525 -4.496867 -12.954106 -0.434972 -49.537017 -7.138466 -46.134900 66.822585 3.953105 -4.744642 -31.621878 33.419813 32.170582 -6.690590 9.510689 11.691380
0.100039 0.870230 0.298654 -2.739182 -16.406175 -0.428395 19.739205 0.138958 0.214283 27.113084 0.498639 0.617917 20.247411 0.351436 0.661524 7.145704 1.751141 -3.176706 -33.550711 17.547603 -0.051119 16.645709 -11.368593 5.559623 -41.121775 -12.870666 -13.771992 -22.528372 -68.881262 -32.705006 -54.784151 -19.506898 -15.020232 17.399116 13.778383 -10.236382 -41.784359 2.770131 23.226744 -89.088537 71.441970 94.330041 -20.882685 6.450374 17.929569 -54.954408 -2.530911 36.277926 64.436109 -12.986606 -7.413071 -9.796728 -21.145416 -13.568847 -4.024205 -12.956379 -0.491857 -49.525186 -7.231272 -44.942266 68.087242 3.774266 -4.802811 -31.493628 34.373853 30.722633 -6.690603 9.510688 11.691377
0.100039 0.875701 0.298654 -3.756406 -16.990032 -0.763226 19.500343 -0.002647 0.483182 26.569411 0.263879 1.209123 19.649428 0.061951 1.223238 7.750449 1.669082 -2.906523 -30.917787 18.176503 -1.265331 16.977006 -11.976610 5.896549 -39.386090 -10.962929 -14.716716 -21.627210 -69.097222 -32.312313 -54.784152 -19.506899 -15.020231 17.497312 13.809106 -10.119285 -41.460702 4.657518 23.730785 -87.928523 71.442722 93.106221 -20.552905 6.202699 18.129439 -52.580885 -2.629815 36.540918 61.515110 -11.638159 -6.899890 -8.507054 -20.729092 -15.504711 -3.984456 -12.960616 -0.689890 -49.412308 -7.470721 -43.487920 68.976308 3.654292 -4.730940 -30.937559 34.684760 28.826621 -6.690645 9.510689 11.691352
0.100039 0.884781 0.298654 -4.408063 -17.143056 -0.908026 19.241361 -0.134440 0.714912 25.997153 0.052943 1.745063 19.025402 -0.196424 1.731129 8.250431 1.554443 -2.684092 -28.506770 18.432286 -2.424467 17.293766 -12.551038 6.212209 -38.154824 -8.926349 -15.849744 -20.759617 -69.372877 -31.958168 -54.784152 -19.506899 -15.020232 17.590285 13.839242 -9.990781 -41.033670 6.390875 24.346120 -86.056576 71.420398 91.131304 -20.584342 5.841673 18.428594 -50.274322 -2.323758 36.432352 57.288075 -9.848078 -6.374306 -6.155305 -20.446245 -17.248621 -4.039970 -12.976140 -0.541047 -49.153372 -7.870803 -41.742986 69.295654 3.615155 -4.511345 -29.846188 34.279419 26.484915 -6.690630 9.510686 11.691352
0.100039 0.896948 0.298654 -4.736242 -16.851755 -0.862439 18.978663 -0.248579 0.901509 25.420826 -0.133465 2.187361 18.399815 -0.420336 2.147719 8.610163 1.403369 -2.480949 -26.492988 18.296356 -3.448181 17.590919 -13.076191 6.500845 -37.357871 -6.878981 -17.008807 -20.128582 -69.913596 -31.855548 -54.784151 -19.506897 -15.020232 17.669979 13.866458 -9.788715 -40.429722 7.958933 25.042663 -83.534127 71.353497 88.469684 -20.638600 5.384927 18.696368 -48.547325 -1.695018 35.869257 52.640588 -7.641469 -5.904002 -2.872696 -20.465002 -16.849541 -5.147803 -12.988333 -0.436322 -48.747546 -8.398863 -39.824756 69.015555 3.667457 -4.143512 -28.277274 33.207689 23.840029 -6.690621 9.510673 11.691353
0.100039 0.909291 0.298654 -4.852647 -16.157410 -0.693132 18.735680 -0.331791 1.067319 24.878154 -0.301483 2.491505 17.809947 -0.613490 2.429083 8.767243 1.209964 -2.251849 -25.045295 17.734174 -4.247764 17.875527 -13.569450 6.773268 -36.666221 -5.061275 -18.076410 -19.826800 -70.809393 -32.096916 -54.784152 -19.506898 -15.020232 17.728564 13.872238 -9.494745 -39.568869 9.338836 25.721681 -80.848477 71.239064 85.634533 -20.356177 4.855908 18.799098 -48.513739 -1.275159 34.793904 50.138964 -5.021718 -5.678373 0.433816 -20.938349 -10.990092 -9.508281 -12.994069 -0.436745 -48.302990 -8.918702 -38.003518 68.453255 3.829189 -3.715712 -26.574166 31.624178 21.249957 -6.690642 9.510687 11.691316
0.100039 0.919706 0.298654 -4.898047 -15.156441 -0.409095 18.534495 -0.410657 1.170519 24.412893 -0.429506 2.644673 17.299346 -0.753972 2.565446 8.719421 0.978639 -2.014149 -24.112413 16.739214 -4.787521 18.154238 -14.052210 7.037713 -35.866799 -3.717488 -19.092049 -19.775060 -71.952104 -32.590419 -54.784152 -19.506899 -15.020232 17.771482 13.837364 -9.206978 -38.526520 10.364071 26.251602 -78.542099 71.106114 83.198118 -19.639996 4.181735 18.786695 -48.767730 -0.690035 33.104981 48.035392 -2.575608 -4.987770 3.474682 -21.057265 -5.158996 -14.014986 -13.000257 -0.437182 -47.952048 -9.328097 -36.510695 67.965731 4.031172 -3.336232 -25.060554 29.812096 18.968069 -6.690611 9.510697 11.691364
0.100039 0.929356 0.298654 -4.990620 -14.018271 -0.050955 18.383491 -0.459007 1.184521 24.050017 -0.474727 2.687525 16.893439 -0.802067 2.601694 8.488898 0.729413 -1.825040 -23.506440 15.413010 -5.121346 18.422652 -14.517519 7.286038 -35.035861 -2.942027 -20.211528 -19.706078 -73.068546 -33.049146 -54.784152 -19.506899 -15.020232 17.813871 13.758925 -9.064871 -37.568593 10.799359 26.553581 -76.748176 70.980931 81.301803 -18.652864 3.272860 18.859350 -48.393821 -0.145999 31.911282 45.333743 -1.958695 -4.799983 7.714502 -20.803284 -3.320413 -11.869250 -12.821444 -2.413856 -47.611820 -9.734060 -35.351267 67.352093 4.236724 -3.004833 -23.617672 28.047655 16.977413 -6.690629 9.510703 11.691357
0.100039 0.939207 0.298654 -5.125221 -12.865059 0.349835 18.268167 -0.459055 1.120776 23.769209 -0.419341 2.679917 16.572359 -0.743794 2.598778 8.108747 0.485889 -1.703850 -23.065678 13.964765 -5.362181 18.670493 -14.941073 7.503121 -34.380024 -2.647106 -21.551034 -19.210860 -73.822874 -33.045736 -54.784152 -19.506898 -15.020232 17.865344 13.657051 -9.100839 -36.978828 10.565832 26.679469 -75.045593 70.842426 79.500656 -17.673777 2.183037 19.085010 -47.180015 0.488886 31.231836 43.317568 -2.263457 -5.239843 9.462435 -20.574704 -3.242517 -9.044618 -12.129229 -7.273314 -47.187715 -10.139948 -34.400805 66.419608 4.441299 -2.709332 -22.126976 26.354807 15.261549 -6.690613 9.510705 11.691367
0.100039 0.947916 0.298654 -5.198719 -11.729215 0.706656 18.157562 -0.393325 1.082790 23.511070 -0.299107 2.651142 16.276644 -0.616964 2.581708 7.674653 0.262205 -1.624067 -22.652683 12.585373 -5.589480 18.896093 -15.320583 7.686894 -34.001112 -2.655125 -23.065774 -17.961370 -73.946754 -32.241957 -54.784152 -19.506898 -15.020232 17.923947 13.563603 -9.214310 -36.845030 9.842610 26.806448 -72.779381 70.623170 77.100648 -16.978750 1.105609 19.243788 -46.362807 1.145460 30.883564 43.730757 -2.712482 -5.792710 8.594206 -20.418096 -2.812429 -7.687100 -11.444978 -10.106621 -46.726275 -10.434558 -33.549065 65.390215 4.692037 -2.494512 -20.781372 24.565224 13.935955 -6.690606 9.510694 11.691371
0.100039 0.955894 0.298654 -5.169291 -10.565767 1.010647 18.027050 -0.302956 1.075598 23.225903 -0.179047 2.599061 15.956022 -0.487219 2.541479 7.272073 0.060821 -1.559919 -22.218318 11.321032 -5.773543 19.108608 -15.679979 7.852046 -33.841601 -2.824608 -24.590298 -16.004149 -73.340901 -30.685198 -54.784152 -19.506899 -15.020232 17.983055 13.498436 -9.293316 -37.046815 8.938278 27.140151 -69.588440 70.245553 73.715026 -16.695188 0.238629 19.060552 -46.127264 1.722195 30.930792 46.103897 -2.709733 -6.668645 7.044148 -20.323293 -1.543127 -7.403318 -11.719800 -8.976090 -46.236056 -10.660236 -32.741524 64.266156 4.967633 -2.342959 -19.565808 22.655562 12.933108 -6.690606 9.510701 11.691370
0.100039 0.963126 0.298654 -5.054465 -9.342867 1.225542 17.880496 -0.224019 1.097804 22.917715 -0.104743 2.525997 15.614071 -0.401868 2.475670 6.906940 -0.120517 -1.502582 -21.793728 10.117763 -5.837294 19.313116 -16.029649 8.011656 -33.793687 -3.107617 -25.982493 -13.742427 -72.103796 -28.787996 -54.784151 -19.506898 -15.020231 18.036993 13.456263 -9.301086 -37.421282 8.107529 27.784070 -65.698220 69.670444 69.575206 -16.707089 -0.310980 18.514800 -46.334855 2.114306 31.202242 49.556752 -2.912563 -7.647928 5.833972 -19.837239 0.040387 -8.513592 -11.285594 -10.722021 -45.735740 -10.880241 -31.947403 63.117904 5.239472 -2.244767 -18.486390 20.663648 12.177299 -6.690609 9.510693 11.691352
0.100039 0.969443 0.298654 -4.895897 -8.096364 1.297461 17.742956 -0.164105 1.149514 22.629379 -0.078430 2.448799 15.293795 -0.365230 2.400775 6.526246 -0.285417 -1.423851 -21.448772 8.960087 -5.772585 19.506065 -16.348869 8.162692 -33.794610 -3.501997 -27.201666 -11.591466 -70.463310 -26.977178 -54.784152 -19.506899 -15.020232 18.079033 13.419427 -9.233042 -37.869351 7.487753 28.688313 -61.697783 68.931515 65.300100 -16.793846 -0.565919 17.810722 -46.803811 2.385512 31.590261 53.365783 -3.848481 -8.368903 5.097274 -19.134800 1.504569 -10.339478 -10.493666 -13.577786 -45.205186 -11.108636 -31.085432 62.014121 5.494318 -2.206548 -17.557037 18.602956 11.623275 -6.690640 9.510686 11.691341
0.100039 0.975046 0.298654 -4.707493 -6.909350 1.233600 17.629130 -0.117920 1.204446 22.383612 -0.069390 2.373648 15.018229 -0.346598 2.326307 6.100175 -0.437937 -1.281707 -21.244259 7.908973 -5.651298 19.678723 -16.614756 8.297206 -33.819490 -3.984509 -28.283093 -9.746194 -68.640452 -25.455555 -54.784152 -19.506899 -15.020232 18.104619 13.380453 -9.069288 -38.313464 7.106461 29.738575 -58.057037 68.108306 61.389146 -16.838841 -0.684647 17.154542 -47.145931 2.521594 32.164985 56.926247 -4.685618 -9.019005 4.729437 -19.203243 2.894742 -12.287813 -9.839873 -15.647383 -44.646360 -11.327842 -30.117959 60.944637 5.716069 -2.225886 -16.741990 16.543159 11.229538 -6.690641 9.510677 11.691343
0.100039 0.980324 0.298654 -4.460407 -5.858449 1.095308 17.524526 -0.069307 1.239277 22.150297 -0.039569 2.285073 14.757498 -0.305791 2.241213 5.660692 -0.578047 -1.088081 -21.187030 7.016337 -5.536703 19.828478 -16.830337 8.407007 -33.828192 -4.515736 -29.286551 -8.220241 -66.758053 -24.238769 -54.784152 -19.506899 -15.020232 18.117190 13.347374 -8.820295 -38.637096 6.873099 30.881249 -54.910108 67.260723 57.989054 -16.807089 -0.897784 16.694602 -47.136125 2.631806 32.704787 59.719436 -5.403750 -9.566422 4.289445 -19.553133 4.074754 -14.193367 -9.457927 -15.491744 -44.112227 -11.522939 -29.098887 59.857222 5.889749 -2.280657 -15.983593 14.613685 10.955375 -6.690603 9.510702 11.691369
0.100039 0.985612 0.298654 -4.126205 -4.968532 0.958732 17.401892 -0.009812 1.237854 21.879398 0.030234 2.166127 14.461671 -0.221735 2.130921 5.259725 -0.697008 -0.914693 -21.219444 6.268781 -5.431137 19.954439 -17.008161 8.485148 -33.760511 -5.084188 -30.260046 -6.964988 -64.855642 -23.276523 -54.784152 -19.506899 -15.020232 18.128977 13.331544 -8.562018 -38.707727 6.643151 32.147843 -52.159628 66.398207 54.998817 -16.606662 -1.331228 16.532673 -46.651962 2.836331 33.049798 61.416758 -5.878933 -10.075122 3.397257 -19.820433 4.648693 -15.938584 -9.310493 -15.041755 -43.644043 -11.675554 -28.109513 58.712343 6.007799 -2.356404 -15.248494 12.893262 10.778519 -6.690640 9.510682 11.691335
0.100039 0.991008 0.298654 -3.715695 -4.210773 0.855467 17.251511 0.052382 1.191979 21.555727 0.127130 2.016052 14.115510 -0.106994 1.993091 4.914319 -0.791031 -0.803970 -21.261757 5.627254 -5.298607 20.056236 -17.150945 8.530985 -33.591123 -5.709794 -31.211049 -5.934514 -62.962493 -22.520570 -54.784152 -19.506899 -15.020231 18.149016 13.337442 -8.361289 -38.425052 6.385475 33.582215 -49.663536 65.500311 52.266973 -16.155346 -1.829700 16.588441 -45.635667 3.178239 33.116770 61.810233 -6.034456 -10.570367 1.981305 -19.775289 3.850386 -18.126647 -9.591937 -13.760857 -43.226266 -11.785697 -27.203425 57.507399 6.070120 -2.444195 -14.539795 11.388751 10.692415 -6.690664 9.510677 11.691314
0.100039 0.996312 0.298654 -3.274811 -3.532488 0.737612 17.088084 0.107940 1.116244 21.209455 0.218927 1.848272 13.749243 0.005330 1.837150 4.606917 -0.862420 -0.711833 -21.263798 5.071382 -5.096756 20.139307 -17.261896 8.558661 -33.364314 -6.414726 -32.108448 -5.097544 -61.144414 -21.937813 -54.784152 -19.506900 -15.020233 18.174098 13.360502 -8.203531 -37.730223 6.249230 35.168408 -47.364504 64.560374 49.732479 -15.592003 -2.037823 16.518268 -44.100782 3.580464 32.882655 60.845016 -5.942390 -11.026902 0.065128 -19.062500 1.345857 -18.434807 -10.726085 -11.457043 -42.793538 -11.890118 -26.378369 56.274247 6.087939 -2.530479 -13.888254 10.061648 10.696003 -6.690589 9.510696 11.691375
0.100039 1.001468 0.298654 -2.844828 -2.877082 0.563729 16.931869 0.141223 1.005945 20.879726 0.281518 1.685127 13.401990 0.088476 1.682372 4.321272 -0.917225 -0.580045 -21.213714 4.597653 -4.799687 20.213458 -17.355979 8.587389 -33.162629 -7.219116 -32.934833 -4.426438 -59.474374 -21.498351 -54.784152 -19.506900 -15.020232 18.195160 13.388023 -8.043528 -36.617201 6.411148 36.827895 -45.319143 63.611998 47.458602 -15.228293 -1.750041 15.991584 -42.097760 3.890074 32.161831 58.591531 -5.745426 -11.211467 -2.477591 -17.206945 -2.322400 -16.843996 -11.880140 -8.700802 -42.266434 -11.996196 -25.567981 55.020387 6.066611 -2.629852 -13.304369 8.804275 10.795443 -6.690608 9.510696 11.691362
0.100039 1.006384 0.298654 -2.427403 -2.207492 0.312546 16.793091 0.151137 0.869973 20.585678 0.312979 1.551115 13.092903 0.136696 1.552943 4.058616 -0.955931 -0.410636 -21.126972 4.214987 -4.423058 20.282363 -17.445365 8.621286 -33.054157 -8.177733 -33.729812 -3.890429 -57.958210 -21.167441 -54.784153 -19.506900 -15.020233 18.209171 13.405465 -7.889646 -35.176954 6.899697 38.463777 -43.589107 62.719887 45.519864 -15.196600 -1.132105 15.093126 -39.849564 3.971179 30.924035 55.446478 -5.541016 -10.942887 -5.574857 -14.447794 -5.792507 -14.342231 -12.577186 -4.401772 -41.630346 -12.086512 -24.697474 53.760529 6.026325 -2.779734 -12.782174 7.490230 10.997904 -6.690580 9.510698 11.691379
0.100039 1.010651 0.298654 -1.990049 -1.528656 -0.006483 16.676446 0.148863 0.733054 20.335654 0.328288 1.451696 12.830371 0.163266 1.456222 3.824364 -0.975320 -0.238926 -21.052491 3.938777 -4.002454 20.340967 -17.524872 8.650366 -33.069086 -9.424953 -34.552877 -3.459688 -56.509781 -20.909567 -54.784151 -19.506898 -15.020231 18.220920 13.409851 -7.787968 -33.606769 7.597289 39.995216 -42.166543 61.916121 43.913483 -15.287468 -0.572774 14.277215 -37.768068 3.760697 29.485754 52.108045 -5.275199 -10.288472 -8.536963 -11.852960 -8.339524 -12.224788 -12.612649 -4.040117 -40.989197 -12.123812 -23.797292 52.576887 5.982749 -2.964816 -12.323644 6.120274 11.287307 -6.690569 9.510697 11.691389
0.100039 1.013707 0.298654 -1.512995 -0.905324 -0.362297 16.591188 0.152943 0.625783 20.148246 0.347257 1.357907 12.633134 0.191529 1.365807 3.611871 -0.974836 -0.083702 -21.063187 3.748229 -3.515521 20.386591 -17.580281 8.674726 -33.195372 -11.135850 -35.397613 -3.115821 -55.043445 -20.701196 -54.784152 -19.506899 -15.020232 18.236586 13.414091 -7.758443 -32.127665 8.362953 41.354641 -40.978238 61.190307 42.562008 -15.217505 -0.365309 13.904378 -36.228500 3.435591 28.180451 49.424809 -4.851932 -9.499868 -11.327117 -10.172338 -9.497282 -9.719442 -12.614294 -3.955816 -40.516060 -12.114914 -23.022115 51.587979 5.947729 -3.111184 -11.936753 4.885809 11.610980 -6.690632 9.510687 11.691344
0.100039 1.015588 0.298654 -1.035714 -0.431182 -0.681828 16.549209 0.172361 0.536672 20.049985 0.382396 1.231580 12.527884 0.239570 1.245146 3.403430 -0.958360 0.040512 -21.201723 3.563206 -2.886308 20.418755 -17.609800 8.695838 -33.370803 -13.310486 -36.155985 -2.858085 -53.640233 -20.539365 -54.784153 -19.506900 -15.020233 18.254598 13.431842 -7.790980 -30.885529 9.106087 42.463626 -40.007613 60.556936 41.450860 -14.986994 -0.510475 13.955867 -36.223168 2.678079 27.481024 48.797439 -4.770190 -9.058734 -11.799276 -9.439533 -9.785766 -7.128510 -12.707077 -3.304183 -40.276764 -12.086936 -22.549428 50.808480 5.923699 -3.123501 -11.601387 4.032490 11.897413 -6.690606 9.510693 11.691356
0.100039 1.016700 0.298654 -0.612318 -0.144977 -0.914432 16.552617 0.203184 0.448242 20.049533 0.429097 1.068681 12.523355 0.304267 1.089486 3.188952 -0.934528 0.110865 -21.442009 3.317398 -2.136654 20.437339 -17.623747 8.707070 -33.507711 -15.565755 -36.672470 -2.697062 -52.587925 -20.435408 -54.784152 -19.506899 -15.020231 18.276643 13.463323 -7.871867 -29.938644 9.764615 43.242773 -39.373097 60.121499 40.720668 -14.880179 -0.784315 14.164409 -36.607356 2.052032 26.978763 48.840315 -4.832682 -8.811294 -11.841815 -8.860842 -9.751576 -5.209826 -12.787096 -2.725960 -40.210027 -12.047442 -22.416941 50.181995 5.908400 -2.969343 -11.296763 3.624766 12.110526 -6.690635 9.510684 11.691343
0.100039 1.017473 0.298654 -0.252226 0.005508 -1.061594 16.586958 0.228881 0.354780 20.119549 0.469853 0.900697 12.592139 0.364574 0.927907 2.981530 -0.915734 0.128809 -21.725499 3.041515 -1.451457 20.438148 -17.628819 8.709081 -33.570169 -17.336496 -36.862247 -2.638549 -52.136632 -20.395166 -54.784152 -19.506899 -15.020232 18.305427 13.497139 -7.978544 -29.297194 10.275811 43.682501 -39.201517 60.000708 40.522672 -15.081123 -0.977429 14.319010 -36.988600 1.596295 26.365526 48.997951 -4.979283 -8.431774 -11.951037 -8.075126 -9.706407 -3.787294 -12.907924 -1.586147 -40.203637 -11.949651 -22.456172 49.650252 5.892294 -2.732416 -11.017317 3.437032 12.278607 -6.690644 9.510685 11.691349
