HIERARCHY
ROOT Hips
{
  OFFSET 0 1.1673769999999999 0
  CHANNELS 6 Xposition Yposition Zposition Xrotation Yrotation Zrotation
  JOINT Spine
  {
    OFFSET 0.000003812944337411511 0.10717500000681812 -0.009311
    CHANNELS 3 Xrotation Yrotation Zrotation
    JOINT Spine1
    {
      OFFSET 0 0.1058532983696241 -0.004285186608692496
      CHANNELS 3 Xrotation Yrotation Zrotation
      JOINT Spine2
      {
        OFFSET -8.470329472543003e-22 0.10599345671141647 -0.007812688101110094
        CHANNELS 3 Xrotation Yrotation Zrotation
        JOINT Neck
        {
          OFFSET -8.470329472543003e-22 0.26240299999999994 -0.04488100000000002
          CHANNELS 3 Xrotation Yrotation Zrotation
          JOINT Head
          {
            OFFSET -4.235164736271502e-22 0.17466899999999996 0.05625600000000003
            CHANNELS 3 Xrotation Yrotation Zrotation
            End Site
            {
              OFFSET -4.235164736271502e-22 0.10756799999999966 0.021070000000000005
            }
          }
        }
        JOINT LeftShoulder
        {
          OFFSET 0.10574399999999999 0.23009199999999996 -0.07323000000000002
          CHANNELS 3 Xrotation Yrotation Zrotation
          JOINT LeftArm
          {
            OFFSET 0.14878212914559852 -0.04653266654569688 -0.030693304075147546
            CHANNELS 3 Xrotation Yrotation Zrotation
            JOINT LeftForeArm
            {
              OFFSET 0.24109000000000003 2.220446049250313e-16 -5.551115123125783e-17
              CHANNELS 3 Xrotation Yrotation Zrotation
              JOINT LeftHand
              {
                OFFSET 0.316792 0 -1.1102230246251565e-16
                CHANNELS 3 Xrotation Yrotation Zrotation
                End Site
                {
                  OFFSET 0.06265729429771016 -0.10569948639925819 0.03859412819617963
                }
              }
            }
          }
        }
        JOINT RightShoulder
        {
          OFFSET -0.10574399999999999 0.23009099999999982 -0.07323000000000002
          CHANNELS 3 Xrotation Yrotation Zrotation
          JOINT RightArm
          {
            OFFSET -0.14878040829228295 -0.04653159475972379 -0.030692917709113934
            CHANNELS 3 Xrotation Yrotation Zrotation
            JOINT RightForeArm
            {
              OFFSET -0.24109000000000003 -6.661338147750939e-16 -2.7755575615628914e-17
              CHANNELS 3 Xrotation Yrotation Zrotation
              JOINT RightHand
              {
                OFFSET -0.31679300000631333 -8.881784197001252e-16 -5.551115123125783e-17
                CHANNELS 3 Xrotation Yrotation Zrotation
                End Site
                {
                  OFFSET -0.06265795211397429 -0.10570764472283312 0.03859362014678265
                }
              }
            }
          }
        }
      }
    }
  }
  JOINT LeftUpLeg
  {
    OFFSET 0.12297511767165623 -0.06742078536803264 -0.010003
    CHANNELS 3 Xrotation Yrotation Zrotation
    JOINT LeftLeg
    {
      OFFSET 0 -0.457033849483632 0.010304509991859542
      CHANNELS 3 Xrotation Yrotation Zrotation
      JOINT LeftFoot
      {
        OFFSET 0 -0.500280623664138 -0.036905110570505176
        CHANNELS 3 Xrotation Yrotation Zrotation
        JOINT LeftToeBase
        {
          OFFSET 0.025950805788189563 -0.14255151365608373 0.19507593811975638
          CHANNELS 3 Xrotation Yrotation Zrotation
          End Site
          {
            OFFSET 0.010732117804750613 -0.000035441498015504746 0.11362327680684622
          }
        }
      }
    }
  }
  JOINT RightUpLeg
  {
    OFFSET -0.12297488233495055 -0.0674172146317622 -0.010003
    CHANNELS 3 Xrotation Yrotation Zrotation
    JOINT RightLeg
    {
      OFFSET 0.00000159348816348992 -0.45703784846455486 0.01030460015485039
      CHANNELS 3 Xrotation Yrotation Zrotation
      JOINT RightFoot
      {
        OFFSET -0.0000015934881634621645 -0.5002806236608007 -0.03690511058134042
        CHANNELS 3 Xrotation Yrotation Zrotation
        JOINT RightToeBase
        {
          OFFSET -0.0259497668227143 -0.14255297441554501 0.19507500887383716
          CHANNELS 3 Xrotation Yrotation Zrotation
          End Site
          {
            OFFSET -0.010733201844058626 -0.000035030229497263656 0.11362417898958707
          }
        }
      }
    }
  }
}
MOTION
Frames: 19
Frame Time: 0.03333333333333333
0.003974 1.072538 0.003867 13.305328 -19.103426 -1.314128 12.982330 1.096212 -0.839753 9.239561 0.680566 -1.025558 9.226014 0.805030 -1.081461 -6.515423 2.468527 0.022224 -20.981673 12.166146 1.285151 3.096371 -11.580917 -10.492447 -34.211476 -8.851538 -47.898685 0.000053 -89.385239 0.000081 6.099651 34.115233 6.421295 6.560992 18.235981 9.445099 -15.526014 19.532109 41.638095 179.999870 82.547089 -179.999887 21.898465 -4.751160 -13.049647 -47.464982 2.201140 16.754187 47.256183 -6.800352 4.281779 -13.331018 0.719255 -9.597064 -0.000434 -0.000001 -0.000002 -39.920657 -7.304197 -11.687300 44.057040 -5.166816 -3.121267 -10.864048 -1.338262 9.442074 0.000007 0.000005 -0.000005
0.003974 1.077435 0.003867 12.768082 -18.908448 -1.425708 13.156927 1.131886 -0.586967 9.302217 0.690003 -0.883526 9.288764 0.815442 -0.942342 -7.101230 2.378197 0.249340 -20.146036 12.000801 1.146810 3.241460 -11.767008 -10.571319 -33.440938 -9.194390 -48.608090 -0.001168 -88.733039 -0.001176 7.657112 32.721953 5.866984 6.673662 18.224167 9.446323 -15.463053 19.677693 41.545906 179.999979 82.078617 -179.999990 21.660445 -3.649943 -13.412114 -46.393131 2.700958 16.623284 46.071110 -7.596091 4.187456 -12.774363 1.137560 -9.355654 -0.063851 -0.000010 0.000002 -38.655640 -7.496058 -11.762080 42.668446 -5.339289 -3.199902 -10.227866 -1.349599 9.877756 -0.000001 0.000003 0.000001
0.003974 1.081479 0.003867 12.335237 -18.760400 -1.505416 13.312841 1.166407 -0.358692 9.356523 0.702623 -0.751178 9.343111 0.829003 -0.812829 -7.660647 2.299755 0.439061 -19.347094 11.874742 0.988747 3.379762 -11.942493 -10.647377 -32.846330 -9.583333 -49.320766 0.000423 -88.043245 0.000451 9.139618 31.484044 5.459654 6.798552 18.221674 9.410272 -15.383894 19.792918 41.494168 -179.999912 81.710375 179.999883 21.474971 -2.568101 -13.774494 -45.508088 3.141846 16.527444 45.070121 -8.083924 4.075450 -12.324622 1.268613 -9.120412 -0.155749 -0.000010 -0.000001 -37.597922 -7.673297 -11.819857 41.466565 -5.471037 -3.307432 -9.674830 -1.359727 10.284117 0.000017 0.000002 0.000002
0.003974 1.084232 0.003867 12.029014 -18.675200 -1.546142 13.439168 1.206062 -0.155230 9.397040 0.721934 -0.629156 9.383469 0.849601 -0.693604 -8.185165 2.237546 0.580538 -18.608090 11.788575 0.823141 3.506082 -12.105167 -10.717446 -32.435004 -9.982207 -50.071298 -0.000483 -87.319840 -0.000484 10.498391 30.542545 5.208453 6.921148 18.229926 9.373444 -15.299580 19.932521 41.451526 -179.999875 81.493699 179.999916 21.369431 -1.578097 -14.176929 -44.906948 3.482373 16.457549 44.385120 -8.383386 3.962217 -12.011295 1.292001 -8.902363 -0.268785 -0.000011 0.000002 -36.871373 -7.803599 -11.904291 40.604673 -5.526435 -3.381422 -9.253576 -1.368954 10.616105 -0.000007 -0.000004 0.000004
0.003974 1.084569 0.003867 12.024274 -18.688870 -1.515164 13.529724 1.256182 0.026885 9.420856 0.750414 -0.516767 9.406932 0.880066 -0.583989 -8.670141 2.194119 0.667947 -17.944381 11.739500 0.660098 3.617034 -12.254032 -10.779098 -32.202453 -10.361502 -50.886763 -0.000327 -86.567689 -0.000323 11.704276 29.995344 5.098768 7.038713 18.246342 9.336961 -15.236743 20.136982 41.419830 179.999863 81.461181 -179.999876 21.363607 -0.734553 -14.652221 -44.917769 3.608015 16.422429 44.336361 -8.522292 3.885448 -11.959084 1.349053 -8.749072 -0.395834 0.000017 0.000002 -36.824139 -7.818515 -12.026751 40.406656 -5.499461 -3.385888 -9.092591 -1.391455 10.877441 0.000008 0.000026 0.000004
0.003974 1.084650 0.003867 12.088137 -18.651442 -1.508258 13.582652 1.315891 0.180921 9.426650 0.788873 -0.415853 9.412138 0.920914 -0.485825 -9.115863 2.169497 0.702165 -17.359410 11.721772 0.505782 3.711661 -12.389572 -10.831580 -32.131624 -10.702890 -51.780142 -0.000158 -85.792802 -0.000151 12.750533 29.873553 5.099936 7.149984 18.268466 9.301575 -15.211000 20.427356 41.399702 179.999983 81.618222 179.999994 21.463515 -0.062538 -15.217106 -45.067486 3.649936 16.445211 44.329339 -8.652445 3.743310 -11.878113 1.364027 -8.622078 -0.557929 0.000002 0.000002 -36.880698 -7.827035 -12.124819 40.275807 -5.515470 -3.347736 -8.944937 -1.401607 11.047209 0.000011 0.000008 0.000002
0.003974 1.084847 0.003867 12.134368 -18.640188 -1.538269 13.488234 1.384691 0.218452 9.368567 0.850163 -0.354472 9.352828 0.987304 -0.426698 -9.457064 2.247471 0.477897 -17.247677 11.943915 0.266247 3.748029 -12.456953 -10.864135 -32.983292 -10.876790 -53.034831 -0.000256 -84.887498 -0.000231 13.180416 31.252176 5.546103 7.255684 18.359881 9.258381 -15.213733 20.870380 41.553765 179.999998 82.598383 -179.999984 22.102890 0.053430 -15.962092 -45.225741 3.741524 16.578741 44.286286 -8.770843 3.552834 -11.764994 1.269574 -8.478199 -0.696932 -0.000012 -0.000003 -36.919848 -7.848769 -12.170284 40.115492 -5.488028 -3.282653 -8.776441 -1.385695 11.046112 0.000007 0.000001 0.000004
0.003974 1.085109 0.003867 12.152268 -18.672617 -1.625283 13.473537 1.360858 0.336398 9.394433 0.840911 -0.226185 9.378351 0.990163 -0.298586 -10.045122 2.396660 0.276161 -17.965180 12.484225 0.061629 3.769340 -12.493527 -10.912157 -33.468715 -10.576131 -54.392099 0.000184 -84.561555 0.000200 12.530751 32.318643 6.318718 7.348895 18.471913 9.215627 -15.556572 21.451024 42.273199 -179.999959 83.506607 179.999973 23.286581 -0.281483 -16.070380 -45.384240 3.850258 16.798361 44.245461 -8.859751 3.361407 -11.642784 1.109855 -8.333616 -0.891276 0.000006 -0.000001 -36.943247 -7.897693 -12.236502 39.745795 -4.623655 -3.111504 -7.634214 -1.268287 11.062884 -0.233005 0.000007 0.000001
0.003974 1.085517 0.003867 12.216189 -18.671912 -1.791370 13.626001 1.171960 0.509883 9.574371 0.706721 -0.052977 9.559917 0.874140 -0.121491 -10.631993 2.583983 0.233955 -19.516421 13.288939 0.001147 3.731856 -12.418551 -10.947852 -32.802479 -9.905300 -54.861516 -0.000316 -85.593150 -0.000323 10.011537 32.503586 7.279660 7.359697 18.549597 9.201834 -16.193835 21.897218 43.545409 -179.999976 83.658991 179.999974 24.650168 -1.156976 -14.935942 -45.615117 3.832312 16.979981 44.189707 -8.892218 3.239038 -11.463024 0.970412 -8.215877 -1.340679 -0.000000 -0.000006 -37.276338 -8.001827 -12.343108 39.728608 -4.503960 -2.807025 -6.524973 -1.123629 10.721774 -1.154080 0.000056 0.000002
0.003974 1.085453 0.003867 12.341011 -18.624241 -2.015555 14.001417 0.769573 0.681804 9.947159 0.409904 0.114287 9.937329 0.598910 0.055189 -10.758989 2.744845 0.470454 -21.385338 14.155379 0.148411 3.586256 -12.140630 -10.926639 -30.374493 -9.135898 -53.216724 -0.000061 -88.521357 -0.000071 5.342199 31.544062 7.833101 7.214704 18.525999 9.248059 -16.838234 21.867288 44.983915 179.999978 82.350746 -179.999988 25.617357 -2.370803 -12.223220 -46.826560 3.335691 17.039276 45.363001 -8.072382 3.284635 -9.192786 0.734906 -7.942353 -2.272189 0.000016 0.000001 -38.107565 -7.949928 -12.500286 40.161776 -4.276555 -2.499150 -4.829335 -0.947637 10.524102 -2.244049 0.000020 0.000012
0.003974 1.084869 0.003867 12.289176 -18.700954 -2.220722 14.584888 0.122314 0.717805 10.489857 -0.052565 0.204866 10.488105 0.157417 0.161061 -9.848654 2.803875 1.005230 -22.504746 14.781323 0.428704 3.295379 -11.592408 -10.798761 -26.247574 -8.376333 -48.371682 -179.999574 -86.791856 -179.999581 -0.950526 29.944633 7.019159 6.866454 18.354351 9.373351 -17.004854 21.143121 45.820541 179.999982 79.234561 -179.999992 25.562316 -3.573803 -8.158812 -47.708100 2.882738 17.039390 46.103461 -7.804161 3.347527 -7.459223 0.487637 -7.965212 -3.781280 0.000002 0.000003 -39.435875 -7.388042 -12.424453 41.218280 -3.929382 -2.617202 -2.428769 -0.739601 10.668527 -3.543063 -0.000348 0.183776
0.003974 1.083244 0.003867 11.746119 -19.099838 -2.474932 15.270581 -0.714080 0.532182 11.107203 -0.641450 0.146802 11.116593 -0.415693 0.123040 -7.389005 2.708042 1.694482 -21.497166 14.919968 0.586705 2.852101 -10.769143 -10.527497 -21.478078 -7.526670 -39.925617 -179.999952 -81.454267 -179.999960 -7.498061 28.959890 4.194136 6.347587 18.035876 9.483383 -16.337036 19.806841 45.225202 -179.999988 74.699069 179.999994 24.004640 -4.496262 -3.565713 -48.463424 2.569441 17.379444 47.091767 -7.364859 3.340981 -5.303259 -0.164558 -8.294280 -5.655781 -0.000006 -0.000000 -40.834274 -6.215616 -11.677050 42.754094 -3.573529 -3.445539 0.270158 -0.518619 11.236834 -5.274342 -0.016058 1.204304
0.003974 1.080561 0.003867 10.697117 -19.695515 -2.991301 15.881196 -1.638030 0.063693 11.650383 -1.282687 -0.108262 11.672913 -1.050181 -0.109626 -3.159000 2.459318 2.226389 -17.191218 14.539416 0.255506 2.290692 -9.753413 -10.111450 -17.791520 -7.021277 -28.657578 -179.999959 -77.474990 -179.999962 -12.117303 29.534783 -0.467467 5.722551 17.665843 9.543022 -14.823171 18.294626 42.502912 -179.999997 70.052644 179.999986 20.900535 -4.934188 0.510096 -49.005009 2.361630 18.352681 48.114552 -6.874617 3.252256 -3.114148 -1.279396 -9.084430 -7.397932 0.000002 -0.000003 -41.721608 -4.834029 -10.105176 44.247046 -3.597586 -4.684091 2.516217 -0.322915 11.999400 -6.559916 -0.044515 2.005878
0.003974 1.077239 0.003867 9.361175 -20.068263 -4.007874 16.219411 -2.528389 -0.691759 11.962027 -1.888127 -0.562332 11.997727 -1.659371 -0.542018 2.588406 2.130387 2.198579 -9.239164 13.822448 -0.905113 1.688143 -8.709218 -9.600098 -16.278677 -8.505567 -16.524381 -179.999965 -77.239368 -179.999984 -12.317694 31.005306 -6.351916 5.077429 17.420317 9.571987 -12.877387 17.294621 37.396424 -179.999988 67.352720 179.999960 16.963361 -4.539853 3.418985 -49.325753 1.998176 19.653845 48.967024 -6.511137 3.307589 -1.347788 -2.394394 -9.725252 -8.587389 -0.000005 0.000003 -41.798192 -3.868567 -8.087125 45.276963 -4.294462 -5.694143 3.824709 -0.195820 12.485726 -7.340981 -0.064140 2.408296
0.003974 1.074451 0.003867 7.880091 -20.098961 -5.498778 16.135836 -3.279964 -1.668108 11.930692 -2.381428 -1.162318 11.977830 -2.165387 -1.124185 9.068346 1.851944 1.265237 1.470293 12.990555 -3.080187 1.150480 -7.840390 -9.091351 -16.404950 -13.864661 -6.141253 179.999997 -82.641382 -179.999993 -6.709869 31.361876 -12.570454 4.519315 17.494680 9.548865 -11.094313 17.623626 30.310674 -179.999964 68.853640 179.999947 13.775775 -2.894251 5.279587 -49.312702 1.348730 20.743304 49.467132 -6.359836 3.724121 -0.092176 -2.781845 -10.062892 -9.091056 -0.000009 -0.000003 -41.085436 -3.663383 -6.252382 45.623143 -5.108498 -6.072318 4.469279 -0.126577 12.420873 -7.808851 -0.071228 2.537082
0.003974 1.074351 0.003867 6.329033 -20.419791 -7.081554 15.582909 -3.825510 -2.734120 11.530901 -2.718054 -1.810293 11.586203 -2.519878 -1.760686 15.079891 1.770591 -0.696470 12.838209 12.161285 -6.169429 0.782973 -7.327553 -8.699810 -17.321922 -23.474833 0.127493 0.000006 -85.801763 0.000001 3.838276 29.413029 -17.253196 4.124801 18.032918 9.465786 -9.820420 20.080964 22.223337 179.999965 76.227752 -179.999960 13.411356 0.082129 6.650639 -48.644301 0.841871 21.557883 49.216359 -6.371110 4.325337 0.910955 -2.100994 -10.151929 -9.077160 -0.000003 0.000006 -39.816055 -4.074673 -4.966260 44.926375 -4.656774 -5.894913 5.228927 -0.046865 11.971147 -8.011206 -0.069389 2.504373
0.003974 1.078148 0.003867 4.870565 -21.756309 -8.267546 14.634979 -4.132818 -3.701613 10.831650 -2.890830 -2.389676 10.891105 -2.711444 -2.336104 19.282730 1.990983 -3.471637 22.084950 11.449146 -9.685638 0.649024 -7.271096 -8.510799 -20.275798 -35.872542 0.573077 0.000092 -69.444803 0.000092 17.131173 26.774093 -18.577884 3.917028 19.058721 9.325817 -9.109722 25.150046 14.426920 -179.996116 89.858257 179.996111 17.562512 4.008981 7.850775 -47.266870 1.098277 22.445730 47.825126 -6.497012 4.645724 1.949606 -0.611962 -10.035948 -8.705313 0.000001 -0.000007 -38.260347 -4.687435 -4.237824 42.779364 -2.049407 -5.527190 6.192254 0.043780 11.624597 -7.117944 -0.049244 2.111514
0.003974 1.083712 0.003867 3.659124 -23.871392 -8.829809 13.462918 -4.198538 -4.366878 9.971541 -2.919134 -2.796939 10.030849 -2.756780 -2.746535 20.563548 2.524927 -6.506734 26.661318 11.187957 -12.838577 0.740227 -7.664660 -8.541854 -29.331668 -48.096108 -6.849803 0.000004 -51.323971 0.000009 30.898869 26.703697 -17.166679 3.861752 20.449022 9.142404 -9.130654 32.691478 8.096040 -0.000030 71.481510 0.000041 26.666985 8.451190 8.784782 -45.639975 2.099698 23.524887 45.524302 -5.980053 4.477735 3.012982 0.315625 -10.150168 -7.989342 0.000003 -0.000004 -36.546292 -5.198226 -4.016090 39.760006 1.831045 -5.269502 5.924512 0.008048 11.641624 -3.611283 -0.010472 0.974375
0.003974 1.087620 0.003867 2.822160 -25.722940 -8.779875 12.270821 -4.055390 -4.598824 9.111038 -2.827804 -2.962579 9.166361 -2.679282 -2.920960 18.380960 3.270824 -9.044622 25.163745 11.874491 -14.799934 0.979808 -8.409882 -8.736412 -48.017709 -55.679466 -23.530116 0.000011 -35.272792 0.000017 42.526126 30.470168 -15.443367 3.882379 21.965170 8.943144 -10.536600 41.841624 3.997941 0.000001 50.379800 -0.000005 39.527170 13.309164 9.174822 -44.358578 3.252396 24.233104 43.003838 -4.798861 4.062280 4.113336 0.206232 -10.226527 -7.142714 -0.000010 -0.000005 -35.133693 -5.456792 -4.430578 38.212056 4.781468 -5.284192 2.876802 -0.303388 11.533121 -0.000002 -0.000012 -0.000002
