HIERARCHY
ROOT Hips
{
  OFFSET 4.3602899495453355e-8 1.1673772430419926 0.00903120994567871
  CHANNELS 6 Xposition Yposition Zposition Xrotation Yrotation Zrotation
  JOINT Spine
  {
    OFFSET 0.00000400409843159832 0.10717498984890383 -0.009311363000479054
    CHANNELS 3 Xrotation Yrotation Zrotation
    JOINT Spine1
    {
      OFFSET -1.157133440709887e-8 0.10585321386790758 -0.004285265132451881
      CHANNELS 3 Xrotation Yrotation Zrotation
      JOINT Spine2
      {
        OFFSET -1.2021792727953998e-8 0.10599313230062335 -0.007812673855060945
        CHANNELS 3 Xrotation Yrotation Zrotation
        JOINT Neck
        {
          OFFSET -3.2927685248284505e-8 0.26240295415719994 -0.044881304131893486
          CHANNELS 3 Xrotation Yrotation Zrotation
          JOINT Head
          {
            OFFSET -1.1268817613937174e-8 0.1746685200511402 0.056256497133401515
            CHANNELS 3 Xrotation Yrotation Zrotation
            End Site
            {
              OFFSET -8.617178878150887e-9 0.10756811731632654 0.02107021751552555
            }
          }
        }
        JOINT LeftShoulder
        {
          OFFSET 0.10574355691983202 0.2300922422130116 -0.07323001980788171
          CHANNELS 3 Xrotation Yrotation Zrotation
          JOINT LeftArm
          {
            OFFSET 0.14878172464754674 -0.04653430124026747 -0.03069340943884992
            CHANNELS 3 Xrotation Yrotation Zrotation
            JOINT LeftForeArm
            {
              OFFSET 0.2410901499999964 2.514874553050106e-8 -2.5644150081216566e-8
              CHANNELS 3 Xrotation Yrotation Zrotation
              JOINT LeftHand
              {
                OFFSET 0.3167439969976485 9.305862591624248e-8 0.0055278706856974474
                CHANNELS 3 Xrotation Yrotation Zrotation
                End Site
                {
                  OFFSET 0.06210611293049251 -0.1056924643799253 0.03949498917827464
                }
              }
            }
          }
        }
        JOINT RightShoulder
        {
          OFFSET -0.10574409307527087 0.23009141295444557 -0.07322999494236766
          CHANNELS 3 Xrotation Yrotation Zrotation
          JOINT RightArm
          {
            OFFSET -0.14878099894090208 -0.04653001551703495 -0.030692881610262193
            CHANNELS 3 Xrotation Yrotation Zrotation
            JOINT RightForeArm
            {
              OFFSET -0.24108999999999764 -2.5144341053717767e-8 2.9072947757557976e-8
              CHANNELS 3 Xrotation Yrotation Zrotation
              JOINT RightHand
              {
                OFFSET -0.3167448378500485 -3.304013818095086e-8 0.005523816194027642
                CHANNELS 3 Xrotation Yrotation Zrotation
                End Site
                {
                  OFFSET -0.06210627893580878 -0.10570000668807578 0.039495226662701347
                }
              }
            }
          }
        }
      }
    }
  }
  JOINT LeftUpLeg
  {
    OFFSET 0.12297482524469029 -0.06742086731113295 -0.010003017167751174
    CHANNELS 3 Xrotation Yrotation Zrotation
    JOINT LeftLeg
    {
      OFFSET 3.29102216173327e-8 -0.45703384336647745 0.010304781301190422
      CHANNELS 3 Xrotation Yrotation Zrotation
      JOINT LeftFoot
      {
        OFFSET 6.562466081661e-8 -0.5002806931369024 -0.03690416879508984
        CHANNELS 3 Xrotation Yrotation Zrotation
        JOINT LeftToeBase
        {
          OFFSET 0.02595079309341415 -0.14255124139316394 0.19507613876404925
          CHANNELS 3 Xrotation Yrotation Zrotation
          End Site
          {
            OFFSET 0.010732212189788037 -0.00003523758576667464 0.11362316400109373
          }
        }
      }
    }
  }
  JOINT RightUpLeg
  {
    OFFSET -0.12297503780805406 -0.0674172528256134 -0.01000298679994319
    CHANNELS 3 Xrotation Yrotation Zrotation
    JOINT RightLeg
    {
      OFFSET 0.0000015762103336008915 -0.45703794623816363 0.010304776602924667
      CHANNELS 3 Xrotation Yrotation Zrotation
      JOINT RightFoot
      {
        OFFSET -0.0000014796473382927555 -0.5002806877425285 -0.03690424189268969
        CHANNELS 3 Xrotation Yrotation Zrotation
        JOINT RightToeBase
        {
          OFFSET -0.02594992229596689 -0.1425528302873685 0.19507509351502048
          CHANNELS 3 Xrotation Yrotation Zrotation
          End Site
          {
            OFFSET -0.01073336011005574 -0.000035035181829541786 0.11362416403777789
          }
        }
      }
    }
  }
}
MOTION
Frames: 22
Frame Time: 0.03333333333333333
0.007429 1.103322 0.013883 -1.131447 18.248928 3.488616 -0.033451 -0.313550 -1.598174 0.769891 -0.720344 -1.523189 0.759854 -0.742441 -1.517821 4.546089 9.513233 -2.485397 8.795407 47.745962 -10.736956 3.228251 -6.077780 -11.267963 6.611534 -9.527508 -51.778433 -0.000004 -34.094685 -0.000022 18.860198 20.253684 -15.022506 0.482539 -0.588172 6.673292 5.255825 7.653209 66.232316 -0.000004 12.441941 0.000018 -10.458592 -13.195447 26.964603 -13.776749 7.826747 11.771462 23.314444 0.901483 3.108048 -7.275024 1.571937 -15.669336 -0.019829 -0.000011 0.000002 -3.303223 -16.684484 -18.906764 21.973298 -4.090300 -1.061863 -16.608976 -3.289978 16.925434 -0.508106 0.000004 -0.000004
0.007429 1.103291 0.013883 -1.222790 18.213905 3.503491 -0.049837 -0.307599 -1.612017 0.783076 -0.712388 -1.541528 0.773086 -0.735451 -1.535939 4.665144 9.170602 -2.249721 9.250995 45.997963 -10.070055 3.224022 -6.088848 -11.261925 7.223994 -9.872546 -50.985914 0.000014 -34.706459 0.000000 19.573117 20.287150 -16.261809 0.486833 -0.474911 6.714608 5.304653 7.608195 66.044942 -0.000011 12.334815 -0.000016 -10.463662 -13.250601 26.971355 -13.673584 7.826060 11.763994 23.331710 0.956535 3.159596 -7.298663 1.578335 -15.711264 -0.025562 0.000017 0.000007 -3.210072 -16.722149 -18.901993 21.961703 -4.023849 -1.062830 -16.620417 -3.290060 16.913276 -0.536126 -0.000000 -0.000002
0.007429 1.103261 0.013883 -1.402319 18.246550 3.530677 -0.064901 -0.309652 -1.661354 0.804810 -0.723526 -1.577917 0.794305 -0.748333 -1.571903 4.904757 8.359647 -1.672061 9.970491 42.094479 -8.766206 3.210344 -6.125614 -11.263013 8.180771 -10.759728 -49.766352 0.000014 -36.109796 -0.000007 20.924835 20.949293 -17.624754 0.493490 -0.342948 6.811584 5.383519 7.619647 65.749365 -0.000006 12.198903 0.000040 -10.329269 -13.309585 27.050492 -13.520646 7.835117 11.770851 23.367828 0.931093 3.227763 -7.328176 1.585479 -15.747257 -0.034008 -0.000004 0.000002 -2.979996 -16.805069 -18.869563 21.909238 -3.992556 -1.052012 -16.631183 -3.290804 16.903389 -0.579180 -0.000002 -0.000001
0.007429 1.103189 0.013883 -1.710319 18.427047 3.581664 -0.074176 -0.319945 -1.770605 0.841463 -0.755964 -1.648869 0.829527 -0.783749 -1.642162 5.314972 7.012665 -0.802222 10.990782 35.674804 -6.453272 3.177022 -6.203138 -11.282341 9.598790 -12.395656 -48.064266 0.000027 -38.999707 0.000016 22.559939 21.921551 -17.975527 0.503151 -0.181064 6.981765 5.574779 7.678016 65.339238 -0.000017 12.117562 0.000025 -10.329523 -13.306163 27.194944 -13.332594 7.856331 11.793945 23.447503 0.719865 3.325558 -7.360948 1.592104 -15.762916 -0.043057 -0.000006 0.000003 -2.559914 -16.948262 -18.789926 21.829462 -4.072945 -1.031933 -16.648576 -3.295411 16.912269 -0.635986 0.000003 -0.000003
0.007429 1.103006 0.013883 -2.142633 18.800815 3.651155 -0.052249 -0.345336 -1.938164 0.916968 -0.823631 -1.750293 0.902236 -0.855820 -1.742666 5.895371 5.261520 0.198741 12.370478 27.285525 -2.984870 3.130383 -6.314826 -11.287137 11.614484 -14.867846 -45.811204 0.000029 -44.040706 0.000005 23.846781 22.053465 -17.137491 0.512640 -0.006842 7.164408 5.843247 7.723392 64.909029 0.000002 12.146826 0.000006 -10.644691 -13.216683 27.391143 -13.165080 7.852677 11.828706 23.616476 0.325604 3.465522 -7.393874 1.596833 -15.758147 -0.059007 -0.000032 -0.000005 -1.971157 -17.144161 -18.650901 21.765805 -4.321364 -0.999330 -16.680455 -3.306742 16.948511 -0.717188 0.000007 -0.000006
0.007429 1.102672 0.013883 -2.642399 19.302698 3.713820 0.022031 -0.387322 -2.135329 1.058605 -0.929331 -1.854859 1.039684 -0.967553 -1.846224 6.585968 3.339273 1.262927 14.132462 18.092234 1.261051 3.091945 -6.433197 -11.195720 14.098567 -18.101106 -42.909484 0.000012 -51.230133 0.000019 24.681748 20.688365 -16.137691 0.515956 0.071362 7.229381 6.007737 7.756887 64.620194 0.000008 12.240302 -0.000003 -11.101803 -13.109039 27.642085 -13.070865 7.826709 11.903971 23.897874 -0.209244 3.620142 -7.440489 1.601442 -15.729344 -0.072109 0.000002 -0.000001 -1.314246 -17.369373 -18.473149 21.754492 -4.653406 -0.929719 -16.734636 -3.321079 16.980721 -0.800680 0.000005 0.000000
0.007429 1.102244 0.013883 -3.127782 19.786440 3.754186 0.129379 -0.435057 -2.339615 1.268926 -1.054422 -1.942261 1.244767 -1.101213 -1.932349 7.323994 1.458580 2.445220 16.134702 9.248833 5.611348 3.073774 -6.524051 -10.968461 16.881230 -22.045990 -39.085133 0.000009 -59.907951 -0.000015 24.990292 18.481213 -15.831612 0.509631 -0.064678 7.108774 5.963646 7.920463 64.541700 0.000002 12.348019 0.000010 -11.420402 -13.099497 27.896459 -13.033041 7.802045 12.016511 24.229553 -0.779668 3.775601 -7.503981 1.609774 -15.699646 -0.078122 -0.000001 -0.000002 -0.715339 -17.586554 -18.290869 21.799204 -4.928745 -0.839463 -16.809137 -3.333703 16.984787 -0.870380 0.000000 0.000001
0.007429 1.101830 0.013883 -3.522607 20.154555 3.798001 0.220377 -0.486612 -2.561148 1.506361 -1.198761 -2.028955 1.475405 -1.257311 -2.016775 8.077623 -0.189219 3.745421 18.070074 1.631109 9.563403 3.068584 -6.578773 -10.663822 20.153816 -26.572985 -33.927206 0.000049 -69.235978 0.000034 24.451407 16.261117 -15.876353 0.494645 -0.360751 6.842873 5.836668 8.332679 64.637012 0.000001 12.526132 0.000003 -11.532896 -13.207093 28.054698 -13.016634 7.821638 12.125738 24.509532 -1.278847 3.888404 -7.556297 1.617068 -15.666607 -0.078541 -0.000009 -0.000009 -0.283230 -17.749781 -18.171121 21.907419 -5.129953 -0.745542 -16.894231 -3.343659 16.970318 -0.935869 0.000000 -0.000003
0.007429 1.101488 0.013883 -3.817328 20.450285 3.896013 0.289230 -0.572876 -2.813361 1.731150 -1.421232 -2.132336 1.689530 -1.493869 -2.116215 8.795858 -1.424559 4.988634 19.637249 -4.164339 12.933767 3.069140 -6.645032 -10.325278 24.160047 -31.328269 -27.385339 0.000088 -78.334854 0.000079 23.454307 13.987248 -15.329299 0.476310 -0.565285 6.474602 5.829097 8.902931 64.874091 -0.000016 12.888825 -0.000029 -11.607737 -13.267679 28.016695 -12.978317 7.797730 12.122044 24.678659 -1.603377 3.972745 -7.565393 1.619260 -15.643487 -0.071305 -0.000004 -0.000002 -0.023394 -17.869523 -18.146168 22.062779 -5.300220 -0.705766 -16.985486 -3.359764 16.985687 -0.990493 -0.000000 -0.000009
0.007429 1.101163 0.013883 -4.117333 20.773167 4.072777 0.418478 -0.733642 -3.062950 1.986937 -1.793328 -2.211757 1.928357 -1.881014 -2.190715 9.382027 -2.170310 5.925322 20.669330 -7.945902 15.587698 3.079195 -6.804245 -9.862131 28.580051 -36.145717 -20.065205 0.000225 -86.162815 0.000224 23.474824 11.530692 -14.558871 0.463979 -0.460245 6.051195 5.962932 9.401131 65.173630 0.000004 13.492588 0.000031 -11.855857 -13.095927 27.719619 -12.878058 7.677180 11.967825 24.788557 -1.822000 4.097988 -7.545557 1.618828 -15.642473 -0.047252 0.000005 -0.000008 0.202017 -17.995789 -18.196095 22.240526 -5.490799 -0.711597 -17.079101 -3.384994 17.046687 -1.031470 -0.000003 0.000005
0.007429 1.100777 0.013883 -4.590453 21.121080 4.322465 0.728020 -0.966846 -3.255374 2.393556 -2.309141 -2.208057 2.311517 -2.414144 -2.184112 9.749946 -2.499345 6.426342 21.142533 -9.934819 17.299953 3.101655 -7.095311 -9.141147 32.295053 -41.993736 -12.670633 179.998444 -89.242971 179.998442 25.080946 10.950730 -16.234815 0.463795 -0.123130 5.695146 6.028771 9.701101 65.378959 -0.000006 14.266162 0.000021 -12.318918 -12.720810 27.265162 -12.653128 7.551501 11.768816 24.940462 -2.053220 4.276764 -7.535887 1.620032 -15.650418 -0.025831 -0.000009 -0.000003 0.545229 -18.219331 -18.311283 22.448111 -5.612762 -0.674320 -17.181875 -3.408458 17.088180 -1.072417 0.000004 -0.000005
0.007429 1.100311 0.013883 -5.323635 21.393104 4.649525 1.274532 -1.237828 -3.381085 3.017194 -2.904761 -2.117566 2.905789 -3.032457 -2.097033 9.896078 -2.556898 6.516543 21.151972 -10.591098 17.936183 3.134705 -7.468392 -8.237743 35.420359 -49.278873 -5.026065 179.998878 -89.049151 179.998867 26.446430 11.579800 -22.242588 0.465462 0.131885 5.428353 5.771309 9.922124 65.480955 0.000011 15.009014 -0.000007 -12.833253 -12.320957 26.940779 -12.239524 7.569611 11.651506 25.156479 -2.385938 4.430098 -7.555360 1.623817 -15.626814 -0.008339 -0.000010 0.000003 1.073453 -18.471064 -18.414728 22.702218 -5.640511 -0.680282 -17.303191 -3.433447 17.125432 -1.160663 -0.000002 0.000001
0.007429 1.099760 0.013883 -6.212575 21.516799 5.050141 1.981657 -1.533422 -3.465499 3.764238 -3.555288 -1.975297 3.616707 -3.711295 -1.967013 9.904604 -2.467426 6.269658 20.882193 -10.446524 17.597814 3.179293 -7.845753 -7.458855 39.941782 -56.735491 3.932904 0.000361 -87.400463 0.000353 26.984536 11.981719 -30.791596 0.454949 0.122494 5.076118 5.121239 10.297801 65.676871 -0.000020 15.501555 0.000011 -13.195336 -12.009563 26.983471 -11.667181 7.676259 11.580802 25.386355 -2.710214 4.517436 -7.590941 1.627033 -15.579309 -0.017968 -0.000008 -0.000004 1.596474 -18.764787 -18.586794 23.064318 -5.456867 -0.743909 -17.460233 -3.459990 17.140401 -1.290826 0.000005 -0.000003
0.007429 1.099133 0.013883 -7.029947 21.491162 5.451041 2.691695 -1.871133 -3.498709 4.462593 -4.287175 -1.794397 4.272290 -4.472404 -1.806639 9.867743 -2.300721 5.759816 20.523196 -9.920156 16.600257 3.242073 -8.199955 -7.055306 47.493239 -62.652621 14.922250 0.000032 -81.707436 0.000018 27.197764 10.577861 -37.504390 0.429312 -0.062864 4.486150 4.203314 10.956949 66.139992 -0.000001 15.682370 0.000003 -13.300784 -11.849943 27.307928 -11.143360 7.819028 11.514318 25.638045 -2.926061 4.524369 -7.633007 1.625670 -15.498191 -0.051604 0.000020 -0.000007 1.881804 -19.008079 -18.870742 23.568996 -5.143379 -0.821055 -17.637044 -3.482146 17.115798 -1.413198 0.000001 0.000004
0.007429 1.098493 0.013883 -7.638591 21.321263 5.741197 3.306911 -2.266335 -3.426986 5.039773 -5.121525 -1.553734 4.803653 -5.331955 -1.593031 9.817699 -2.078745 5.061166 20.174700 -9.189817 15.312613 3.323801 -8.521792 -7.062211 56.439241 -66.151004 25.953269 0.000047 -76.202814 0.000038 27.734956 7.750640 -40.034080 0.392953 -0.252394 3.642355 3.116974 11.880448 66.922183 -0.000015 15.664610 0.000027 -13.172742 -11.856386 27.535163 -10.800545 7.902260 11.453896 25.947406 -2.912376 4.487166 -7.695323 1.625825 -15.411151 -0.069762 0.000012 0.000001 1.807954 -19.169358 -19.221333 24.232452 -4.709212 -0.886073 -17.833159 -3.485603 16.945976 -1.504171 0.000003 0.000006
0.007429 1.097939 0.013883 -8.061853 20.932775 5.872317 3.833418 -2.700126 -3.232498 5.546276 -6.020885 -1.248442 5.266634 -6.251559 -1.319481 9.748715 -1.806612 4.254807 19.843133 -8.277558 13.969877 3.406516 -8.755162 -7.404660 62.736928 -68.097769 33.429876 0.000069 -72.213901 0.000051 28.895099 5.409579 -39.831355 0.352992 -0.343661 2.594824 1.852315 12.959497 68.008789 0.000007 15.571811 0.000005 -12.979672 -11.834359 27.407846 -10.573510 7.953587 11.423442 26.293361 -2.651103 4.476502 -7.798481 1.635759 -15.369973 -0.073327 -0.000016 -0.000012 1.571222 -19.206690 -19.520300 24.778751 -4.156134 -0.986930 -17.918117 -3.479729 16.829031 -1.545761 0.000008 0.000005
0.007429 1.097540 0.013883 -8.337825 20.188403 5.895713 4.299294 -3.109809 -2.988606 6.025148 -6.865569 -0.948435 5.708605 -7.113297 -1.053121 9.670165 -1.514687 3.461582 19.522192 -7.263382 12.674696 3.465325 -8.829402 -7.990629 65.043094 -69.693778 36.556487 0.000022 -69.616375 0.000021 30.151679 4.321640 -39.537198 0.315605 -0.340162 1.448377 0.461788 13.992967 69.333607 0.000007 15.490985 0.000016 -12.936618 -11.533600 27.064208 -10.335024 8.111025 11.421789 26.583827 -2.120203 4.459570 -7.921970 1.653282 -15.377591 -0.067123 -0.000024 -0.000002 1.128626 -19.067469 -19.831642 25.285656 -3.406134 -1.138793 -17.924973 -3.459188 16.714791 -1.552597 0.000004 0.000000
0.007429 1.097207 0.013883 -8.459702 19.051126 5.896748 4.714904 -3.427934 -2.801546 6.456515 -7.525288 -0.746657 6.110748 -7.788621 -0.884736 9.617449 -1.257748 2.799888 19.244712 -6.356914 11.531444 3.491904 -8.735594 -8.731529 65.023546 -71.217752 37.112789 0.000023 -67.963263 0.000010 31.250331 3.687373 -40.114798 0.285691 -0.267591 0.364008 -0.804402 14.730191 70.731286 -0.000012 15.555990 0.000038 -13.112538 -11.018301 26.755564 -9.994021 8.195652 11.350208 26.750375 -1.088284 4.351904 -8.032570 1.675885 -15.461209 -0.042552 0.000013 0.000003 0.264765 -19.020661 -20.419514 25.866171 -2.057938 -1.259268 -17.917943 -3.415860 16.508415 -1.522495 0.000007 -0.000007
0.007429 1.096765 0.013883 -8.454822 17.678157 5.889897 5.090112 -3.632678 -2.695836 6.814394 -7.957564 -0.641580 6.445945 -8.235970 -0.812297 9.619536 -1.068001 2.301276 19.064183 -5.706598 10.593897 3.499527 -8.560797 -9.489972 64.304912 -72.998961 36.612275 0.000052 -66.213896 0.000039 32.261997 2.506831 -41.318501 0.275293 -0.082033 -0.445216 -1.626928 15.071532 71.860530 0.000015 15.859416 0.000001 -13.496941 -10.565997 26.402718 -9.650354 8.273242 11.206781 26.870468 0.214405 4.248693 -8.138272 1.704923 -15.623346 -0.014164 -0.000009 0.000003 -0.890709 -18.874023 -21.114956 26.577768 -0.486896 -1.399000 -17.937813 -3.367662 16.260893 -1.480659 0.000003 0.000003
0.007429 1.096086 0.013883 -8.396526 16.306979 5.835044 5.428105 -3.750189 -2.614041 7.110786 -8.216184 -0.548182 6.725560 -8.509498 -0.749351 9.655305 -0.924690 1.907437 18.992315 -5.194701 9.702396 3.505100 -8.429317 -10.090600 62.698114 -75.595131 34.695163 0.000041 -63.426295 0.000031 32.914479 0.585831 -43.198679 0.288414 0.199375 -0.858088 -1.966987 15.240294 72.437595 0.000013 16.245916 0.000011 -14.032620 -10.262431 25.790639 -9.438315 8.401882 11.138887 27.099643 1.447227 4.133966 -8.283608 1.739933 -15.786208 -0.012196 -0.000014 -0.000003 -2.073221 -18.591415 -21.701275 27.353816 0.959316 -1.551143 -17.981916 -3.323177 16.017983 -1.439866 -0.000001 -0.000004
0.007429 1.095186 0.013883 -8.394330 15.147548 5.746029 5.750547 -3.839788 -2.504988 7.413671 -8.425459 -0.407924 7.014658 -8.735416 -0.637326 9.662768 -0.768435 1.507781 18.951135 -4.535857 8.599004 3.514012 -8.366022 -10.514709 59.468629 -78.779122 30.845815 0.000036 -59.594127 0.000028 32.989986 -1.643228 -45.912198 0.300392 0.396986 -1.089301 -2.222364 15.632900 72.642205 -0.000002 16.403136 0.000005 -14.379546 -10.090192 25.183328 -9.334587 8.498073 11.169701 27.481750 2.437821 4.014462 -8.485552 1.780391 -15.915657 -0.011954 -0.000000 -0.000001 -3.053171 -18.319088 -22.104558 28.091226 2.147870 -1.719762 -18.039513 -3.287855 15.814689 -1.413008 -0.000006 -0.000005
0.007429 1.094169 0.013883 -8.592243 14.347855 5.727733 6.125177 -3.968179 -2.375074 7.819263 -8.726259 -0.246008 7.401939 -9.058312 -0.507373 9.602311 -0.551498 1.006890 18.835069 -3.574065 7.199394 3.526917 -8.297006 -10.863783 56.642879 -81.377098 27.679815 0.000007 -55.650360 0.000001 32.530600 -3.825740 -49.099267 0.288527 0.385367 -1.491622 -2.827621 16.414141 72.943252 0.000004 16.212447 0.000001 -14.249857 -10.101376 25.102912 -9.198578 8.583390 11.213071 27.941754 3.036132 3.929435 -8.709736 1.816569 -15.979650 -0.009146 0.000007 0.000001 -3.661434 -18.196521 -22.454763 28.746206 3.077214 -1.819067 -18.130262 -3.261918 15.626205 -1.404449 -0.000001 0.000003
