HIERARCHY
ROOT Hips
{
  OFFSET 0 1.1673769999999999 0
  CHANNELS 6 Xposition Yposition Zposition Xrotation Yrotation Zrotation
  JOINT Spine
  {
    OFFSET 0.000003812944337411511 0.10717500000681812 -0.009311
    CHANNELS 3 Xrotation Yrotation Zrotation
    JOINT Spine1
    {
      OFFSET 0 0.1058532983696241 -0.004285186608692496
      CHANNELS 3 Xrotation Yrotation Zrotation
      JOINT Spine2
      {
        OFFSET -8.470329472543003e-22 0.10599345671141647 -0.007812688101110094
        CHANNELS 3 Xrotation Yrotation Zrotation
        JOINT Neck
        {
          OFFSET -8.470329472543003e-22 0.26240299999999994 -0.04488100000000002
          CHANNELS 3 Xrotation Yrotation Zrotation
          JOINT Head
          {
            OFFSET -4.235164736271502e-22 0.17466899999999996 0.05625600000000003
            CHANNELS 3 Xrotation Yrotation Zrotation
            End Site
            {
              OFFSET -4.235164736271502e-22 0.10756799999999966 0.021070000000000005
            }
          }
        }
        JOINT LeftShoulder
        {
          OFFSET 0.10574399999999999 0.23009199999999996 -0.07323000000000002
          CHANNELS 3 Xrotation Yrotation Zrotation
          JOINT LeftArm
          {
            OFFSET 0.14878212914559852 -0.04653266654569688 -0.030693304075147546
            CHANNELS 3 Xrotation Yrotation Zrotation
            JOINT LeftForeArm
            {
              OFFSET 0.24109000000000003 2.220446049250313e-16 -5.551115123125783e-17
              CHANNELS 3 Xrotation Yrotation Zrotation
              JOINT LeftHand
              {
                OFFSET 0.316792 0 -1.1102230246251565e-16
                CHANNELS 3 Xrotation Yrotation Zrotation
                End Site
                {
                  OFFSET 0.1860100809690719 -0.01695989067700676 -0.061207551691790735
                }
              }
            }
          }
        }
        JOINT RightShoulder
        {
          OFFSET -0.10574399999999999 0.23009099999999982 -0.07323000000000002
          CHANNELS 3 Xrotation Yrotation Zrotation
          JOINT RightArm
          {
            OFFSET -0.14878040829228295 -0.04653159475972379 -0.030692917709113934
            CHANNELS 3 Xrotation Yrotation Zrotation
            JOINT RightForeArm
            {
              OFFSET -0.24109000000000003 -6.661338147750939e-16 -2.7755575615628914e-17
              CHANNELS 3 Xrotation Yrotation Zrotation
              JOINT RightHand
              {
                OFFSET -0.31679300000631333 -8.881784197001252e-16 -5.551115123125783e-17
                CHANNELS 3 Xrotation Yrotation Zrotation
                End Site
                {
                  OFFSET -0.06265795211397429 -0.10570764472283312 0.03859362014678265
                }
              }
            }
          }
        }
      }
    }
  }
  JOINT LeftUpLeg
  {
    OFFSET 0.12297511767165623 -0.06742078536803264 -0.010003
    CHANNELS 3 Xrotation Yrotation Zrotation
    JOINT LeftLeg
    {
      OFFSET 0 -0.457033849483632 0.010304509991859542
      CHANNELS 3 Xrotation Yrotation Zrotation
      JOINT LeftFoot
      {
        OFFSET 0 -0.500280623664138 -0.036905110570505176
        CHANNELS 3 Xrotation Yrotation Zrotation
        JOINT LeftToeBase
        {
          OFFSET 0.025950805788189563 -0.14255151365608373 0.19507593811975638
          CHANNELS 3 Xrotation Yrotation Zrotation
          End Site
          {
            OFFSET 0.010732117804750613 -0.000035441498015504746 0.11362327680684622
          }
        }
      }
    }
  }
  JOINT RightUpLeg
  {
    OFFSET -0.12297488233495055 -0.0674172146317622 -0.010003
    CHANNELS 3 Xrotation Yrotation Zrotation
    JOINT RightLeg
    {
      OFFSET 0.00000159348816348992 -0.45703784846455486 0.01030460015485039
      CHANNELS 3 Xrotation Yrotation Zrotation
      JOINT RightFoot
      {
        OFFSET -0.0000015934881634621645 -0.5002806236608007 -0.03690511058134042
        CHANNELS 3 Xrotation Yrotation Zrotation
        JOINT RightToeBase
        {
          OFFSET -0.0259497668227143 -0.14255297441554501 0.19507500887383716
          CHANNELS 3 Xrotation Yrotation Zrotation
          End Site
          {
            OFFSET -0.010733201844058626 -0.000035030229497263656 0.11362417898958707
          }
        }
      }
    }
  }
}
MOTION
Frames: 19
Frame Time: 0.03333333333333333
-0.005223 1.079999 0.005097 -6.087211 -43.035061 -4.044776 5.831630 4.648143 -1.216257 11.836540 9.037614 -3.083969 11.836543 9.037616 -3.083968 -4.303111 -1.272946 0.206308 -6.271882 20.437793 -0.377165 1.392460 -0.696058 -7.877849 -14.260079 2.394305 -63.277189 9.865101 -47.524974 5.927972 16.172850 0.915254 18.795464 1.410912 9.461497 9.792808 1.220046 -24.270760 60.532894 -6.660728 41.858412 8.043814 6.225274 12.322348 11.673371 -27.769571 5.591032 14.006708 34.943816 -14.022468 -0.187729 -4.255784 0.716107 -8.080151 -2.651478 -3.383997 0.834307 -4.348881 -13.720918 -15.560769 32.754011 -8.997188 -0.417988 -20.587048 -4.061144 17.082697 -1.784979 -0.356692 0.333180
-0.005223 1.057862 0.005097 -3.630815 -46.173682 -1.999611 5.678540 3.749915 -1.166616 11.460062 7.255320 -2.640325 11.460070 7.255325 -2.640327 -6.091751 -0.189116 -1.654947 -8.534887 21.240078 -0.412783 1.070915 0.871795 -7.838473 -11.065927 3.391462 -65.113746 11.058591 -58.072313 8.494230 13.732843 4.009306 13.937484 1.329839 7.666113 10.572165 0.009915 -27.038450 60.809667 -8.505083 43.834694 9.009002 7.876163 14.507826 11.608493 -32.267489 1.904451 13.920031 40.118780 -8.683187 -0.262200 -5.850291 0.941891 -9.948397 -2.641020 -3.361421 0.795746 -14.260802 -6.426571 -15.566755 46.416308 -10.193387 -0.709178 -21.796861 -4.523624 16.865190 -7.078295 -0.587506 1.713267
-0.005223 1.031228 0.005097 -1.806660 -46.659649 -0.729517 5.653926 2.808252 -1.267354 11.371911 5.371178 -2.604386 11.371915 5.371171 -2.604380 -6.759396 0.924487 -6.318332 -10.934466 20.472549 1.627074 0.999178 2.699025 -10.140023 -9.436606 3.089583 -66.796951 8.953661 -64.671777 7.087820 9.398706 3.595864 17.037187 0.553815 5.599067 13.707910 3.285593 -34.637274 60.048608 -11.782094 48.874972 12.499213 7.814009 15.126898 11.729197 -36.661033 -3.389363 13.376114 45.683018 -4.759696 -0.220006 -7.310751 1.316139 -12.414874 -2.624427 -3.351645 0.766370 -21.695724 -3.101534 -13.102663 56.726887 -9.992211 -3.787504 -22.516572 -5.138287 17.126611 -11.996437 -1.926286 2.728255
-0.005223 1.009319 0.005097 -1.128220 -43.099145 -0.608623 5.646715 1.950204 -1.668856 11.339914 3.608358 -3.220104 11.339907 3.608366 -3.220106 -9.222456 0.899844 -10.287965 -11.716015 17.810445 4.927038 0.789628 5.203997 -11.612740 -7.698219 2.088523 -67.965770 12.953242 -71.759206 10.012563 8.506081 2.425690 20.825356 0.845036 2.781854 12.550374 8.984254 -39.961245 63.629702 -15.656579 43.013114 16.027769 5.815128 17.847797 9.754720 -40.491156 -8.962045 12.223829 49.684584 -4.401963 -0.313102 -6.410674 1.504662 -15.168952 -3.998315 -3.684272 1.643044 -25.814384 -3.112596 -10.161353 65.139002 -10.911466 -7.270276 -21.342669 -5.088385 17.143031 -19.655543 -0.141112 4.141681
-0.005223 0.997939 0.005097 -1.213804 -34.650929 -1.387013 5.696521 1.309209 -2.054998 11.428560 2.230941 -3.975059 11.428558 2.230942 -3.975059 -9.930318 -1.158878 -12.608496 -12.465543 12.534147 10.474869 0.566374 6.011981 -10.762034 -7.906378 -0.565190 -68.926644 14.612298 -74.570945 10.115091 7.747864 -0.583597 22.124223 1.439703 2.775309 7.084256 21.736190 -42.047789 75.375416 -19.491012 31.891016 16.081497 2.382882 18.570292 5.726911 -45.591245 -13.771047 9.700242 53.401360 -7.826710 -0.644896 -1.721406 0.826477 -15.737266 -11.116607 -6.301449 6.230684 -23.768339 -5.760694 -7.653979 67.991003 -11.797128 -8.649208 -22.664577 -4.650229 15.965137 -23.493454 1.677149 4.629344
-0.005223 0.996124 0.005097 -0.970568 -21.648771 -2.090517 6.050893 1.037069 -2.480421 12.133442 1.609460 -4.837674 12.133432 1.609467 -4.837674 -6.408259 -4.737478 -10.301094 -12.987739 8.148127 15.339676 0.253708 4.969403 -6.982085 -10.722957 -4.929807 -70.474063 19.697679 -72.475881 13.452343 9.546849 -2.713804 20.285797 1.619696 5.311287 4.520418 30.796422 -44.097029 83.470349 -19.998870 24.460515 9.729393 8.581769 20.275869 5.746861 -50.626798 -16.641643 5.767570 53.232725 -14.712109 -1.244003 4.312132 -0.030642 -15.251500 -16.581518 -9.762546 9.351163 -18.368215 -12.372662 -5.011902 66.462574 -10.224608 -10.390945 -24.299442 -3.578296 14.497601 -25.480410 1.811696 3.053810
-0.005223 0.996726 0.005097 0.063330 -6.291116 -1.997939 6.498890 1.473011 -2.691623 13.052792 2.525229 -5.272496 13.052792 2.525229 -5.272501 3.427227 -9.326879 -10.493154 -15.953907 1.452549 23.622663 1.370922 -1.821436 -7.079509 -12.644473 -6.057455 -68.351580 32.851305 -72.058283 25.617442 14.901498 -3.263055 17.558800 1.156182 5.430154 0.265349 34.485156 -48.644980 82.518657 -19.894943 29.777144 7.846399 12.781500 21.880946 5.331628 -54.290589 -16.993975 0.192709 48.710488 -20.938853 -1.988460 8.478790 -0.505657 -14.176960 -14.407364 -10.347380 10.247726 -13.183283 -18.475731 -2.376744 63.540089 -7.773711 -10.127443 -23.514623 -3.010341 15.446416 -27.615901 2.309706 -0.990729
-0.005223 0.991113 0.005097 1.139176 7.215082 -1.008816 6.908624 2.504254 -3.062001 13.938370 4.622933 -6.095259 13.938365 4.622930 -6.095256 13.933612 -13.701755 -10.649099 -20.025978 -7.511490 34.915945 1.653829 -3.838591 -8.799792 -12.564931 -5.584820 -64.386153 49.915782 -71.149570 40.396065 21.913812 -6.343406 12.292713 0.135730 4.592003 -6.055415 25.892890 -52.304818 68.169415 -17.391562 42.470551 6.379486 13.924593 16.849808 3.843095 -57.671345 -15.178861 -6.459031 45.089958 -24.101961 -2.784936 13.113834 -0.913337 -12.442207 -12.065790 -10.933054 9.941094 -11.422800 -21.651539 -0.758922 63.764298 -9.292797 -7.422530 -24.207549 -1.945160 12.790878 -32.550581 1.902861 -3.565329
-0.005223 0.976940 0.005097 1.577354 15.246309 0.505809 6.782509 3.593365 -3.275018 13.762498 6.829289 -6.584834 13.762499 6.829277 -6.584824 20.218828 -15.311015 -13.877606 -17.780506 -13.439530 45.306946 1.548009 -0.990110 -13.762835 -13.372253 -5.270564 -57.406125 58.019116 -69.203650 45.708770 26.621293 -11.425074 8.931986 -1.157893 4.836560 -17.788626 -1.997499 -44.253460 39.819364 -15.781107 46.326855 5.378286 15.295650 9.359132 3.054371 -60.643924 -12.970567 -12.004946 44.884473 -23.576536 -3.075026 16.467802 -0.983361 -10.807956 -10.857420 -12.063125 9.124450 -13.679973 -23.058822 -1.493320 67.902542 -11.169086 -6.258703 -23.491964 -1.584158 12.719090 -37.104237 1.910393 -4.953846
-0.005223 0.959006 0.005097 2.175795 18.767394 1.881787 6.422156 3.319942 -3.279492 13.015162 6.334103 -6.445779 13.015164 6.334110 -6.445779 21.560372 -15.223807 -13.481404 -16.844214 -10.041783 43.875132 1.537353 -1.238364 -14.908410 -13.707385 -5.187837 -49.206436 60.541853 -70.751617 45.491386 24.770965 -4.779063 15.233120 -2.068983 7.474618 -25.168229 -39.880945 -8.246875 22.878133 -16.772979 31.062828 3.217180 20.932487 19.121862 9.248202 -63.034487 -12.117542 -14.967929 45.433501 -24.690792 -3.406241 15.450650 -0.624570 -10.431254 -8.476597 -10.784394 7.830692 -15.929942 -23.797903 -1.597850 71.191822 -11.913214 -7.405494 -25.774605 -1.443098 12.189928 -38.418221 1.784676 -6.592073
-0.005223 0.942357 0.005097 4.332217 22.872133 2.592650 6.030473 3.712395 -3.312562 12.255140 7.171201 -6.497151 12.255153 7.171219 -6.497156 21.547898 -17.845999 -0.945738 -17.030086 -5.904354 30.454041 1.350331 -2.014166 -11.993278 -12.271574 -5.606119 -44.621589 63.134435 -72.857896 46.620711 21.351070 1.021537 22.015617 -4.152662 5.643457 -31.255042 -62.131725 25.837591 32.865361 -18.652953 18.613253 6.011454 25.029197 26.206597 -7.678708 -65.618916 -12.531864 -18.335215 45.104896 -23.571182 -3.306708 11.800470 0.030443 -8.685685 -6.127291 -9.554372 5.448178 -18.473721 -26.384319 -1.914904 72.868206 -13.161780 -8.670574 -28.403617 -1.438969 12.399693 -39.095945 2.637472 -8.094593
-0.005223 0.929744 0.005097 8.102151 30.552578 2.432160 5.501856 4.758366 -3.551030 11.292902 9.333959 -7.110818 11.292896 9.333965 -7.110815 16.414988 -23.660893 13.756724 -11.343231 -5.569440 17.379490 1.117235 -1.693434 -7.886825 -13.221798 -7.948152 -45.385652 57.813710 -72.032956 41.829936 20.459529 1.391181 23.833375 -6.550531 3.908187 -34.357986 -76.889298 30.897275 46.225463 -18.585688 29.763295 18.322268 32.649202 13.239618 -17.994915 -68.835002 -11.054702 -22.050728 43.910201 -26.418044 -4.406872 9.795958 0.510931 -6.380987 -3.204275 -9.296773 3.392284 -20.258904 -31.791761 -3.252794 71.698478 -14.891040 -8.202139 -32.153021 -1.915888 13.075146 -38.113047 3.950620 -8.914672
-0.005223 0.919976 0.005097 11.981008 39.435531 1.591895 5.174169 5.045417 -3.682868 10.682038 10.001811 -7.466715 10.682037 10.001823 -7.466715 8.450349 -29.060074 18.810828 -3.750742 -7.276328 12.372751 1.008149 -0.549727 -7.765137 -14.399955 -7.764739 -45.174667 40.258308 -68.918526 27.094976 16.642532 2.173577 23.217119 -4.528513 5.713613 -33.284092 -83.327682 38.176531 53.350258 -12.195872 47.059854 19.715291 29.094698 9.343358 -24.130018 -72.170611 -8.477499 -26.315723 43.981285 -32.235883 -6.030895 9.967461 0.549055 -4.719804 -2.697214 -8.991362 2.932040 -21.864313 -37.499775 -5.733310 70.511887 -16.204270 -5.944222 -34.375586 -2.312955 13.898533 -38.032252 4.759920 -9.112627
-0.005223 0.912230 0.005097 14.511215 45.786550 0.590499 5.127805 5.027700 -3.759384 10.605851 10.007013 -7.692247 10.605858 10.007026 -7.692257 6.477745 -29.968108 18.083106 -1.877011 -8.698002 14.128128 1.067673 -0.493426 -9.188453 -14.048230 -4.838733 -43.634300 26.193972 -60.943138 15.352383 14.013470 0.662647 20.190304 -1.845317 10.535276 -32.519857 -85.997113 44.625532 53.436316 -12.171271 54.096201 26.087650 25.941844 18.349740 -27.787640 -74.059549 -6.891181 -29.722540 45.151184 -36.130669 -6.506639 9.400733 0.556877 -3.815359 -2.696967 -8.989778 2.932951 -22.608761 -42.262223 -7.870888 69.947600 -16.204130 -4.047899 -35.244919 -2.417607 14.310069 -38.836654 4.987022 -9.268343
-0.005223 0.907204 0.005097 15.399365 48.552507 -0.108903 5.227995 5.117633 -3.937778 10.835381 10.170724 -8.105923 10.835378 10.170719 -8.105919 6.889002 -29.757308 15.918667 -0.975751 -9.005114 15.987817 1.092558 -0.498394 -9.870558 -14.105826 -2.123836 -42.618072 18.261901 -50.356372 9.544552 13.159338 -2.851779 17.977235 0.639894 14.381092 -30.687984 -79.398456 47.818926 45.540081 -12.634367 59.706293 30.541583 23.299228 24.306971 -27.017281 -74.769381 -6.137378 -30.339970 46.067807 -38.518786 -7.572480 8.909809 0.584834 -2.855962 -2.696326 -8.988820 2.935213 -22.117498 -45.909273 -8.960278 69.451861 -14.162364 -3.213934 -35.736396 -1.934779 12.832262 -39.467022 3.125549 -9.153139
-0.005223 0.906138 0.005097 14.997850 48.701837 -0.419260 5.442747 5.065203 -4.131221 11.281014 10.023161 -8.528475 11.281029 10.023177 -8.528489 6.311258 -29.657816 14.213952 -0.978223 -9.262233 17.248049 1.106235 -0.269964 -10.573600 -15.025606 -1.076034 -40.896351 13.644546 -40.884410 5.995007 12.145890 -7.462961 15.801645 1.558314 15.463873 -30.269173 -69.153958 43.529864 36.525955 -13.764541 61.331410 32.184911 24.893137 24.620457 -22.339116 -74.412037 -5.895833 -28.869129 46.344986 -40.032267 -8.729356 8.708277 0.596418 -2.065991 -2.695801 -8.988391 2.937776 -20.603457 -47.740271 -9.067037 69.051710 -11.795216 -2.203250 -35.619878 -1.403495 10.965148 -39.849312 1.054918 -8.824611
-0.005223 0.909177 0.005097 13.568484 47.248698 -0.482231 5.793172 4.824433 -4.273959 11.976467 9.478540 -8.847076 11.976472 9.478537 -8.847082 5.430466 -29.490968 14.021565 -1.950795 -9.189034 17.727635 1.119524 -0.824692 -10.376164 -13.054271 1.436295 -40.203003 12.630580 -40.120873 4.981986 11.216677 -9.054856 14.563995 1.930164 15.501583 -28.506373 -61.986790 35.049176 30.856906 -12.944564 57.470689 28.491316 31.495174 21.843653 -24.782625 -73.478311 -6.721490 -27.216855 47.107928 -39.959110 -8.375672 8.111858 0.621315 -2.101931 -2.695901 -8.988379 2.939427 -17.961555 -47.454750 -8.290173 68.645700 -10.574360 -0.174837 -34.790418 -1.113032 10.112162 -39.890348 -0.169255 -8.129138
-0.005223 0.915580 0.005097 11.497309 44.610356 -0.628324 6.214957 4.809627 -4.194125 12.818428 9.387248 -8.756676 12.818435 9.387242 -8.756669 4.017354 -29.259986 14.359373 -3.476102 -8.694298 17.469599 1.124939 -2.087079 -8.145283 -7.972398 4.557631 -43.504279 15.446921 -45.882687 6.655472 12.396808 -8.878996 16.255962 1.794485 14.812194 -24.715760 -57.736928 27.318633 26.487479 -17.603590 51.982663 28.960333 31.679498 19.860043 -20.847892 -71.829969 -8.066164 -25.119312 48.016207 -39.020446 -7.387140 7.436095 0.642295 -2.298667 -2.695799 -8.988704 2.941436 -14.700255 -45.911167 -6.851241 68.124213 -9.887929 1.696234 -33.134634 -0.939074 9.798527 -39.933128 -1.677464 -7.147931
-0.005223 0.924874 0.005097 9.402860 40.831804 -1.165688 6.516949 4.824273 -3.952196 13.411246 9.371199 -8.346940 13.411266 9.371221 -8.346959 2.337691 -28.731734 15.506802 -4.897477 -7.425024 16.769666 1.140219 -2.617226 -6.405511 -1.252351 6.575834 -47.185880 23.574599 -56.573294 11.405795 14.473050 -7.493898 19.788153 2.079656 14.832139 -19.916479 -53.499119 17.322131 21.313170 -25.464961 50.844243 32.364482 28.526719 21.484375 -15.259966 -69.608378 -9.403762 -22.363199 48.856187 -37.537029 -6.167539 6.806001 0.661750 -2.341457 -2.695586 -8.989226 2.943408 -11.279531 -43.076250 -5.297090 67.248048 -9.747856 3.733562 -31.329996 -1.026765 10.123150 -39.188086 -3.141923 -5.737783
