HIERARCHY
ROOT Hips
{
  OFFSET 0 1.1673769999999999 0
  CHANNELS 6 Xposition Yposition Zposition Xrotation Yrotation Zrotation
  JOINT Spine
  {
    OFFSET 0.000003812944337411511 0.10717500000681812 -0.009311
    CHANNELS 3 Xrotation Yrotation Zrotation
    JOINT Spine1
    {
      OFFSET 0 0.1058532983696241 -0.004285186608692496
      CHANNELS 3 Xrotation Yrotation Zrotation
      JOINT Spine2
      {
        OFFSET -8.470329472543003e-22 0.10599345671141647 -0.007812688101110094
        CHANNELS 3 Xrotation Yrotation Zrotation
        JOINT Neck
        {
          OFFSET -8.470329472543003e-22 0.26240299999999994 -0.04488100000000002
          CHANNELS 3 Xrotation Yrotation Zrotation
          JOINT Head
          {
            OFFSET -4.235164736271502e-22 0.17466899999999996 0.05625600000000003
            CHANNELS 3 Xrotation Yrotation Zrotation
            End Site
            {
              OFFSET -4.235164736271502e-22 0.10756799999999966 0.021070000000000005
            }
          }
        }
        JOINT LeftShoulder
        {
          OFFSET 0.10574399999999999 0.23009199999999996 -0.07323000000000002
          CHANNELS 3 Xrotation Yrotation Zrotation
          JOINT LeftArm
          {
            OFFSET 0.14878212914559852 -0.04653266654569688 -0.030693304075147546
            CHANNELS 3 Xrotation Yrotation Zrotation
            JOINT LeftForeArm
            {
              OFFSET 0.24109000000000003 2.220446049250313e-16 -5.551115123125783e-17
              CHANNELS 3 Xrotation Yrotation Zrotation
              JOINT LeftHand
              {
                OFFSET 0.316792 0 -1.1102230246251565e-16
                CHANNELS 3 Xrotation Yrotation Zrotation
                End Site
                {
                  OFFSET 0.06265729429771016 -0.10569948639925819 0.03859412819617963
                }
              }
            }
          }
        }
        JOINT RightShoulder
        {
          OFFSET -0.10574399999999999 0.23009099999999982 -0.07323000000000002
          CHANNELS 3 Xrotation Yrotation Zrotation
          JOINT RightArm
          {
            OFFSET -0.14878040829228295 -0.04653159475972379 -0.030692917709113934
            CHANNELS 3 Xrotation Yrotation Zrotation
            JOINT RightForeArm
            {
              OFFSET -0.24109000000000003 -6.661338147750939e-16 -2.7755575615628914e-17
              CHANNELS 3 Xrotation Yrotation Zrotation
              JOINT RightHand
              {
                OFFSET -0.31679300000631333 -8.881784197001252e-16 -5.551115123125783e-17
                CHANNELS 3 Xrotation Yrotation Zrotation
                End Site
                {
                  OFFSET -0.06265795211397429 -0.10570764472283312 0.03859362014678265
                }
              }
            }
          }
        }
      }
    }
  }
  JOINT LeftUpLeg
  {
    OFFSET 0.12297511767165623 -0.06742078536803264 -0.010003
    CHANNELS 3 Xrotation Yrotation Zrotation
    JOINT LeftLeg
    {
      OFFSET 0 -0.457033849483632 0.010304509991859542
      CHANNELS 3 Xrotation Yrotation Zrotation
      JOINT LeftFoot
      {
        OFFSET 0 -0.500280623664138 -0.036905110570505176
        CHANNELS 3 Xrotation Yrotation Zrotation
        JOINT LeftToeBase
        {
          OFFSET 0.025950805788189563 -0.14255151365608373 0.19507593811975638
          CHANNELS 3 Xrotation Yrotation Zrotation
          End Site
          {
            OFFSET 0.010732117804750613 -0.000035441498015504746 0.11362327680684622
          }
        }
      }
    }
  }
  JOINT RightUpLeg
  {
    OFFSET -0.12297488233495055 -0.0674172146317622 -0.010003
    CHANNELS 3 Xrotation Yrotation Zrotation
    JOINT RightLeg
    {
      OFFSET 0.00000159348816348992 -0.45703784846455486 0.01030460015485039
      CHANNELS 3 Xrotation Yrotation Zrotation
      JOINT RightFoot
      {
        OFFSET -0.0000015934881634621645 -0.5002806236608007 -0.03690511058134042
        CHANNELS 3 Xrotation Yrotation Zrotation
        JOINT RightToeBase
        {
          OFFSET -0.0259497668227143 -0.14255297441554501 0.19507500887383716
          CHANNELS 3 Xrotation Yrotation Zrotation
          End Site
          {
            OFFSET -0.010733201844058626 -0.000035030229497263656 0.11362417898958707
          }
        }
      }
    }
  }
}
MOTION
Frames: 100
Frame Time: 0.03333333333333333
0.004074 1.052739 -0.009464 11.290459 -18.247979 0.176579 2.604766 -0.544937 1.835196 7.297584 -1.133660 1.433354 7.307845 -1.020916 1.461408 -5.370319 3.254437 -2.335275 -22.222121 14.074759 -1.014125 0.713668 4.102865 -11.931353 -5.837616 -20.332686 -54.741987 15.438819 -83.842031 15.440663 20.555472 -0.090278 25.556969 2.078222 -6.509721 8.304533 -17.358312 21.605373 70.490031 -77.051246 79.269153 82.079872 18.835620 4.664666 6.764667 -46.208109 7.313003 24.743705 43.102335 7.308854 1.597525 -5.355855 1.930466 -18.453527 -0.432019 0.039333 0.257653 -38.458340 -10.136103 -16.686699 42.933703 -9.986892 -1.520080 -9.563880 -2.420837 17.501532 -0.748844 0.037326 0.018078
0.004074 1.054457 -0.009464 10.073353 -16.417087 -0.055356 3.111159 -0.526868 1.622189 6.848470 -1.050193 1.291746 6.857960 -0.948135 1.318210 -3.982239 3.014225 -2.162590 -21.016555 12.933724 -0.410613 0.969854 1.558244 -13.241924 -5.575427 -16.887823 -54.712142 42.996517 -81.404242 43.016537 18.455651 -2.460374 21.537045 2.441608 -4.572362 9.094036 -16.129290 18.517566 69.550524 -72.131127 82.819208 76.623816 16.099276 4.148097 9.526911 -45.256557 7.832002 24.005374 42.367521 5.653903 1.750286 -4.960962 1.820954 -17.637056 -0.326566 0.085805 0.991837 -36.732697 -10.100045 -16.692759 42.999697 -11.967208 -2.184462 -9.590008 -2.465937 17.961949 -0.928410 0.014505 0.193567
0.004074 1.056942 -0.009464 8.632214 -14.367291 -0.200073 3.623589 -0.446123 1.340296 6.339178 -0.936078 1.110661 6.347904 -0.847527 1.133825 -2.200970 2.729243 -1.956447 -19.234576 11.559481 0.317831 1.129759 -1.259250 -14.677175 -5.374281 -13.261443 -54.600129 56.753747 -77.666706 56.766956 15.881194 -4.669012 16.890987 2.662953 -2.106909 10.503701 -14.453789 14.794707 67.769137 -59.729503 86.661731 63.763195 13.266752 2.749640 12.452896 -44.080177 8.456726 23.131576 41.534041 3.781115 1.890896 -4.244344 1.661506 -16.683997 -0.282381 0.128403 1.992686 -34.718258 -10.173053 -16.900156 43.044886 -14.022795 -2.743608 -9.614939 -2.503502 18.294676 -1.117419 0.089301 1.027859
0.004074 1.060046 -0.009464 7.043537 -12.150803 -0.302700 4.250543 -0.432461 1.059681 5.833836 -0.842147 0.936054 5.841605 -0.766332 0.957555 -0.227797 2.485395 -1.855953 -16.665579 10.171978 1.417640 1.195783 -4.127217 -16.275159 -5.286663 -9.553081 -54.221162 64.584861 -73.569668 64.609496 12.896723 -6.404945 11.885877 2.669086 1.085977 13.224232 -12.515417 10.496463 64.360453 71.448791 88.519326 -67.711762 10.400061 1.004021 15.510117 -42.704801 9.080537 22.180460 40.568933 1.830115 2.051944 -3.293169 1.481374 -15.748226 -0.343898 0.250587 3.126583 -32.521095 -10.387388 -17.168243 43.134974 -16.149551 -3.200489 -9.811664 -2.557130 18.489788 -1.375408 0.096346 2.108919
0.004074 1.063500 -0.009464 5.533473 -9.807439 -0.425458 5.041745 -0.136990 0.707653 5.321167 -0.589929 0.813755 5.326775 -0.512761 0.819027 3.752935 2.652897 -1.750895 -16.195858 14.775451 2.358388 1.076406 -5.732339 -16.193153 -5.943110 -7.447023 -55.721102 67.453788 -68.779455 66.775494 9.667436 -8.062589 7.263557 3.468285 3.778152 16.917416 -11.375014 6.834990 59.969669 100.552764 84.607335 -97.587941 7.513561 -0.220651 17.441825 -41.420182 9.674032 21.357106 39.489925 -0.284248 2.148873 -2.180350 1.294690 -14.822550 -1.053779 0.237478 3.289487 -30.244143 -10.657051 -17.336101 43.079683 -18.419539 -3.422877 -9.848275 -2.578648 18.601812 -1.705413 0.022565 2.924881
0.004074 1.066947 -0.009464 4.445004 -7.278931 -0.637097 5.707917 -0.213480 0.492329 4.801317 -0.566667 0.555942 4.807165 -0.522194 0.568499 6.572246 3.239932 -2.117673 -13.480185 17.936092 6.079168 1.113771 -7.640081 -18.336223 -6.281049 -4.146218 -55.175193 72.755629 -64.354435 72.420912 6.236050 -8.951071 2.165634 2.874158 8.741201 18.523708 -9.154174 1.405669 57.489991 102.635409 81.632882 -100.744662 4.134807 -0.604809 17.070228 -40.565881 10.056439 20.567214 38.298043 -2.492179 2.288956 -1.004502 1.122468 -13.865327 -1.547468 0.132108 3.061721 -28.156784 -11.203447 -17.491198 42.780629 -20.644606 -3.249664 -9.723697 -2.580561 18.742643 -1.975858 0.086775 3.260751
0.004074 1.070891 -0.009464 3.807025 -4.326532 -0.915620 6.715749 0.153026 0.274676 4.395473 -0.299842 0.429110 4.399801 -0.262479 0.425099 4.424398 2.586113 -1.936769 -3.236809 13.977507 8.159916 0.891618 -9.252181 -18.623530 -6.629636 -1.706314 -56.403719 75.146730 -60.620002 74.754544 2.704015 -10.934673 -2.267958 2.182021 9.374127 18.361851 -7.425628 -2.751988 57.782203 100.651783 79.686907 -98.005124 0.902669 -1.010632 16.732935 -39.917039 10.171749 19.397300 36.809158 -4.768559 2.643569 0.118291 0.998783 -12.805526 -1.872597 0.189053 2.600102 -25.870459 -12.006971 -17.698482 41.853927 -23.088354 -2.718674 -9.269298 -2.579629 19.440721 -2.408836 0.164982 3.342287
0.004074 1.076837 -0.009464 2.975984 -0.820532 -1.081176 6.284852 0.416239 0.246593 3.590530 -0.067555 0.438311 3.592189 -0.021281 0.421303 3.769327 1.509145 -1.829819 4.224643 8.106531 9.442833 0.537982 -11.708361 -20.686536 -6.012785 1.806372 -54.913710 74.235663 -59.018766 73.035927 -1.130143 -12.800911 -8.438642 1.889207 13.795836 15.678126 -3.453469 -9.633425 61.230627 95.414458 76.269621 -94.858410 -1.433551 -3.240008 19.975447 -38.281436 10.202872 17.651013 34.691312 -7.131200 3.062182 0.924378 0.931192 -11.808065 -2.010246 0.780865 2.271039 -22.401790 -13.919778 -18.645259 39.839161 -24.750690 -1.490342 -8.585352 -2.579904 20.587142 -2.982013 1.007332 2.846658
0.004074 1.085607 -0.009464 1.147187 2.856506 -0.892879 5.443038 1.590148 0.607351 2.601098 0.511534 0.442451 2.602400 0.548077 0.388534 4.884621 0.312334 -1.632551 13.929524 1.352189 8.883857 0.017533 -13.880361 -23.745288 -5.615740 5.131135 -51.961381 71.580870 -57.495006 68.756031 -5.456543 -14.054713 -18.033006 1.896686 13.305680 14.649997 0.529774 -14.160845 64.123835 91.965646 70.395321 -92.899655 -2.492785 -7.078387 27.587418 -34.793792 11.050721 15.806279 32.037621 -10.172676 3.560714 1.133915 0.928426 -11.219768 -1.197743 0.682425 1.936846 -16.577879 -16.743002 -19.417013 35.832751 -26.031284 -0.552361 -7.546434 -2.535778 22.149686 -2.939302 1.597650 1.371720
0.004074 1.094903 -0.009464 -1.596529 5.928582 -0.232290 4.209320 2.253886 0.872298 1.581175 0.860738 0.451926 1.583691 0.892989 0.381445 7.036361 0.070984 -1.963431 20.999837 -1.605695 7.536354 -0.383160 -14.614505 -25.281532 -4.286797 9.663070 -49.261053 70.721381 -56.385946 66.881347 -8.915761 -13.133518 -27.933107 1.695920 12.889279 15.664905 3.708124 -17.932195 64.897456 91.010049 64.758871 -93.276113 -2.679480 -10.488236 36.027013 -29.965593 12.375643 14.298471 29.754388 -13.309570 4.015276 0.607878 0.989054 -11.212553 -0.347321 0.637404 2.198250 -8.970463 -19.729046 -19.235276 30.161844 -27.295766 -0.425573 -6.526116 -2.426723 23.167469 -2.219884 1.649034 0.545620
0.004074 1.100471 -0.009464 -4.332291 7.867407 0.803257 2.205935 2.404197 1.382394 0.415932 0.998176 0.672176 0.414870 1.040659 0.605594 7.856277 0.549379 -3.072413 22.319796 -0.649144 4.754262 -0.415863 -13.826735 -24.379978 -2.122852 14.687498 -47.138781 70.598608 -56.196636 66.014120 -11.102931 -11.226720 -34.892334 1.151693 16.810787 16.228794 7.922871 -23.544467 66.041863 92.600900 62.740274 -97.086226 -2.922690 -13.324237 40.194949 -25.490545 13.325272 13.118370 29.085757 -15.462229 4.435671 -0.836395 1.120035 -11.567949 -0.777651 1.042119 0.875265 -1.658259 -21.835882 -18.496528 24.789620 -28.844843 -0.774251 -6.397674 -2.384807 23.128397 -0.283148 1.036477 1.125521
0.004074 1.099442 -0.009464 -6.388530 8.911075 2.041665 0.528689 3.101628 1.723020 -0.466765 1.349247 0.804658 -0.471376 1.387781 0.734193 6.495640 0.990512 -4.348655 18.922637 2.234516 2.854806 -0.063047 -11.137272 -21.564619 -1.767794 17.608101 -44.774181 71.756132 -55.055042 66.594688 -12.469565 -9.681523 -39.151984 0.768521 18.132373 17.529731 10.373410 -28.036931 64.692865 99.684521 65.442839 -104.424262 -3.874301 -15.042250 39.693977 -22.726066 14.034137 12.247361 30.715793 -16.948177 4.892233 -3.298705 1.380353 -11.840549 -0.744217 1.097456 -0.913295 3.578070 -22.909132 -18.192265 21.788723 -30.629922 -1.361766 -7.734007 -2.629022 23.149022 0.127566 -0.027867 0.455617
0.004074 1.091630 -0.009464 -7.831039 9.965448 3.279132 -1.079745 4.309970 1.950893 -1.082514 1.887036 0.720426 -1.076610 1.915449 0.651911 4.710141 1.348600 -5.476870 12.822364 5.073686 1.386844 0.149189 -8.807583 -19.880275 -4.925723 18.632230 -38.722559 71.612042 -53.069591 66.087648 -12.970405 -8.675394 -39.951391 0.470948 17.955994 18.264868 11.870340 -32.039712 62.679567 112.167015 70.605286 -116.512957 -5.421472 -14.668393 37.347295 -21.853107 14.713107 11.781313 34.565019 -18.461838 5.191990 -7.151130 1.581849 -10.401509 -0.978318 1.008337 -0.895743 6.860744 -24.272962 -18.951945 21.057262 -31.333516 -1.727616 -8.653890 -3.001904 25.079716 -0.313472 -0.689538 0.989955
0.004074 1.078520 -0.009464 -9.057347 11.889568 4.341819 -2.293492 5.028762 2.147556 -1.499681 2.208722 0.723963 -1.486557 2.235607 0.663722 3.384947 1.626149 -6.292943 4.609033 8.187381 -1.811351 0.332403 -6.893265 -18.160893 -10.232220 16.992262 -31.508744 66.834025 -51.069488 59.988303 -12.847618 -9.718192 -34.810560 0.374747 18.372797 17.230927 12.914436 -35.619659 61.919386 129.556594 75.362483 -134.187911 -6.924648 -12.575114 34.863547 -22.385860 14.962022 11.849274 39.645433 -20.618318 5.527227 -10.535669 1.653956 -8.933898 -1.352459 0.789863 -0.724602 9.474269 -25.838559 -19.602086 21.821107 -32.063809 -1.910861 -9.385535 -3.383432 27.578047 -0.756082 -1.112351 1.316031
0.004074 1.061702 -0.009464 -10.310138 14.814609 5.216805 -3.044111 5.441662 2.357045 -1.748324 2.386868 0.827341 -1.735537 2.414067 0.771065 2.734338 1.675054 -6.983698 -6.889525 11.667005 -4.635711 0.438818 -5.973801 -16.452027 -16.235367 12.862489 -24.881986 56.310496 -49.193465 47.351755 -12.105021 -13.032816 -24.810813 0.632861 19.630347 15.093637 13.840233 -39.155491 62.508401 147.460843 77.832690 -153.495125 -8.052016 -11.016802 30.850629 -23.846849 14.885432 12.335914 45.341151 -23.616480 6.261898 -12.861997 1.669347 -7.896757 -1.862707 0.371833 -0.390008 12.094848 -27.049990 -19.421025 23.900493 -33.688712 -1.873974 -10.354293 -3.861847 29.812984 -1.104761 -1.324542 1.468892
0.004074 1.042854 -0.009464 -11.569205 18.107757 6.110452 -3.488835 6.334509 1.824063 -1.951031 2.754396 0.697014 -1.948430 2.770400 0.634105 1.669514 1.225558 -6.678417 -19.010019 14.348704 -7.319849 0.481587 -6.028497 -14.416228 -22.171216 6.541260 -19.845321 42.223242 -45.829992 31.930410 -10.667701 -17.187811 -13.610288 0.853492 20.494173 13.773064 14.799293 -42.582737 62.467455 152.528062 78.696944 -160.220857 -8.941916 -12.243343 23.782879 -25.652874 14.465910 12.661419 51.441521 -26.250199 7.353383 -15.092552 1.468970 -5.879300 -1.339056 0.006912 -0.032068 14.239024 -28.446464 -19.019891 27.365712 -35.443488 -1.560380 -12.405925 -4.680154 31.576370 -1.299257 -1.324060 1.455011
0.004074 1.024102 -0.009464 -12.757772 20.859814 7.158156 -4.143205 7.859106 0.591541 -2.256246 3.379842 0.256255 -2.269239 3.374479 0.182847 -0.866632 0.852031 -6.487344 -27.171024 14.418159 -6.892467 0.481813 -7.271982 -12.863757 -27.883369 -0.599029 -15.677333 28.395331 -39.107561 18.382808 -9.064495 -21.472634 -4.924360 0.879077 22.585919 12.789859 17.998377 -45.908693 64.355730 131.361653 77.417497 -141.918003 -9.922567 -15.524225 16.072788 -27.141118 13.607809 12.581627 57.222601 -27.629721 8.436040 -16.990608 1.190798 -3.874981 -1.535536 -0.284786 1.140664 15.880607 -30.063335 -18.967058 31.083928 -36.548898 -1.054705 -14.573780 -5.482343 32.444601 -1.724146 -1.289700 1.397498
0.004074 1.006959 -0.009464 -13.878294 22.471980 8.212736 -5.065746 9.609771 -0.824853 -2.656009 4.096906 -0.309097 -2.685886 4.068849 -0.387115 -3.422537 0.538723 -6.228258 -34.692672 13.991788 -5.997279 0.531951 -7.741494 -11.180947 -33.288414 -8.479270 -13.549376 17.274688 -28.674139 8.786230 -7.923448 -26.324237 -0.207504 0.992453 26.610630 11.289538 23.186765 -48.034064 69.512308 105.411756 71.811715 -120.088049 -10.277510 -18.538796 12.796852 -28.012102 12.945544 12.760623 62.117455 -28.269382 9.170147 -18.509588 0.907326 -2.293686 -3.362268 -0.442950 1.147641 17.270435 -30.985998 -18.907010 34.418048 -37.624958 -0.957572 -16.628076 -6.103310 32.491151 -2.478114 -1.551953 1.558487
0.004074 0.991459 -0.009464 -14.874986 23.007932 8.968974 -5.498868 11.366580 -2.174724 -2.801089 4.824410 -0.910925 -2.835922 4.787934 -0.982929 -5.908966 0.018679 -5.849157 -41.546184 11.387007 -4.742915 0.582860 -7.722593 -9.826844 -37.615714 -14.134779 -11.359718 6.277244 -20.994552 3.132935 -7.859592 -30.030498 -0.013719 1.267385 27.583656 10.005475 23.590969 -47.153165 71.032333 95.370080 66.526791 -111.561785 -9.376557 -21.399854 14.924821 -28.669574 12.493742 13.629047 66.588430 -28.636780 9.834921 -19.708042 0.801490 -1.791042 -5.409384 -0.604259 1.323810 18.384880 -31.112041 -18.533442 37.325952 -38.930702 -1.485422 -18.547731 -6.490941 31.754158 -3.534084 -1.883746 1.747185
0.004074 0.976678 -0.009464 -15.565815 23.005020 9.285993 -5.930409 12.845317 -2.933352 -2.909096 5.447782 -1.265922 -2.944564 5.414307 -1.319698 -8.518492 -0.723896 -5.234216 -46.798433 7.248852 -4.956166 0.618373 -7.217377 -8.770015 -40.353800 -17.038472 -9.484681 -5.966469 -15.868479 -0.131192 -8.960132 -32.595048 -3.238584 1.752482 27.723496 8.461295 21.928696 -44.605078 71.293152 96.279806 66.645410 -111.891047 -8.250672 -23.065587 17.956058 -29.519991 11.728046 14.820752 70.865096 -28.471253 10.435039 -20.354738 0.798867 -1.934307 -8.195553 -0.818256 1.929103 19.224883 -30.140936 -17.818190 40.354045 -40.407936 -2.177514 -19.596438 -6.737711 31.502209 -4.912548 -2.265035 1.940014
0.004074 0.961405 -0.009464 -15.915807 22.921837 9.343950 -6.399423 13.485566 -3.431434 -3.060023 5.711640 -1.519863 -3.089665 5.683620 -1.559730 -10.603003 -1.328342 -4.715186 -51.243213 3.069737 -4.998253 0.627218 -6.303970 -8.124376 -40.824170 -14.852584 -6.435635 -18.409937 -17.073139 -3.127212 -10.101054 -32.077608 -6.589233 1.863975 27.831375 8.146153 18.082373 -40.757799 69.419143 104.119437 70.930238 -117.358975 -8.661034 -22.029851 17.101590 -30.731026 10.160945 15.677289 75.140576 -27.516776 10.860249 -20.250443 0.923060 -2.608746 -11.318767 -1.071230 2.125362 19.303779 -29.140966 -17.437807 43.993281 -41.269885 -2.738891 -20.071970 -6.892047 31.400896 -6.787418 -3.045951 2.378362
0.004074 0.944373 -0.009464 -16.157630 22.793160 9.409698 -6.828844 13.678083 -3.649118 -3.199127 5.787265 -1.693626 -3.210191 5.770411 -1.726594 -12.035093 -1.870607 -3.842027 -54.304122 0.035833 -5.799620 0.621241 -5.487712 -7.836946 -39.843760 -10.360655 -2.731800 -28.893553 -18.071257 -6.302281 -10.748127 -31.827964 -8.562828 1.698263 27.966159 8.649514 13.644166 -35.887422 67.003278 116.813136 75.115956 -126.952489 -9.852704 -19.818592 13.322319 -32.252875 8.163799 16.293875 79.607192 -26.469644 11.020730 -19.339855 1.112754 -3.442582 -14.023635 -1.143377 1.259375 18.674656 -28.240588 -17.605414 48.479286 -41.927876 -3.154296 -20.166711 -6.885808 31.018399 -9.618147 -4.179402 3.667191
0.004074 0.924065 -0.009464 -16.439504 22.375242 9.575521 -6.699914 13.696732 -3.512842 -3.121976 5.798057 -1.729928 -3.106956 5.793801 -1.768362 -12.715565 -2.068910 -3.497232 -55.811864 -1.429318 -5.294562 0.596825 -4.031872 -8.029477 -38.223157 -5.547194 0.411332 -36.144532 -16.245657 -7.488995 -11.215469 -32.462243 -9.760629 1.642487 27.420918 8.908508 8.883591 -29.538527 64.755975 129.957110 76.850752 -136.747963 -10.682705 -18.329846 10.221173 -33.837489 5.847157 16.566631 84.308255 -25.369079 10.987346 -17.974168 1.337387 -4.460735 -16.924445 -0.496516 0.078290 17.214326 -27.249849 -18.547045 53.988251 -42.076196 -3.706920 -19.859107 -6.756052 30.529757 -12.818157 -5.065979 4.149089
0.004074 0.898720 -0.009464 -16.537836 21.517318 9.745498 -6.249557 13.816085 -3.279641 -2.932250 5.858453 -1.701950 -2.896934 5.860523 -1.751901 -12.639836 -2.062284 -3.212391 -55.560070 -0.781031 -4.526831 0.568130 -2.075222 -7.985232 -35.826395 0.277968 1.835120 -39.564847 -13.897353 -6.915825 -11.016216 -32.094875 -9.264159 1.534420 27.344440 9.356031 4.498686 -22.846316 63.511681 135.762497 76.578317 -140.292145 -10.792267 -17.540657 9.944737 -35.666100 3.151179 16.526526 89.244023 -24.101769 10.640328 -16.425389 1.595619 -5.834931 -21.436737 0.705626 0.009815 14.514330 -25.422123 -20.120127 60.986330 -41.679804 -4.467048 -19.372535 -6.555458 29.851956 -15.415269 -6.482631 3.844092
0.004074 0.866750 -0.009464 -16.148764 20.311788 9.809357 -5.665886 14.279352 -3.188369 -2.733246 6.069534 -1.762828 -2.671774 6.072979 -1.840415 -11.918336 -1.979779 -2.980364 -54.025559 1.290334 -4.310780 0.530200 0.160200 -7.828007 -32.285103 7.612204 1.392246 -38.319884 -13.427605 -6.593632 -9.906397 -29.508953 -6.423918 1.243113 27.946921 10.223857 0.752820 -16.851232 62.834310 139.265310 75.792880 -142.128218 -10.469106 -16.725879 11.577497 -38.018421 -0.161177 16.367062 94.450503 -22.653249 9.752099 -14.879361 1.916732 -7.801874 -25.987109 2.137102 -0.152910 10.319661 -22.361119 -21.969104 69.786473 -40.911429 -5.184415 -18.822568 -6.261013 28.703138 -18.611425 -8.182120 4.445808
0.004074 0.827791 -0.009464 -15.287253 18.987265 9.789467 -4.819600 15.095300 -3.196313 -2.469561 6.435870 -1.838778 -2.388308 6.430149 -1.958314 -10.939763 -1.915065 -2.604050 -51.317903 4.427847 -4.583699 0.453440 2.441964 -7.050548 -27.418782 15.189692 -2.326920 -30.146563 -12.718858 -4.832055 -9.143898 -25.532764 -4.444095 1.176976 28.703145 10.347930 -2.475076 -11.344442 62.990058 145.615005 75.033648 -146.840360 -10.075948 -16.089154 13.405121 -40.622093 -3.856577 16.265980 100.183777 -21.051543 8.487673 -14.389501 2.137477 -9.045581 -28.716862 3.319074 -1.558869 5.083490 -18.009442 -23.426658 80.033876 -40.562901 -5.512955 -17.613891 -5.749055 27.170187 -21.330711 -9.467098 4.742517
0.004074 0.782488 -0.009464 -14.153476 17.713670 9.778331 -3.612037 15.858773 -3.399831 -2.154112 6.772543 -2.037206 -2.041659 6.742972 -2.236862 -9.783301 -1.868098 -2.005988 -47.956533 7.633400 -5.234665 0.442724 3.892865 -7.401160 -20.658268 23.870215 -7.174219 -16.454350 -14.473077 -3.629166 -8.971435 -18.494318 -4.864181 1.091634 28.925932 10.487122 -5.514134 -5.573626 63.429310 154.243970 74.465868 -153.566133 -9.698188 -15.934344 14.869720 -42.326537 -9.550466 14.258952 106.048650 -18.259036 6.733161 -15.111233 3.025487 -11.841225 -30.574435 4.743755 -3.805057 -0.847492 -13.423535 -24.944537 90.923589 -40.103354 -5.254424 -15.864691 -4.965353 24.878530 -24.279679 -10.442043 6.572098
0.004074 0.731860 -0.009464 -12.783837 16.455454 9.759686 -2.253989 16.296450 -3.490879 -1.781088 6.973748 -2.111179 -1.659457 6.913310 -2.386486 -8.450707 -1.773856 -1.398141 -44.012779 10.794568 -5.967529 0.469174 4.981246 -8.053959 -11.519173 31.157809 -14.925449 -0.791196 -16.633731 -3.007150 -9.150725 -10.103941 -8.465060 1.247411 28.645375 10.010967 -8.193497 1.002327 64.293672 160.792609 73.949460 -158.138506 -9.418985 -16.163985 16.073095 -43.934022 -15.818456 11.801733 112.275374 -15.734381 4.785082 -15.888238 4.118574 -15.250666 -32.076241 7.366710 -7.861979 -6.664088 -8.823686 -26.173966 101.421212 -39.623871 -4.593375 -14.412792 -4.147392 21.995779 -27.099256 -11.165136 10.091423
0.004074 0.675660 -0.009464 -11.124612 14.937809 9.572092 -0.700980 16.064479 -3.070844 -1.273588 6.902030 -1.928391 -1.154214 6.821915 -2.257192 -6.783996 -1.556583 -0.921771 -40.426887 13.956212 -6.591505 1.487091 7.408475 -8.309229 4.503495 30.651891 -28.731548 6.575666 -18.839306 -6.134081 -8.699803 -1.070606 -12.317262 1.644318 28.040565 8.635471 -11.276437 7.744722 65.761655 164.224122 73.496332 -159.055748 -8.839312 -16.390731 18.255716 -45.502076 -22.804406 8.850099 118.935100 -13.180469 2.713048 -16.503991 5.432944 -19.172531 -34.974606 10.284232 -12.979621 -11.726263 -4.600405 -26.771117 110.794429 -39.711484 -3.992126 -14.540068 -3.582660 18.691895 -29.142344 -12.086685 14.064181
0.004074 0.613006 -0.009464 -9.457171 12.556612 9.169659 0.886003 16.120722 -2.226674 -0.631074 6.960197 -1.586436 -0.498635 6.879726 -1.945938 -5.204975 -1.425733 -1.132306 -37.431162 15.118961 -6.660926 2.818026 8.627172 -10.005833 17.975774 27.076025 -38.350069 8.295302 -28.632275 -14.787336 -7.021020 12.257530 -15.112083 1.666380 27.060149 8.629285 -14.175833 13.416546 65.780863 169.388681 72.855771 -161.927236 -8.217106 -15.518977 21.570333 -46.207261 -29.853699 6.967784 126.088899 -11.018338 0.600769 -16.588735 6.579305 -21.847192 -37.777642 13.419865 -19.682021 -16.131961 -0.799307 -26.760620 118.946084 -42.423156 -3.687806 -15.116006 -2.832753 14.226852 -31.040331 -13.719466 17.011366
0.004074 0.546989 -0.009464 -8.338461 8.681432 8.772344 2.624109 16.299269 -1.539116 0.093694 7.077912 -1.312156 0.238797 6.994396 -1.698359 -4.020174 -1.446901 -0.844620 -35.007667 15.982791 -6.666808 4.043267 11.123085 -10.349870 23.549072 20.244829 -42.533231 3.599438 -36.633654 -33.068224 -4.346082 24.708876 -15.755618 0.166741 29.430994 13.310293 -15.288202 15.343233 61.057586 -178.700251 71.914828 -172.302662 -8.256053 -12.042266 25.656066 -44.812725 -35.223880 6.671727 133.363084 -7.098710 -1.225692 -14.274289 6.565006 -21.578289 -39.120610 17.287704 -30.156012 -21.076557 3.613590 -25.631311 125.899948 -49.116936 -3.702778 -12.422532 -1.313235 7.410064 -31.771744 -15.599724 18.079438
0.004074 0.487778 -0.009464 -7.461993 3.569212 8.831199 7.080487 16.228750 -0.968316 1.945465 7.118422 -0.871052 2.051574 7.035493 -1.272817 -2.597337 -1.113248 -1.746169 -37.588635 18.847550 -5.339397 4.875335 14.407560 -9.115326 19.141867 6.795141 -51.697637 3.492281 -32.278379 -43.160718 -3.588961 23.989151 -18.602052 -0.621300 26.303368 17.457171 -19.331745 22.972645 56.502890 -159.551252 74.508226 173.389021 -9.421181 -5.899525 27.937052 -44.520707 -35.079942 2.613687 139.604294 3.862524 -2.269601 -5.235770 4.837509 -17.436675 -41.893295 20.627884 -31.157013 -28.919643 7.765554 -28.948395 132.016288 -54.235995 -3.551964 -11.721037 0.621207 -4.376400 -38.743385 -15.214643 6.011400
0.004074 0.449705 -0.009464 -5.419139 -1.003349 9.531680 10.621775 16.669045 -0.314066 3.614540 7.406565 -1.230245 3.852869 7.308283 -1.535923 -2.755739 -1.449062 -1.699062 -40.712356 17.434389 -8.927510 5.227186 15.754623 -7.704424 9.887265 -4.284106 -56.699415 7.407423 -28.477578 -54.249093 -6.457469 11.763890 -17.817383 -0.738652 21.031467 23.004591 -20.306364 29.164240 49.385284 -118.273891 78.513271 137.919425 -11.467122 2.650849 27.058061 -46.746495 -25.376180 8.706841 142.485454 13.601438 -2.921222 3.162129 3.288221 1.200878 -43.529865 22.014513 -27.118420 -37.969475 13.401317 -27.190550 136.199178 -60.536614 -3.774529 -9.831209 1.697134 -11.875414 -32.961699 -12.451456 -2.734086
0.004074 0.439561 -0.009464 -1.822697 -3.487392 10.373057 10.921669 14.286622 -0.259502 3.270068 6.464093 0.062936 3.212107 6.472534 -0.343914 -0.418528 -1.466874 -3.058890 -39.718074 15.530592 -10.419528 6.214535 10.580399 -12.309065 16.414558 -12.102516 -52.700201 -2.698189 -35.172393 -64.150299 -9.254205 -3.601234 -14.882682 -0.186074 19.630041 21.035071 -17.937549 27.357339 49.322063 -42.721421 76.462493 65.148779 -14.186351 12.985995 25.199946 -49.578288 -14.909926 11.208842 142.906808 28.145949 -2.620414 4.068487 1.397283 9.864329 -49.745973 22.609091 -20.482146 -45.086658 17.240964 -26.857645 138.136222 -62.312400 -3.306860 -11.055295 2.237965 -14.695841 -27.144474 -10.232467 -3.395437
0.004074 0.452706 -0.009464 1.605328 -4.459499 10.340481 8.666117 11.750984 3.543047 1.856807 5.354391 1.406376 1.806323 5.487579 0.898032 4.122248 -1.373216 -3.557506 -30.623005 8.710971 -8.831729 5.897730 8.226844 -12.228921 20.810991 -16.232694 -51.584709 1.204190 -39.613832 -65.167973 -12.920404 -13.971741 -18.974378 -1.281151 20.618559 23.773317 -11.446965 19.883747 43.029468 -16.327138 62.230489 40.606560 -14.868178 18.200734 19.306374 -48.267477 -8.823703 11.100812 141.030976 38.088313 -2.408364 0.593986 -0.139357 7.218403 -43.227058 20.951872 -22.163255 -47.956288 17.752520 -24.760306 135.984064 -63.656123 -4.184635 -12.081656 1.807012 -11.584953 -23.790542 -8.731096 -0.252740
0.004074 0.476050 -0.009464 2.734555 -5.572517 9.525423 4.705829 7.704858 6.134439 0.352342 3.579646 2.266750 0.355123 3.765418 1.943174 8.428986 -0.025181 -3.486532 -13.696869 2.926432 -3.948236 5.374726 8.328692 -11.267735 27.032635 -14.148356 -52.187992 4.526099 -41.705425 -63.574865 -11.020958 -7.154527 -27.662710 -2.751759 28.384225 24.344713 -6.003302 5.099243 42.313729 -11.640835 48.981414 29.464766 -14.703171 19.285708 17.633547 -41.352780 -6.196847 11.917995 137.229038 39.701696 -2.345215 -4.485782 -0.526924 1.255513 -40.054702 19.404417 -23.581676 -46.802245 15.666579 -23.112031 131.388212 -66.182917 -5.892864 -14.698696 1.196299 -6.624991 -21.933668 -8.355058 8.743368
0.004074 0.498925 -0.009464 1.080462 -7.135403 8.802508 5.219368 3.579958 6.446841 0.798365 1.728707 2.314855 0.810084 1.867586 2.182078 8.520126 2.041454 -2.969932 6.846234 -1.995820 5.602985 5.166544 8.477703 -12.142026 30.828270 -14.134151 -52.869877 8.877950 -42.380803 -55.707487 -5.943026 3.490457 -31.973836 -1.067662 20.794181 25.097554 -10.032664 4.839276 43.526181 -4.256375 40.851364 17.916175 -14.143235 13.553228 18.735010 -31.967065 -4.364894 11.483322 132.346738 39.638960 -2.272793 -7.767525 -0.898088 -2.452847 -40.120529 18.813172 -23.614220 -42.361577 13.154148 -22.394552 126.051588 -69.019549 -7.942505 -17.511622 0.391882 -2.121752 -19.430630 -9.726218 16.399519
0.004074 0.515010 -0.009464 -1.341235 -8.148456 8.195985 6.870084 -0.200241 5.914428 1.240605 0.083627 2.158950 1.236976 0.238067 2.148693 8.914817 3.352992 -1.308181 14.207609 -5.608022 14.793733 4.918889 8.276345 -13.092015 34.785890 -13.866477 -52.127055 11.118331 -42.295948 -49.423239 -4.512778 11.899352 -28.639413 0.817838 11.097121 24.597072 -15.491225 6.171596 47.984344 3.139709 37.487138 6.106302 -13.062636 6.283811 17.759234 -24.408192 -2.270786 10.750173 127.743441 41.923187 -2.050823 -8.329244 -1.856687 -2.227661 -41.403389 19.503481 -22.313788 -36.860249 10.760045 -22.524272 121.039831 -70.828653 -9.969320 -19.138094 -0.335228 0.978913 -14.586519 -9.830523 17.323038
0.004074 0.522305 -0.009464 -2.276392 -8.261624 7.245096 6.888768 -3.536716 5.867448 0.925932 -1.324144 2.271201 0.915324 -1.091658 2.389271 8.304283 4.075963 0.941397 14.741286 -8.481546 20.943418 4.881918 7.991334 -14.661286 41.019031 -9.537139 -50.406252 12.741177 -44.519215 -42.822507 -5.859117 13.988560 -26.128137 1.738268 4.169974 22.721057 -17.971700 3.282098 50.445100 8.151295 37.808561 0.464072 -12.441852 4.502346 9.816754 -20.640648 -0.238218 11.250764 124.369909 45.850691 -1.706875 -7.415269 -2.597188 -0.140159 -43.254344 20.072371 -20.027971 -33.023460 8.267803 -22.857382 117.179697 -71.433516 -11.280335 -19.547698 -0.532907 1.930406 -15.753213 -9.250479 16.150819
0.004074 0.522672 -0.009464 -1.889282 -8.423634 5.869893 5.667998 -6.859398 6.095868 0.094637 -2.685875 2.750990 0.115034 -2.358778 3.031196 6.536825 4.065020 2.491038 15.122274 -11.138254 25.049730 4.836378 7.721199 -15.954098 46.104629 -2.388698 -51.282518 22.599770 -48.234113 -30.751797 -8.982873 8.916314 -27.474651 2.264619 1.234087 20.137335 -15.956221 -1.362830 49.938483 11.553658 41.140973 -4.411726 -13.118064 10.412664 1.092324 -19.012428 1.771060 12.715970 121.965844 50.556499 -1.309531 -6.414763 -3.236136 1.532971 -44.819908 19.964032 -16.309056 -30.959292 6.170374 -22.679851 114.327655 -71.605724 -11.952832 -19.288655 -0.390090 1.379325 -16.570109 -8.540721 14.264093
0.004074 0.520466 -0.009464 -1.865107 -9.616306 4.218149 5.100373 -9.243922 6.440686 -0.170873 -3.697144 3.103263 -0.115994 -3.333527 3.494725 2.957211 3.570532 4.129767 14.664239 -13.120319 26.495568 4.816635 6.591688 -17.341186 47.627741 2.908402 -52.521198 34.426440 -48.703218 -19.250697 -13.918873 2.236150 -29.170636 2.652756 -1.937001 19.107471 -14.816793 -2.774676 45.850504 14.130946 41.767127 -6.733377 -12.528960 18.912421 -4.981252 -16.656477 4.716497 15.310500 119.534526 54.444660 -0.795641 -6.665908 -3.746354 2.219355 -45.089736 19.144972 -12.211118 -28.876924 5.017446 -21.644791 111.335007 -71.982069 -13.020566 -18.873823 -0.277908 0.807483 -14.456686 -8.029417 12.057754
0.004074 0.520244 -0.009464 -2.766903 -11.788194 2.519685 5.231985 -10.741709 6.842203 0.101978 -4.378661 3.194094 0.152977 -4.045163 3.607377 -0.226960 2.751704 5.972277 12.768318 -15.047682 26.544133 4.642247 6.141058 -17.897953 46.792703 6.305046 -53.941615 34.262787 -45.734611 -16.001279 -14.618113 1.834891 -30.219488 2.924564 -3.547416 19.169747 -16.674700 -1.119937 40.087276 17.305109 36.298516 -6.701854 -11.445763 22.592292 -10.826523 -12.789725 8.624455 18.114148 116.484334 56.840573 -0.171742 -8.055328 -3.683010 1.321167 -43.272183 17.700879 -11.180573 -25.970016 4.923781 -20.194587 108.055697 -72.186983 -14.406052 -18.735184 -0.283146 0.891416 -11.991384 -7.490359 9.898197
0.004074 0.524086 -0.009464 -3.595234 -14.067757 1.134339 4.602445 -11.450526 7.114479 -0.008249 -4.720117 3.086239 -0.001171 -4.436645 3.481824 -1.668562 1.930759 7.364783 9.971168 -16.372179 26.448173 4.440000 5.711316 -18.277429 44.395428 9.041585 -53.736860 23.466779 -40.328672 -20.413522 -11.847013 7.247766 -26.179870 2.971734 -2.581268 18.857857 -18.039571 -0.033245 38.348009 18.282102 27.083536 -9.622792 -11.673688 21.101584 -12.191467 -8.734516 12.508234 20.056325 113.133727 58.009515 0.229481 -9.882727 -3.032749 -1.048247 -38.741747 15.915734 -14.334967 -23.033891 5.313094 -19.060370 104.823558 -71.693306 -15.562758 -18.915089 -0.406988 1.448550 -11.412060 -7.238311 9.693476
0.004074 0.530928 -0.009464 -3.404459 -15.453964 0.318167 2.799027 -11.360813 7.362050 -0.697359 -4.665641 3.011472 -0.735660 -4.405360 3.369894 -2.040372 1.137204 7.879943 6.718675 -17.061233 27.666823 3.862438 4.840246 -17.764100 39.992906 13.905324 -53.221734 23.042627 -36.205570 -16.261344 -11.572240 11.737404 -18.189002 3.213922 -2.808765 18.550854 -17.859179 -1.642987 36.393922 14.424668 23.458372 -8.828551 -12.240520 17.436671 -11.321043 -5.881410 15.411945 21.165467 110.035182 58.158492 0.259660 -11.874241 -1.964339 -3.886687 -35.149055 14.444704 -16.619251 -20.770337 5.169331 -18.420829 100.847269 -71.196727 -16.997119 -18.980237 -0.588348 2.182702 -10.574773 -7.021991 9.742306
0.004074 0.538094 -0.009464 -2.347302 -15.336668 -0.016441 0.429391 -11.099946 7.601657 -1.577309 -4.510873 3.020094 -1.642207 -4.260604 3.328101 -2.382346 0.663178 7.844806 4.126367 -16.902712 30.121793 3.000884 1.901039 -17.076202 34.370980 20.498941 -53.813860 35.999371 -32.477591 -2.077362 -13.174964 8.488811 -11.827074 3.590464 -5.352912 18.938480 -15.206850 -5.538180 33.067992 8.000014 27.700493 -5.392660 -12.872250 12.212217 -9.038039 -4.324167 16.749738 21.561943 107.236820 58.076270 0.344237 -13.652676 -0.766426 -6.766242 -32.771269 13.477761 -17.279441 -18.869295 3.639025 -18.766949 96.567071 -70.545781 -18.247909 -19.095526 -0.711326 2.774169 -8.311166 -6.335450 8.257420
0.004074 0.543170 -0.009464 -1.247764 -13.750278 -0.222284 -2.162478 -11.187688 7.879901 -2.497634 -4.502456 3.133099 -2.573572 -4.261187 3.392875 -2.665018 0.524194 7.203583 2.414266 -16.517751 32.484277 2.098450 -1.988676 -16.387940 28.652250 25.086349 -54.248503 49.320265 -24.265097 9.192401 -13.776701 -1.883444 -9.727260 4.025386 -7.794242 18.856150 -11.041444 -11.559781 30.558410 3.469208 34.309903 -2.758103 -13.414162 5.764135 -5.998439 -3.199437 16.803080 21.756718 104.454405 57.968133 0.887385 -15.262599 0.575922 -9.786671 -30.982096 12.215689 -17.430613 -16.423004 0.840619 -19.759357 92.646113 -69.708154 -18.739485 -19.133217 -0.847964 3.323893 -7.167769 -5.995198 7.581330
0.004074 0.544830 -0.009464 -0.698566 -11.279545 -0.566675 -4.269193 -11.180036 7.944654 -3.210371 -4.474665 3.187157 -3.289290 -4.249302 3.402980 -2.789806 0.485975 6.367340 0.906199 -16.899094 33.729882 1.270434 -6.427323 -15.665831 21.278927 26.647271 -51.229990 55.025303 -18.037249 7.606326 -11.873617 -13.191894 -8.189673 4.453508 -10.579607 18.826052 -7.313340 -16.914900 30.019495 4.750699 37.516716 -4.569104 -13.596831 0.498042 -2.371663 -1.739132 16.518364 22.400737 101.265276 57.669446 2.081199 -16.896734 1.922805 -12.758137 -28.946089 10.859786 -17.227782 -12.998028 -2.745789 -20.825936 89.010047 -68.775841 -18.700330 -19.024055 -0.979416 3.926633 -6.902890 -5.761346 7.367715
0.004074 0.542839 -0.009464 -0.667850 -8.588787 -1.049508 -5.950392 -10.691483 7.582515 -3.768484 -4.262825 3.033031 -3.850361 -4.053978 3.207681 -2.465809 0.196020 5.849186 -0.487137 -18.784704 33.737824 0.594601 -11.124341 -15.632242 15.727843 27.210448 -47.795866 53.732260 -19.286062 6.175353 -11.124239 -19.569966 -11.933457 4.773283 -12.534024 19.081461 -3.101730 -22.029648 30.270403 9.417661 36.774386 -7.510111 -13.533680 -2.298955 0.139593 0.202086 16.397728 23.416184 97.588622 57.276730 3.703362 -18.149631 3.071064 -14.944170 -26.905297 9.321599 -16.788022 -8.907575 -6.657525 -21.824885 85.794209 -67.570543 -18.134609 -18.974248 -1.094672 4.432783 -6.574036 -5.590235 7.058701
0.004074 0.537860 -0.009464 -0.761215 -6.006226 -1.545464 -7.341229 -9.721036 7.046517 -4.158286 -3.864388 2.772541 -4.240759 -3.677702 2.896795 -1.929616 -0.276429 5.590576 -1.587818 -21.936095 32.392830 0.074083 -14.451575 -16.177811 10.695431 25.448976 -45.019896 42.942086 -26.371353 5.251450 -12.857455 -19.400751 -19.363755 5.102449 -14.434125 19.808578 1.217783 -26.760918 30.646721 15.432157 34.444646 -9.095662 -13.410097 -3.989436 1.925391 2.162053 16.673950 24.896337 93.742765 56.918411 5.323443 -19.029570 3.631789 -15.895143 -24.374082 8.189056 -14.507272 -4.600975 -10.435994 -22.430421 82.660384 -66.305607 -17.433118 -18.806678 -1.187188 4.904763 -5.979326 -5.329566 6.510002
0.004074 0.530770 -0.009464 -0.595503 -3.621997 -1.956167 -8.486355 -9.180196 6.402838 -4.463172 -3.667626 2.543634 -4.535343 -3.510250 2.635274 -1.202937 -0.771453 5.411347 -1.134611 -25.738792 30.807698 -0.119054 -15.233632 -16.471817 4.980885 20.135145 -42.933140 22.308205 -34.059269 -4.775436 -12.618117 -15.968057 -19.825563 5.426243 -14.606744 20.809275 5.913029 -31.414842 31.493937 21.013087 32.560642 -9.271719 -12.840224 -6.093939 4.474462 3.738505 17.283781 26.336917 89.596356 56.664901 7.206700 -19.469108 4.028284 -16.245410 -21.835427 6.657395 -12.769853 -0.504190 -13.978429 -22.865848 79.901926 -64.837915 -16.252923 -18.681377 -1.272364 5.291029 -5.081316 -5.053891 5.852498
0.004074 0.522021 -0.009464 0.111059 -1.581911 -2.238115 -9.546334 -8.716494 5.859174 -4.751178 -3.501578 2.335361 -4.817304 -3.365653 2.398710 -0.605030 -1.306040 5.102963 1.515912 -29.805479 30.212680 -0.150323 -14.654309 -17.142213 1.409963 13.609238 -42.726719 1.047551 -39.885444 -17.573757 -10.614433 -15.982757 -13.716739 5.847595 -15.727176 21.855805 10.256380 -34.787913 31.819301 27.491497 32.624639 -8.663272 -12.003077 -9.544980 7.844011 4.795485 18.253970 27.848047 85.599692 56.414377 8.747489 -19.834719 4.194716 -16.451964 -18.126855 5.207677 -9.825582 3.084804 -17.038588 -22.962195 77.116375 -63.443523 -15.072129 -18.344845 -1.348088 5.746101 -4.089011 -4.649885 5.063075
0.004074 0.511506 -0.009464 1.563046 -0.078118 -2.344394 -10.554827 -8.213180 5.214614 -5.036944 -3.319609 2.083215 -5.096170 -3.201949 2.123637 -0.229996 -1.940385 4.915722 4.755791 -34.279603 30.045492 -0.114743 -13.275635 -17.790015 0.725326 7.359507 -42.814267 -14.012685 -47.150774 -29.993134 -6.797437 -18.918431 -3.096088 6.242506 -17.395408 22.762804 11.511062 -36.708323 27.572076 33.897174 34.672800 -1.452629 -11.015216 -13.240055 8.594386 5.396036 19.518186 28.976334 81.678590 56.426619 9.825964 -19.866674 4.195872 -16.529349 -12.339993 3.791037 -4.928696 5.682085 -19.655964 -23.197361 74.556992 -61.872295 -13.854709 -17.939774 -1.450020 6.347861 -3.274434 -4.367109 4.379109
0.004074 0.499013 -0.009464 3.803719 0.887525 -2.232691 -11.852938 -7.656326 4.644217 -5.403432 -3.106621 1.834604 -5.459146 -3.002412 1.845637 0.037056 -2.545175 4.758474 7.249564 -38.494827 30.334485 -0.099324 -12.190025 -18.604935 1.048773 2.366393 -41.837208 -23.754224 -55.232227 -42.226416 -1.893326 -19.364537 9.582054 6.754799 -18.416390 22.816614 10.939184 -36.667594 22.271603 38.671430 36.076243 9.945121 -10.459769 -15.364721 6.262167 5.525382 21.133159 29.850719 78.005897 56.479079 10.130198 -19.690591 3.975194 -16.082043 -9.622672 2.709408 -2.785753 7.345036 -21.456598 -23.434738 72.525379 -60.446623 -12.417791 -17.169424 -1.644177 7.492195 -3.060576 -4.188329 4.171081
0.004074 0.484525 -0.009464 6.679745 1.524588 -1.965694 -13.041580 -7.204751 3.933036 -5.707069 -2.950868 1.510366 -5.762217 -2.853861 1.492304 0.039866 -3.017011 4.723490 7.860856 -41.582894 30.483539 -0.100430 -11.350327 -19.573653 1.561884 -0.931656 -40.374698 -33.462928 -64.815916 -56.027502 1.271769 -16.830170 19.564052 6.768434 -18.159593 22.612764 12.539005 -35.198441 21.915705 39.944032 33.313546 19.463090 -9.247527 -14.206306 3.084860 5.674473 22.544623 30.111601 74.695381 56.090607 9.750754 -19.148719 3.639752 -15.464618 -8.305382 1.750060 -1.986904 8.219621 -23.063098 -23.958727 70.858796 -58.599386 -10.835760 -16.261178 -2.103166 9.308359 -2.128791 -3.979072 4.637401
0.004074 0.468158 -0.009464 10.044181 2.144154 -1.836792 -13.946425 -6.777026 3.370758 -5.942827 -2.834253 1.361882 -5.984348 -2.765006 1.328036 -0.782737 -3.349333 4.424620 6.124012 -43.191053 29.771516 0.092922 -9.293223 -19.322704 1.590372 -4.917974 -41.110716 -45.997041 -73.983077 -72.645722 2.474729 -15.071626 24.840243 7.229497 -17.643200 22.371031 16.634678 -32.958956 26.270413 37.805060 28.987379 25.128371 -8.265835 -11.038914 0.124693 5.680068 23.809485 30.463801 71.581232 54.792140 8.889454 -18.531155 3.242022 -14.528161 -6.887597 0.891267 -1.226866 9.057256 -24.432107 -23.885389 68.995215 -56.914304 -9.325960 -14.985887 -2.654601 12.174027 -3.884141 -4.106710 6.844858
0.004074 0.449971 -0.009464 13.905816 2.967005 -2.122851 -14.561094 -5.819952 2.962365 -6.137941 -2.467551 1.143822 -6.179105 -2.384348 1.105739 -2.310297 -3.561156 3.654559 0.902046 -44.339342 27.420126 -0.009823 -9.136012 -21.631187 2.771412 -7.585317 -38.803998 -88.497521 -81.185184 -117.794492 1.266258 -13.111971 22.205857 7.430607 -18.599599 22.819826 21.194949 -29.406970 31.752535 33.405907 23.242818 29.523814 -7.123893 -6.009838 -1.654175 5.327489 24.670262 30.847809 67.937112 53.736367 8.206142 -17.422326 2.795281 -13.270914 -5.620545 0.209486 -0.587978 10.130921 -25.840062 -22.858578 66.511816 -55.428103 -7.877079 -13.469766 -3.121055 15.355269 -7.827039 -4.692277 11.991124
0.004074 0.429012 -0.009464 18.308156 3.953267 -2.582679 -15.413067 -5.315495 3.316455 -6.490251 -2.277124 1.306567 -6.529956 -2.187601 1.268879 -4.178765 -3.258537 2.003967 -8.078724 -43.094244 22.582199 -0.037246 -8.716011 -23.167822 4.951150 -9.665659 -35.056570 -131.726471 -79.217724 -162.968506 -2.606097 -12.863168 11.950140 7.563953 -17.652167 21.612057 27.186386 -27.114819 37.711934 29.415656 24.204845 33.237270 -9.104149 -2.846724 -3.041575 4.109652 25.825324 31.848514 64.092000 51.953782 7.565426 -16.265522 2.333262 -11.639660 -4.396864 -0.448869 0.052164 12.106932 -25.637333 -20.655362 64.778255 -52.460023 -5.484364 -11.763046 -3.476727 19.289800 -12.100545 -6.414830 18.207839
0.004074 0.403586 -0.009464 23.196492 4.960362 -2.613229 -15.583362 -4.603174 3.042193 -6.608629 -2.037070 1.311569 -6.633594 -1.974766 1.285863 -8.029073 -2.330230 -0.169246 -22.442796 -37.195715 14.685439 0.133537 -6.978428 -24.327998 6.652834 -9.350737 -31.224096 -152.135472 -74.907674 176.890049 -7.607229 -10.717753 -2.720375 8.319912 -17.725716 21.894332 30.206525 -20.655319 41.157614 26.737866 24.472203 36.832781 -12.598830 1.814431 -3.190269 2.844843 26.674599 32.237009 60.684696 50.092415 6.410190 -14.939111 1.939315 -10.366508 -3.094042 -1.615430 1.222149 13.660470 -25.729017 -19.334444 62.033504 -46.785429 -3.978993 -10.537530 -3.736970 22.714368 -15.749622 -8.487916 24.255097
0.004074 0.373120 -0.009464 28.484659 6.078215 -2.161701 -15.972266 -3.088638 1.461057 -6.637022 -1.523384 0.882021 -6.634949 -1.546055 0.858967 -11.705935 -1.463046 -1.623251 -35.597373 -28.874219 7.132384 0.424163 -4.805889 -23.500080 6.810332 -7.522457 -30.804299 -168.233543 -72.821216 163.311272 -9.228003 -10.754158 -10.653226 9.343275 -18.422529 23.403904 31.081719 -12.450482 42.750037 23.082202 22.043226 41.368809 -14.718543 5.901634 -1.568517 1.679649 26.938978 31.986852 58.111776 48.314929 4.509250 -13.774579 1.705019 -9.710766 -2.225635 -1.999418 1.685534 14.725765 -26.336141 -18.965854 58.233527 -39.133944 -3.042908 -9.447485 -3.723369 24.661130 -18.306963 -10.618382 28.871703
0.004074 0.338357 -0.009464 34.097473 7.535386 -1.865814 -16.143498 -1.663103 -0.157352 -6.561600 -1.008640 0.304463 -6.552779 -1.070258 0.284237 -14.954460 -0.601526 -3.001829 -45.287332 -20.756163 2.398256 0.436493 -4.686452 -23.699450 5.898861 -2.362119 -31.214878 178.595633 -71.917150 154.496294 -9.123664 -10.706675 -7.563676 10.880265 -20.530040 25.905539 30.469042 -4.422587 40.878789 18.583198 20.456242 46.109610 -15.754378 3.848925 0.976241 -0.521455 27.268327 32.325271 55.645753 46.066440 3.118423 -13.063256 1.522565 -9.132250 -1.477405 -2.032771 1.804411 16.339997 -26.038770 -17.681465 53.438208 -31.300682 -1.924103 -7.758231 -3.377960 25.554480 -20.344361 -12.363037 33.072288
0.004074 0.299648 -0.009464 40.021187 9.357399 -2.142421 -15.441893 -0.212025 -1.774289 -6.054497 -0.456902 -0.283347 -6.047622 -0.537118 -0.294717 -17.492182 -0.054822 -3.921836 -54.347449 -13.962150 -2.276645 0.376135 -5.047382 -24.816626 0.065774 1.118512 -28.077420 -154.828800 -76.297440 179.422019 -6.052798 -6.502015 4.367645 13.717497 -25.175043 31.083033 29.357603 6.483836 34.412773 14.091963 18.390407 51.490974 -16.009357 -1.643944 -0.350125 -3.645384 27.426586 33.668984 53.436482 47.745428 2.876284 -12.272337 1.630506 -10.125626 -1.018976 -1.840405 1.585536 18.510645 -25.116660 -15.071926 47.086088 -23.308831 -1.011651 -5.784624 -2.826258 25.652468 -23.496861 -15.135671 36.833098
0.004074 0.256010 -0.009464 46.253003 11.342696 -2.693558 -14.192685 1.258036 -3.907226 -5.418175 0.109040 -0.985177 -5.422040 0.005928 -0.974748 -19.195890 0.175794 -4.013511 -59.873184 -8.042552 -4.508554 0.437244 -4.508278 -25.962075 -9.506942 -0.118660 -26.059686 -106.843271 -81.497710 -135.245084 -3.874658 -9.380225 15.249494 16.935639 -28.223411 35.689770 28.587574 16.880756 28.750426 10.124662 15.848340 56.819883 -15.302298 -6.106254 -7.429608 -6.615806 26.824243 35.522468 52.078304 46.520010 2.479633 -11.823767 1.727789 -11.018812 -0.429967 -2.149969 1.930566 20.485413 -23.916840 -12.014359 39.636902 -15.014446 -0.605907 -4.431312 -2.331386 25.223759 -30.011769 -23.144453 43.922664
0.004074 0.207192 -0.009464 52.623456 13.289212 -3.025129 -12.602636 2.202863 -5.846578 -4.825272 0.466359 -1.451797 -4.848316 0.305582 -1.424416 -20.258036 0.437504 -4.142599 -60.168115 -3.831510 -4.050647 0.615577 -3.274544 -26.836364 -21.824870 -6.209174 -24.953937 -27.564302 -78.495980 -61.232570 0.920196 -12.807206 35.014050 19.428745 -28.282707 35.687960 26.452124 26.256616 25.570286 6.363990 13.047008 63.708426 -14.612381 -7.514975 -15.383798 -9.014218 26.211572 37.110668 50.811465 44.834149 2.381336 -11.330650 1.823725 -12.150098 0.363146 -2.000335 1.881190 21.590126 -21.771936 -9.504753 32.720699 -8.068804 -0.529817 -4.452805 -2.253693 24.985790 -28.612330 -27.969725 58.436075
0.004074 0.158735 -0.009464 59.127938 15.270787 -3.426598 -9.781411 3.728058 -8.019173 -3.798514 1.161334 -1.917826 -3.882577 0.963445 -1.865065 -20.422432 0.726518 -4.614052 -58.954495 1.231491 -1.701814 0.745125 -2.428711 -27.028385 -36.236510 -15.274004 -25.483476 -5.390440 -72.923816 -47.530328 7.041372 -9.252993 62.389679 18.408662 -24.334293 34.089806 25.693159 32.471877 23.863245 3.580472 9.637754 69.506830 -13.142541 -0.338969 -15.797308 -11.258697 25.096620 38.472276 50.240180 42.164770 2.956750 -10.669450 1.967975 -13.476745 1.023191 -1.604928 1.584501 23.545592 -20.033123 -7.441181 26.561276 -9.874780 -0.979764 -3.107677 -2.020129 25.879286 6.927265 -6.613955 -7.148501
0.004074 0.122726 -0.009464 66.625568 17.995070 -5.388103 -5.200933 6.420237 -9.255555 -2.047933 2.566589 -2.229244 -2.256637 2.465981 -2.138750 -20.876111 0.738042 -5.667588 -54.720573 5.363405 -1.141933 0.636083 -3.155512 -27.775745 -42.931817 -22.752201 -30.502456 25.105195 -82.592467 -11.907455 1.561793 6.250051 63.559527 10.670401 -17.868833 33.077486 25.346099 23.792535 25.465024 5.774855 17.317726 71.234886 -13.449095 13.416151 -11.855452 -15.830435 21.376978 40.443793 52.316972 37.643146 4.665224 -10.284395 1.991562 -14.065961 1.772026 -1.352595 1.424500 25.011108 -17.936609 -4.003817 20.442841 -16.586330 -1.140177 -0.012697 -1.306513 26.541289 2.341076 -4.256452 -2.147250
0.004074 0.107451 -0.009464 76.578412 22.453347 -10.162504 -1.122923 11.994025 -8.664306 -0.843466 5.213360 -1.606061 -1.305585 5.150667 -1.478577 -19.159699 0.677445 -8.994161 -51.120057 9.920506 -5.759142 1.012417 -1.142981 -30.452765 -50.982111 -29.511540 -45.339815 114.244788 -79.168309 80.556642 -2.191157 9.687753 49.732113 6.273250 -18.684716 28.411988 23.679951 16.424877 32.095626 7.946536 18.683212 66.454398 -13.601987 27.795127 -1.651078 -23.191703 11.605703 41.098122 58.387159 32.729809 7.211571 -10.359825 1.862555 -13.401607 2.577891 -0.111857 0.312837 24.911497 -15.476704 1.590607 14.865741 -26.659202 0.266569 4.832179 -0.298083 25.568433 -2.571657 -3.803766 3.424896
0.004074 0.108963 -0.009464 89.078318 28.352787 -16.340143 2.356321 13.711582 -3.450104 -0.234055 5.906504 -0.031336 -0.612348 5.855605 0.016613 -16.515307 1.545191 -11.188308 -38.790884 15.803854 -7.855912 -0.120790 -6.330551 -37.284020 -47.380424 -27.741853 -37.307772 -174.204797 -76.928011 161.529797 1.054045 1.934254 46.322945 -1.686784 -46.742784 6.736828 21.196923 15.663911 36.008943 11.053641 33.717417 57.101409 -12.205750 10.231883 14.531689 -32.788954 -0.336684 36.804847 64.057233 28.483001 12.729586 -9.944457 1.477247 -11.640282 4.111210 -1.850909 2.161229 21.187448 -8.684021 7.384186 12.716611 -40.281363 3.577852 9.704219 0.562900 22.610331 -0.978046 -1.221186 1.416185
0.004074 0.119270 -0.009464 100.198737 33.978158 -19.696288 -0.481650 10.188739 -5.187150 -1.079283 4.934453 -1.297597 -1.345602 4.751706 -1.325044 -10.106080 0.329632 -2.718516 -31.285448 24.647004 9.940756 0.720201 -2.632673 -27.876212 -45.026667 -25.879652 -46.105834 -157.878563 -79.738133 -179.716230 6.005360 -6.858276 49.851891 -10.264730 -40.577793 -6.019461 28.692590 3.134927 45.759100 10.184079 42.293335 45.771871 -11.224290 3.793434 25.355625 -40.131114 -9.964480 29.464890 68.778388 25.456878 14.036132 -9.042711 0.956327 -7.701054 3.867993 0.191203 0.122433 14.328017 -6.699891 9.692942 16.761057 -43.998554 5.169625 12.502851 1.208707 20.982288 -1.142984 -3.313706 3.207311
0.004074 0.134590 -0.009464 104.834038 37.875675 -17.439902 1.707402 8.162435 -11.104334 -1.211105 3.460154 -3.355805 -1.422137 3.161092 -3.579701 -2.424975 -1.313773 11.301341 -22.929907 27.909820 14.786115 0.254980 -11.712486 -18.110818 -41.096394 -15.540694 -47.895416 -178.550828 -77.729583 167.696643 7.102293 -11.132131 47.765360 -8.926296 -43.533965 0.966691 22.226869 7.558340 39.979374 15.160144 32.823810 49.057938 -15.262501 18.904683 20.077701 -43.223909 -13.405375 22.946310 70.136316 24.970908 13.201636 -7.275869 0.392429 -3.909980 3.415213 3.873463 -3.525945 9.954381 -9.875582 7.654188 23.413462 -35.215711 4.566652 13.602934 1.461371 21.611491 -0.596316 -1.376199 1.592386
0.004074 0.151980 -0.009464 103.884945 39.419820 -12.167153 5.257964 7.435278 -15.160262 0.679723 3.244410 -5.487443 0.547817 2.955214 -5.658163 0.660707 -2.539772 15.573461 -17.172415 17.570435 12.394536 1.039340 -15.717061 -11.468518 -41.902939 -11.082580 -52.931108 174.638562 -81.008703 167.899644 9.184702 -19.975461 43.078498 -8.421409 -43.208831 6.049033 20.733571 8.852871 41.386638 16.553551 27.166792 50.864618 -14.365715 27.171890 5.187757 -44.195922 -11.747837 20.942620 70.222864 25.861720 11.326967 -6.139768 0.142220 -1.585507 3.019314 2.074068 -1.776883 9.030163 -13.209350 3.027400 29.386104 -21.348915 5.052667 15.352487 0.827896 21.647966 1.241805 -0.918700 1.383491
0.004074 0.165220 -0.009464 102.610797 39.839195 -8.277142 9.247916 8.651865 -18.232627 2.499734 3.998505 -6.871936 2.372244 3.747918 -7.053293 -3.196013 -2.655375 9.880663 -16.427251 6.655307 16.239295 2.243116 -13.292866 -5.597078 -47.858874 -14.929296 -63.480689 33.932784 -87.958638 31.256188 11.385855 -33.106536 39.754036 -6.768412 -43.944526 11.751349 26.226894 11.346370 41.519676 8.224171 24.167397 54.082862 -9.688545 26.324204 -15.908137 -47.463754 -7.560282 23.435439 71.240143 25.885698 8.686828 -6.338355 0.117421 -0.530113 3.579543 2.016079 -1.693511 8.872864 -16.263561 -1.215705 32.369146 -8.418033 5.007904 20.874227 0.284414 21.012034 2.490719 2.749361 -1.878505
0.004074 0.169951 -0.009464 104.179228 40.941926 -7.113363 9.456684 5.288016 -21.650339 2.679331 2.731324 -7.964094 2.495085 2.493367 -8.092055 -4.413221 -1.903562 6.829151 -14.250150 3.251438 14.526561 2.971838 -12.966533 -0.305791 -49.652820 -12.744837 -67.998710 53.196175 -81.635440 58.979038 9.849073 -40.486843 32.967211 -3.929799 -30.555329 22.639398 32.050658 7.777798 39.615788 -3.508399 21.316059 59.025499 -1.901620 30.443465 -35.648481 -53.431442 -5.443672 25.133134 72.408023 27.792664 6.190211 -5.134862 0.254078 -1.820180 5.171748 3.044549 -2.656948 7.208241 -21.294603 -6.518741 33.259715 2.219849 6.346012 28.621453 0.786471 18.157000 0.114379 -1.631006 1.895991
0.004074 0.168304 -0.009464 108.304361 42.552195 -7.925703 7.127732 2.142526 -24.144700 1.979909 1.415032 -8.597370 1.793079 1.226010 -8.661911 -4.136466 -1.130315 5.110750 -15.916292 3.083844 9.246308 2.455668 -16.494971 1.617951 -49.276307 -8.575781 -67.752789 50.725178 -75.698386 64.469026 6.659468 -44.517554 25.943884 -4.135126 -25.249125 27.891434 34.260309 5.405175 36.036284 -4.986706 19.175609 64.232410 8.209900 39.991174 -49.152555 -61.388868 -3.995671 25.724420 72.996226 30.599100 3.564807 -1.531309 0.185117 -3.468294 3.791834 2.654287 -2.313726 2.101228 -25.255312 -12.832307 35.528002 7.710788 7.728772 33.749048 1.571706 13.249948 0.031179 -0.280689 0.692786
0.004074 0.164424 -0.009464 112.706905 43.089231 -9.579543 5.960440 0.819306 -25.190125 1.773734 0.832011 -9.083117 1.623834 0.692944 -9.119668 -5.139249 -0.954234 4.522384 -19.440827 2.931358 1.883567 0.944720 -23.614033 2.226416 -49.093735 -3.609916 -66.215656 50.878041 -72.780176 71.832415 2.794474 -43.211132 19.334520 -4.071588 -33.498007 29.213754 35.007326 9.007252 29.569195 -1.523581 18.331566 66.779437 10.202560 42.995718 -48.813670 -69.148714 -2.429286 26.332984 72.694957 34.226437 0.708337 4.403816 0.068442 -5.445311 5.224731 3.783700 -3.405173 -6.141481 -27.299517 -20.447858 40.664319 11.642675 7.882519 34.420427 -0.074617 7.952427 2.043068 -0.039706 0.638646
0.004074 0.159790 -0.009464 115.180643 41.789035 -11.103237 3.991947 -0.836537 -25.255430 1.370593 0.003901 -9.318726 1.292381 -0.057680 -9.328997 -5.800410 -0.376795 5.200235 -23.279815 8.159351 -1.027235 -1.883214 -27.235908 -0.395899 -48.370066 1.270866 -62.722855 60.733903 -69.926143 86.683882 -0.859091 -36.606329 14.345069 -2.866841 -31.452660 30.178694 33.238231 8.552408 26.556522 -1.430763 17.836352 67.659107 7.259138 41.050009 -41.335764 -76.101179 -0.840666 27.513690 71.908188 37.878665 -1.834145 11.220814 -0.387831 -7.655362 5.637858 2.938922 -2.534333 -14.160682 -26.613053 -27.579050 45.867170 11.907230 6.468200 33.654446 -0.754022 3.308656 2.315769 0.734366 -0.113643
0.004074 0.153583 -0.009464 115.091221 39.138251 -12.172203 2.726782 -3.443845 -24.624951 1.417867 -1.192357 -9.448982 1.426306 -1.117868 -9.457627 -5.928960 0.344069 7.084791 -29.573548 14.428776 2.069173 -3.409328 -28.670950 -0.873901 -48.306594 6.943478 -58.258319 77.044141 -63.818029 108.154584 -3.079965 -28.645726 12.360873 -2.907210 -25.589392 31.246629 31.015024 8.555563 23.389096 -1.826382 17.065104 66.626062 3.187610 39.666901 -30.848640 -81.955180 -0.322507 28.341732 70.599548 39.341637 -3.844770 16.989544 -0.940995 -9.381151 6.163523 2.971438 -2.550179 -18.874730 -25.090433 -31.870393 46.021053 12.447468 3.691420 34.202942 -0.145577 1.247742 3.755888 1.965329 -1.252281
0.004074 0.145605 -0.009464 113.154514 35.903726 -12.962282 2.076255 -5.406671 -23.308477 1.572578 -2.092822 -9.342000 1.618763 -1.906414 -9.375570 -5.160947 1.102297 8.902128 -34.915107 19.228853 9.515784 -4.114182 -27.934161 -0.970391 -47.753330 11.946445 -51.412713 89.055649 -60.205204 120.454671 -0.434465 -23.196570 17.086963 -2.900038 -18.438097 32.202008 28.993745 8.468539 20.205706 -4.004550 15.976054 65.329998 -0.993104 37.450643 -19.454140 -85.877584 -1.185452 29.391628 68.571271 36.416454 -5.163105 19.886197 -1.044877 -9.385274 6.420634 4.010130 -3.617794 -17.393887 -21.895390 -29.583462 39.509416 15.090774 -1.228049 34.640526 2.176789 4.270473 3.174064 3.362499 -2.703592
0.004074 0.137837 -0.009464 110.608423 32.971489 -13.577292 1.821118 -5.683370 -20.974329 1.462118 -2.278793 -8.716674 1.499355 -2.099371 -8.756689 -4.011818 1.934970 9.559614 -34.613542 23.977718 18.494335 -4.424833 -25.577341 -0.786885 -47.063418 16.330574 -47.747261 94.249433 -60.449530 122.405540 2.602166 -22.151283 23.862849 -1.859980 -13.056600 30.703474 27.615397 10.865882 17.180540 -7.442069 12.362834 66.521441 -4.685329 33.497352 -10.270266 -86.493341 -3.235527 36.118509 68.338676 23.131861 -6.936233 18.846863 -1.512165 -13.015897 4.823039 5.381685 -5.025105 -13.203509 -20.113225 -26.156721 29.732461 25.116249 -5.859668 31.750939 3.804728 9.417396 5.036876 2.950568 -2.319041
0.004074 0.133104 -0.009464 108.965940 31.331993 -14.084610 2.683711 -6.552728 -19.918857 1.074116 -2.415816 -8.910486 1.089076 -2.304563 -8.938632 -6.270927 2.860572 10.174434 -29.413162 32.162699 31.287999 -4.468489 -23.583790 -0.586648 -47.605646 16.113280 -44.910678 100.973762 -60.418558 126.770767 2.387547 -19.713992 25.212682 -1.284770 -9.741251 30.914202 26.712769 10.846216 15.817179 -11.352226 10.711908 65.192624 -8.736984 26.231458 1.656406 -88.479466 -5.046018 36.108229 70.064283 23.277500 -4.165469 18.743159 -0.470450 -4.637426 5.695966 4.403427 -4.031059 -9.979738 -18.055925 -22.592821 25.517824 37.430944 -13.338864 25.039085 2.156259 14.072055 4.142505 3.963454 -3.402469
0.004074 0.132122 -0.009464 109.561017 31.136419 -15.008651 1.379788 -8.161163 -19.703636 1.018081 -3.145779 -8.360268 1.054615 -2.940240 -8.429478 -6.994388 3.556631 10.213677 -30.098236 36.894780 34.648178 -4.403497 -21.409659 -0.803470 -48.419033 17.949301 -42.069120 115.177965 -62.578417 138.935018 1.453381 -17.189691 23.544904 -1.816810 -6.139847 30.035984 25.799776 8.444104 15.612886 -15.633770 11.194626 64.780938 -10.608382 17.909666 10.542987 -87.724610 -8.038879 36.542385 72.458129 22.889363 -2.813300 18.341268 -0.261809 -2.422268 5.079566 4.066835 -3.694529 -9.099601 -13.787688 -19.059015 29.916614 44.176567 -24.366183 20.570594 0.581482 15.737158 16.795066 4.782655 4.652262
0.004074 0.134559 -0.009464 112.604075 31.409059 -16.927733 -1.226524 -9.413078 -18.612542 0.559732 -3.860956 -7.372568 0.637758 -3.580120 -7.501301 -6.734965 3.923996 8.815888 -26.731379 33.939491 35.454570 -4.198950 -19.299622 -1.931207 -47.970078 19.741965 -42.411753 125.558959 -63.893153 148.438575 0.984515 -16.368424 22.490814 -1.772522 -6.505664 27.799929 25.290808 6.663719 15.319155 -19.473302 12.403200 66.195182 -10.722249 10.812868 14.738914 -88.389496 -9.533135 35.383207 73.129815 20.282382 -2.540704 18.176892 -0.265497 -1.296109 4.868171 3.897243 -3.526176 -10.099431 -9.887312 -16.464826 41.875039 53.304361 -38.463230 23.307609 3.303609 25.795205 7.523649 4.508161 5.668539
0.004074 0.139020 -0.009464 116.519028 30.982485 -19.421597 -4.029789 -10.865345 -17.438760 -0.388638 -4.608317 -6.608532 -0.266861 -4.318589 -6.794163 -6.637491 4.292102 7.795030 -25.561599 31.894478 35.969652 -3.757383 -17.199599 -2.624834 -47.067939 20.418550 -44.456176 126.125510 -61.928704 150.526983 0.474259 -15.186370 21.759405 -1.878070 -5.337454 25.356576 25.999157 6.911328 15.940556 -21.701459 10.156189 66.890815 -11.051730 8.978851 16.716432 -90.666598 -9.948819 33.603041 72.718571 16.380762 -2.915746 18.034675 -0.257052 -1.887897 4.800882 3.916105 -3.546289 -10.776395 -8.505919 -13.618878 45.709165 51.846612 -42.539778 19.103966 1.112808 16.063270 7.423007 6.485320 -4.635335
0.004074 0.141623 -0.009464 118.745510 29.679021 -21.472146 -5.874064 -11.438426 -16.205112 -1.176650 -4.919757 -6.008190 -1.036033 -4.648183 -6.226256 -7.037669 4.391798 7.579949 -24.616528 31.942631 36.265913 -3.240997 -15.359609 -2.895719 -45.897285 20.010052 -46.955875 121.387953 -59.414313 148.397287 0.275175 -14.450694 21.529149 -1.854588 -2.846585 22.722694 26.340750 6.029434 18.644964 -23.805198 8.029098 66.616471 -11.690244 7.768895 17.896081 -92.283034 -9.472537 33.039005 71.824355 13.358412 -3.785417 17.448678 -0.380559 -3.262577 4.802518 3.698896 -3.327395 -13.581349 -8.365036 -12.177853 49.210380 50.375267 -43.761311 16.494590 0.170879 9.655672 10.423409 8.053945 1.652867
0.004074 0.137806 -0.009464 117.954484 28.378100 -22.493858 -5.481110 -10.978828 -15.174495 -1.228470 -4.719269 -5.726966 -1.107987 -4.486412 -5.918004 -7.406748 4.180792 7.978283 -25.023555 32.171791 37.234696 -2.730886 -13.777972 -2.587731 -45.120980 18.611715 -49.209814 118.476725 -57.404959 147.203122 0.361897 -13.909940 21.629144 -1.085070 -3.108105 22.478460 26.398779 7.301525 18.747388 -25.019234 4.837687 65.306634 -11.883416 7.344816 19.783616 -91.632427 -8.059833 33.997124 70.786159 13.783241 -4.895106 16.651418 -0.533956 -4.445287 4.730975 3.573124 -3.227213 -13.710807 -8.963587 -11.425140 45.132023 46.154118 -39.310454 13.043650 -0.467682 9.429640 16.700488 13.079667 21.559408
0.004074 0.128399 -0.009464 115.164641 27.899996 -22.765598 -3.469991 -10.080150 -14.242596 -0.887337 -4.247173 -5.426509 -0.790978 -4.088653 -5.547642 -7.571987 3.788595 8.617383 -25.753505 32.487031 37.668580 -2.437852 -13.130975 -1.545092 -43.984553 19.058259 -51.094368 120.023053 -56.905510 148.821853 0.354062 -14.083103 21.973970 -0.048919 -5.731130 23.283822 26.646888 9.178920 16.827488 -25.512758 3.530949 64.388110 -11.841100 6.426635 20.780994 -88.864688 -5.765573 36.860084 71.147533 20.948536 -6.510694 15.125002 -0.520806 -4.724842 4.721383 2.693993 -2.318683 -12.250220 -8.919976 -11.984186 36.946172 38.392130 -31.261065 12.698118 0.576247 17.523264 21.078398 16.590108 29.328958
0.004074 0.119499 -0.009464 112.411394 28.137486 -22.724581 -1.755531 -9.443377 -13.610299 -0.668601 -3.862317 -5.091678 -0.568864 -3.761247 -5.163348 -7.696318 3.401972 8.924832 -24.928870 32.517143 37.076849 -2.413126 -13.794001 -0.271997 -42.453224 21.593278 -52.098859 124.205270 -57.448793 151.827929 0.662869 -14.604502 22.444353 0.004673 -6.835337 22.399980 27.512185 10.011460 16.911901 -25.480346 3.848978 64.013638 -11.774744 5.482156 20.287300 -85.100810 -3.979895 41.163241 71.172545 19.243183 -8.584878 13.033415 -0.447423 -8.551410 3.473114 10.165757 -9.749657 -11.603017 -8.531597 -15.668219 30.020324 29.021384 -20.723291 15.584264 2.248315 24.385067 23.313906 18.659141 34.634658
0.004074 0.115826 -0.009464 110.761340 28.245211 -22.550791 -0.781621 -9.081706 -13.333969 -0.474621 -3.636335 -4.911946 -0.363735 -3.549658 -4.966460 -7.930840 3.097418 8.920648 -24.061350 31.974467 35.839776 -2.498037 -15.151684 0.066144 -42.001364 23.547590 -51.266632 127.874461 -57.421541 154.518835 0.898285 -14.231087 22.922052 0.364710 -7.046343 19.898227 27.099973 11.592778 19.626091 -25.352305 4.606313 62.426764 -11.816674 4.900131 20.196854 -83.069902 -3.750411 41.142833 71.321592 19.375814 -7.709682 14.249397 -0.611500 -9.497409 4.764052 2.412547 -2.034211 -11.721905 -8.704039 -19.634991 26.950308 19.297240 -13.047129 18.359691 2.939355 24.062251 26.200971 19.812745 35.646031
0.004074 0.116513 -0.009464 110.016877 27.572043 -22.255698 -0.523228 -8.505036 -13.008996 -0.419667 -3.399525 -4.760623 -0.307993 -3.328477 -4.802048 -8.111687 2.800813 8.963584 -23.346379 31.765815 33.711932 -2.603988 -16.374849 -0.363950 -42.074113 24.878856 -49.790415 130.129575 -57.420732 156.185145 1.223607 -13.827171 23.719736 1.189317 -7.434294 17.958829 25.972686 12.950166 21.195326 -25.435723 4.380401 61.490350 -11.922719 5.379787 20.650246 -83.048389 -3.246535 41.560670 72.494539 19.414254 -7.818799 17.091729 -0.681469 -6.057876 4.571487 1.959605 -1.588829 -12.062203 -7.112887 -21.465016 26.710245 9.905531 -10.016553 19.638647 2.373301 21.595350 31.261106 18.110526 33.122281
0.004074 0.118083 -0.009464 109.781396 26.337788 -21.856930 -0.681851 -7.766380 -12.927324 -0.539511 -3.122932 -4.675856 -0.430211 -3.081522 -4.699562 -8.238694 2.581317 8.926708 -22.903909 31.908062 32.013189 -2.684966 -16.866315 -0.165814 -42.029112 26.240930 -49.366879 131.580488 -57.251510 156.957249 1.436924 -13.551885 24.452209 2.176329 -8.147765 16.518990 24.707983 14.287243 22.240808 -25.742171 3.200429 60.742206 -12.062785 6.416239 22.067788 -83.192569 -2.504873 43.354348 73.690671 18.556740 -8.595506 19.035246 -0.751563 -6.720296 4.283122 2.933748 -2.574024 -13.353782 -6.407490 -22.180110 27.065451 3.602300 -10.089868 19.768237 1.945198 19.792294 39.349809 15.301590 23.190753
0.004074 0.118350 -0.009464 109.944056 25.307259 -21.464395 -1.091959 -6.986764 -13.249348 -0.768324 -2.831307 -4.814020 -0.668324 -2.821030 -4.823035 -8.337417 2.326846 9.064364 -22.753683 31.526276 30.978232 -2.692907 -16.939329 0.166964 -41.892087 25.898074 -49.886463 131.030813 -56.963318 156.334668 1.381541 -13.177738 24.407882 2.742952 -9.131438 15.912519 23.972508 14.922926 23.103283 -25.667886 2.285778 60.328951 -12.221283 7.206021 23.344773 -82.869352 -2.055727 44.735579 74.244802 18.286141 -9.002190 19.546959 -1.239575 -11.365198 4.408100 1.866969 -1.504529 -15.166613 -7.113698 -23.243290 27.167527 0.119702 -10.202506 19.080792 1.821547 18.722665 43.223720 16.058711 15.848942
0.004074 0.117192 -0.009464 110.326498 24.991458 -21.220152 -1.447809 -6.758055 -13.511517 -0.951458 -2.768036 -4.954808 -0.851959 -2.779805 -4.955439 -8.479628 2.213359 9.110839 -22.550501 31.082446 30.696199 -2.682759 -16.627451 0.520992 -41.627718 25.423960 -50.553658 130.655938 -56.860668 156.259396 1.187130 -12.934936 24.010718 3.024063 -10.236478 15.625917 23.030415 15.370583 23.365375 -24.586260 2.036932 60.648014 -12.248671 7.783243 23.261324 -82.656135 -2.019549 44.948330 74.350878 18.506338 -9.345039 19.766117 -1.521759 -13.355358 4.241911 1.775273 -1.421814 -16.005088 -7.654456 -23.961129 26.719823 -3.045452 -10.135972 18.246453 1.831194 18.496090 48.519122 16.909977 11.444958
0.004074 0.115472 -0.009464 110.548935 25.305680 -21.164916 -1.433627 -6.644850 -13.685950 -0.943821 -2.736028 -5.114733 -0.845593 -2.752620 -5.112813 -8.700129 2.126579 9.109949 -22.418552 30.493201 31.066633 -2.571957 -16.260356 1.521523 -41.099557 24.858723 -52.208646 129.842088 -56.706259 155.764435 1.052202 -12.886819 23.748553 3.143671 -11.280767 16.150897 23.428652 15.660635 22.854749 -24.818318 1.703695 60.934473 -12.170456 7.899096 23.043339 -83.080980 -2.076007 44.417005 74.394173 18.525297 -9.427950 20.204501 -1.282527 -10.600264 4.030626 1.462693 -1.123186 -16.469922 -9.115735 -24.486609 26.367532 -4.443610 -10.218673 17.581863 1.771296 18.239332 51.888221 17.406482 8.575726
0.004074 0.114059 -0.009464 110.367329 25.851304 -21.230222 -1.046926 -6.718781 -13.497551 -0.798084 -2.778461 -5.132052 -0.697891 -2.800968 -5.124262 -8.963742 2.071763 9.095914 -22.194899 30.239180 31.033686 -2.503879 -15.824661 2.265735 -40.568215 24.617241 -53.644032 129.207940 -56.597459 155.514517 1.065874 -13.012959 23.773102 3.228599 -11.918441 16.830343 23.454850 15.592189 21.786811 -24.562268 1.913917 61.386686 -12.158383 8.163801 22.559032 -83.302448 -2.239118 43.774381 74.417072 18.435427 -9.213390 20.578220 -0.976984 -7.837194 3.907431 1.232498 -0.902787 -15.655902 -9.461353 -24.123472 25.856106 -5.793935 -10.517355 17.441864 1.722104 18.165179 53.159991 17.453543 7.504731
0.004074 0.113409 -0.009464 109.903411 26.309843 -21.294543 -0.591010 -6.852106 -13.178534 -0.582282 -2.845408 -5.117416 -0.481946 -2.866319 -5.106343 -9.158759 2.112603 9.010813 -22.144961 30.496127 31.042700 -2.457622 -15.451546 2.811222 -40.195204 24.600028 -54.664515 128.492914 -56.407391 155.159447 1.149997 -13.149539 23.955958 3.036980 -11.590832 17.463023 23.330957 14.859352 20.895766 -24.056909 2.523343 61.762602 -12.081959 8.373648 22.191202 -83.092347 -2.369479 43.585545 74.456801 18.216159 -8.992956 20.606777 -0.884932 -7.144174 3.888703 1.155056 -0.827470 -14.695689 -9.680076 -23.607957 25.489820 -6.186288 -10.839944 17.556429 1.702286 18.130277 53.163574 17.596185 7.491545
0.004074 0.113167 -0.009464 109.483214 26.579953 -21.279598 -0.271711 -6.929481 -12.944030 -0.365472 -2.893376 -5.113352 -0.265844 -2.907605 -5.102511 -9.300083 2.145815 8.951846 -22.219632 30.775939 30.781760 -2.423872 -15.169462 3.213540 -39.956701 24.675984 -55.260397 128.211610 -56.314275 155.036260 1.295421 -13.261579 24.251248 2.797039 -10.977573 17.945861 23.256573 13.993627 20.220092 -23.596242 3.310321 62.082920 -12.039356 8.540802 21.912243 -82.696577 -2.429778 43.644328 74.499400 18.053941 -8.895526 20.467397 -0.940629 -7.675944 3.929583 1.139199 -0.809190 -14.211033 -10.073492 -23.365469 25.379661 -5.957914 -11.076233 17.629334 1.672890 18.068901 53.002111 17.769891 7.603994
0.004074 0.112630 -0.009464 109.313301 26.685133 -21.195618 -0.174091 -6.950583 -12.866460 -0.196114 -2.922716 -5.144840 -0.097130 -2.926406 -5.137977 -9.366903 2.195528 8.863492 -22.396020 31.045496 30.462832 -2.405291 -15.117251 3.189632 -40.040222 24.680838 -55.129000 128.485669 -56.213248 155.361736 1.345391 -13.189987 24.376102 2.587345 -10.654831 18.217577 23.208181 13.406989 19.860410 -23.088158 4.019371 62.215895 -12.053171 8.828427 21.737688 -82.384207 -2.405635 43.673671 74.546001 18.022291 -8.909020 20.345120 -1.016593 -8.272362 3.724412 1.168713 -0.851244 -14.105341 -10.373303 -23.398014 25.361836 -5.868556 -11.143008 17.603262 1.641315 17.813168 53.056467 17.979601 7.563532
0.004074 0.111915 -0.009464 109.316893 26.658876 -21.068867 -0.356345 -6.861088 -12.929028 -0.146928 -2.915004 -5.210988 -0.049061 -2.912419 -5.208154 -9.336794 2.223879 8.787401 -22.527569 31.124942 30.244911 -2.408430 -15.142908 3.037659 -40.056697 24.555255 -55.017338 128.490630 -56.245364 155.363051 1.348808 -13.247545 24.331295 2.524990 -10.210784 18.021920 23.131434 12.945016 20.275067 -22.711989 4.533781 62.133912 -12.112007 9.068418 21.621701 -82.227942 -2.290550 43.735241 74.605644 17.987856 -9.016129 20.248389 -1.042783 -8.573174 3.574613 1.146587 -0.838915 -14.095743 -10.289658 -23.450179 25.345890 -6.104553 -11.199415 17.588321 1.572052 17.563578 53.175408 18.207194 7.476074
0.004074 0.111263 -0.009464 109.266537 26.525634 -20.856564 -0.520173 -6.629895 -13.045497 -0.106010 -2.843940 -5.314660 -0.013013 -2.835087 -5.315894 -9.268492 2.199163 8.771864 -22.738249 30.931523 30.191378 -2.410702 -15.165666 2.852018 -40.093017 24.213997 -54.926625 128.410519 -56.404488 155.220034 1.344996 -13.389762 24.302025 2.665794 -10.287213 17.547299 22.996069 13.175492 21.136046 -22.614965 4.711173 61.673826 -12.148213 9.060790 21.795950 -82.101619 -2.094384 43.923791 74.688005 17.914255 -9.120673 20.126628 -1.051583 -8.766057 3.613991 1.087214 -0.778055 -14.059165 -9.912675 -23.515009 25.360504 -6.512583 -11.231930 17.616044 1.569985 17.312977 53.221872 18.449428 7.433328
0.004074 0.110784 -0.009464 109.047629 26.307325 -20.487096 -0.593956 -6.343410 -13.210603 -0.061329 -2.738722 -5.457028 0.025068 -2.723042 -5.461834 -9.190605 2.166120 8.765284 -22.982093 30.716009 30.331855 -2.416812 -15.140667 2.569760 -40.240909 23.676177 -54.688225 128.183304 -56.685500 154.962300 1.330492 -13.568509 24.254752 2.849008 -10.494434 16.857742 23.117077 13.679381 22.356283 -22.724538 4.653101 61.101941 -12.254845 9.114305 22.155008 -81.868531 -1.810095 44.248833 74.787496 17.833789 -9.226422 19.973020 -1.070322 -8.962404 3.592492 1.140233 -0.831541 -13.930444 -9.181655 -23.697782 25.505774 -7.132651 -11.079883 17.626682 1.653639 17.010956 53.220478 18.727375 7.416092
0.004074 0.110441 -0.009464 108.725241 26.013136 -19.959927 -0.675572 -6.021117 -13.499568 -0.065308 -2.612310 -5.634167 0.014958 -2.594464 -5.640173 -9.054889 2.111717 8.777705 -23.200592 30.327815 30.536425 -2.404542 -15.053580 2.502917 -40.323739 23.174237 -54.662151 127.643499 -57.085900 154.401554 1.350080 -13.849699 24.170781 2.958186 -10.249742 16.199288 23.487155 13.896476 23.560582 -23.003268 4.174796 60.779689 -12.399681 9.289105 22.569973 -81.531212 -1.415791 44.665361 74.867357 17.741150 -9.376558 19.825477 -1.069575 -9.140538 3.814884 1.073002 -0.751166 -13.965071 -8.556321 -24.039024 25.813108 -7.399057 -10.975040 17.565295 1.658917 16.738167 53.246221 18.947592 7.380018
