HIERARCHY
ROOT Hips
{
  OFFSET 0 1.1673769999999999 0
  CHANNELS 6 Xposition Yposition Zposition Xrotation Yrotation Zrotation
  JOINT Spine
  {
    OFFSET 0.000003812944337411511 0.10717500000681812 -0.009311
    CHANNELS 3 Xrotation Yrotation Zrotation
    JOINT Spine1
    {
      OFFSET 0 0.1058532983696241 -0.004285186608692496
      CHANNELS 3 Xrotation Yrotation Zrotation
      JOINT Spine2
      {
        OFFSET -8.470329472543003e-22 0.10599345671141647 -0.007812688101110094
        CHANNELS 3 Xrotation Yrotation Zrotation
        JOINT Neck
        {
          OFFSET -8.470329472543003e-22 0.26240299999999994 -0.04488100000000002
          CHANNELS 3 Xrotation Yrotation Zrotation
          JOINT Head
          {
            OFFSET -4.235164736271502e-22 0.17466899999999996 0.05625600000000003
            CHANNELS 3 Xrotation Yrotation Zrotation
            End Site
            {
              OFFSET -4.235164736271502e-22 0.10756799999999966 0.021070000000000005
            }
          }
        }
        JOINT LeftShoulder
        {
          OFFSET 0.10574399999999999 0.23009199999999996 -0.07323000000000002
          CHANNELS 3 Xrotation Yrotation Zrotation
          JOINT LeftArm
          {
            OFFSET 0.14878212914559852 -0.04653266654569688 -0.030693304075147546
            CHANNELS 3 Xrotation Yrotation Zrotation
            JOINT LeftForeArm
            {
              OFFSET 0.24109000000000003 2.220446049250313e-16 -5.551115123125783e-17
              CHANNELS 3 Xrotation Yrotation Zrotation
              JOINT LeftHand
              {
                OFFSET 0.316792 0 -1.1102230246251565e-16
                CHANNELS 3 Xrotation Yrotation Zrotation
                End Site
                {
                  OFFSET 0.06265729429771016 -0.10569948639925819 0.03859412819617963
                }
              }
            }
          }
        }
        JOINT RightShoulder
        {
          OFFSET -0.10574399999999999 0.23009099999999982 -0.07323000000000002
          CHANNELS 3 Xrotation Yrotation Zrotation
          JOINT RightArm
          {
            OFFSET -0.14878040829228295 -0.04653159475972379 -0.030692917709113934
            CHANNELS 3 Xrotation Yrotation Zrotation
            JOINT RightForeArm
            {
              OFFSET -0.24109000000000003 -6.661338147750939e-16 -2.7755575615628914e-17
              CHANNELS 3 Xrotation Yrotation Zrotation
              JOINT RightHand
              {
                OFFSET -0.31679300000631333 -8.881784197001252e-16 -5.551115123125783e-17
                CHANNELS 3 Xrotation Yrotation Zrotation
                End Site
                {
                  OFFSET -0.06265795211397429 -0.10570764472283312 0.03859362014678265
                }
              }
            }
          }
        }
      }
    }
  }
  JOINT LeftUpLeg
  {
    OFFSET 0.12297511767165623 -0.06742078536803264 -0.010003
    CHANNELS 3 Xrotation Yrotation Zrotation
    JOINT LeftLeg
    {
      OFFSET 0 -0.457033849483632 0.010304509991859542
      CHANNELS 3 Xrotation Yrotation Zrotation
      JOINT LeftFoot
      {
        OFFSET 0 -0.500280623664138 -0.036905110570505176
        CHANNELS 3 Xrotation Yrotation Zrotation
        JOINT LeftToeBase
        {
          OFFSET 0.025950805788189563 -0.14255151365608373 0.19507593811975638
          CHANNELS 3 Xrotation Yrotation Zrotation
          End Site
          {
            OFFSET 0.010732117804750613 -0.000035441498015504746 0.11362327680684622
          }
        }
      }
    }
  }
  JOINT RightUpLeg
  {
    OFFSET -0.12297488233495055 -0.0674172146317622 -0.010003
    CHANNELS 3 Xrotation Yrotation Zrotation
    JOINT RightLeg
    {
      OFFSET 0.00000159348816348992 -0.45703784846455486 0.01030460015485039
      CHANNELS 3 Xrotation Yrotation Zrotation
      JOINT RightFoot
      {
        OFFSET -0.0000015934881634621645 -0.5002806236608007 -0.03690511058134042
        CHANNELS 3 Xrotation Yrotation Zrotation
        JOINT RightToeBase
        {
          OFFSET -0.0259497668227143 -0.14255297441554501 0.19507500887383716
          CHANNELS 3 Xrotation Yrotation Zrotation
          End Site
          {
            OFFSET -0.010733201844058626 -0.000035030229497263656 0.11362417898958707
          }
        }
      }
    }
  }
}
MOTION
Frames: 37
Frame Time: 0.03333333333333333
0.151717 0.990118 -0.046513 14.493021 -17.540821 3.674668 12.432765 0.882083 -3.203650 9.874117 0.981463 -1.893674 9.843220 1.289963 -1.949378 -1.776660 -1.233000 -6.323224 -47.062134 -12.898206 2.893273 0.765969 2.067007 -9.137786 -20.511772 -23.661536 -35.523838 179.999753 -86.420309 179.999754 35.706395 -6.215338 27.391719 2.011626 4.336038 2.858506 -19.988619 25.414413 63.487352 179.999733 82.402284 -179.999751 0.588405 3.704733 -6.312980 -60.079969 2.396027 25.151858 56.580036 -8.098565 0.646725 -9.901546 2.755100 -20.960031 -0.143197 -0.000006 0.000006 -48.042571 3.448640 -23.112465 56.083389 2.556397 -1.289865 -21.449486 -5.583293 24.174931 -0.010712 -0.000009 0.000003
0.151717 0.995620 -0.046513 14.712577 -17.157007 3.500405 12.294850 1.130850 -3.363460 9.745328 1.179551 -2.005816 9.715311 1.461372 -2.058123 -1.842188 -1.309445 -6.259048 -47.152930 -13.101405 2.584181 0.778739 1.941408 -8.884191 -19.364424 -25.062472 -35.368624 179.999906 -87.101055 179.999920 35.886865 -6.158928 26.604405 2.107464 4.508731 2.943265 -20.069166 25.429808 64.466818 -179.999961 84.000048 179.999959 3.240385 3.443869 -6.548515 -59.671503 2.673924 25.475856 54.864832 -8.360111 0.249066 -9.036669 2.593509 -20.902196 -0.107672 -0.000001 0.000001 -47.784616 2.511004 -23.247279 55.068889 2.482291 -1.003631 -20.986983 -5.618457 24.770389 -0.103452 0.000026 0.000000
0.151717 1.000599 -0.046513 14.913460 -16.812307 3.465108 12.091660 1.535908 -3.517094 9.547051 1.490887 -2.121493 9.516838 1.744593 -2.172763 -1.685018 -1.450086 -6.454989 -47.027645 -13.792818 2.217514 0.782932 1.798825 -8.516038 -18.101273 -26.974757 -34.771833 -179.999830 -87.373318 -179.999818 37.117307 -6.555074 25.262935 2.263105 4.967593 2.732383 -20.259857 25.288820 65.009226 -179.999979 86.452812 179.999965 6.528898 3.137697 -6.824439 -59.316089 3.280220 25.791216 53.120054 -8.490866 -0.004213 -8.038009 2.246416 -21.124935 -0.198271 -0.000001 -0.000004 -47.621767 1.619017 -23.588580 54.172237 2.730415 -0.705490 -20.650017 -5.694259 25.484311 -0.170567 0.000013 0.000003
0.151717 1.005383 -0.046513 14.879717 -16.689321 3.528951 11.807664 2.102211 -3.569760 9.276496 1.895898 -2.210804 9.243741 2.124582 -2.264370 -1.326826 -1.609167 -6.694407 -46.631852 -14.575781 1.830439 0.774764 1.582943 -7.878999 -17.354121 -29.617704 -33.980441 -179.999950 -87.287097 -179.999946 39.226651 -7.210463 22.595056 2.522429 6.315673 1.975556 -21.191390 24.941056 65.012792 -0.000369 88.619449 0.000354 10.679887 2.775246 -7.060970 -58.627330 3.945970 26.193981 51.265494 -8.521423 -0.344647 -6.863981 2.043377 -21.410940 -0.319672 0.000002 -0.000006 -47.379027 1.043846 -23.840265 53.477457 3.058494 -0.326285 -20.561191 -5.768261 25.927631 -0.111128 -0.000003 -0.000000
0.151717 1.009289 -0.046513 14.349606 -17.149320 3.739301 11.343157 2.530009 -3.310044 8.882914 2.162359 -2.124485 8.851427 2.360649 -2.177727 -0.916638 -1.528395 -7.637483 -45.615591 -14.626004 1.622529 0.778011 1.582563 -7.693475 -15.982109 -32.427664 -31.931526 -179.999954 -86.327219 -179.999949 39.923367 -6.504440 19.290432 2.939552 8.755595 0.603050 -23.695508 24.688720 64.794845 0.000030 79.282441 -0.000021 15.812096 2.403025 -7.118138 -57.300336 4.610866 26.756921 49.740526 -8.322637 -0.767880 -5.931513 2.088066 -21.629525 -0.448744 0.000002 -0.000002 -46.937360 0.785389 -24.127519 53.082070 3.844746 0.236684 -20.769770 -5.824605 26.000839 -0.050775 -0.000004 -0.000002
0.151717 1.011088 -0.046513 13.185770 -18.525697 4.328721 10.541718 2.556233 -2.659476 8.272229 2.111987 -1.758697 8.251303 2.268087 -1.800082 -0.310926 -1.018715 -9.715811 -43.760571 -13.108415 1.514834 0.797760 2.030665 -8.823010 -12.473163 -35.349207 -27.025647 -179.999922 -85.159523 -179.999923 38.695650 -4.580401 19.037588 3.430716 11.405694 -1.116721 -27.499014 25.290286 64.848273 0.000008 66.160479 -0.000020 21.824284 2.012151 -6.894989 -55.253032 5.609897 27.268349 49.101833 -7.294124 -0.829066 -5.713411 2.090047 -21.922771 -0.590536 -0.000002 0.000002 -46.544127 0.931177 -24.603440 53.451692 5.598217 0.706768 -21.497115 -5.851908 25.507136 -0.037417 -0.000016 -0.000010
0.151717 1.010024 -0.046513 11.499191 -20.954705 5.331045 9.365263 2.551620 -2.124104 7.378457 2.074889 -1.399023 7.361858 2.202730 -1.427654 0.862224 -0.364943 -10.341355 -41.665485 -9.290099 0.941184 0.831816 1.766978 -8.496605 -8.475043 -37.944745 -22.694817 -179.999929 -86.191509 -179.999916 38.248834 -5.857010 23.555752 3.717870 13.289048 -3.041689 -29.817052 27.304764 64.678242 0.000027 54.741971 -0.000040 28.615627 1.427997 -6.433958 -52.552545 7.007761 27.628531 49.594794 -5.486486 -0.578265 -6.436693 2.290047 -22.117735 -0.729607 0.000001 -0.000003 -46.478402 1.594131 -24.780322 55.030133 6.350903 0.064392 -22.688207 -4.517334 25.189844 -0.047806 0.000012 0.000001
0.151717 1.006182 -0.046513 9.271753 -24.169139 6.426365 8.165072 2.316005 -1.694240 6.507090 1.897796 -1.045504 6.484201 2.025089 -1.062168 2.327355 0.309951 -8.087183 -39.360021 -2.749628 -0.640021 0.928321 -0.009320 -5.538961 -5.417625 -38.511108 -20.354781 -179.999791 -87.618231 -179.999778 39.560896 -9.716282 27.985247 3.778311 14.973006 -5.565276 -26.527836 30.162300 61.956989 -0.000004 51.826631 -0.000005 35.775776 0.539150 -5.890202 -48.916448 8.243104 27.661752 50.995359 -2.971273 -0.535777 -8.075748 2.680632 -22.193095 -0.846626 -0.000001 -0.000000 -46.340517 2.330778 -25.048250 57.156921 6.756795 -1.392596 -24.166707 -2.390456 25.586619 -0.061808 0.000002 0.000004
0.151717 1.000462 -0.046513 7.113024 -28.207254 7.536114 6.927373 1.085153 -0.873933 5.724214 0.970620 -0.356452 5.707219 1.090468 -0.363947 3.592777 1.269508 -4.154661 -36.035796 7.085257 -3.795499 1.077497 -2.279304 -2.618905 -1.043873 -34.618513 -16.631590 179.999996 -86.721442 179.999990 41.332433 -11.761608 30.062063 4.036386 17.307907 -8.633320 -17.444534 31.149138 54.896025 -0.000009 58.392176 -0.000007 39.974525 -0.277634 -5.315790 -44.922433 9.668995 27.708873 52.974104 -0.368798 -0.864149 -10.548367 3.216689 -22.191953 -0.931810 0.000002 -0.000001 -46.510611 3.151329 -25.964874 59.241094 7.675711 -2.419233 -25.584954 0.611948 26.175755 -0.081550 -0.000002 0.000004
0.151717 0.994129 -0.046513 5.608027 -34.619412 8.633207 5.439551 -0.626415 0.207073 4.771303 -0.326601 0.620746 4.772697 -0.267146 0.603688 4.337988 2.600228 0.429079 -31.267608 19.381806 -8.012847 1.231918 -4.118096 -0.193837 5.278227 -26.236132 -12.303890 -179.999885 -86.052216 -179.999888 42.725722 -12.501391 28.330573 4.500942 18.946896 -10.861409 -10.368371 27.294683 47.066163 0.000051 69.198073 -0.000059 32.018186 -0.393374 -4.525732 -41.407276 13.698744 29.959308 55.059559 1.022064 -1.417687 -13.543175 3.744128 -21.767259 -0.896887 -0.000001 0.000008 -47.186671 5.388887 -24.930156 61.113970 8.351582 -3.633105 -26.614690 3.738930 26.864464 -0.104236 0.000002 -0.000006
0.151717 0.990201 -0.046513 5.119056 -41.706098 10.219334 3.873493 -2.608364 1.747739 3.644034 -1.859968 1.818816 3.657185 -1.877804 1.776481 3.883434 3.978069 5.143834 -27.267203 31.054945 -10.913116 1.340304 -5.595587 2.660626 12.385905 -16.452541 -9.675849 -179.999907 -87.769407 -179.999911 43.388861 -12.893869 23.698982 4.394856 17.764175 -10.797587 -12.431442 18.967870 42.902725 -0.000023 79.043923 0.000026 4.625928 -0.332521 -3.661921 -38.410977 19.426481 32.508973 56.561710 1.907888 -1.925717 -16.432780 4.103126 -20.787727 -0.625725 -0.000002 -0.000002 -47.759458 8.808973 -23.114000 62.216488 8.704948 -4.557003 -27.660318 6.409283 27.649617 -0.104642 0.000008 0.000004
0.151717 0.989744 -0.046513 6.751985 -44.976831 13.234607 2.953297 -4.368706 3.129776 2.825548 -3.234155 2.712362 2.843857 -3.274838 2.652063 2.073509 4.538190 8.450739 -27.834246 35.801419 -10.008821 1.285086 -6.379716 4.545248 16.535633 -10.570938 -8.599277 -0.000214 -88.104170 -0.000214 40.697187 -17.871886 19.324266 3.595717 13.918811 -8.666304 -20.875180 7.561400 41.189464 -0.000152 85.333022 0.000143 -31.895880 -0.365880 -4.229974 -36.977700 22.819076 31.450478 57.070468 3.291334 -2.125893 -17.807722 4.126305 -19.666948 -0.493405 -0.000004 0.000006 -48.217722 12.138748 -23.699542 61.958173 8.704714 -4.123045 -28.191178 8.013890 28.066636 -0.135418 0.000002 0.000008
0.151717 0.990687 -0.046513 8.366661 -47.059867 16.480203 2.420554 -5.467305 4.157981 2.270547 -4.101671 3.282033 2.286540 -4.146687 3.222200 0.127180 4.469845 11.295489 -29.831593 37.225705 -8.448688 1.288986 -7.481508 6.096411 19.844793 -7.143796 -6.362524 0.000001 -82.116612 -0.000000 32.515774 -29.990172 9.458358 2.809811 9.760298 -5.957457 -29.551196 -4.590929 39.183977 0.000033 86.373361 -0.000035 -54.201552 0.457600 -5.282436 -34.816221 25.189419 28.835746 56.875903 5.164142 -2.539067 -18.922530 4.207307 -19.014360 -0.366241 -0.000004 -0.000000 -48.228285 14.956384 -25.160334 61.369586 8.773771 -3.742416 -28.454741 8.930535 28.469325 -0.102930 -0.000000 -0.000004
0.151717 0.989423 -0.046513 9.406796 -49.148435 19.093752 2.364162 -6.409945 4.850873 2.156122 -4.822917 3.673376 2.160177 -4.875652 3.610755 -1.182730 4.097168 13.561230 -30.367297 37.541357 -8.495307 1.376550 -8.735418 6.992772 24.750979 -3.904537 -3.574691 -0.000022 -75.544820 -0.000029 26.111293 -36.367558 2.227033 2.439371 7.433820 -3.927103 -35.511385 -14.514488 36.367441 -0.000015 82.535899 0.000014 -50.722960 0.641947 -5.386279 -32.541551 27.496596 26.657885 56.774338 6.436219 -2.775991 -20.079416 4.386328 -18.848591 -0.264890 0.000011 -0.000006 -48.559859 16.619621 -26.275331 61.236637 8.865116 -4.337685 -28.688251 10.200457 29.429585 -0.032638 -0.000004 0.000005
0.151717 0.986916 -0.046513 10.455325 -50.810826 21.488795 2.648590 -7.459636 5.642669 2.299895 -5.618924 4.174227 2.289592 -5.676554 4.112241 -1.608164 4.200142 13.908520 -31.465320 38.721814 -9.462354 1.460211 -9.026169 6.666934 30.598158 -0.162123 -0.838867 -0.000025 -69.392298 -0.000015 26.549196 -36.941050 2.914555 2.412967 7.065352 -2.958855 -37.920415 -22.147986 33.786997 -0.000024 78.083605 0.000030 -37.048119 0.961862 -4.986964 -30.956739 29.673300 24.780718 56.924173 7.103225 -2.594292 -21.041779 4.503033 -18.662241 -0.217339 0.000002 -0.000003 -49.073262 18.002502 -27.360353 61.240948 8.935047 -4.865154 -28.887898 11.671552 30.315406 0.053461 0.000008 -0.000008
0.151717 0.985381 -0.046513 11.549283 -51.644924 23.670236 3.150798 -8.350614 6.642088 2.540576 -6.325703 4.739795 2.520540 -6.373324 4.694343 -1.926450 4.909332 12.371562 -33.661862 40.953428 -9.629433 1.494237 -8.471804 5.664984 34.897652 3.182616 1.064190 -0.000028 -63.083387 -0.000028 27.948489 -38.299262 4.205557 2.391217 6.882845 -2.409745 -37.678821 -29.115415 32.355592 -0.000070 77.347932 0.000066 -26.079795 1.779865 -4.631417 -29.782909 30.937082 22.802524 56.989433 7.624930 -2.581927 -21.675463 4.549820 -18.445854 -0.254577 -0.000007 0.000001 -49.052832 19.801549 -28.580672 60.971665 9.006767 -4.592911 -28.725524 12.199931 30.647258 0.157257 0.000007 0.000004
0.151717 0.983596 -0.046513 12.662238 -51.977943 25.438678 3.564245 -9.238338 7.217522 2.717116 -7.032271 5.011623 2.690544 -7.063528 4.986603 -1.951595 5.381583 11.873245 -34.420945 42.814401 -9.423824 1.553945 -8.601823 5.339602 37.486718 6.209326 0.314985 -0.000003 -55.459118 -0.000023 30.763624 -40.359782 5.829151 1.962546 5.054998 -1.136174 -37.388675 -35.220673 32.146802 0.000000 80.446375 -0.000009 -17.938183 2.496265 -4.056892 -29.212694 31.560694 21.415870 57.022387 7.648745 -2.719709 -22.162147 4.674495 -18.685069 -0.355612 -0.000008 0.000002 -49.283506 21.115960 -29.477338 60.781533 8.998648 -4.394033 -28.272452 12.347496 31.200473 0.209335 -0.000005 -0.000005
0.151717 0.981483 -0.046513 13.870331 -52.221157 26.644105 3.819626 -10.070875 7.297044 2.849787 -7.667569 5.067576 2.819934 -7.688276 5.055985 -1.448869 5.300585 13.192145 -33.291894 43.768987 -10.251107 1.677387 -9.765929 5.839977 37.040147 9.183314 -3.301007 0.000002 -45.979512 0.000011 34.896562 -41.672780 4.197130 1.170503 1.424449 1.127147 -39.179361 -39.493840 32.131493 -0.000192 84.951089 0.000193 -10.161668 3.129913 -3.139483 -29.769030 32.295658 21.332195 57.292870 6.975411 -2.536453 -22.559299 4.824363 -19.138111 -0.438255 0.000002 -0.000002 -50.179928 21.380514 -29.748954 60.652218 8.996242 -4.498639 -27.911014 12.798843 31.541240 0.266109 0.000023 0.000001
0.151717 0.981022 -0.046513 14.917190 -52.153320 27.243667 4.004489 -10.467918 7.393823 2.986795 -7.961757 5.246054 2.954531 -7.978126 5.242072 -1.345545 5.069857 13.871149 -31.639961 43.641013 -11.508793 1.764869 -10.380764 5.920981 31.371901 11.798009 -6.618576 -0.000006 -35.493906 0.000003 37.840446 -42.500871 -4.878958 0.417919 -2.567729 3.483228 -43.730653 -42.453743 30.651452 -0.000601 89.247640 0.000596 -3.173102 3.778201 -2.359737 -30.885487 32.602687 21.681891 57.769836 6.518009 -2.365326 -22.734496 4.829382 -19.127503 -0.488829 -0.000001 -0.000001 -50.875453 21.057177 -30.084079 60.053167 9.006592 -4.256731 -27.485844 13.301075 31.528207 0.250644 0.000012 0.000005
0.151717 0.982040 -0.046513 15.593863 -51.505053 27.229537 4.074140 -10.480535 7.493903 3.056009 -7.972107 5.444416 3.017288 -7.989246 5.443724 -1.764786 4.889995 13.943729 -30.589556 43.111943 -12.133520 1.778043 -10.109931 5.483533 24.251110 15.114065 -8.215477 0.000009 -27.316210 0.000002 37.991119 -40.691669 -14.946046 -0.115954 -5.441506 5.222120 -51.253034 -45.036038 26.189251 -179.999864 87.147386 179.999867 0.109269 4.148501 -2.189892 -32.075293 31.859524 21.800849 58.349908 6.580422 -2.529465 -22.633050 4.719392 -18.780767 -0.503226 -0.000002 0.000000 -50.974729 20.554486 -30.762742 58.963388 9.014436 -3.588240 -26.532274 13.401096 31.699109 0.102522 -0.000004 -0.000007
0.151717 0.982965 -0.046513 15.606232 -49.946406 26.216195 3.968544 -10.410843 7.421791 2.994495 -7.922750 5.520085 2.946513 -7.942472 5.520862 -1.977763 4.828769 13.982737 -31.324174 42.599578 -11.298959 1.719780 -9.454912 5.106930 22.808893 20.922483 -10.128206 -0.000001 -26.985925 -0.000001 30.501644 -34.307706 -17.037059 -0.407962 -6.680159 6.278689 -60.738154 -47.234546 18.460326 -179.999800 84.130810 179.999806 -1.531592 3.947200 -2.611624 -33.758757 30.156905 22.073580 59.232774 6.243465 -2.587875 -22.305160 4.561913 -18.431665 -0.478720 0.000000 0.000003 -50.531233 19.491284 -31.655284 57.801920 9.016780 -2.941708 -25.307654 12.922468 32.121557 0.000545 0.000000 0.000000
0.151717 0.985005 -0.046513 14.285002 -46.676993 23.507597 3.648770 -10.294469 7.251456 2.768906 -7.850591 5.524432 2.707924 -7.875047 5.523851 -1.617057 4.884855 13.438769 -33.215276 41.623950 -9.347332 1.610256 -8.539815 4.781652 30.308927 28.082188 -15.123777 -0.000001 -37.663528 -0.000006 16.179826 -22.696909 -8.593865 -0.450723 -6.348498 6.156681 -67.930727 -49.792239 10.858310 -179.999914 80.666743 179.999928 -8.656288 2.921207 -2.942349 -35.908750 27.335260 22.496454 60.257726 5.308494 -2.393094 -21.535543 4.253914 -17.825610 -0.545475 -0.000005 0.000003 -48.677677 17.337565 -32.884326 56.708380 9.016599 -2.558621 -24.419240 10.873254 32.717424 -0.056216 0.000028 -0.000010
0.151717 0.990549 -0.046513 11.644764 -41.032570 19.402138 3.048359 -10.191301 6.722780 2.335835 -7.801521 5.278138 2.256236 -7.832248 5.272266 -0.495923 4.792714 12.765716 -35.138494 39.861576 -8.136284 1.533677 -7.846645 4.467070 41.681465 34.313893 -23.569656 0.000009 -55.905478 0.000009 7.643256 -12.743489 11.498972 -0.231810 -5.071105 4.060646 -70.284871 -55.524762 4.670446 -179.999988 75.646168 -180.000000 -18.924793 0.414298 -2.689995 -37.717797 23.589478 22.504080 60.484750 3.870481 -2.198304 -20.213990 3.823308 -17.064167 -0.825658 -0.000003 0.000000 -44.435863 14.382126 -34.429112 55.578747 9.019626 -2.090151 -24.179259 6.539135 32.895470 0.014376 -0.000014 -0.000002
0.151717 0.998600 -0.046513 8.787324 -32.887594 14.929001 2.380860 -9.922442 5.772588 1.853527 -7.640922 4.589497 1.764470 -7.675647 4.573004 -0.579504 4.076080 13.053001 -36.166724 36.874213 -9.403591 1.327859 -6.811489 4.808333 49.963764 37.143716 -33.095305 -0.000022 -76.578845 -0.000027 14.751189 -12.393772 32.984333 -0.015832 -4.627535 1.136156 -75.698560 -63.354349 -5.818228 179.999961 70.497163 -179.999960 -29.212305 -3.445184 -2.536891 -39.522429 19.782800 21.933699 59.686149 0.595380 -1.234708 -18.739881 3.421965 -16.594637 -1.084901 0.000001 -0.000000 -38.766028 10.336821 -35.355740 54.780929 9.088285 -1.699367 -24.275703 0.069447 30.615865 0.102072 -0.000012 0.000004
0.151717 1.006665 -0.046513 6.850087 -22.492668 10.892955 1.828681 -8.513468 4.266569 1.527190 -6.603906 3.383724 1.459258 -6.642729 3.346742 -3.196332 2.977761 12.898132 -38.592071 31.292651 -8.895064 0.872443 -3.984997 4.812882 53.641469 34.100489 -40.430502 -179.999911 -82.441387 -179.999903 28.661038 -10.874518 42.470267 -0.698379 -6.742143 0.795876 -82.808087 -64.831830 -12.816870 179.999987 69.588643 -179.999976 -37.044539 -6.317440 -3.641841 -42.415055 16.716972 20.818564 58.527759 -5.298883 1.122352 -16.880694 3.026961 -16.467147 -1.247189 -0.000005 0.000006 -32.789525 4.934049 -35.017173 53.751184 7.602396 -1.602447 -24.400191 -6.877211 28.284923 -0.038812 -0.000000 -0.000003
0.151717 1.016867 -0.046513 6.393831 -10.620502 7.836538 1.381230 -5.851959 1.762974 1.437030 -4.575366 1.633037 1.401731 -4.614642 1.570288 -4.465287 1.845741 10.220731 -44.599330 20.907521 -4.551856 0.740298 -1.961741 2.592039 55.486016 27.533256 -48.251555 -179.999987 -67.283186 -179.999979 32.855477 -0.008339 40.314925 -2.270196 -11.382586 5.049373 -81.833402 -54.948111 -8.449414 179.999976 75.682156 -179.999986 -42.991280 -5.326946 -5.619599 -45.647936 12.905517 18.378215 56.176818 -7.666480 2.693919 -13.460816 -1.297358 -17.347765 -1.372112 0.000001 -0.000001 -27.033014 -0.630941 -33.325371 51.596055 -1.059562 -1.440759 -24.114601 -8.104215 28.834692 -0.247238 0.000001 -0.000006
0.151717 1.027117 -0.046513 6.819473 0.981506 5.655188 1.789077 -2.457291 -1.114768 2.078257 -1.940060 -0.166424 2.074881 -1.943658 -0.215232 -1.853709 -0.273421 8.054472 -51.210706 5.717369 -3.340240 0.912562 -1.613119 -0.189774 54.985795 18.257978 -50.646092 179.999978 -62.529922 -179.999995 33.217118 9.535845 39.715155 -3.653528 -16.857961 9.965677 -76.331086 -38.529312 -6.527078 -179.999893 85.931174 179.999905 -48.792348 -0.942918 -5.880182 -48.490548 8.000569 14.297697 52.846495 -8.898664 2.522187 -8.768497 -5.627488 -17.083179 -1.513148 -0.000001 0.000002 -21.805229 -4.214501 -30.644690 49.194608 -8.424231 -0.796906 -23.535783 -9.262871 28.730946 -0.346219 0.000022 -0.000003
0.151717 1.031654 -0.046513 7.718392 10.437912 3.583416 3.292477 1.470390 -2.930066 3.412279 1.146728 -1.186978 3.397934 1.216643 -1.146891 3.427817 -3.159423 6.354223 -57.932469 -12.312887 -5.450116 0.951612 -0.590494 -3.105649 51.370029 12.209294 -51.264212 179.999992 -64.938203 179.999967 44.857963 3.077742 39.954929 -4.605314 -19.978287 9.993902 -66.806543 -22.903577 -8.768537 -0.000088 83.379960 0.000075 -51.685081 1.899645 -3.403457 -51.350416 3.426669 10.272794 50.040104 -9.417779 1.634788 -4.914397 -9.180215 -16.210828 -1.601195 0.000001 0.000002 -18.285744 -5.418668 -27.813079 48.080266 -10.233805 0.225547 -23.147993 -12.655773 26.708850 -0.247547 0.000004 0.000002
0.151717 1.028900 -0.046513 9.550350 17.010632 0.691096 4.639523 5.225326 -2.877386 4.393379 4.063681 -0.954394 4.315692 4.168471 -0.811809 9.306781 -5.652322 3.520705 -62.856505 -28.295873 -8.227216 0.924863 0.144672 -4.649656 46.636644 12.789059 -60.333559 -179.999988 -68.694358 -179.999974 48.268651 -5.020845 37.644226 -3.101520 -17.134843 10.329826 -67.566194 -2.852546 -12.704994 -0.000034 70.127397 0.000019 -48.879189 0.830399 -1.444394 -54.943253 0.396584 8.195416 48.220470 -9.361798 0.810684 -2.889809 -12.355481 -16.214468 -1.574702 -0.000000 -0.000002 -18.130225 -6.483513 -25.612401 48.583328 -10.222057 1.236288 -23.072611 -14.531261 25.045981 -0.177698 -0.000004 -0.000008
0.151717 1.021495 -0.046513 12.166333 20.924117 -2.581407 5.146632 8.436982 -1.328030 4.527368 6.441603 0.077629 4.376365 6.537968 0.240502 13.440401 -7.125632 1.644921 -64.096958 -36.812899 -11.337671 0.901250 0.359077 -4.916061 47.325930 11.104687 -65.762254 179.999984 -72.204001 179.999983 39.118177 -4.345946 37.040850 -2.418704 -5.205269 0.606143 -77.153398 12.428790 -10.387055 -0.000015 53.182991 0.000005 -39.919319 -1.103308 -1.155667 -59.242551 -0.985490 7.653958 47.496865 -9.314559 0.630646 -1.613158 -15.333702 -17.237937 -1.454157 -0.000002 0.000003 -21.374400 -9.297194 -24.616922 50.208384 -10.185682 1.448985 -23.088152 -14.599831 24.112716 -0.410475 -0.000003 -0.000002
0.151717 1.015573 -0.046513 15.596533 22.674564 -4.348408 5.766891 11.012185 -0.165818 4.707076 8.273112 0.552549 4.484764 8.400848 0.635473 14.512892 -7.831374 1.144799 -65.109926 -40.691088 -13.010669 0.872986 0.546756 -5.050460 51.379111 6.926818 -64.806563 179.999983 -75.470859 179.999969 36.512651 -4.287181 40.394488 1.854716 11.615606 -11.354026 -82.786276 21.775731 -5.116798 0.000004 39.733530 0.000012 -26.948818 -0.418470 -1.348892 -63.272070 -1.868476 6.955778 46.377338 -9.287000 0.155847 0.241662 -17.085795 -18.255033 -1.315349 0.000002 0.000000 -26.918508 -11.509225 -25.156798 52.524039 -10.096514 0.813484 -23.012075 -15.238486 22.748259 -0.642006 0.000002 -0.000004
0.151717 1.010258 -0.046513 19.449721 23.628459 -4.841680 6.934884 12.646297 -0.544868 5.490101 9.370877 -0.185378 5.267019 9.518075 -0.184128 12.469467 -8.401690 0.598924 -65.653352 -44.362618 -12.537460 0.795908 0.971579 -5.179569 54.880162 5.990624 -64.067154 179.999983 -76.609877 179.999992 39.221859 -5.897957 42.698625 6.998019 24.396688 -16.774857 -76.855039 27.747770 -0.841220 0.000010 32.576342 -0.000008 -12.078834 2.932586 -2.474339 -66.845142 -3.261781 5.553101 44.955369 -9.269021 -0.870314 2.007513 -16.972829 -18.409444 -1.253185 -0.000001 -0.000005 -32.608859 -10.844822 -26.479367 55.790468 -10.055928 1.002122 -22.844091 -16.743302 21.727216 -0.721839 0.000006 -0.000003
0.151717 0.998347 -0.046513 22.575951 25.286989 -5.741126 8.126031 14.095108 -0.874468 6.573262 10.308819 -0.710373 6.369181 10.455641 -0.691530 9.730594 -9.302544 -0.133311 -64.642136 -48.558044 -13.312466 0.707048 1.378248 -5.080507 56.082613 5.179988 -62.757003 179.999986 -77.801360 179.999997 39.022398 -8.115897 43.411612 7.226249 27.803882 -12.805587 -78.098459 36.696201 19.480665 0.000006 23.009019 0.000002 2.488158 5.333898 -4.702390 -70.732283 -4.534076 3.769658 45.640152 -9.259231 -1.137933 2.273703 -16.594489 -17.920379 -1.261140 0.000001 -0.000002 -37.050032 -9.904455 -28.335042 60.504746 -10.097923 2.386074 -23.061268 -17.359521 22.923785 -0.879617 0.000025 -0.000007
0.151717 0.978603 -0.046513 24.465432 28.021116 -7.384384 9.274197 16.744981 -0.672605 7.817270 12.148365 -0.676953 7.595741 12.300756 -0.538193 9.818963 -10.339926 1.194623 -67.035998 -52.202021 -17.896577 0.759614 0.566387 -3.548016 54.090752 1.689697 -59.812495 179.999943 -80.333510 179.999953 39.495496 -9.691641 43.587785 6.127328 24.389110 -5.071913 -99.511738 38.123786 54.920405 0.000005 9.116511 0.000008 14.138298 4.723343 -6.285829 -74.972325 -4.578270 2.033191 48.891446 -9.270718 -0.353159 1.568090 -18.099833 -16.854726 -1.216105 -0.000006 -0.000002 -40.700865 -11.776377 -30.774862 65.840765 -10.163492 2.662215 -23.546180 -16.606969 26.272060 -1.174723 0.000007 0.000001
0.151717 0.955981 -0.046513 26.048713 30.510302 -9.314607 10.987726 18.413396 -0.605742 9.428767 13.276416 -0.632751 9.217055 13.420068 -0.382731 12.609818 -10.168610 2.127049 -70.428793 -53.436482 -18.136626 0.829653 -0.004413 -2.965750 50.850934 0.888516 -59.318284 179.999907 -81.705204 179.999906 39.169704 -12.269495 42.915561 7.152732 23.288445 -0.695427 -101.198778 32.548310 71.965134 0.000001 5.921857 -0.000003 20.411228 3.202211 -6.683211 -79.297866 -4.305247 0.778134 53.047150 -9.301677 0.618894 0.629673 -20.139709 -15.622248 -1.099053 0.000003 -0.000001 -44.146421 -14.429596 -32.935561 70.799203 -10.244491 1.615868 -23.931028 -15.553319 30.299021 -1.325501 -0.000006 -0.000001
0.151717 0.934978 -0.046513 28.259956 31.479503 -11.849816 13.549108 16.744061 -1.054251 11.384808 11.951671 -1.017351 11.264512 12.059976 -0.819805 14.554275 -8.839746 -0.905914 -66.464322 -52.948402 -9.004852 0.637891 1.970135 -6.014973 50.098149 5.791794 -61.147595 179.999937 -79.285745 179.999951 32.425622 -16.954340 41.293023 8.984133 28.691111 -2.236973 -75.929109 31.831281 66.403326 0.000005 25.002355 -0.000001 27.373332 2.227799 -7.364898 -83.874606 -5.602562 0.550693 56.723621 -9.281266 0.713513 -0.489093 -20.891215 -15.514957 -1.066401 0.000002 0.000005 -47.520139 -15.351957 -33.516898 75.381432 -10.263916 1.135226 -24.651656 -14.320554 31.182905 -1.189728 0.000003 0.000001
0.151717 0.915777 -0.046513 30.841217 31.279492 -14.475925 16.088468 13.834495 -1.897419 13.122413 9.773395 -1.697863 13.084797 9.824952 -1.610769 14.941683 -8.005039 -6.274033 -58.064991 -52.491449 -0.720279 0.637599 3.331602 -10.781023 49.996637 11.261906 -61.493245 -179.999996 -76.263747 -179.999996 22.290503 -21.339602 39.543758 11.032552 36.350781 -7.776127 -43.976250 28.518550 53.336740 0.000003 55.454309 -0.000001 30.777815 2.175705 -8.416001 -88.520109 -7.191219 1.181776 59.557458 -9.233328 0.251265 -1.128785 -21.674017 -15.842115 -1.058926 0.000001 -0.000003 -50.803891 -14.816440 -32.897995 79.428958 -10.260456 1.030730 -25.568897 -13.288468 31.181029 -1.071981 0.000006 -0.000004
