HIERARCHY
ROOT Hips
{
  OFFSET 0 1.1673769999999999 0
  CHANNELS 6 Xposition Yposition Zposition Xrotation Yrotation Zrotation
  JOINT Spine
  {
    OFFSET 0.000003812944337411511 0.10717500000681812 -0.009311
    CHANNELS 3 Xrotation Yrotation Zrotation
    JOINT Spine1
    {
      OFFSET 0 0.1058532983696241 -0.004285186608692496
      CHANNELS 3 Xrotation Yrotation Zrotation
      JOINT Spine2
      {
        OFFSET -8.470329472543003e-22 0.10599345671141647 -0.007812688101110094
        CHANNELS 3 Xrotation Yrotation Zrotation
        JOINT Neck
        {
          OFFSET -8.470329472543003e-22 0.26240299999999994 -0.04488100000000002
          CHANNELS 3 Xrotation Yrotation Zrotation
          JOINT Head
          {
            OFFSET -4.235164736271502e-22 0.17466899999999996 0.05625600000000003
            CHANNELS 3 Xrotation Yrotation Zrotation
            End Site
            {
              OFFSET -4.235164736271502e-22 0.10756799999999966 0.021070000000000005
            }
          }
        }
        JOINT LeftShoulder
        {
          OFFSET 0.10574399999999999 0.23009199999999996 -0.07323000000000002
          CHANNELS 3 Xrotation Yrotation Zrotation
          JOINT LeftArm
          {
            OFFSET 0.14878212914559852 -0.04653266654569688 -0.030693304075147546
            CHANNELS 3 Xrotation Yrotation Zrotation
            JOINT LeftForeArm
            {
              OFFSET 0.24109000000000003 2.220446049250313e-16 -5.551115123125783e-17
              CHANNELS 3 Xrotation Yrotation Zrotation
              JOINT LeftHand
              {
                OFFSET 0.316792 0 -1.1102230246251565e-16
                CHANNELS 3 Xrotation Yrotation Zrotation
                End Site
                {
                  OFFSET 0.06265729429771016 -0.10569948639925819 0.03859412819617963
                }
              }
            }
          }
        }
        JOINT RightShoulder
        {
          OFFSET -0.10574399999999999 0.23009099999999982 -0.07323000000000002
          CHANNELS 3 Xrotation Yrotation Zrotation
          JOINT RightArm
          {
            OFFSET -0.14878040829228295 -0.04653159475972379 -0.030692917709113934
            CHANNELS 3 Xrotation Yrotation Zrotation
            JOINT RightForeArm
            {
              OFFSET -0.24109000000000003 -6.661338147750939e-16 -2.7755575615628914e-17
              CHANNELS 3 Xrotation Yrotation Zrotation
              JOINT RightHand
              {
                OFFSET -0.31679300000631333 -8.881784197001252e-16 -5.551115123125783e-17
                CHANNELS 3 Xrotation Yrotation Zrotation
                End Site
                {
                  OFFSET -0.06265795211397429 -0.10570764472283312 0.03859362014678265
                }
              }
            }
          }
        }
      }
    }
  }
  JOINT LeftUpLeg
  {
    OFFSET 0.12297511767165623 -0.06742078536803264 -0.010003
    CHANNELS 3 Xrotation Yrotation Zrotation
    JOINT LeftLeg
    {
      OFFSET 0 -0.457033849483632 0.010304509991859542
      CHANNELS 3 Xrotation Yrotation Zrotation
      JOINT LeftFoot
      {
        OFFSET 0 -0.500280623664138 -0.036905110570505176
        CHANNELS 3 Xrotation Yrotation Zrotation
        JOINT LeftToeBase
        {
          OFFSET 0.025950805788189563 -0.14255151365608373 0.19507593811975638
          CHANNELS 3 Xrotation Yrotation Zrotation
          End Site
          {
            OFFSET 0.010732117804750613 -0.000035441498015504746 0.11362327680684622
          }
        }
      }
    }
  }
  JOINT RightUpLeg
  {
    OFFSET -0.12297488233495055 -0.0674172146317622 -0.010003
    CHANNELS 3 Xrotation Yrotation Zrotation
    JOINT RightLeg
    {
      OFFSET 0.00000159348816348992 -0.45703784846455486 0.01030460015485039
      CHANNELS 3 Xrotation Yrotation Zrotation
      JOINT RightFoot
      {
        OFFSET -0.0000015934881634621645 -0.5002806236608007 -0.03690511058134042
        CHANNELS 3 Xrotation Yrotation Zrotation
        JOINT RightToeBase
        {
          OFFSET -0.0259497668227143 -0.14255297441554501 0.19507500887383716
          CHANNELS 3 Xrotation Yrotation Zrotation
          End Site
          {
            OFFSET -0.010733201844058626 -0.000035030229497263656 0.11362417898958707
          }
        }
      }
    }
  }
}
MOTION
Frames: 61
Frame Time: 0.03333333333333333
-0.002545 1.075440 -0.001534 12.329688 -8.913103 1.892257 12.136050 -2.427054 0.392458 8.544905 -1.947402 0.125647 8.569059 -1.848252 0.197184 -0.468431 2.080098 -3.038691 -23.164159 8.064356 -0.109158 2.998934 -9.308756 -5.673127 -9.974286 -5.253104 -50.881921 -179.997933 -89.200873 -179.997935 41.171748 3.391101 11.278556 2.034463 3.971082 8.611854 8.589769 36.414241 31.921039 179.999946 88.118113 -179.999942 18.022207 4.582328 -5.094033 -43.434432 5.001145 13.356592 29.099763 5.194439 4.211276 3.373973 0.480604 -12.731579 -2.021635 -0.000006 -0.000002 -32.166493 -13.102256 -22.811898 28.482733 -4.277235 -2.246257 -6.140949 -1.971342 19.872464 -0.355092 0.000004 0.000001
-0.002545 1.075846 -0.001534 12.318743 -8.955585 1.891550 12.085094 -2.314558 0.271530 8.520984 -1.854215 0.043837 8.543530 -1.760433 0.109906 -0.339079 2.061951 -2.976185 -23.214494 8.010844 0.005994 3.011416 -9.382360 -5.759756 -9.957576 -5.386319 -50.605047 179.999617 -89.241733 179.999623 39.443063 3.721025 11.876509 2.029787 3.949235 8.611492 8.696684 36.826468 31.599977 -179.999064 88.096523 179.999071 18.154917 4.819863 -4.847526 -43.208853 5.074832 13.554003 28.461493 5.084029 4.269887 3.802041 0.433254 -12.920357 -1.999786 0.000002 0.000002 -32.460460 -13.221724 -22.857417 28.897554 -4.029830 -1.890831 -6.353649 -1.967665 19.403359 -0.397170 0.000028 -0.000006
-0.002545 1.076229 -0.001534 12.311063 -8.903482 1.914558 11.998179 -2.253487 0.217959 8.471584 -1.808252 -0.002767 8.492461 -1.722333 0.060599 -0.131751 2.064289 -3.049474 -23.363408 7.962634 0.095456 3.021643 -9.485713 -6.097234 -9.768017 -5.511774 -50.060336 179.999786 -89.130962 179.999781 37.515448 4.571274 12.420017 1.928220 3.854993 8.350058 8.593154 37.391228 31.776486 179.999624 88.187426 -179.999599 18.209497 5.114990 -4.578051 -42.922326 5.103030 13.676499 27.651396 4.989444 4.384603 4.344578 0.370823 -13.169799 -1.976543 -0.000001 0.000001 -32.730786 -13.196193 -22.764154 29.413779 -4.053717 -1.715248 -6.631687 -1.978729 19.042659 -0.436356 0.000036 0.000000
-0.002545 1.076508 -0.001534 12.360290 -8.928593 1.942582 11.857496 -2.140216 0.174516 8.383751 -1.718925 -0.034798 8.402161 -1.642383 0.024151 0.109797 2.078814 -3.188794 -23.531011 7.926405 0.175605 3.045795 -9.667798 -6.482904 -9.566558 -5.499543 -49.462880 179.999389 -88.895948 179.999390 35.995034 5.717723 12.558854 1.803135 3.717246 7.752227 8.062747 37.801581 32.560392 179.999909 88.196446 -179.999907 18.164169 5.446834 -4.260873 -42.671430 5.162471 13.911530 26.770623 4.915628 4.462132 4.948883 0.297855 -13.441742 -1.953964 0.000000 -0.000003 -33.047206 -12.953559 -22.436110 30.004881 -4.296216 -1.706273 -6.927185 -1.996506 18.757242 -0.476811 0.000035 -0.000000
-0.002545 1.076541 -0.001534 12.487885 -9.234887 1.990220 11.687182 -1.902196 0.078107 8.273296 -1.520274 -0.081534 8.288263 -1.453578 -0.031769 0.303953 2.078740 -3.266824 -23.653097 7.878728 0.217704 3.075565 -9.853103 -6.700320 -9.475005 -5.453508 -49.025020 179.999775 -88.663858 179.999779 35.107105 6.705007 12.307678 1.720760 3.618025 7.373172 7.524076 37.951582 33.203777 -179.999491 88.104597 179.999484 18.140849 5.575941 -3.975879 -42.507046 5.359060 14.466103 25.898973 4.870766 4.378133 5.578966 0.217452 -13.702494 -1.927780 -0.000000 -0.000004 -33.521599 -12.411417 -21.791865 30.721094 -4.654528 -1.870581 -7.225409 -2.012967 18.493866 -0.520653 0.000001 0.000003
-0.002545 1.076241 -0.001534 12.649694 -9.771106 2.043021 11.551243 -1.583462 -0.065866 8.184428 -1.247517 -0.143651 8.195728 -1.188574 -0.106303 0.365439 2.054507 -3.203281 -23.688171 7.828743 0.214999 3.086355 -9.893529 -6.650955 -9.490568 -5.581497 -48.914300 179.999441 -88.513696 179.999433 34.474389 7.392509 12.088003 1.726658 3.607722 7.420705 7.255411 37.862077 33.230820 -179.999402 87.932492 179.999404 18.173168 5.523318 -3.595275 -42.435938 5.694217 15.324139 25.137131 4.809657 4.103288 6.172632 0.138876 -13.912510 -1.919251 0.000008 0.000001 -34.104802 -11.667881 -20.920624 31.538180 -5.051109 -2.143816 -7.533477 -2.030102 18.239025 -0.546165 -0.000003 0.000007
-0.002545 1.075755 -0.001534 12.694844 -10.207584 2.070607 11.513654 -1.329146 -0.164935 8.161130 -1.026768 -0.179927 8.169992 -0.971126 -0.152564 0.258935 2.036740 -3.079085 -23.632601 7.827403 0.223812 3.051934 -9.700213 -6.516212 -9.487977 -5.961814 -49.113853 179.999504 -88.362858 179.999498 33.571067 8.196665 12.328120 1.764994 3.643844 7.610684 7.152892 37.716446 32.890447 179.999685 87.823367 -179.999696 18.249203 5.597785 -3.149636 -42.327331 6.049022 16.148351 24.533849 4.647279 3.789336 6.656871 0.071661 -14.069587 -1.927826 -0.000001 0.000005 -34.569407 -11.096555 -20.211652 32.357429 -5.315317 -2.318793 -7.891092 -2.054706 17.964655 -0.527797 -0.000011 -0.000001
-0.002545 1.075345 -0.001534 12.541292 -10.424399 2.084262 11.582714 -1.244899 -0.127957 8.209008 -0.954663 -0.148824 8.217103 -0.898570 -0.124486 0.033854 2.070402 -3.072279 -23.537367 7.917700 0.321007 2.970081 -9.334478 -6.638876 -9.343761 -6.474143 -49.400547 -179.999179 -88.108539 -179.999161 32.214330 9.459267 13.148877 1.731667 3.625419 7.429127 6.896257 37.741879 32.842301 179.999945 87.935371 -179.999945 18.192643 5.782192 -2.786756 -42.047681 6.350682 16.699689 24.067299 4.385798 3.584222 6.987500 0.018673 -14.218691 -1.911411 -0.000008 -0.000001 -34.792512 -10.904985 -19.903099 33.076726 -5.283461 -2.305060 -8.286980 -2.083088 17.649892 -0.470645 -0.000029 0.000001
-0.002545 1.075060 -0.001534 12.291606 -10.604254 2.104486 11.698668 -1.308576 0.048344 8.287482 -1.017246 -0.050636 8.295866 -0.959907 -0.022776 -0.202014 2.167638 -3.257312 -23.498333 8.107861 0.522545 2.875272 -8.963893 -7.155287 -9.081429 -6.892718 -49.600385 179.999780 -87.847162 179.999774 30.659228 10.693121 14.267441 1.602678 3.523865 6.766734 6.480207 38.062820 33.208090 -179.999683 88.300891 179.999678 17.830864 5.845345 -2.703914 -41.664219 6.598173 17.062006 23.727855 4.115406 3.495489 7.168835 -0.020362 -14.399043 -1.825871 0.000003 0.000003 -34.880159 -10.932855 -19.830925 33.643532 -5.002342 -2.205842 -8.638542 -2.102331 17.321635 -0.407060 0.000017 -0.000003
-0.002545 1.074763 -0.001534 12.088223 -10.874167 2.125290 11.792546 -1.433937 0.283705 8.351422 -1.137963 0.075864 8.360468 -1.079406 0.110027 -0.365530 2.292008 -3.500314 -23.595067 8.386382 0.768601 2.806712 -8.723382 -7.798689 -8.884378 -6.997049 -49.842816 -179.999923 -87.798727 -179.999924 29.292824 10.893252 15.115430 1.472948 3.427779 6.104078 6.333678 38.624764 33.320007 179.999515 88.854793 -179.999522 17.234791 5.461364 -3.241307 -41.356358 6.777867 17.367502 23.553879 3.936810 3.465933 7.231049 -0.043793 -14.590764 -1.750363 -0.000005 0.000006 -34.976885 -10.963083 -19.775337 34.058825 -4.650818 -2.126439 -8.877030 -2.105888 17.036532 -0.357657 -0.000037 0.000009
-0.002545 1.074332 -0.001534 11.961224 -11.185280 2.151757 11.845392 -1.567720 0.488797 8.390827 -1.262592 0.190226 8.400865 -1.200290 0.230161 -0.427500 2.388417 -3.590721 -23.807224 8.709749 0.995824 2.777151 -8.631185 -8.155261 -8.856303 -6.710678 -50.388493 -179.999931 -87.917094 -179.999925 27.959467 9.929665 15.356926 1.443604 3.414206 5.943066 6.744007 39.160617 32.636408 179.998496 89.504206 -179.998499 16.527469 4.617023 -4.566281 -41.201194 6.858124 17.587709 23.594710 3.915262 3.482515 7.186728 -0.051244 -14.757945 -1.729864 -0.000002 -0.000009 -35.123816 -10.954070 -19.739793 34.363672 -4.295879 -2.078221 -9.009771 -2.103343 16.827662 -0.323089 0.000029 -0.000003
-0.002545 1.073684 -0.001534 11.873262 -11.482559 2.200425 11.869466 -1.694566 0.637279 8.415047 -1.373340 0.283549 8.426750 -1.302297 0.327184 -0.352692 2.423821 -3.461209 -23.989946 8.972473 1.189926 2.778471 -8.631371 -8.097464 -8.798627 -6.248130 -51.214540 -179.999810 -87.734010 -179.999815 25.996900 9.009578 15.194809 1.500519 3.439169 6.255479 7.324413 39.249188 31.548410 179.994763 89.924044 -179.994769 15.225881 3.912136 -6.139476 -41.174133 6.830304 17.663109 23.876311 4.070467 3.563377 7.028742 -0.039507 -14.899401 -1.723781 -0.000003 0.000010 -35.308256 -10.932884 -19.796020 34.617477 -3.921125 -2.045947 -9.083619 -2.099938 16.698346 -0.311908 0.000000 -0.000001
-0.002545 1.072795 -0.001534 11.803673 -11.755387 2.258674 11.848697 -1.801030 0.760484 8.410781 -1.459784 0.373458 8.424422 -1.376885 0.418396 -0.078679 2.408365 -3.251225 -24.014094 9.079257 1.351426 2.794088 -8.671200 -7.906601 -8.457140 -5.931973 -51.952373 179.999866 -86.849242 179.999865 23.465259 8.724018 14.991093 1.568193 3.412221 6.702266 7.515068 38.716522 30.789168 179.999332 89.507126 -179.999326 12.415421 4.254951 -6.995876 -41.254760 6.722757 17.628457 24.375304 4.350482 3.705349 6.768392 -0.009184 -15.029828 -1.730175 -0.000002 0.000000 -35.504721 -10.883147 -19.908122 34.862908 -3.565397 -2.035913 -9.137424 -2.102187 16.646436 -0.333982 -0.000007 -0.000004
-0.002545 1.071852 -0.001534 11.755732 -12.005695 2.328236 11.735491 -1.889137 0.848853 8.341101 -1.517238 0.456223 8.356188 -1.425323 0.500975 0.444260 2.395983 -3.175847 -24.011883 9.111625 1.478952 2.802123 -8.709590 -7.934133 -7.975841 -5.462973 -52.337988 179.999990 -85.406858 -179.999997 21.339915 7.892095 14.925685 1.645475 3.375440 7.201711 7.592793 38.031974 30.292085 179.999599 88.039016 -179.999597 8.483164 5.649386 -7.031301 -41.389925 6.629190 17.569437 24.954468 4.639569 3.832398 6.460497 0.033260 -15.127732 -1.739779 0.000003 -0.000003 -35.682644 -10.789412 -20.027892 35.088978 -3.273832 -2.046246 -9.187977 -2.109812 16.651652 -0.395897 0.000027 0.000003
-0.002545 1.071239 -0.001534 11.692322 -12.342037 2.509937 11.511133 -1.978751 0.782937 8.187790 -1.546736 0.475576 8.203729 -1.452714 0.519839 1.346520 2.457386 -3.352632 -24.261117 9.363167 1.658404 2.784017 -8.667588 -8.089343 -7.719955 -3.624686 -52.683797 -179.999980 -83.423121 -179.999993 20.074792 5.750112 15.388657 1.789645 3.508601 7.885696 8.437491 37.698257 29.384337 179.999985 86.102776 -179.999982 5.907198 6.626015 -7.831694 -41.400545 6.752258 17.588095 25.459696 4.867987 3.755836 6.119429 0.086639 -15.117988 -1.752682 -0.000000 0.000007 -35.819702 -10.653418 -20.195352 35.265013 -2.945671 -2.111023 -9.241412 -2.121506 16.678567 -0.491019 -0.000008 -0.000009
-0.002545 1.070825 -0.001534 11.358115 -12.967680 2.925427 11.209224 -2.019029 0.457052 7.968667 -1.509370 0.380220 7.985082 -1.416175 0.421744 3.019761 2.614128 -3.699954 -24.351704 10.074036 2.062265 2.737018 -8.401388 -7.721199 -7.561544 0.294462 -53.728855 -179.999979 -79.552991 -179.999984 19.339316 2.928537 16.805186 1.958620 3.850870 8.464193 9.715172 36.696571 28.180941 179.999897 83.666557 -179.999910 5.044257 5.622185 -12.497031 -40.984780 7.327369 17.771411 26.054407 4.994396 3.315996 5.558021 0.169265 -14.967760 -1.769561 0.000001 0.000007 -35.791081 -10.442998 -20.479042 35.544143 -2.350176 -2.411087 -9.416205 -2.160543 16.769258 -0.603765 0.000002 0.000005
-0.002545 1.069235 -0.001534 10.167866 -13.831542 3.509195 10.831181 -1.842314 0.023972 7.686249 -1.309737 0.230214 7.701934 -1.210859 0.260803 5.922623 2.770263 -3.931286 -22.491788 11.017700 2.595263 2.659771 -7.783605 -6.213412 -7.257170 4.615478 -55.894287 -179.999984 -71.665857 179.999997 18.939786 -0.036623 18.916892 1.977075 4.113008 8.390386 8.776945 33.026807 27.927106 179.999996 78.724202 -179.999994 2.158006 3.349461 -22.020121 -39.837550 8.392767 17.998084 27.338834 4.841233 2.696596 4.419198 0.319886 -14.808391 -1.796049 -0.000004 0.000001 -35.232877 -10.133229 -20.965074 36.470830 -1.481595 -3.212187 -10.066998 -2.299816 17.113071 -0.721120 -0.000006 -0.000006
-0.002545 1.064362 -0.001534 7.567175 -14.413084 4.052991 10.241004 -1.319003 -0.075951 7.267102 -0.889098 0.207060 7.278793 -0.774781 0.215961 9.935056 2.722753 -3.720723 -16.605257 11.383992 2.581976 2.535908 -6.907303 -3.743982 -8.446198 6.250375 -58.616864 179.999988 -59.842118 179.999995 18.928012 -3.150564 21.254222 1.754774 3.950471 7.217334 2.410665 27.138029 29.970516 179.999988 69.702771 -179.999995 -1.397253 3.238265 -33.484293 -37.853482 9.619877 17.771513 29.908661 4.212043 2.439821 2.461197 0.570091 -14.841779 -1.820800 0.000006 0.000006 -33.770961 -9.877653 -21.994939 38.641242 -0.583496 -4.525587 -11.580740 -2.624171 17.874856 -0.869628 0.000018 -0.000006
-0.002545 1.054964 -0.001534 3.821104 -14.235766 4.497877 9.232505 -0.527228 0.531977 6.608912 -0.305149 0.475714 6.612466 -0.177286 0.461003 14.055881 2.307058 -3.058874 -7.079962 10.332574 1.390314 2.413947 -6.223607 -1.225702 -14.622524 4.449991 -60.972935 -179.999998 -48.141428 179.999997 19.306072 -6.405012 23.545402 1.363234 3.425716 5.396555 -9.671506 23.629704 33.347076 -179.999993 59.507925 179.999993 -4.579740 5.945650 -44.292460 -35.449216 10.373362 16.686365 33.906714 3.370927 2.762084 -0.263739 0.919815 -15.025581 -1.800421 -0.000007 0.000005 -31.643686 -10.032664 -24.028347 41.916509 0.356965 -5.986323 -13.849264 -3.136716 18.968408 -1.032961 -0.000035 0.000009
-0.002545 1.040254 -0.001534 0.074746 -13.626827 5.318182 7.807087 0.347992 1.784050 5.748291 0.346581 1.049778 5.741699 0.467793 1.025006 17.002722 1.612885 -2.437255 1.975931 7.914120 -0.575848 2.451218 -6.308505 0.561000 -27.566392 2.373247 -62.533381 -179.999994 -41.551712 -179.999993 19.970239 -9.683793 25.637419 0.944982 3.007257 3.361775 -25.890763 27.768180 36.700727 179.999991 54.044243 179.999999 -8.744375 7.846210 -52.882098 -33.509599 10.484132 14.954109 38.998629 2.821847 3.017762 -3.453167 1.309999 -15.086790 -1.688896 0.000000 0.000000 -30.220051 -10.258121 -27.240617 46.186172 1.605858 -7.322007 -16.539522 -3.772015 20.094401 -1.130679 0.000002 0.000006
-0.002545 1.021886 -0.001534 -2.620717 -13.512362 6.791874 6.361192 1.207312 3.224723 4.950556 1.019797 1.793426 4.934942 1.108524 1.779372 18.099464 1.029451 -2.442187 5.422333 5.403831 -2.029272 2.724036 -7.301373 1.463414 -37.889757 -24.084393 -65.063468 179.999991 -38.171937 -179.999974 20.746500 -12.956782 27.273034 0.558497 3.213247 0.944497 -29.354655 40.338430 36.359903 179.999992 38.369666 -179.999995 -7.207414 9.184445 -57.757914 -32.600415 10.597317 13.385352 44.263006 2.530322 2.436405 -6.610081 1.642451 -14.782815 -1.493770 0.000007 -0.000006 -30.424859 -9.609903 -30.870431 50.994396 3.083460 -8.653879 -19.144882 -4.418264 21.058005 -1.078349 0.000013 0.000002
-0.002545 1.002022 -0.001534 -3.820252 -14.229915 8.709438 5.468890 1.977525 4.408758 4.548295 1.630239 2.519300 4.527340 1.676034 2.527775 17.603444 0.939076 -3.083683 1.538867 4.502763 -1.832879 2.918839 -8.019692 1.627754 -41.005723 -26.084718 -64.964057 -179.999993 -38.670869 -179.999979 21.260655 -16.274734 27.747834 0.377677 3.636125 -0.539387 -32.130292 39.060633 39.049453 179.999993 37.225602 179.999979 -10.205943 7.010523 -54.546556 -32.986521 11.095395 12.483626 49.017234 2.298785 1.176466 -9.288894 1.874366 -14.288020 -1.265708 0.000005 -0.000002 -32.138132 -7.267121 -34.225171 55.973198 4.401045 -9.172669 -21.406550 -4.773803 21.484650 -0.919297 0.000034 -0.000007
-0.002545 0.983283 -0.001534 -3.559802 -15.368751 10.675614 5.437641 2.449077 5.154421 4.682028 1.974600 3.092010 4.661372 1.989593 3.117241 16.418896 1.322623 -3.701559 -6.388571 5.671744 -0.003736 2.918369 -8.018030 1.627462 -47.845138 -24.177632 -65.395750 179.999999 -39.364944 -179.999996 21.090609 -19.419749 26.483584 0.377207 3.635690 -0.542725 -36.863335 39.730431 40.980334 -179.999997 38.913719 179.999973 -12.865909 2.477151 -50.225573 -34.726046 11.638098 12.023678 53.026930 2.446015 -0.133510 -11.223857 2.012630 -13.740790 -1.065051 0.000007 -0.000002 -34.849352 -3.828686 -36.558412 60.361461 5.403375 -9.148061 -22.930711 -4.882881 21.604606 -0.673788 0.000022 -0.000005
-0.002545 0.967263 -0.001534 -2.217128 -16.664578 12.524521 6.151741 2.370071 5.546247 5.256943 1.856593 3.504949 5.243168 1.861355 3.529777 15.532435 1.780720 -3.661095 -13.236942 7.514373 2.008196 2.917557 -8.014676 1.627529 -54.135708 -22.998754 -65.613566 180.000000 -39.891377 -179.999987 20.475358 -21.754432 24.288360 0.376206 3.634828 -0.549277 -40.006442 40.317799 42.303834 180.000000 40.407439 179.999991 -14.752281 2.539316 -52.661356 -37.441718 11.881727 11.678747 56.138040 3.375554 -1.226141 -12.245487 2.090003 -13.524241 -0.933990 -0.000002 -0.000002 -38.395231 -0.109535 -37.657863 63.822610 6.172740 -9.131068 -23.442687 -4.885129 21.629492 -0.585214 -0.000003 0.000003
-0.002545 0.954681 -0.001534 -0.024833 -18.384502 14.315924 7.337397 1.663769 5.774883 6.128410 1.247919 3.860512 6.126207 1.251939 3.870293 15.421883 1.978007 -3.033475 -16.223224 8.649498 2.744004 2.916237 -8.009649 1.627136 -56.791650 -23.036177 -65.811864 179.999997 -40.309985 -179.999998 20.176485 -22.764743 22.759034 0.374739 3.633530 -0.559279 -40.689545 40.142978 42.629461 179.999991 40.905177 179.999984 -15.941313 3.170498 -54.382921 -40.733579 11.953777 11.579170 58.336588 5.150300 -2.213041 -12.408498 2.126245 -13.712922 -0.916848 -0.000005 -0.000000 -42.716149 3.795947 -37.482228 66.281252 6.924285 -9.118149 -22.895828 -4.733785 21.479485 -0.495021 0.000000 0.000006
-0.002545 0.945388 -0.001534 3.218905 -20.619321 16.103674 8.849021 0.461503 5.988310 7.240143 0.276609 4.241115 7.248945 0.274365 4.231768 15.857126 1.961174 -2.424832 -15.975172 9.105256 2.373442 2.914552 -8.002991 1.626911 -56.289908 -23.383503 -65.881078 -179.999998 -40.402100 -179.999990 20.404621 -22.515203 22.461178 0.372753 3.631798 -0.572350 -39.627809 39.717982 42.238259 179.999989 40.768032 -179.999995 -15.631694 4.134067 -54.568058 -44.698931 11.923691 12.207157 59.814284 7.482901 -3.184166 -11.920824 2.138190 -14.250731 -0.900089 -0.000002 0.000010 -47.970494 7.629351 -35.730130 67.726644 7.614299 -9.116214 -21.442698 -4.467023 21.144837 -0.368176 0.000007 -0.000000
-0.002545 0.938953 -0.001534 7.556510 -22.829516 17.801828 10.664864 -1.006857 6.222369 8.582286 -0.872420 4.613152 8.596575 -0.887486 4.589636 16.334694 1.994862 -2.224315 -14.613628 9.623905 2.078645 2.912449 -7.994681 1.626594 -54.933347 -23.319071 -65.731377 -179.999994 -40.075975 180.000000 20.482953 -21.506466 22.342111 0.370321 3.629661 -0.588792 -38.004575 39.802811 41.612787 179.999989 40.692062 179.999993 -12.000056 7.402746 -53.642143 -49.458408 11.464025 13.632555 60.755235 8.964802 -4.069769 -11.010939 3.196090 -14.725438 -0.904036 0.000004 0.000003 -54.123822 10.462383 -32.665378 68.192000 8.031438 -9.115091 -19.397454 -4.111710 20.666173 -0.253535 -0.000011 0.000016
-0.002545 0.934744 -0.001534 12.355016 -24.374457 19.273089 12.719298 -2.458861 6.410797 10.098701 -1.986041 4.873133 10.113664 -2.005987 4.842382 16.600157 2.176882 -2.270924 -13.445568 10.469423 2.401408 2.909907 -7.984757 1.626039 -54.147632 -22.904546 -65.499369 179.999993 -39.575150 -179.999991 19.959557 -20.262903 21.485625 0.367397 3.627099 -0.608465 -36.446549 40.375491 40.992352 179.999991 40.850539 179.999996 -6.661529 11.982302 -53.161136 -54.524562 10.426039 15.379154 61.261204 9.036328 -4.818851 -9.914687 5.441296 -14.846848 -0.928293 -0.000003 -0.000005 -60.436946 11.632475 -29.405500 67.851460 8.006197 -9.121134 -17.259041 -3.269570 20.166182 -0.260392 -0.000002 0.000003
-0.002545 0.932168 -0.001534 16.787200 -25.132114 20.589454 14.805379 -3.553282 6.474421 11.652876 -2.816694 4.962375 11.670569 -2.817633 4.925273 16.700780 2.328465 -2.199448 -12.336146 11.109884 2.759558 2.906934 -7.973244 1.625433 -53.655574 -22.717321 -65.360663 179.999998 -39.238834 -179.999996 19.375599 -19.156216 20.671262 0.363975 3.624137 -0.631157 -35.105347 40.747929 40.450318 179.999980 40.878840 179.999996 -1.940669 15.620240 -53.224859 -59.073578 9.399535 17.154070 61.401179 9.128635 -5.677227 -8.815060 6.787725 -14.741056 -0.956444 -0.000003 -0.000005 -66.017142 11.830716 -27.452953 67.071140 7.965803 -8.240765 -15.319191 -1.777171 19.264278 -0.407962 0.000003 0.000002
-0.002545 0.930388 -0.001534 20.636947 -25.333623 21.836074 16.614990 -4.013190 6.372134 13.044111 -3.163311 4.902173 13.071108 -3.120943 4.851380 16.749263 2.249872 -1.828835 -10.674049 10.972989 2.376958 2.903608 -7.960160 1.624914 -52.638572 -23.182498 -65.378993 179.999997 -39.202269 -179.999992 19.469466 -18.354552 21.171162 0.360132 3.620767 -0.657075 -33.984139 40.362037 40.017566 179.999974 40.424147 -179.999989 0.660834 17.216356 -52.774796 -62.960980 8.888437 19.164735 61.333831 9.257921 -6.983667 -7.918104 6.764744 -14.134847 -1.069373 -0.000002 -0.000003 -70.753531 11.636476 -26.648553 66.178546 7.897413 -6.842308 -13.644123 0.054722 18.136868 -0.503471 0.000038 -0.000008
-0.002545 0.929378 -0.001534 24.230129 -25.046162 23.034516 17.905317 -3.789226 6.147591 14.090971 -2.994887 4.768767 14.129910 -2.899163 4.696478 16.761661 1.967404 -1.207594 -8.419087 10.239196 1.236476 2.899843 -7.945472 1.624189 -51.069962 -24.189326 -65.484434 -179.999982 -39.334125 -179.999989 20.268411 -17.660181 22.899716 0.355784 3.617003 -0.686058 -33.079844 39.359922 39.716877 179.999988 39.604384 179.999998 1.154412 17.287422 -51.584371 -66.504749 8.663230 21.152859 60.955711 9.371023 -8.425597 -7.063748 5.996310 -13.296170 -1.316390 0.000006 0.000003 -74.937456 11.282568 -26.295348 65.265331 7.650477 -5.378538 -12.196940 1.713005 16.996711 -0.583864 -0.000005 -0.000002
-0.002545 0.929144 -0.001534 27.805566 -24.203226 24.075613 18.665280 -3.071544 5.881565 14.752739 -2.458301 4.632497 14.798630 -2.314381 4.538866 16.661940 1.691220 -0.475939 -6.134219 9.719463 -0.065572 2.895726 -7.929268 1.623497 -49.699149 -25.239933 -65.555961 179.999991 -39.373094 -179.999994 21.165311 -16.669346 24.472403 0.351005 3.612861 -0.718125 -32.366000 38.380707 39.522206 179.999994 38.896020 -179.999998 0.585064 17.037284 -50.544322 -70.169786 8.281754 21.949140 60.092946 9.412624 -8.489288 -5.914145 6.102920 -13.133108 -1.429399 0.000002 -0.000006 -78.761997 10.891373 -26.117282 64.347532 7.408044 -3.841687 -10.969701 2.754525 15.839537 -0.636223 0.000005 -0.000001
-0.002545 0.929486 -0.001534 31.191081 -22.824587 24.915748 19.091967 -2.130706 5.626802 15.148414 -1.759197 4.518953 15.193025 -1.577169 4.411407 16.414485 1.605085 0.239233 -4.332955 10.116621 -1.039398 2.891181 -7.911557 1.622652 -49.122928 -25.847086 -65.512568 179.999977 -39.106906 179.999985 21.620368 -15.157680 24.661802 0.345782 3.608311 -0.753236 -31.728695 37.982828 39.341386 -179.999999 38.697674 -179.999997 -0.086103 17.391787 -50.521576 -73.521282 7.258282 21.933821 58.876247 9.431327 -8.494184 -4.567256 6.820545 -13.206624 -1.450235 0.000010 -0.000005 -82.183054 10.607022 -26.149295 63.501991 7.274893 -2.358042 -9.998617 3.101487 14.771339 -0.655032 -0.000005 0.000001
-0.002545 0.929732 -0.001534 34.024560 -21.130834 25.579768 19.399310 -1.158551 5.420035 15.438447 -1.050987 4.434623 15.475759 -0.838996 4.321347 16.136654 1.732286 0.830200 -3.057735 11.463992 -1.622488 2.886290 -7.892320 1.621821 -49.225211 -25.875761 -65.341438 -179.999976 -38.507157 -179.999990 21.622271 -13.213641 23.445746 0.340072 3.603406 -0.791211 -31.037908 38.307528 39.094016 179.999994 39.067790 179.999994 -0.570995 18.491457 -51.581300 -76.316010 6.080226 21.310218 57.522109 9.437757 -8.498319 -3.217324 7.750998 -13.391227 -1.446351 0.000001 0.000004 -85.075470 10.573692 -26.465157 62.920593 7.142342 -1.105092 -9.348189 3.092254 13.930020 -0.668980 0.000004 -0.000004
-0.002545 0.929442 -0.001534 36.150359 -19.363140 26.139615 19.668609 -0.230350 5.318161 15.698163 -0.406481 4.408980 15.725553 -0.174337 4.296444 16.018089 1.954729 1.176464 -2.012160 13.129501 -2.023840 2.880991 -7.871629 1.620702 -49.350853 -25.521243 -65.076128 -179.999990 -37.722975 -179.999992 21.513944 -11.198799 21.870458 0.333944 3.598113 -0.832198 -30.260709 39.091878 38.773949 179.999990 39.746654 -179.999998 -1.150607 19.750241 -53.047908 -78.510928 5.252252 20.434492 56.235462 9.446292 -8.501379 -2.043044 8.410402 -13.546557 -1.460992 0.000001 0.000002 -87.425716 10.825880 -27.022468 62.719367 6.976857 -0.175982 -9.015313 2.987056 13.343362 -0.697983 -0.000036 -0.000008
-0.002545 0.928505 -0.001534 37.717602 -17.657025 26.628513 19.872913 0.639779 5.391288 15.912570 0.155115 4.490888 15.929959 0.389042 4.386323 16.140367 2.127617 1.158931 -0.930141 14.340633 -2.495531 2.875340 -7.849454 1.619736 -48.857038 -25.024899 -64.757535 179.999970 -36.928145 179.999997 21.645287 -9.535877 21.049319 0.327313 3.592474 -0.875970 -29.522857 39.933259 38.452232 179.999988 40.400232 -179.999977 -2.275384 20.428829 -54.034833 -80.275851 4.854169 19.556842 55.134250 9.468719 -8.502334 -1.097138 8.671188 -13.626388 -1.480399 0.000005 0.000001 -89.366095 11.281789 -27.696340 62.849224 6.832637 0.488195 -8.925145 2.844641 12.942448 -0.748817 -0.000001 -0.000003
-0.002545 0.926995 -0.001534 38.890920 -16.021506 26.987234 19.992870 1.420179 5.677739 16.064162 0.621328 4.707157 16.073889 0.828268 4.619307 16.438923 2.195601 0.715905 0.173859 14.804470 -3.164674 2.869337 -7.825811 1.618760 -47.593297 -24.455396 -64.407888 179.999997 -36.182666 -179.999995 22.212312 -8.420126 21.269326 0.320297 3.586469 -0.922727 -29.064634 40.648405 38.239299 179.999986 40.917582 -179.999992 -4.165029 20.252764 -54.076485 -81.751409 4.686094 18.755933 54.225250 9.496817 -8.501982 -0.332954 8.620651 -13.671923 -1.518958 0.000008 0.000001 -90.978201 11.844790 -28.395896 63.258406 6.756864 1.000800 -9.056332 2.581290 12.644562 -0.810339 -0.000015 0.000007
-0.002545 0.925015 -0.001534 39.627875 -14.404376 27.111557 20.068678 2.027721 6.159796 16.184025 0.953568 5.037891 16.190894 1.099769 4.973596 16.809716 2.218153 -0.118097 1.032290 14.835613 -3.910072 2.862891 -7.800755 1.617422 -45.967170 -23.745848 -64.054309 179.999998 -35.475970 -179.999995 23.019963 -7.897489 22.381246 0.312853 3.580110 -0.972293 -29.006899 41.349555 38.188954 -179.999991 41.457651 179.999998 -6.508943 19.618825 -53.445946 -82.900054 4.576409 17.977528 53.460860 9.524209 -8.501321 0.322863 8.320303 -13.715895 -1.581511 -0.000009 -0.000007 -92.147813 12.515786 -29.026197 63.991328 6.737072 1.308265 -9.473636 1.987824 12.498205 -0.871675 -0.000016 0.000004
-0.002545 0.924414 -0.001534 39.512375 -12.886907 26.029513 19.996635 2.051195 6.364240 16.195126 0.900595 5.112816 16.207936 0.964335 5.070461 17.074669 2.203207 -1.469452 1.682243 14.174309 -4.338976 2.831766 -7.678533 1.611951 -44.398714 -23.094427 -63.719373 179.999996 -34.941942 179.999999 23.485148 -8.063617 24.509916 0.276290 3.549389 -1.213942 -29.921259 42.081424 38.674166 179.999979 41.800061 -179.999978 -8.721587 18.373539 -52.007804 -83.461640 4.064312 17.194615 52.857387 9.530563 -8.107573 0.872608 7.630175 -13.767694 -1.652697 0.000001 0.000004 -91.652419 12.821051 -29.440222 64.713569 6.729091 1.427925 -10.456475 0.726185 12.806180 -0.909559 -0.000003 -0.000004
-0.002545 0.926198 -0.001534 38.597034 -11.645688 23.648867 19.735789 1.375202 6.047357 16.055819 0.396359 4.756550 16.081296 0.379049 4.726251 17.117103 2.158977 -3.158758 2.155623 12.794440 -4.186092 2.770639 -7.438480 1.600902 -43.277228 -22.745140 -63.445825 179.999998 -34.723387 179.999996 23.334200 -8.783181 27.213881 0.203769 3.490091 -1.688436 -31.757103 42.678331 39.719816 179.999972 41.768050 -179.999988 -10.171412 16.686159 -50.056405 -83.392822 3.064654 16.466456 52.469243 9.498624 -7.225777 1.237822 6.675952 -13.809016 -1.710654 -0.000005 -0.000008 -89.257586 12.453608 -29.514815 65.034456 6.650373 1.427959 -11.844746 -1.065142 13.555413 -0.943656 -0.000025 0.000004
-0.002545 0.928646 -0.001534 37.537139 -10.687795 21.251289 19.448923 0.470633 5.616152 15.878711 -0.258352 4.303063 15.915556 -0.347117 4.276418 17.000284 2.158881 -4.754422 2.375001 11.484504 -3.657660 2.710213 -7.200707 1.590051 -42.698452 -22.438007 -63.237286 179.999979 -34.601122 179.999995 22.778752 -9.645696 29.627580 0.131046 3.432788 -2.158486 -33.630012 43.220912 40.783499 -179.999982 41.656782 179.999986 -10.751357 15.369458 -48.422716 -83.065127 2.078961 15.860118 52.272009 9.435203 -6.345215 1.401139 5.800671 -13.812791 -1.777590 -0.000003 -0.000002 -86.532903 11.844758 -29.370368 65.075699 5.997858 1.316687 -13.068679 -2.304940 14.473957 -0.947368 -0.000010 -0.000006
-0.002545 0.931973 -0.001534 36.463311 -10.067823 18.861265 19.125461 -0.551170 5.045933 15.652311 -0.986196 3.751631 15.695949 -1.130345 3.722539 16.709953 2.162488 -6.240346 2.593655 10.094347 -3.028462 2.650496 -6.965506 1.579336 -42.411047 -22.250206 -63.072862 179.999977 -34.527218 179.999978 22.102293 -10.435593 31.742480 0.058174 3.377479 -2.623412 -35.609306 43.621253 41.884087 179.999966 41.405283 -179.999968 -10.949975 14.137491 -46.804294 -82.567713 1.094114 15.474794 52.224942 9.360600 -5.461418 1.377912 5.004560 -13.793365 -1.738423 0.000003 -0.000001 -83.699009 10.833296 -29.179217 64.696218 4.766799 1.350196 -13.999882 -2.598938 15.398365 -0.898850 0.000032 -0.000002
-0.002545 0.936299 -0.001534 35.457548 -9.763943 16.490009 18.770329 -1.596848 4.355695 15.382868 -1.721591 3.127043 15.427761 -1.904905 3.092409 16.290008 2.147017 -7.627889 2.856503 8.582996 -2.507065 2.591630 -6.733133 1.568932 -42.241621 -22.185672 -62.937730 -179.999988 -34.469209 -179.999980 21.582818 -11.212047 33.946588 -0.014640 3.324238 -3.082727 -37.743981 43.843826 43.035278 179.999993 41.054791 -179.999998 -11.258149 12.728108 -45.071795 -81.955067 0.086105 15.327496 52.229296 9.290993 -4.575948 1.233617 4.310956 -13.773610 -1.613186 -0.000003 -0.000007 -80.915550 9.376392 -28.970123 63.849403 3.935145 1.647773 -14.612815 -2.789826 15.968050 -0.781228 0.000006 0.000005
-0.002545 0.940822 -0.001534 34.631612 -9.950811 14.307192 18.405084 -2.449394 3.450607 15.093188 -2.277587 2.410778 15.139028 -2.456141 2.368374 15.925169 2.006738 -8.422203 3.209532 6.848648 -2.246153 2.536063 -6.513553 1.559109 -42.089232 -22.848012 -62.914231 -179.999993 -34.795182 -179.999991 21.418607 -12.070585 36.311440 -0.084247 3.275193 -3.516720 -39.533367 43.383000 44.006754 -179.999996 40.386559 -179.999990 -11.623498 11.049892 -43.357310 -81.330437 -0.939878 15.583486 52.326045 9.240827 -3.689340 1.025990 3.842187 -13.878780 -1.478851 0.000001 -0.000001 -78.530098 7.646206 -28.540983 62.702981 3.593725 2.173492 -14.885037 -2.852246 16.071245 -0.667757 0.000039 0.000007
-0.002545 0.944749 -0.001534 33.930350 -10.515086 12.311475 18.047519 -3.084458 2.360134 14.807658 -2.635127 1.625197 14.858738 -2.767329 1.573439 15.693837 1.737288 -8.560729 3.674862 4.937047 -2.142938 2.483999 -6.307372 1.549964 -41.918305 -24.279255 -63.004582 179.999974 -35.577943 179.999988 21.524773 -13.101509 38.830695 -0.150238 3.230272 -3.924282 -40.756534 42.235871 44.693043 179.999987 39.386517 -179.999987 -11.839692 9.199960 -41.810739 -80.749596 -1.983011 16.187694 52.520739 9.173828 -2.799254 0.809264 3.542146 -14.140517 -1.339391 0.000001 -0.000000 -76.561696 5.876294 -27.813545 61.532391 3.517641 2.768636 -14.949248 -2.832187 15.872073 -0.574325 0.000027 0.000015
-0.002545 0.948687 -0.001534 33.232034 -11.086516 10.304093 17.688646 -3.719720 1.266182 14.520899 -2.992669 0.838697 14.577015 -3.078638 0.777664 15.462473 1.467821 -8.699247 4.125790 3.020271 -2.038246 2.431974 -6.101164 1.540931 -41.735683 -25.682477 -63.095119 179.999995 -36.357515 179.999989 21.770712 -14.290277 41.467015 -0.216904 3.186455 -4.331790 -41.957338 41.056971 45.338857 179.999987 38.402430 -179.999987 -11.994238 7.365577 -40.238940 -80.152352 -3.056349 16.838699 52.696307 9.077857 -1.910209 0.585805 3.273957 -14.430252 -1.238374 0.000005 -0.000004 -74.623086 4.050750 -27.004003 60.296816 3.416872 3.364838 -14.936323 -2.794589 15.633532 -0.448672 0.000008 -0.000007
-0.002545 0.952556 -0.001534 32.536559 -11.665031 8.284823 17.328483 -4.354872 0.169047 14.232977 -3.350174 0.051446 14.293831 -3.390026 -0.018768 15.231153 1.198331 -8.837746 4.562605 1.098571 -1.932860 2.380028 -5.894946 1.531820 -41.562901 -27.044550 -63.183788 179.999993 -37.091431 -179.999997 22.242096 -14.959408 43.517152 -0.284146 3.143740 -4.739311 -43.131596 39.848021 45.943976 179.999991 37.443507 180.000000 -12.182267 5.460592 -38.775368 -79.550051 -4.161983 17.533866 52.868524 8.986989 -1.021192 0.355862 3.009487 -14.747151 -1.209615 -0.000001 -0.000007 -72.714356 2.176523 -26.118944 59.008322 3.266330 3.960089 -14.837719 -2.736014 15.369207 -0.413193 -0.000027 -0.000003
-0.002545 0.959380 -0.001534 31.377547 -10.794286 7.282836 16.852348 -3.152247 -0.039914 13.673569 -2.492559 -0.157613 13.709089 -2.548430 -0.191165 13.598856 1.561517 -9.636980 5.930748 1.237384 -1.536211 2.317409 -5.645972 1.521042 -41.447453 -26.862892 -62.597798 179.999984 -36.449067 -179.999992 22.808557 -14.365216 44.262949 -0.366168 3.093666 -5.231319 -44.237369 39.845868 46.520511 179.999991 37.145366 179.999997 -12.274742 3.973162 -39.511733 -78.006502 -3.743304 17.098421 51.800321 8.347954 -0.659780 0.347729 2.708908 -14.425855 -1.240243 -0.000002 0.000007 -70.284246 1.020589 -26.520042 58.050130 2.477979 3.960280 -15.106591 -2.777514 15.675005 -0.436213 -0.000027 -0.000001
-0.002545 0.966485 -0.001534 30.088601 -9.612718 5.765486 16.040724 -1.739123 -0.371855 12.861622 -1.461365 -0.426997 12.879354 -1.495952 -0.437430 12.194664 1.479560 -8.895184 6.924151 0.765038 -1.827865 2.251794 -5.384594 1.509719 -42.242314 -28.107688 -62.479075 179.999990 -36.622575 179.999978 23.130969 -13.428341 44.553126 -0.453194 3.042871 -5.747774 -44.970326 38.090240 46.943260 -179.999997 36.151517 179.999994 -12.578966 2.939194 -39.536774 -76.459195 -3.499941 16.792039 50.752469 7.123020 -0.233006 0.282565 2.418477 -14.038685 -1.271125 0.000010 -0.000002 -67.229100 -0.254123 -26.388573 57.025656 0.988858 3.787841 -15.578849 -2.930902 16.378948 -0.457354 -0.000045 -0.000003
-0.002545 0.974744 -0.001534 28.380112 -8.744352 3.019648 14.737674 -1.290285 -1.053263 11.755780 -1.097448 -0.900644 11.774511 -1.069065 -0.911736 11.490238 0.863946 -7.237712 7.041505 -1.089214 -2.253976 2.183809 -5.113308 1.498057 -43.599226 -30.697009 -62.994908 -179.999974 -38.078962 -179.999978 23.134151 -13.824169 45.844392 -0.544472 2.992049 -6.283827 -45.676064 34.731743 47.354281 -179.999995 34.454402 179.999998 -12.821713 1.388907 -38.402124 -74.661686 -3.956883 17.246073 49.959620 5.496099 0.721902 0.120409 2.148881 -13.943053 -1.299348 0.000002 -0.000001 -62.910406 -2.179952 -24.934493 55.319708 -0.912390 3.884351 -16.016474 -3.078682 17.039184 -0.548866 0.000020 0.000000
-0.002545 0.985117 -0.001534 25.910703 -8.971888 -0.900658 13.105884 -2.603801 -2.030379 10.523151 -1.993916 -1.508792 10.577006 -1.888555 -1.537151 11.055640 0.257994 -6.616171 6.363304 -3.881524 -2.070167 2.113486 -4.832098 1.486325 -44.937617 -32.919948 -63.690606 -179.999999 -39.840578 -179.999986 23.260124 -15.906193 48.430670 -0.640135 2.941485 -6.839389 -47.770717 31.872714 48.283680 -180.000000 32.888748 -179.999992 -12.885102 -1.454783 -36.208774 -72.011825 -5.115436 18.981072 49.490368 4.073322 2.548446 -0.260439 1.929652 -14.591360 -1.342613 -0.000003 -0.000000 -57.094053 -4.850990 -21.747547 52.394670 -2.326058 4.448258 -16.081485 -3.058641 17.003610 -0.693361 -0.000021 0.000002
-0.002545 0.997483 -0.001534 22.587717 -10.652427 -5.520346 11.360977 -5.523611 -3.307575 9.327324 -4.042408 -2.205294 9.447563 -3.876258 -2.261637 10.092538 0.049475 -7.886806 4.981932 -6.829688 -1.351649 2.040798 -4.540946 1.474011 -46.447592 -33.635035 -64.044033 179.999989 -40.909909 179.999990 24.132835 -18.725819 51.817581 -0.740215 2.891355 -7.414537 -52.122702 30.858231 49.965671 179.999996 32.183453 179.999997 -12.919666 -5.500779 -33.424558 -68.150036 -6.506594 22.236563 49.218611 3.261102 5.159872 -0.978897 1.799048 -16.130211 -1.398886 0.000001 0.000002 -49.955076 -7.776664 -17.023780 48.043848 -2.652725 5.420752 -15.464714 -2.792118 16.011386 -0.805478 0.000002 -0.000003
-0.002545 1.010093 -0.001534 18.629621 -13.567071 -10.228709 9.492762 -9.022651 -4.937300 8.113344 -6.516651 -3.045974 8.290508 -6.319794 -3.142850 8.333811 0.082882 -10.157918 2.958511 -9.805813 -0.953686 1.965731 -4.239789 1.461411 -48.561385 -33.425165 -64.136042 179.999982 -41.320387 179.999990 26.134468 -21.388817 55.925115 -0.844845 2.841949 -8.009400 -58.385978 30.711858 52.295556 179.999997 32.211758 179.999991 -13.281241 -10.086935 -29.835930 -63.174439 -7.670154 27.081371 49.065424 2.986489 7.404900 -2.103550 1.738942 -18.057747 -1.458324 -0.000001 -0.000000 -42.156615 -10.348986 -11.643846 42.667093 -1.737883 6.544687 -14.066755 -2.346446 14.318282 -0.718300 -0.000003 0.000006
-0.002545 1.021688 -0.001534 14.337815 -17.337300 -14.539987 7.415622 -12.043943 -6.748034 6.738133 -8.684014 -4.039192 6.910067 -8.483018 -4.191637 6.230569 0.092619 -12.481209 0.624633 -13.108806 -1.171342 1.888359 -3.928623 1.448563 -51.111344 -33.281492 -64.281126 -179.999977 -41.590393 -179.999956 28.934594 -23.550993 60.455089 -0.954055 2.793494 -8.623960 -65.436934 30.373454 54.821260 -179.999997 32.489316 -179.999993 -13.652882 -14.894917 -25.334609 -57.332720 -8.151746 32.964578 48.803121 3.183032 8.570592 -3.485942 1.698022 -19.970306 -1.499472 0.000011 0.000008 -34.480974 -12.367404 -6.603694 36.856378 0.378845 7.560066 -11.932295 -1.841601 12.334647 -0.347567 -0.000009 -0.000006
-0.002545 1.029649 -0.001534 10.868510 -20.936012 -17.143916 5.700946 -13.717085 -7.887046 5.557769 -9.953583 -4.755348 5.652067 -9.775272 -4.965565 4.727668 0.139322 -14.543758 -1.478948 -15.845653 -1.106100 1.834418 -3.711372 1.439653 -53.170131 -32.961161 -64.361959 -179.999997 -41.740570 179.999994 31.067176 -25.277316 63.823208 -1.030982 2.761227 -9.053016 -70.799312 30.480448 56.824057 -179.999994 32.821273 179.999985 -13.190397 -18.759614 -21.881346 -52.403633 -7.305075 37.301503 48.263090 4.093833 9.222615 -4.485425 1.740376 -21.569134 -1.486675 -0.000002 0.000002 -29.274878 -13.237397 -3.528405 32.557819 3.021332 8.042448 -9.911724 -1.497138 10.886033 -0.244686 -0.000007 0.000000
-0.002545 1.032543 -0.001534 9.253375 -23.087715 -17.398358 4.971296 -13.913370 -7.917945 5.008026 -10.190064 -4.893480 5.012640 -10.046150 -5.136647 4.316668 0.281520 -16.110133 -2.941957 -17.235097 0.171390 1.814816 -3.632346 1.436427 -54.360155 -32.169275 -64.258565 179.999996 -41.685269 179.999988 31.437370 -27.018449 64.939681 -1.059080 2.749821 -9.209041 -73.050746 31.486242 57.995882 -179.999994 32.901331 179.999994 -11.741198 -21.267487 -21.243896 -50.073697 -6.026421 38.673246 47.964122 5.262496 9.236762 -4.843511 1.812895 -22.188283 -1.455591 -0.000005 -0.000003 -27.942257 -13.098531 -3.046989 31.293639 5.080048 7.826120 -9.071058 -1.397324 10.426932 -0.379827 -0.000013 0.000002
-0.002545 1.034602 -0.001534 8.673098 -23.840538 -17.096281 4.899192 -13.398453 -7.536405 4.872269 -9.867267 -4.779441 4.837953 -9.741960 -5.018518 4.533713 0.354048 -17.129403 -4.025555 -18.158491 2.262271 1.795175 -3.553198 1.433090 -55.106187 -31.607227 -64.197822 179.999971 -41.848403 179.999981 30.642779 -28.869160 64.521561 -1.087300 2.738574 -9.365365 -73.202179 32.232863 58.329465 -179.999998 32.472320 -179.999996 -9.665972 -23.121479 -21.993559 -49.062850 -5.289467 38.562381 47.607340 6.006241 9.246691 -4.878702 1.811514 -22.314940 -1.457878 -0.000007 0.000003 -27.587888 -12.996916 -3.187641 30.729633 5.760293 7.359167 -8.572868 -1.387317 10.558117 -0.429946 0.000042 -0.000000
-0.002545 1.035879 -0.001534 8.768798 -23.530663 -16.426498 5.311227 -12.405878 -6.947149 5.068567 -9.143838 -4.459794 5.048275 -9.028850 -4.663513 5.179929 0.339650 -17.547585 -4.798329 -18.479803 3.945907 1.775564 -3.473964 1.429973 -55.192032 -31.299368 -64.126398 -179.999976 -42.109439 -179.999979 29.832027 -30.285882 63.780206 -1.115630 2.727480 -9.521839 -71.904976 32.613897 57.987252 -179.999994 32.026687 179.999982 -7.982166 -23.738416 -23.222673 -49.002382 -4.978466 37.520255 47.271528 6.261263 9.252834 -4.710431 1.762274 -22.056711 -1.486514 0.000001 -0.000005 -27.869797 -12.717524 -3.601176 30.758796 5.291145 6.592336 -8.421551 -1.450373 11.178642 -0.391271 0.000014 -0.000002
-0.002545 1.036431 -0.001534 9.077741 -22.716761 -15.670431 5.915661 -11.197481 -6.326947 5.410126 -8.235090 -4.052113 5.421979 -8.127940 -4.209399 5.961260 0.291172 -17.573355 -5.239247 -18.241083 4.432860 1.755899 -3.394608 1.426704 -54.546276 -31.121863 -63.958095 -179.999990 -42.253099 -179.999987 29.646779 -30.785857 63.457286 -1.144041 2.716563 -9.678487 -70.173219 32.677218 57.379688 179.999999 31.959501 179.999991 -7.874069 -24.035185 -24.511540 -49.399241 -4.823435 36.183456 47.004578 6.097254 9.254493 -4.463883 1.696946 -21.602316 -1.524557 0.000002 0.000007 -28.402558 -12.293401 -4.083578 31.147632 4.296103 5.706115 -8.479039 -1.539958 12.005580 -0.373518 -0.000017 0.000001
-0.002545 1.036525 -0.001534 9.307252 -21.805413 -15.100009 6.506923 -10.117959 -5.825897 5.759254 -7.417754 -3.689090 5.796764 -7.314924 -3.805542 6.571912 0.252703 -17.398630 -5.356138 -17.694002 3.917447 1.736255 -3.315216 1.423538 -53.584666 -31.032782 -63.730732 -179.999995 -42.235504 -179.999973 30.009182 -30.482400 63.626250 -1.172554 2.705811 -9.835259 -68.777858 32.608170 56.869448 -179.999998 32.179896 179.999997 -9.023795 -24.372398 -25.636451 -49.873659 -4.713814 35.039158 46.825012 5.645526 9.254392 -4.231214 1.636506 -21.122606 -1.557757 -0.000001 -0.000000 -28.815845 -11.936176 -4.527366 31.571561 3.357310 5.024557 -8.598845 -1.615144 12.707967 -0.327446 -0.000031 -0.000004
-0.002545 1.036532 -0.001534 9.346072 -21.096824 -14.834006 6.967475 -9.464752 -5.564029 6.040336 -6.918170 -3.470672 6.096850 -6.812063 -3.558991 6.852031 0.225225 -17.093245 -5.262080 -17.158035 3.163077 1.716588 -3.235781 1.420272 -52.918603 -31.100307 -63.575491 179.999992 -42.196048 179.999993 30.398427 -29.905048 63.866562 -1.201149 2.695223 -9.992082 -67.928705 32.530761 56.574817 -179.999994 32.327211 179.999989 -10.437869 -25.031774 -26.728659 -50.164481 -4.633494 34.352293 46.707414 5.132295 9.254040 -4.061251 1.592379 -20.762199 -1.580342 -0.000002 0.000002 -28.938198 -11.775245 -4.824238 31.828141 2.778349 4.673938 -8.685324 -1.657549 13.108177 -0.277393 0.000004 0.000007
