HIERARCHY
ROOT Hips
{
  OFFSET 0 1.1673769999999999 0
  CHANNELS 6 Xposition Yposition Zposition Xrotation Yrotation Zrotation
  JOINT Spine
  {
    OFFSET 0.000003812944337411511 0.10717500000681812 -0.009311
    CHANNELS 3 Xrotation Yrotation Zrotation
    JOINT Spine1
    {
      OFFSET 0 0.1058532983696241 -0.004285186608692496
      CHANNELS 3 Xrotation Yrotation Zrotation
      JOINT Spine2
      {
        OFFSET -8.470329472543003e-22 0.10599345671141647 -0.007812688101110094
        CHANNELS 3 Xrotation Yrotation Zrotation
        JOINT Neck
        {
          OFFSET -8.470329472543003e-22 0.26240299999999994 -0.04488100000000002
          CHANNELS 3 Xrotation Yrotation Zrotation
          JOINT Head
          {
            OFFSET -4.235164736271502e-22 0.17466899999999996 0.05625600000000003
            CHANNELS 3 Xrotation Yrotation Zrotation
            End Site
            {
              OFFSET -4.235164736271502e-22 0.10756799999999966 0.021070000000000005
            }
          }
        }
        JOINT LeftShoulder
        {
          OFFSET 0.10574399999999999 0.23009199999999996 -0.07323000000000002
          CHANNELS 3 Xrotation Yrotation Zrotation
          JOINT LeftArm
          {
            OFFSET 0.14878212914559852 -0.04653266654569688 -0.030693304075147546
            CHANNELS 3 Xrotation Yrotation Zrotation
            JOINT LeftForeArm
            {
              OFFSET 0.24109000000000003 2.220446049250313e-16 -5.551115123125783e-17
              CHANNELS 3 Xrotation Yrotation Zrotation
              JOINT LeftHand
              {
                OFFSET 0.316792 0 -1.1102230246251565e-16
                CHANNELS 3 Xrotation Yrotation Zrotation
                End Site
                {
                  OFFSET 0.06265729429771016 -0.10569948639925819 0.03859412819617963
                }
              }
            }
          }
        }
        JOINT RightShoulder
        {
          OFFSET -0.10574399999999999 0.23009099999999982 -0.07323000000000002
          CHANNELS 3 Xrotation Yrotation Zrotation
          JOINT RightArm
          {
            OFFSET -0.14878040829228295 -0.04653159475972379 -0.030692917709113934
            CHANNELS 3 Xrotation Yrotation Zrotation
            JOINT RightForeArm
            {
              OFFSET -0.24109000000000003 -6.661338147750939e-16 -2.7755575615628914e-17
              CHANNELS 3 Xrotation Yrotation Zrotation
              JOINT RightHand
              {
                OFFSET -0.31679300000631333 -8.881784197001252e-16 -5.551115123125783e-17
                CHANNELS 3 Xrotation Yrotation Zrotation
                End Site
                {
                  OFFSET -0.06265795211397429 -0.10570764472283312 0.03859362014678265
                }
              }
            }
          }
        }
      }
    }
  }
  JOINT LeftUpLeg
  {
    OFFSET 0.12297511767165623 -0.06742078536803264 -0.010003
    CHANNELS 3 Xrotation Yrotation Zrotation
    JOINT LeftLeg
    {
      OFFSET 0 -0.457033849483632 0.010304509991859542
      CHANNELS 3 Xrotation Yrotation Zrotation
      JOINT LeftFoot
      {
        OFFSET 0 -0.500280623664138 -0.036905110570505176
        CHANNELS 3 Xrotation Yrotation Zrotation
        JOINT LeftToeBase
        {
          OFFSET 0.025950805788189563 -0.14255151365608373 0.19507593811975638
          CHANNELS 3 Xrotation Yrotation Zrotation
          End Site
          {
            OFFSET 0.010732117804750613 -0.000035441498015504746 0.11362327680684622
          }
        }
      }
    }
  }
  JOINT RightUpLeg
  {
    OFFSET -0.12297488233495055 -0.0674172146317622 -0.010003
    CHANNELS 3 Xrotation Yrotation Zrotation
    JOINT RightLeg
    {
      OFFSET 0.00000159348816348992 -0.45703784846455486 0.01030460015485039
      CHANNELS 3 Xrotation Yrotation Zrotation
      JOINT RightFoot
      {
        OFFSET -0.0000015934881634621645 -0.5002806236608007 -0.03690511058134042
        CHANNELS 3 Xrotation Yrotation Zrotation
        JOINT RightToeBase
        {
          OFFSET -0.0259497668227143 -0.14255297441554501 0.19507500887383716
          CHANNELS 3 Xrotation Yrotation Zrotation
          End Site
          {
            OFFSET -0.010733201844058626 -0.000035030229497263656 0.11362417898958707
          }
        }
      }
    }
  }
}
MOTION
Frames: 19
Frame Time: 0.03333333333333333
0.000338 1.051565 0.001926 13.140997 -21.118709 1.989620 10.268560 0.659004 -1.623080 7.415109 0.385408 -1.503426 7.404847 0.478890 -1.535130 -9.044373 2.913612 -1.663287 -17.682110 12.029163 0.130493 1.704592 -8.242488 -9.850224 -21.023221 -6.941851 -50.851361 179.999395 -89.017555 179.999391 33.942050 18.950264 11.080745 6.850024 19.287474 8.965580 -25.506083 24.102585 41.654018 179.999985 87.274986 179.999989 30.210108 -18.254177 -21.216078 -49.986279 1.547280 21.438270 42.414580 -7.048558 3.390551 -2.604837 1.227082 -16.777249 -0.696765 -0.000011 0.000004 -39.430234 -6.210380 -17.321639 44.379950 3.731027 -5.581184 -13.944998 -2.719809 15.654353 -0.014854 0.000017 -0.000005
0.000338 1.052946 0.001926 12.594833 -21.271784 1.589195 10.323259 0.619775 -1.639525 7.413200 0.367870 -1.492289 7.403278 0.457043 -1.523498 -9.178941 2.882566 -1.476865 -17.149681 12.173050 -0.285997 1.775309 -8.352809 -9.905303 -19.814744 -6.549573 -51.637108 179.999589 -88.017968 179.999607 34.369419 19.642661 10.190127 6.917328 19.351324 8.972330 -23.709554 23.116227 42.107505 179.999869 85.868526 -179.999856 31.707371 -17.641226 -19.222315 -49.370937 1.804157 21.835270 42.070935 -7.373015 3.446670 -2.598014 1.237752 -16.760303 -0.550259 -0.000003 0.000004 -38.719427 -6.436816 -17.005365 44.024733 3.718204 -5.536003 -13.900320 -2.689693 15.518040 -0.017097 -0.000020 0.000002
0.000338 1.054200 0.001926 12.052033 -21.456028 1.206188 10.299450 0.547722 -1.587603 7.365727 0.325172 -1.433891 7.356815 0.414499 -1.464291 -9.025993 2.844843 -1.264101 -16.320897 12.389257 -0.665675 1.859787 -8.455629 -9.974930 -18.339177 -6.596429 -52.462345 -179.999763 -87.174599 -179.999755 34.953479 20.711282 9.127349 7.046169 19.559191 8.963451 -21.592866 21.905868 42.397250 179.999910 84.432988 -179.999914 33.021332 -16.679676 -17.411444 -48.788026 2.058922 22.211075 41.833236 -7.653538 3.488647 -2.630511 1.249003 -16.725036 -0.408098 0.000001 -0.000000 -38.021396 -6.656303 -16.736555 43.661806 3.768495 -5.504967 -13.823055 -2.663468 15.427229 -0.016999 -0.000026 -0.000001
0.000338 1.055207 0.001926 11.523072 -21.702762 0.859747 10.235180 0.419457 -1.468094 7.308333 0.237471 -1.332181 7.301337 0.329424 -1.360350 -8.934211 2.826245 -1.004572 -15.768461 12.758740 -0.920109 1.964584 -8.580681 -10.058553 -16.824425 -6.947540 -53.219456 -179.999968 -86.313633 -179.999969 35.641233 22.089315 7.968168 7.216660 19.904622 8.924710 -19.370767 20.472450 42.634946 -179.999939 83.010428 179.999947 34.057790 -15.625237 -15.832868 -48.271246 2.306792 22.549075 41.797579 -7.850760 3.503944 -2.739794 1.262991 -16.655593 -0.279493 -0.000007 0.000000 -37.361497 -6.855592 -16.553520 43.295649 3.931910 -5.501974 -13.681923 -2.643413 15.418072 -0.013110 -0.000005 -0.000006
0.000338 1.055964 0.001926 11.054305 -21.930727 0.586717 10.193082 0.212020 -1.312767 7.286529 0.083905 -1.213941 7.282560 0.176801 -1.236843 -9.263663 2.855436 -0.708205 -16.093156 13.311692 -0.971651 2.085279 -8.761362 -10.144086 -15.598650 -7.321586 -53.762860 179.999877 -85.241753 179.999851 36.310892 23.578658 6.872157 7.389484 20.300577 8.859067 -17.364433 18.969856 42.946361 -179.999989 81.673379 179.999986 34.779317 -14.828849 -14.418811 -47.941935 2.439970 22.706498 42.039530 -7.897047 3.505350 -2.704614 1.245328 -16.506242 -0.318901 -0.000004 0.000006 -36.821850 -7.046510 -16.550933 42.934508 4.212618 -5.509707 -13.386128 -2.614300 15.473714 -0.006532 -0.000015 0.000001
0.000338 1.056813 0.001926 10.779726 -22.110419 0.414025 10.247592 -0.079621 -1.214550 7.333079 -0.142442 -1.144641 7.332814 -0.056865 -1.157673 -10.084824 2.947338 -0.473383 -17.430628 13.917284 -0.831866 2.193991 -9.008748 -10.203601 -15.015361 -7.311268 -53.925279 179.999889 -83.900021 179.999916 36.764626 24.733323 6.117610 7.497692 20.523658 8.809375 -15.935225 17.815929 43.377610 179.999977 80.518479 -179.999965 35.278959 -14.624579 -12.860525 -47.884289 2.403919 22.696028 42.311078 -7.789758 3.506854 -2.243487 1.161707 -16.318149 -0.822254 0.000008 -0.000005 -36.501622 -7.152229 -16.571165 42.512599 4.422495 -5.528762 -12.937800 -2.564668 15.534420 0.000009 0.000028 0.000003
0.000338 1.056752 0.001926 11.155641 -22.187342 0.661468 10.391439 -0.432376 -1.254703 7.407355 -0.427561 -1.181811 7.410916 -0.361533 -1.180181 -10.660588 3.085354 -0.528429 -18.638187 14.287615 -0.648266 2.259469 -9.265223 -10.219257 -15.161452 -6.848539 -53.558837 -179.999811 -82.709292 -179.999827 36.817000 25.635971 5.416704 7.484853 20.387662 8.820391 -15.154190 17.394985 43.790159 -179.999931 79.609213 179.999914 35.754751 -15.002823 -10.600657 -48.391707 2.121200 22.457736 42.419189 -7.383703 3.524705 -1.369932 1.041827 -16.455985 -1.708824 0.000002 0.000006 -36.974645 -6.861357 -16.510999 42.471697 4.282890 -5.665240 -12.696396 -2.561786 15.715539 -0.000004 -0.000011 0.000002
0.000338 1.057135 0.001926 11.298097 -22.065291 0.923135 10.455977 -0.793210 -1.411377 7.366460 -0.727739 -1.309901 7.373380 -0.689797 -1.291538 -9.439168 3.221204 -1.171190 -17.191865 14.131196 -0.659750 2.284901 -9.405093 -10.219788 -15.707484 -6.657524 -52.561313 -179.999947 -82.699693 -179.999923 36.590378 26.223986 4.437215 7.346420 20.054523 8.841698 -14.599101 17.546509 44.006055 -179.999940 78.921128 179.999925 36.408489 -15.424025 -7.000413 -48.412284 2.152229 22.327486 41.962149 -7.332861 3.530124 -0.646903 0.977516 -17.144538 -2.368099 0.000004 0.000001 -37.171651 -6.720860 -16.551789 42.541040 4.035401 -5.791622 -12.762381 -2.631895 16.077277 0.000009 0.000007 -0.000003
0.000338 1.059420 0.001926 10.168518 -21.387260 1.055349 10.166132 -1.074587 -1.509876 7.040847 -0.958280 -1.407299 7.050400 -0.944504 -1.376147 -4.982808 3.291310 -2.549715 -10.495646 13.294170 -1.071279 2.321445 -9.329593 -10.269201 -16.025016 -8.160028 -50.902622 179.999662 -85.046759 179.999679 36.552781 26.536518 2.693755 7.147651 20.209158 8.677866 -13.535697 17.300855 44.032963 179.999968 78.332362 -179.999957 37.242654 -14.980436 -1.701104 -46.560197 3.085485 21.930318 40.546283 -8.020412 3.536236 -1.077304 1.097037 -17.583306 -1.795629 -0.000005 -0.000007 -35.912278 -7.355939 -17.354221 42.580333 4.164124 -5.888109 -13.362801 -2.802660 16.552366 0.000004 0.000005 -0.000008
0.000338 1.065415 0.001926 6.873447 -20.044816 0.835309 9.309468 -1.138743 -1.266654 6.354407 -1.003384 -1.308281 6.364936 -0.996862 -1.274687 2.654267 3.243901 -4.432448 1.893758 11.751727 -1.900432 2.422471 -9.090044 -10.402767 -15.401670 -12.648062 -48.594833 0.004483 -89.866041 0.004470 37.417109 26.576322 -0.201968 7.058395 21.742756 8.103123 -11.297930 15.541390 43.919775 179.999862 77.723023 -179.999870 37.851756 -12.887042 5.081910 -41.904591 4.980366 20.959976 38.137600 -8.421533 3.864382 -1.940746 0.161680 -18.207147 -0.764742 -0.000001 -0.000003 -32.024966 -9.063997 -18.893506 42.141904 4.724492 -6.285996 -14.041301 -2.968668 16.891946 -0.000008 -0.000018 -0.000004
0.000338 1.075607 0.001926 1.644209 -18.168978 0.278416 7.889025 -0.884247 -0.498560 5.381653 -0.767938 -0.911360 5.389965 -0.748746 -0.887338 11.364771 3.076523 -6.270341 16.892585 9.677349 -2.873227 2.567797 -8.881777 -10.566118 -13.260254 -20.222142 -45.610825 0.000041 -83.000421 0.000058 40.563741 24.901457 -5.921579 7.392152 24.929739 7.065735 -7.586062 12.509797 43.063993 -179.999914 77.334679 179.999920 37.541115 -9.014565 12.705502 -34.668044 7.318613 19.341410 34.873746 -8.775005 4.922668 -1.953998 -1.585268 -19.862732 -0.693326 -0.000006 0.000001 -25.252451 -11.574400 -20.245974 40.588066 5.069836 -7.362808 -14.276191 -2.991421 16.808537 0.000018 0.000004 0.000001
0.000338 1.086879 0.001926 -4.204199 -16.034975 -0.212487 6.117291 -0.329355 0.677452 4.276807 -0.238973 -0.248971 4.278313 -0.197928 -0.240787 17.999633 2.857945 -7.563380 29.019384 7.625826 -3.652089 2.648802 -8.880485 -10.636055 -9.511754 -29.371820 -41.984779 -0.000007 -76.014405 0.000002 46.130206 19.966627 -14.340335 8.380864 28.779485 5.784277 -3.097582 10.260218 39.468507 -179.999981 78.297312 179.999960 35.880136 -4.022812 20.536137 -26.219147 9.695026 17.391036 31.046420 -9.464787 6.397384 -1.764077 -3.519005 -21.296981 -0.521138 0.000000 0.000008 -16.866874 -14.382458 -20.787998 37.976961 4.845410 -8.942871 -14.336788 -2.886360 16.212371 0.000011 0.000007 0.000008
0.000338 1.093888 0.001926 -9.290512 -14.305847 -0.377252 4.272070 0.442912 1.992492 3.153919 0.503133 0.538184 3.144106 0.558246 0.533713 20.207985 2.688213 -8.106010 33.643365 6.302629 -4.304956 2.569200 -9.128962 -10.529998 -5.254688 -37.743237 -38.334381 -0.000027 -69.829710 -0.000025 52.037247 13.758122 -20.976900 9.649750 31.492523 4.764028 0.774816 10.970316 30.781462 179.999873 82.664417 -179.999903 33.228545 1.093250 28.039159 -19.307275 11.906411 16.024352 28.570700 -9.444149 7.376588 -1.944972 -6.062030 -20.704439 -0.000003 -0.000003 -0.000003 -9.462652 -17.008470 -21.257245 35.731526 4.860728 -9.847202 -15.044509 -2.703141 15.038672 -0.000000 -0.000002 -0.000005
0.000338 1.094135 0.001926 -12.900542 -13.664262 -0.226182 2.572888 1.314212 3.195640 2.066001 1.327228 1.289806 2.042242 1.378227 1.281748 17.636164 2.614910 -7.869979 29.796226 6.085306 -5.258180 2.384414 -9.627649 -10.295085 -3.363236 -43.555697 -36.389655 -0.000024 -63.857301 -0.000027 57.457575 7.709824 -24.398700 10.229813 31.840476 4.609404 4.400710 15.487248 17.789299 -0.000066 87.620974 0.000064 30.761448 5.697867 34.487806 -14.977215 14.044948 15.948150 27.659727 -9.298517 7.238346 -2.885749 -8.419264 -20.257071 0.000010 0.000005 -0.000003 -5.376456 -19.029337 -22.581463 35.544903 5.913433 -9.821126 -16.752703 -2.579144 13.757269 0.000005 0.000014 -0.000007
0.000338 1.089614 0.001926 -14.954272 -14.040799 0.121433 1.176363 2.147587 4.133754 1.088031 2.091826 1.906346 1.050673 2.123590 1.902850 11.757756 2.595276 -6.829531 20.310016 6.898707 -6.781737 2.321716 -10.454765 -10.081699 -7.122985 -46.025662 -38.139095 -0.000002 -56.747866 -0.000000 61.845163 3.765736 -24.393771 9.633444 30.008865 5.323130 8.609412 23.594182 5.249881 -0.000031 72.285771 0.000030 29.919108 9.786697 38.968824 -13.071840 15.694720 16.565695 27.982892 -9.162359 6.441923 -3.912230 -9.835319 -20.297212 0.000001 0.000005 0.000003 -4.739995 -20.073198 -24.385686 37.405466 7.502587 -9.796218 -18.845244 -2.642346 12.990037 -0.000008 -0.000010 0.000001
0.000338 1.083495 0.001926 -15.968402 -14.735021 0.643184 0.194705 2.789600 4.771303 0.344819 2.659038 2.362341 0.297291 2.667556 2.366853 4.748719 2.547336 -5.035584 9.554114 8.361611 -8.662737 2.614374 -11.682847 -10.016611 -16.894263 -44.576407 -43.434751 -0.000007 -47.882669 0.000002 64.487921 3.250800 -21.779947 8.404469 27.275239 6.223633 10.064487 34.990877 -1.841162 0.000010 53.521355 -0.000022 31.630640 13.509459 40.876018 -12.495174 16.512489 16.940241 28.777313 -9.102314 5.802041 -4.442009 -10.274959 -20.323364 -0.000003 -0.000000 -0.000003 -5.824424 -19.980893 -26.055176 40.146506 8.041600 -9.790450 -20.745077 -2.263422 12.628334 -0.000004 0.000002 0.000006
0.000338 1.077626 0.001926 -16.665285 -15.157403 1.408782 -0.352787 3.094364 5.161930 -0.082504 2.918501 2.679058 -0.134443 2.909232 2.690832 -1.646831 2.426411 -2.794405 0.897785 10.024161 -10.268897 3.282951 -13.181535 -10.095325 -28.982393 -39.205124 -49.197249 -0.000005 -38.181376 0.000006 64.397476 6.020150 -17.665587 7.378910 25.084102 6.808283 2.031125 47.398287 0.697491 0.000003 35.366327 -0.000011 35.742644 16.571611 40.372235 -12.138500 16.771149 16.676240 29.325996 -9.089429 5.574170 -4.360836 -10.403563 -20.013408 -0.000011 -0.000004 -0.000006 -7.017912 -19.224189 -27.303061 43.028725 7.849928 -9.796033 -22.395276 -2.046839 12.027457 0.000004 0.000003 0.000003
0.000338 1.071980 0.001926 -17.192564 -15.154431 2.394662 -0.571497 3.006297 5.396810 -0.236133 2.843205 2.889454 -0.286077 2.824056 2.905782 -6.594378 2.251459 -0.630421 -4.528879 11.534350 -10.946176 4.086952 -14.589671 -10.213863 -39.279335 -31.648531 -52.603488 0.000005 -29.680301 0.000008 60.850313 10.514857 -12.777048 7.006382 24.094611 7.075677 -18.807902 54.349478 15.238939 -0.000003 22.012612 0.000023 40.854441 18.345687 38.394637 -11.880474 16.780222 16.090865 29.443873 -9.028332 5.475461 -3.866050 -10.720014 -19.674788 0.000004 0.000001 -0.000001 -8.126739 -18.273604 -28.232960 46.000835 7.739526 -9.802698 -23.856066 -2.470554 10.935141 -0.000008 -0.000003 0.000002
0.000338 1.065290 0.001926 -17.168596 -14.936599 3.561812 -0.621696 2.629819 5.563750 -0.238041 2.530327 3.025591 -0.281063 2.506442 3.043869 -10.005417 2.074610 1.010119 -7.546624 12.670290 -10.495196 4.704225 -15.539350 -10.289306 -46.006556 -24.486490 -53.235917 0.000010 -24.372641 0.000000 54.006096 14.691827 -7.654502 7.222164 23.959424 7.216341 -39.298558 53.087385 30.440305 0.000005 15.903231 -0.000022 44.838683 18.476984 36.099552 -12.355633 16.541621 15.597666 29.602414 -8.906200 5.201325 -3.293103 -11.066993 -19.654675 0.000008 -0.000001 0.000001 -9.836732 -17.086550 -29.007232 49.126021 6.732217 -9.838655 -25.143500 -2.375688 10.222604 0.000008 -0.000001 0.000001
