HIERARCHY
ROOT Hips
{
  OFFSET 0 1.1673769999999999 0
  CHANNELS 6 Xposition Yposition Zposition Xrotation Yrotation Zrotation
  JOINT Spine
  {
    OFFSET 0.000003812944337411511 0.10717500000681812 -0.009311
    CHANNELS 3 Xrotation Yrotation Zrotation
    JOINT Spine1
    {
      OFFSET 0 0.1058532983696241 -0.004285186608692496
      CHANNELS 3 Xrotation Yrotation Zrotation
      JOINT Spine2
      {
        OFFSET -8.470329472543003e-22 0.10599345671141647 -0.007812688101110094
        CHANNELS 3 Xrotation Yrotation Zrotation
        JOINT Neck
        {
          OFFSET -8.470329472543003e-22 0.26240299999999994 -0.04488100000000002
          CHANNELS 3 Xrotation Yrotation Zrotation
          JOINT Head
          {
            OFFSET -4.235164736271502e-22 0.17466899999999996 0.05625600000000003
            CHANNELS 3 Xrotation Yrotation Zrotation
            End Site
            {
              OFFSET -4.235164736271502e-22 0.10756799999999966 0.021070000000000005
            }
          }
        }
        JOINT LeftShoulder
        {
          OFFSET 0.10574399999999999 0.23009199999999996 -0.07323000000000002
          CHANNELS 3 Xrotation Yrotation Zrotation
          JOINT LeftArm
          {
            OFFSET 0.14878212914559852 -0.04653266654569688 -0.030693304075147546
            CHANNELS 3 Xrotation Yrotation Zrotation
            JOINT LeftForeArm
            {
              OFFSET 0.24109000000000003 2.220446049250313e-16 -5.551115123125783e-17
              CHANNELS 3 Xrotation Yrotation Zrotation
              JOINT LeftHand
              {
                OFFSET 0.316792 0 -1.1102230246251565e-16
                CHANNELS 3 Xrotation Yrotation Zrotation
                End Site
                {
                  OFFSET 0.1995166749313234 -0.0432441138377333 0.06217329198086369
                }
              }
            }
          }
        }
        JOINT RightShoulder
        {
          OFFSET -0.10574399999999999 0.23009099999999982 -0.07323000000000002
          CHANNELS 3 Xrotation Yrotation Zrotation
          JOINT RightArm
          {
            OFFSET -0.14878040829228295 -0.04653159475972379 -0.030692917709113934
            CHANNELS 3 Xrotation Yrotation Zrotation
            JOINT RightForeArm
            {
              OFFSET -0.24109000000000003 -6.661338147750939e-16 -2.7755575615628914e-17
              CHANNELS 3 Xrotation Yrotation Zrotation
              JOINT RightHand
              {
                OFFSET -0.31679300000631333 -8.881784197001252e-16 -5.551115123125783e-17
                CHANNELS 3 Xrotation Yrotation Zrotation
                End Site
                {
                  OFFSET -0.06265795211397429 -0.10570764472283312 0.03859362014678265
                }
              }
            }
          }
        }
      }
    }
  }
  JOINT LeftUpLeg
  {
    OFFSET 0.12297511767165623 -0.06742078536803264 -0.010003
    CHANNELS 3 Xrotation Yrotation Zrotation
    JOINT LeftLeg
    {
      OFFSET 0 -0.457033849483632 0.010304509991859542
      CHANNELS 3 Xrotation Yrotation Zrotation
      JOINT LeftFoot
      {
        OFFSET 0 -0.500280623664138 -0.036905110570505176
        CHANNELS 3 Xrotation Yrotation Zrotation
        JOINT LeftToeBase
        {
          OFFSET 0.025950805788189563 -0.14255151365608373 0.19507593811975638
          CHANNELS 3 Xrotation Yrotation Zrotation
          End Site
          {
            OFFSET 0.010732117804750613 -0.000035441498015504746 0.11362327680684622
          }
        }
      }
    }
  }
  JOINT RightUpLeg
  {
    OFFSET -0.12297488233495055 -0.0674172146317622 -0.010003
    CHANNELS 3 Xrotation Yrotation Zrotation
    JOINT RightLeg
    {
      OFFSET 0.00000159348816348992 -0.45703784846455486 0.01030460015485039
      CHANNELS 3 Xrotation Yrotation Zrotation
      JOINT RightFoot
      {
        OFFSET -0.0000015934881634621645 -0.5002806236608007 -0.03690511058134042
        CHANNELS 3 Xrotation Yrotation Zrotation
        JOINT RightToeBase
        {
          OFFSET -0.0259497668227143 -0.14255297441554501 0.19507500887383716
          CHANNELS 3 Xrotation Yrotation Zrotation
          End Site
          {
            OFFSET -0.010733201844058626 -0.000035030229497263656 0.11362417898958707
          }
        }
      }
    }
  }
}
MOTION
Frames: 32
Frame Time: 0.03333333333333333
-0.001584 1.060228 0.011860 2.281323 -23.740061 0.845170 2.763115 1.819911 2.171997 2.722506 -4.399252 0.711482 3.360627 -8.808125 4.639114 12.118091 6.829923 -4.433339 -0.737336 20.027395 8.229672 3.544258 4.756008 -11.623021 -54.038820 -33.116439 -50.381543 0.000008 -81.882348 0.000002 -58.768385 25.992600 38.870300 -14.733696 2.115968 -4.463102 -107.662467 41.165954 127.346516 0.000013 29.080704 -0.000011 -49.752442 -7.371302 -31.498755 -37.959788 4.692274 11.712356 66.753399 -0.421743 0.565827 -10.445809 1.566815 -11.584937 -8.768404 -0.550701 3.565703 -33.503651 -2.731667 1.906287 48.656560 -6.603067 -4.195588 -17.426274 -0.852175 3.676734 -0.000019 -0.000003 -0.000029
-0.001584 1.046727 0.011860 1.387557 -23.212940 0.346049 2.900943 1.423596 2.191598 2.812331 -4.655496 0.798031 3.459374 -9.060537 4.732097 12.140446 6.844410 -4.433926 -0.717513 19.830675 8.344936 3.415762 4.594996 -11.191931 -54.460858 -32.885464 -50.097119 -0.000024 -82.289323 -0.000019 -58.900379 25.402337 39.411470 -14.755987 2.153997 -4.648286 -107.970086 40.749233 127.008506 0.000009 29.328329 -0.000015 -49.139491 -7.158036 -31.103765 -33.692975 4.950574 9.769572 73.071787 -3.734774 0.707973 -11.206793 1.642346 -11.420325 -16.588193 -1.851049 6.189082 -36.683692 -2.179339 4.015030 50.789414 -6.564899 -4.455893 -16.019607 -3.048987 1.689615 0.000005 0.000006 0.000002
-0.001584 1.030816 0.011860 0.517726 -22.880464 -0.155569 2.993798 1.113930 2.181234 2.891140 -4.868599 0.946187 3.551201 -9.268481 4.885666 12.146209 6.867515 -4.568935 -0.476979 19.729084 8.281764 3.282075 4.594430 -10.767666 -54.985365 -32.488933 -50.076760 0.000113 -82.584380 0.000115 -58.936876 25.159309 39.289949 -14.757921 2.406665 -4.954275 -108.139703 40.425405 126.555515 -0.000007 29.806526 0.000007 -48.756760 -7.078653 -31.463653 -28.606960 5.119002 8.022115 77.291671 -5.660703 0.847622 -11.052201 1.609566 -11.150318 -21.145445 -3.310502 8.496348 -40.063333 -1.631920 5.859323 52.696825 -6.301400 -4.579882 -13.437030 -5.186363 0.689074 -0.000000 0.000018 0.000003
-0.001584 1.014810 0.011860 -0.218451 -22.668724 -0.571119 3.030091 0.906482 2.124471 2.929211 -5.036054 1.050328 3.598087 -9.433191 4.993913 12.157796 6.906667 -4.715051 -0.173067 19.712945 8.251079 3.161354 4.582694 -10.384270 -55.419579 -32.196418 -50.206008 -0.000014 -82.811113 -0.000021 -58.053822 24.512172 39.570185 -14.764564 2.638894 -5.278754 -108.381703 40.248635 126.147988 0.000002 29.813919 -0.000007 -48.541917 -6.024340 -30.696826 -23.180992 5.457690 6.766484 79.067987 -7.171124 0.837745 -11.083741 0.636853 -11.287499 -23.190150 -5.220624 12.013975 -43.365115 -1.214348 7.476656 53.963450 -6.014123 -4.632774 -10.639043 -7.007061 -0.120696 -0.000123 -0.000004 0.000005
-0.001584 1.000855 0.011860 -0.679436 -22.269047 -0.814284 3.052036 0.667305 2.036943 2.946284 -5.231058 1.050990 3.617300 -9.625949 4.998050 12.136115 6.958799 -4.790473 0.019052 19.734060 8.350794 3.041166 4.439711 -9.980418 -55.811007 -32.166949 -50.396521 -0.000008 -82.841797 -0.000009 -57.000926 23.680156 40.242239 -14.780160 2.648904 -5.396864 -108.743364 40.294454 125.831830 0.000001 29.529750 0.000013 -48.521512 -4.753459 -29.309656 -18.231090 5.886000 5.860061 77.836438 -7.844187 0.581316 -10.935768 -1.830184 -11.570671 -27.581730 -8.589919 16.020803 -46.412162 -1.108954 8.486676 54.028332 -5.701381 -4.496571 -7.304559 -8.346282 -0.885389 0.000008 0.000017 0.000000
-0.001584 0.993188 0.011860 -0.686040 -21.883668 -0.731749 3.088167 0.434364 1.718610 2.959142 -5.445286 0.934614 3.623382 -9.840877 4.884661 12.079799 7.052783 -4.760775 -0.125568 19.907082 8.664944 2.918981 4.276837 -9.564994 -56.293870 -32.258674 -50.593125 0.000002 -82.645928 0.000003 -56.599418 23.545342 40.372664 -14.784114 2.523919 -5.269175 -108.902760 40.345660 125.538345 -0.000006 29.557237 0.000003 -48.650507 -4.346310 -28.958558 -14.335952 6.601910 4.622971 73.332244 -8.390472 0.097069 -11.754634 -2.476726 -9.215150 -37.603679 -8.490472 13.896258 -48.701462 -0.988110 8.935656 51.657012 -5.418409 -4.343515 -2.745163 -9.295919 -1.550922 -0.000059 -0.000001 0.000003
-0.001584 0.994600 0.011860 -0.103327 -22.176824 -0.264378 3.095686 0.477380 0.983944 2.934780 -5.559946 0.714875 3.580571 -9.965216 4.666575 12.054877 7.207513 -4.598782 -0.698003 20.293440 9.402942 2.834567 4.162751 -9.277895 -56.861520 -32.369307 -50.503924 0.000033 -82.486723 0.000048 -56.323733 23.965382 40.023153 -14.771573 2.501937 -5.156608 -108.559658 39.793445 125.117793 0.000006 29.767909 -0.000015 -48.408242 -4.160514 -29.186899 -10.329045 8.283471 1.707781 66.540592 -7.482163 -0.451381 -22.969719 -1.604124 3.898298 -30.141855 -1.034540 4.077878 -50.087829 -0.696852 9.234947 47.018119 -5.348358 -4.236051 0.534484 -9.483964 -2.650801 -0.000000 -0.000006 0.000001
-0.001584 1.003382 0.011860 1.151702 -23.162079 0.384260 3.020257 0.645940 0.087935 2.847053 -5.507017 0.455583 3.467400 -9.929540 4.406156 12.062466 7.388033 -4.316143 -1.534267 20.838712 10.417672 2.795266 4.050326 -9.134617 -57.328610 -32.463569 -49.784284 -0.000080 -82.669150 -0.000070 -56.320723 24.766001 39.916609 -14.773729 2.593467 -5.284658 -108.105311 38.611757 124.717962 -0.000009 29.898123 0.000007 -48.063896 -3.967853 -29.358672 -10.322088 8.830079 0.680294 60.082310 -3.352251 -1.175344 -30.990360 -1.589512 4.778104 -19.629292 -0.017055 0.191075 -51.214888 -0.850289 9.892736 41.762783 -5.476223 -3.945348 -1.060533 -8.485309 -6.189215 0.000010 -0.000002 0.000004
-0.001584 1.015361 0.011860 2.874253 -24.456510 1.046276 2.886695 0.831538 -0.749802 2.738461 -5.341732 0.188370 3.331940 -9.784069 4.133812 12.027512 7.550490 -3.930724 -2.452187 21.395231 11.481898 2.758345 3.894188 -8.989781 -57.632725 -32.663563 -48.470586 -0.000093 -83.096183 -0.000088 -57.233279 26.081042 40.253721 -14.819128 2.526351 -5.514720 -108.066484 37.397580 124.587941 -0.000008 30.039196 -0.000007 -48.377768 -4.250032 -29.784004 -13.381461 9.543580 0.948035 56.379855 -1.117157 -1.719803 -34.527935 -1.388095 4.111039 -10.357663 0.010614 -0.777000 -51.426852 -1.380162 11.165122 36.234745 -5.166379 -3.841556 -10.254928 -7.955708 -9.259504 0.000009 -0.000006 -0.000004
-0.001584 1.026865 0.011860 4.525075 -24.449185 3.277504 2.683237 -0.301182 -3.264745 2.574537 -5.131516 -0.236460 3.124873 -9.601491 3.703198 12.005462 7.709981 -3.439799 -3.436924 21.808826 12.830477 2.706493 3.719744 -8.792429 -58.144169 -33.256518 -46.886604 0.000009 -83.237921 0.000008 -58.185438 27.703113 40.250549 -14.861174 2.354712 -5.590269 -108.115619 36.215905 124.436998 0.000007 30.258795 0.000009 -49.117309 -4.350235 -30.559091 -16.911239 11.091069 0.531963 53.370791 -2.266209 -1.978714 -34.630501 -1.885728 5.576993 -6.643714 -0.000005 -0.000001 -53.289985 -1.156423 10.204864 34.945830 -4.008125 -4.088857 -18.594055 -13.147287 -6.891168 0.000004 0.000005 0.000002
-0.001584 1.039925 0.011860 6.049611 -25.398921 4.202184 2.586478 -0.282628 -4.001538 2.476894 -4.810201 -0.455400 3.009316 -9.283986 3.475816 12.008466 7.708414 -3.322656 -4.429067 21.863325 13.434102 2.687998 3.579390 -8.708638 -58.753402 -33.885880 -46.006326 0.000077 -82.963441 0.000079 -58.746551 28.056199 39.907271 -14.838321 2.443833 -5.547782 -108.175056 35.780251 123.980782 0.000003 30.615783 -0.000022 -49.185997 -4.386343 -31.235006 -21.366488 11.722149 1.436220 51.664123 -3.014682 -2.175639 -32.096695 -1.681912 5.417870 -4.499094 -0.000007 -0.000001 -53.806377 -0.994368 9.789885 34.015001 -3.693088 -4.211529 -17.571701 -20.567827 -2.097762 -0.000011 -0.000004 0.000000
-0.001584 1.056824 0.011860 7.307145 -27.635555 3.734480 2.731989 1.008180 -3.001021 2.564718 -4.364604 -0.389745 3.104382 -8.824842 3.531464 12.024607 7.577437 -3.596636 -5.230388 21.831609 12.980351 2.755319 3.573774 -8.928805 -59.074389 -33.970756 -45.898366 0.000029 -82.843767 0.000034 -60.021064 27.987279 39.762832 -14.761335 2.900046 -5.595755 -108.173983 36.009179 123.467816 -0.000000 31.214482 0.000008 -48.823545 -5.731978 -32.317807 -25.521297 11.328114 3.200685 50.017088 -1.241289 -2.169407 -28.686926 -1.346606 4.826124 -2.790888 0.000005 -0.000001 -51.490094 -1.332361 9.958136 33.044385 -3.928855 -2.892525 -11.102461 -22.919435 0.000381 0.000015 -0.000001 0.000001
-0.001584 1.074337 0.011860 8.077601 -30.071164 2.800378 2.935431 2.355689 -1.597072 2.736075 -3.909739 -0.145015 3.294304 -8.351507 3.767862 12.089851 7.428615 -4.016809 -5.380242 21.975055 11.971293 2.834625 3.908545 -9.253936 -58.962340 -33.365212 -46.571975 0.000080 -83.114063 0.000076 -61.106813 28.132322 39.763675 -14.665067 3.463640 -5.650412 -108.247881 36.657527 123.391656 -0.000018 31.655407 0.000020 -48.709502 -7.417499 -33.342536 -28.489994 10.585594 5.251603 47.726126 1.053233 -1.946430 -24.837259 -0.908773 3.740959 -1.616927 0.001418 -0.359142 -47.947818 -1.800929 9.764627 34.605187 -4.508152 -1.016517 -6.272074 -20.686763 0.080011 -0.000006 -0.000014 -0.000000
-0.001584 1.087949 0.011860 8.418151 -31.145958 2.897997 3.040206 2.491661 -1.542703 2.829773 -3.653289 0.013227 3.396649 -8.089934 3.922445 12.137690 7.373837 -4.199747 -4.999205 22.284784 11.235039 2.902703 4.494648 -9.583375 -58.730518 -32.732000 -47.452252 0.000006 -83.536130 -0.000001 -60.793627 28.696056 39.680134 -14.605913 3.717134 -5.557740 -108.387347 37.151334 123.877972 0.000013 31.649450 -0.000008 -49.057180 -7.816488 -33.572373 -30.364059 10.330777 6.396781 44.713126 1.530441 -1.607782 -20.261037 -0.356823 1.966839 -0.829979 0.011775 -1.034699 -45.613069 -1.750235 7.846885 41.206535 -5.568733 -0.309856 -5.282872 -16.480454 0.392491 -0.000000 0.000008 0.000004
-0.001584 1.094253 0.011860 8.543632 -31.456095 2.718705 2.962387 2.486731 -1.170546 2.826594 -3.633451 0.200039 3.405562 -8.069517 4.110091 12.156395 7.333440 -4.286631 -4.432333 22.405498 10.521842 3.106543 4.879079 -10.287621 -58.322904 -32.574152 -47.935554 -0.000007 -83.875247 -0.000000 -60.318837 29.094856 39.823874 -14.638322 3.567340 -5.598801 -108.606004 37.668840 124.645072 0.000011 31.467183 -0.000005 -49.665081 -7.778962 -33.344959 -32.652661 9.605677 7.765468 43.241423 1.305927 -1.130818 -17.286915 0.177992 -0.482818 -0.000007 0.000007 -0.000001 -43.644108 -1.386569 5.799743 49.355500 -6.700153 -1.037821 -5.150260 -11.412076 0.876291 0.000004 0.000002 -0.000001
-0.001584 1.092606 0.011860 8.310586 -31.249004 2.624301 2.832559 2.335088 -0.918336 2.801760 -3.717892 0.362284 3.390602 -8.160879 4.275149 12.139067 7.320957 -4.412660 -4.037022 22.370756 9.947184 3.423401 5.003880 -11.287581 -57.827375 -32.712422 -47.824729 -0.000022 -84.111054 -0.000017 -60.395675 29.266834 40.051105 -14.725545 3.442524 -6.088014 -108.672428 37.855854 125.233728 -0.000011 31.253803 0.000014 -50.115953 -7.891270 -33.209843 -35.210572 8.853035 8.862846 42.983281 0.720269 -0.656466 -14.844812 0.502114 -2.391886 0.000003 0.000002 0.000002 -41.179460 -0.286759 3.331414 56.996181 -7.792043 -2.828468 -5.497391 -6.208096 1.580646 -5.255470 -0.454478 4.928662
-0.001584 1.083728 0.011860 7.650258 -31.328814 2.344424 2.727008 2.391276 -0.498243 2.793494 -3.722376 0.489185 3.391184 -8.171562 4.403100 12.119248 7.315484 -4.608468 -3.678539 22.345832 9.474714 3.690542 5.119741 -12.125147 -57.371551 -32.735232 -47.645543 0.000016 -84.344711 0.000032 -60.412649 29.157109 40.302652 -14.787765 3.586875 -6.775740 -108.514041 37.686428 125.489407 0.000008 30.966277 -0.000011 -50.132858 -7.841874 -32.869439 -38.099554 8.343779 10.288065 44.114132 -0.030527 -0.412098 -12.811513 0.628201 -3.467667 0.000001 -0.000001 -0.000001 -37.563790 1.510752 0.931069 62.653381 -8.860086 -5.528988 -6.342647 -2.714760 2.576771 -7.500888 -1.415561 10.627134
-0.001584 1.069594 0.011860 6.637229 -31.812724 1.862497 2.633902 2.657217 0.057035 2.771427 -3.596481 0.551823 3.375481 -8.046444 4.464348 12.166793 7.270754 -4.700855 -3.104415 22.354033 8.975138 3.842352 5.259941 -12.605271 -56.995675 -32.725240 -47.677923 0.000126 -84.498184 0.000119 -60.120921 28.846550 40.608114 -14.791147 3.770115 -7.086498 -108.182975 37.528283 125.556927 -0.000001 30.706948 0.000000 -49.788984 -7.637521 -32.223546 -41.183134 7.858438 12.099614 46.201798 -0.851205 -0.252669 -10.770874 0.725337 -4.586697 0.000003 0.000002 -0.000001 -32.634812 3.433380 -1.524433 65.297907 -9.726577 -8.862769 -6.804166 -2.511920 2.699742 -8.483088 -2.111302 13.878383
-0.001584 1.050989 0.011860 5.438080 -32.508545 1.085346 2.485942 2.982520 0.862483 2.691228 -3.408667 0.591000 3.301681 -7.850440 4.500625 12.285613 7.179078 -4.676360 -2.307816 22.366705 8.408666 3.816920 5.466862 -12.548070 -56.590155 -32.620255 -48.057100 0.000049 -84.462710 0.000062 -59.801653 27.993519 40.663570 -14.744503 3.937988 -6.989888 -107.871373 37.674654 125.512013 -0.000015 30.610804 0.000016 -49.086559 -7.465676 -31.732208 -44.313949 6.887480 14.102181 48.784501 -1.442209 0.045834 -8.843794 0.847171 -6.158220 -0.163034 -0.000419 0.150007 -27.021891 5.219158 -5.641673 65.486010 -9.654120 -9.913996 -7.620313 -3.244925 1.373436 -9.111997 -2.356676 14.382482
-0.001584 1.028795 0.011860 4.245865 -33.390428 0.747259 2.308823 3.318906 1.138074 2.563645 -3.207978 0.590169 3.175627 -7.641140 4.496441 12.363258 7.098777 -4.609216 -1.532754 22.469289 7.931787 3.601369 5.816776 -11.934428 -56.252672 -32.224305 -48.662164 -0.000140 -84.371983 -0.000139 -59.576919 26.993137 40.329145 -14.659080 4.392200 -7.027983 -107.556593 37.909543 125.106934 -0.000001 30.805527 0.000009 -48.499872 -7.279199 -31.817417 -47.093600 5.928450 15.685211 51.028948 -1.616271 0.429770 -7.295550 0.916643 -7.573128 -0.324867 -0.001695 0.298893 -21.770324 6.094145 -11.228974 64.262089 -8.750632 -9.906943 -9.615374 -0.535785 2.181462 -9.505897 -2.545020 14.854199
-0.001584 1.006833 0.011860 3.208871 -34.323963 0.705447 2.155484 3.720523 1.104697 2.444612 -3.024622 0.619193 3.059427 -7.450309 4.522666 12.345275 7.041056 -4.569662 -0.897327 22.641131 7.493724 3.287412 6.236707 -11.049377 -56.056965 -31.593237 -49.406186 -0.000071 -84.462263 -0.000066 -59.430049 26.474585 40.285919 -14.554214 5.038062 -7.226263 -107.284247 38.205828 124.430109 -0.000002 31.196039 0.000015 -48.509195 -7.219044 -31.994328 -49.497152 5.174916 17.262284 52.213360 -1.861571 0.793845 -5.547484 0.926672 -8.936574 0.000003 0.000000 0.000003 -17.626566 5.202397 -16.407924 62.572019 -1.367413 -9.913393 -11.350687 0.036681 4.246822 -11.367930 -3.910719 18.754892
-0.001584 0.990105 0.011860 2.334368 -35.021762 0.642418 2.083020 4.209694 1.018972 2.368348 -2.873123 0.691398 2.988762 -7.292317 4.592860 12.326035 6.980661 -4.571979 -0.476463 22.670640 7.204142 3.025621 6.541092 -10.320010 -56.100252 -31.075757 -50.191872 0.000000 -84.535976 0.000010 -59.038672 26.357863 40.289359 -14.466691 5.401970 -7.099960 -107.167391 38.568263 123.991878 0.000001 31.520762 -0.000001 -48.644102 -7.161026 -32.021977 -51.151680 4.433330 18.693334 51.428491 -1.970364 1.277061 -3.021504 0.812022 -9.377335 0.000007 0.000003 -0.000001 -14.861558 3.157713 -19.826643 60.401312 5.449792 -9.985393 -15.059481 -0.505242 6.841423 -15.031677 -3.265996 17.366874
-0.001584 0.984047 0.011860 1.743725 -35.218766 0.089086 2.049415 4.624447 1.512844 2.336913 -2.692882 0.827209 2.966569 -7.099127 4.725446 12.424617 6.877945 -4.705678 -0.264495 22.470014 7.027020 2.920087 6.711711 -10.038284 -56.291735 -30.830796 -51.018579 -0.000006 -84.317653 0.000007 -58.322785 26.167270 39.694235 -14.386444 5.483629 -6.530483 -106.881581 38.867174 123.866406 -0.000006 31.752412 0.000000 -48.059759 -7.144902 -32.166731 -51.125882 3.140636 20.147689 46.721849 -1.781242 2.116148 1.880764 0.480439 -11.918658 0.000000 0.000007 -0.000001 -13.147669 0.620139 -19.924867 57.396239 6.570136 -10.130335 -23.886927 -1.549045 9.280964 -15.430358 -0.568366 7.061376
-0.001584 0.990209 0.011860 1.750777 -34.948060 -0.294987 2.033582 4.892752 2.087367 2.345989 -2.498070 0.932570 2.981151 -6.891497 4.826938 12.580691 6.781657 -4.942872 -0.263350 22.215066 6.963787 2.989060 6.912542 -10.272594 -56.433544 -30.892740 -51.619074 -0.000051 -83.962588 -0.000035 -57.572992 26.037256 38.714626 -14.309661 5.539593 -5.933800 -106.288880 38.946158 123.878378 -0.000009 31.951439 0.000003 -47.103351 -7.158081 -32.507284 -48.956816 1.777987 20.986621 37.760987 -0.678519 3.443963 5.402816 0.008056 -15.077710 0.000004 0.000007 -0.000000 -12.917351 -1.347456 -16.781258 53.863062 4.921208 -10.138209 -31.834858 -2.075407 8.930659 -11.632685 -0.000477 0.203444
-0.001584 1.004787 0.011860 2.491239 -34.110325 0.091825 2.004189 4.842412 2.201540 2.363848 -2.434672 0.948481 2.999839 -6.827532 4.842629 12.608145 6.774835 -5.224663 -0.331746 22.027085 7.100124 3.238498 7.254573 -11.045597 -56.281899 -31.271290 -51.755735 -0.000039 -83.793559 -0.000028 -57.113761 26.147293 38.154778 -14.298474 5.549870 -5.854951 -105.875061 38.937615 124.184530 0.000001 31.925593 -0.000011 -46.828375 -7.034033 -32.648946 -44.733974 0.742450 21.032053 25.123238 1.530400 5.121182 4.302261 0.381773 -18.089219 0.000010 0.000012 -0.000007 -14.658836 -1.906606 -12.443296 51.645593 3.050653 -10.051194 -35.355132 -2.189312 7.784235 -8.546958 -0.000005 -0.000001
-0.001584 1.022620 0.011860 3.560308 -33.120726 0.066879 1.869118 4.999661 2.998444 2.344458 -2.654670 0.995648 2.987404 -7.046520 4.893086 12.479974 6.826448 -5.508616 -0.295735 21.855418 7.245409 3.529002 7.498078 -11.911447 -55.687053 -31.706758 -51.871248 0.000131 -83.740273 0.000133 -57.080409 26.103652 38.572018 -14.366176 5.334097 -6.116574 -106.034070 39.469843 124.809932 -0.000003 31.507539 -0.000001 -47.564503 -6.988987 -32.118227 -42.172890 -1.172018 20.051747 16.693198 6.209009 7.648935 -3.197161 1.130090 -13.136288 0.000008 0.000006 -0.000002 -17.149171 -2.343960 -7.806700 49.365383 2.046331 -9.897810 -34.822444 -2.322587 7.252234 -3.014574 -0.000005 -0.000008
-0.001584 1.038417 0.011860 4.179747 -31.453481 -0.447310 1.892426 4.940645 4.046299 2.389012 -3.144500 1.057746 3.043693 -7.527577 4.960092 12.273833 6.875796 -5.522897 -0.566393 21.629585 7.469997 3.605359 7.214311 -12.098310 -55.152399 -31.957954 -52.365531 0.000044 -83.445130 0.000051 -57.211243 25.703334 39.442516 -14.472077 4.669508 -5.967107 -106.649512 40.600371 125.466298 0.000013 30.956443 -0.000019 -48.558523 -7.189387 -31.190831 -41.290959 -2.674716 19.198997 14.210892 9.541072 8.579911 -7.629889 1.078708 -9.281871 0.000004 0.000005 -0.000005 -19.743866 -3.065484 -4.209893 47.754865 1.489120 -9.202752 -31.687340 -2.551747 7.669458 -0.583380 -0.000009 0.000000
-0.001584 1.054902 0.011860 4.067638 -28.031263 0.782399 2.431630 3.337360 2.567667 2.635967 -3.682085 0.860586 3.281562 -8.072981 4.770073 12.001549 6.959964 -4.993646 -1.462027 21.357606 8.347930 3.464845 6.342350 -11.587162 -55.195066 -32.114677 -52.646469 0.000053 -82.811902 0.000065 -56.898703 25.500741 39.381829 -14.576537 3.589815 -5.207460 -106.874661 41.024120 125.907867 0.000001 30.541926 0.000005 -48.630431 -7.077921 -30.750070 -40.387509 -1.250809 16.756779 16.032356 7.041917 6.927190 -4.545624 0.961157 -10.745321 0.000004 -0.000004 -0.000004 -22.250332 -3.025673 -3.502747 47.197892 -1.408313 -7.477908 -28.462268 -2.064552 6.847982 -0.366371 -0.000003 0.000005
-0.001584 1.066570 0.011860 3.649202 -25.643915 1.132973 2.786097 2.485028 2.065363 2.799523 -4.043784 0.750015 3.440618 -8.435981 4.666296 12.004802 6.938267 -4.646584 -1.672674 20.874972 8.748157 3.393840 5.492676 -11.267447 -55.040260 -32.361905 -52.627769 0.000038 -82.084641 0.000051 -57.005889 25.425574 38.874160 -14.625330 2.713283 -4.396555 -106.726204 41.381610 126.230914 -0.000003 30.303915 0.000004 -48.471833 -7.345534 -30.976027 -41.876906 0.055213 15.360803 28.648318 3.015514 4.276444 -4.884387 1.026519 -11.393231 0.000004 0.000001 0.000001 -24.688938 -3.198481 -2.414899 46.961487 -3.707361 -6.195791 -25.235764 -1.360783 5.077287 -1.117072 -0.000006 0.000001
-0.001584 1.067791 0.011860 2.991226 -24.286692 0.948705 2.755858 2.075944 2.263409 2.725024 -4.291653 0.708034 3.364423 -8.690779 4.631850 12.193468 6.881139 -4.560968 -1.031205 20.353991 8.509633 3.524867 5.076704 -11.605956 -54.320314 -33.010432 -51.430653 0.000023 -81.703387 0.000021 -58.208621 25.864853 38.701283 -14.663529 2.341850 -4.216864 -106.957066 41.434466 126.852394 -0.000002 29.624502 -0.000008 -49.188565 -7.715775 -31.496483 -41.068134 2.433723 13.575598 51.171119 1.252713 1.635731 -8.053728 1.253662 -10.872462 -2.926380 -0.122817 1.197408 -29.395904 -3.033181 -0.044177 47.408871 -5.290127 -4.995974 -20.221539 -1.037672 4.453215 -1.025877 0.000002 -0.000006
-0.001584 1.063551 0.011860 2.521218 -23.851778 0.922767 2.731962 1.875355 2.184926 2.698331 -4.373338 0.692056 3.335269 -8.780638 4.618780 12.178057 6.849656 -4.480871 -0.777452 20.111386 8.328202 3.563935 4.887952 -11.699438 -54.033271 -33.190235 -50.609832 0.000017 -81.768793 0.000015 -58.731177 26.038877 38.788722 -14.706981 2.202186 -4.370745 -107.392504 41.230726 127.233191 0.000008 29.173014 -0.000007 -49.637443 -7.552907 -31.562781 -39.087467 4.127785 12.185404 63.264257 0.473249 0.727765 -9.883256 1.454456 -11.151231 -5.849567 -0.306564 2.386997 -32.372290 -2.800505 1.379601 48.040402 -6.193471 -4.406351 -17.861088 -0.919698 4.062238 -0.387702 0.000002 -0.000018
-0.001584 1.060228 0.011860 2.281323 -23.740061 0.845170 2.763115 1.819911 2.171997 2.722506 -4.399252 0.711482 3.360627 -8.808125 4.639114 12.118091 6.829923 -4.433339 -0.737336 20.027395 8.229672 3.544258 4.756008 -11.623021 -54.038820 -33.116439 -50.381543 0.000008 -81.882348 0.000002 -58.768385 25.992600 38.870300 -14.733696 2.115968 -4.463102 -107.662467 41.165954 127.346516 0.000013 29.080704 -0.000011 -49.752442 -7.371302 -31.498755 -37.959788 4.692274 11.712356 66.753399 -0.421743 0.565827 -10.445809 1.566815 -11.584937 -8.768404 -0.550701 3.565703 -33.503651 -2.731667 1.906287 48.656560 -6.603067 -4.195588 -17.426274 -0.852175 3.676734 -0.000019 -0.000003 -0.000029
