HIERARCHY
ROOT Hips
{
  OFFSET 0 1.1673769999999999 0
  CHANNELS 6 Xposition Yposition Zposition Xrotation Yrotation Zrotation
  JOINT Spine
  {
    OFFSET 0.000003812944337411511 0.10717500000681812 -0.009311
    CHANNELS 3 Xrotation Yrotation Zrotation
    JOINT Spine1
    {
      OFFSET 0 0.1058532983696241 -0.004285186608692496
      CHANNELS 3 Xrotation Yrotation Zrotation
      JOINT Spine2
      {
        OFFSET -8.470329472543003e-22 0.10599345671141647 -0.007812688101110094
        CHANNELS 3 Xrotation Yrotation Zrotation
        JOINT Neck
        {
          OFFSET -8.470329472543003e-22 0.26240299999999994 -0.04488100000000002
          CHANNELS 3 Xrotation Yrotation Zrotation
          JOINT Head
          {
            OFFSET -4.235164736271502e-22 0.17466899999999996 0.05625600000000003
            CHANNELS 3 Xrotation Yrotation Zrotation
            End Site
            {
              OFFSET -4.235164736271502e-22 0.10756799999999966 0.021070000000000005
            }
          }
        }
        JOINT LeftShoulder
        {
          OFFSET 0.10574399999999999 0.23009199999999996 -0.07323000000000002
          CHANNELS 3 Xrotation Yrotation Zrotation
          JOINT LeftArm
          {
            OFFSET 0.14878212914559852 -0.04653266654569688 -0.030693304075147546
            CHANNELS 3 Xrotation Yrotation Zrotation
            JOINT LeftForeArm
            {
              OFFSET 0.24109000000000003 2.220446049250313e-16 -5.551115123125783e-17
              CHANNELS 3 Xrotation Yrotation Zrotation
              JOINT LeftHand
              {
                OFFSET 0.316792 0 -1.1102230246251565e-16
                CHANNELS 3 Xrotation Yrotation Zrotation
                End Site
                {
                  OFFSET 0.1995166749313234 -0.0432441138377333 0.06217329198086369
                }
              }
            }
          }
        }
        JOINT RightShoulder
        {
          OFFSET -0.10574399999999999 0.23009099999999982 -0.07323000000000002
          CHANNELS 3 Xrotation Yrotation Zrotation
          JOINT RightArm
          {
            OFFSET -0.14878040829228295 -0.04653159475972379 -0.030692917709113934
            CHANNELS 3 Xrotation Yrotation Zrotation
            JOINT RightForeArm
            {
              OFFSET -0.24109000000000003 -6.661338147750939e-16 -2.7755575615628914e-17
              CHANNELS 3 Xrotation Yrotation Zrotation
              JOINT RightHand
              {
                OFFSET -0.31679300000631333 -8.881784197001252e-16 -5.551115123125783e-17
                CHANNELS 3 Xrotation Yrotation Zrotation
                End Site
                {
                  OFFSET -0.06265795211397429 -0.10570764472283312 0.03859362014678265
                }
              }
            }
          }
        }
      }
    }
  }
  JOINT LeftUpLeg
  {
    OFFSET 0.12297511767165623 -0.06742078536803264 -0.010003
    CHANNELS 3 Xrotation Yrotation Zrotation
    JOINT LeftLeg
    {
      OFFSET 0 -0.457033849483632 0.010304509991859542
      CHANNELS 3 Xrotation Yrotation Zrotation
      JOINT LeftFoot
      {
        OFFSET 0 -0.500280623664138 -0.036905110570505176
        CHANNELS 3 Xrotation Yrotation Zrotation
        JOINT LeftToeBase
        {
          OFFSET 0.025950805788189563 -0.14255151365608373 0.19507593811975638
          CHANNELS 3 Xrotation Yrotation Zrotation
          End Site
          {
            OFFSET 0.010732117804750613 -0.000035441498015504746 0.11362327680684622
          }
        }
      }
    }
  }
  JOINT RightUpLeg
  {
    OFFSET -0.12297488233495055 -0.0674172146317622 -0.010003
    CHANNELS 3 Xrotation Yrotation Zrotation
    JOINT RightLeg
    {
      OFFSET 0.00000159348816348992 -0.45703784846455486 0.01030460015485039
      CHANNELS 3 Xrotation Yrotation Zrotation
      JOINT RightFoot
      {
        OFFSET -0.0000015934881634621645 -0.5002806236608007 -0.03690511058134042
        CHANNELS 3 Xrotation Yrotation Zrotation
        JOINT RightToeBase
        {
          OFFSET -0.0259497668227143 -0.14255297441554501 0.19507500887383716
          CHANNELS 3 Xrotation Yrotation Zrotation
          End Site
          {
            OFFSET -0.010733201844058626 -0.000035030229497263656 0.11362417898958707
          }
        }
      }
    }
  }
}
MOTION
Frames: 32
Frame Time: 0.03333333333333333
-0.00158362 1.06022781 0.01186042 2.28132268 -23.74006085 0.84517013 2.76311472 1.81991066 2.17199743 2.72250648 -4.39925196 0.71148232 3.36062749 -8.80812469 4.63911414 12.11809125 6.82992262 -4.43333949 -0.73733625 20.02739502 8.22967212 3.54425777 4.75600848 -11.62302143 -54.03882036 -33.11643898 -50.38154342 0.00000781 -81.88234815 0.00000241 -58.76838457 25.99260029 38.87030042 -14.73369556 2.11596765 -4.46310225 -107.66246729 41.16595441 127.3465162 0.00001305 29.08070361 -0.00001085 -49.75244193 -7.37130233 -31.49875483 -37.95978846 4.6922745 11.71235612 66.75339889 -0.42174269 0.56582674 -10.44580878 1.56681515 -11.58493683 -8.7684041 -0.55070058 3.5657029 -33.50365139 -2.7316672 1.90628688 48.65656019 -6.60306694 -4.19558763 -17.42627382 -0.85217518 3.67673369 -0.00001858 -0.00000281 -0.00002853
0.00008372 1.04672653 0.02007476 1.38755736 -23.21293955 0.3460493 2.90094316 1.4235963 2.1915977 2.81233124 -4.65549629 0.79803083 3.45937434 -9.06053652 4.73209703 12.14044595 6.84440959 -4.43392613 -0.71751304 19.83067465 8.34493576 3.41576184 4.59499598 -11.19193098 -54.46085816 -32.88546437 -50.09711942 -0.00002351 -82.28932287 -0.00001915 -58.90037943 25.4023371 39.41147036 -14.75598744 2.153997 -4.64828597 -107.97008596 40.74923266 127.00850628 0.00000906 29.32832933 -0.00001488 -49.13949127 -7.1580356 -31.1037647 -33.69297506 4.95057371 9.76957176 73.07178666 -3.73477381 0.70797279 -11.2067934 1.64234628 -11.42032495 -16.58819349 -1.85104919 6.18908153 -36.68369216 -2.17933911 4.01502956 50.78941415 -6.56489918 -4.45589276 -16.01960684 -3.04898655 1.68961494 0.00000458 0.00000624 0.0000021
0.00280233 1.03081551 0.02836477 0.51772649 -22.88046385 -0.15556883 2.99379782 1.11393024 2.18123387 2.89114017 -4.86859922 0.9461873 3.55120125 -9.2684813 4.88566624 12.1462092 6.86751542 -4.56893484 -0.47697891 19.72908426 8.28176352 3.28207524 4.59442975 -10.76766569 -54.98536466 -32.48893291 -50.07675979 0.00011291 -82.58437971 0.00011541 -58.93687642 25.1593086 39.28994855 -14.75792053 2.40666508 -4.95427543 -108.13970348 40.42540539 126.55551529 -0.00000684 29.8065262 0.00000689 -48.75675954 -7.07865317 -31.46365256 -28.60695993 5.11900224 8.02211498 77.29167082 -5.66070306 0.84762201 -11.05220127 1.60956592 -11.15031841 -21.14544454 -3.31050213 8.49634793 -40.06333316 -1.63191996 5.85932307 52.69682508 -6.30139999 -4.57988211 -13.43703025 -5.18636307 0.68907366 -1e-7 0.00001772 0.00000304
0.00666145 1.01481041 0.03637163 -0.21845067 -22.66872428 -0.57111907 3.0300907 0.9064825 2.12447093 2.92921054 -5.03605365 1.05032753 3.59808726 -9.43319107 4.99391268 12.15779601 6.90666705 -4.71505086 -0.17306734 19.71294543 8.25107857 3.16135381 4.58269407 -10.38427039 -55.41957892 -32.19641814 -50.2060078 -0.0000137 -82.81111314 -0.00002126 -58.05382189 24.51217174 39.57018487 -14.76456372 2.63889382 -5.27875392 -108.38170322 40.24863502 126.14798808 0.00000167 29.81391915 -0.00000722 -48.5419172 -6.02433992 -30.69682564 -23.18099232 5.45769004 6.76648438 79.06798691 -7.17112371 0.83774529 -11.08374109 0.63685316 -11.28749859 -23.19014969 -5.22062417 12.01397481 -43.36511491 -1.21434827 7.47665632 53.96345049 -6.01412335 -4.63277421 -10.63904339 -7.00706094 -0.12069616 -0.00012266 -0.00000385 0.00000456
0.01214954 1.00085518 0.04304949 -0.67943616 -22.2690466 -0.81428413 3.05203642 0.66730475 2.03694283 2.94628443 -5.23105807 1.05099046 3.61730017 -9.6259491 4.99805002 12.13611516 6.95879937 -4.7904732 0.01905239 19.73406035 8.3507945 3.04116598 4.43971085 -9.98041787 -55.81100712 -32.16694905 -50.39652118 -0.00000766 -82.84179674 -0.00000859 -57.00092611 23.68015626 40.24223916 -14.78016002 2.64890412 -5.396864 -108.74336404 40.29445445 125.83183015 7.9e-7 29.52974996 0.00001307 -48.52151151 -4.7534591 -29.30965583 -18.23108962 5.88599971 5.86006099 77.83643771 -7.84418674 0.58131626 -10.93576813 -1.83018445 -11.5706706 -27.5817297 -8.58991948 16.02080318 -46.41216191 -1.10895387 8.48667631 54.02833176 -5.70138093 -4.49657058 -7.30455879 -8.34628159 -0.88538901 0.00000825 0.00001688 3.9e-7
0.01926126 0.99318787 0.04670047 -0.6860398 -21.88366831 -0.73174913 3.088167 0.43436405 1.71860988 2.95914207 -5.44528586 0.93461357 3.62338174 -9.84087728 4.88466112 12.07979859 7.05278303 -4.76077531 -0.12556774 19.90708226 8.66494418 2.91898084 4.27683747 -9.56499401 -56.29387005 -32.25867429 -50.59312549 0.00000196 -82.64592824 0.00000273 -56.59941765 23.54534238 40.37266418 -14.78411441 2.52391881 -5.26917545 -108.90275954 40.34566013 125.53834455 -0.00000586 29.55723672 0.00000296 -48.650507 -4.34630985 -28.95855824 -14.33595232 6.60191023 4.62297144 73.33224439 -8.3904723 0.09706933 -11.75463428 -2.4767256 -9.21515018 -37.60367904 -8.49047234 13.89625801 -48.70146204 -0.98811018 8.93565574 51.65701182 -5.41840935 -4.34351508 -2.74516279 -9.29591936 -1.55092225 -0.00005906 -0.00000147 0.00000285
0.02789742 0.99459976 0.046112 -0.10332676 -22.17682415 -0.26437789 3.0956855 0.47738026 0.98394361 2.93477969 -5.55994571 0.71487491 3.58057088 -9.96521551 4.66657519 12.05487659 7.20751339 -4.59878228 -0.69800282 20.29344017 9.402942 2.8345673 4.16275063 -9.27789547 -56.86151977 -32.36930669 -50.5039238 0.00003304 -82.48672348 0.00004818 -56.32373252 23.96538223 40.02315286 -14.77157339 2.50193689 -5.15660818 -108.55965825 39.79344483 125.1177926 0.00000588 29.76790907 -0.00001502 -48.40824217 -4.16051406 -29.18689938 -10.32904526 8.28347095 1.70778109 66.54059229 -7.48216343 -0.4513809 -22.96971925 -1.60412398 3.89829843 -30.14185508 -1.03453966 4.0778776 -50.08782855 -0.69685233 9.23494701 47.01811869 -5.34835798 -4.23605093 0.53448429 -9.48396426 -2.65080117 -4.8e-7 -0.00000579 7.2e-7
0.03853556 1.00338211 0.04131575 1.15170197 -23.16207923 0.38426019 3.0202573 0.64593982 0.08793516 2.8470531 -5.50701738 0.45558317 3.46740038 -9.92954039 4.40615648 12.06246616 7.3880334 -4.31614269 -1.53426697 20.83871176 10.41767205 2.7952663 4.05032561 -9.13461695 -57.3286096 -32.46356949 -49.78428441 -0.00008016 -82.66914993 -0.00006954 -56.32072349 24.76600148 39.91660887 -14.77372879 2.59346699 -5.28465777 -108.1053106 38.61175704 124.71796178 -0.00000855 29.89812334 0.00000686 -48.06389598 -3.96785313 -29.35867194 -10.32208763 8.83007943 0.68029426 60.08231043 -3.35225124 -1.17534389 -30.99035987 -1.58951189 4.77810366 -19.62929196 -0.01705465 0.19107537 -51.21488756 -0.85028937 9.89273572 41.76278258 -5.4762228 -3.94534776 -1.06053291 -8.48530915 -6.18921501 0.0000103 -0.00000231 0.00000355
0.04988241 1.01536094 0.03385191 2.87425334 -24.45651008 1.04627593 2.88669517 0.83153791 -0.74980197 2.73846052 -5.34173205 0.18837001 3.33193995 -9.78406935 4.13381247 12.02751221 7.55048968 -3.93072406 -2.4521866 21.39523068 11.48189838 2.75834539 3.89418846 -8.9897808 -57.63272483 -32.66356253 -48.47058556 -0.0000931 -83.09618339 -0.00008825 -57.23327879 26.08104213 40.25372116 -14.81912778 2.52635083 -5.51471985 -108.06648391 37.39758 124.58794094 -0.00000775 30.03919571 -0.00000703 -48.37776836 -4.25003164 -29.78400415 -13.38146123 9.54357986 0.94803469 56.3798555 -1.11715683 -1.71980256 -34.52793502 -1.38809493 4.11103945 -10.35766281 0.01061364 -0.77699999 -51.42685236 -1.38016237 11.16512214 36.2347449 -5.16637919 -3.84155609 -10.25492825 -7.955708 -9.25950421 0.00000883 -0.00000599 -0.00000441
0.05884551 1.02686538 0.02777385 4.52507495 -24.44918474 3.2775038 2.68323688 -0.3011823 -3.26474512 2.57453658 -5.13151637 -0.23646026 3.12487254 -9.60149123 3.70319844 12.0054624 7.70998104 -3.43979919 -3.4369241 21.80882595 12.83047689 2.7064933 3.71974404 -8.79242902 -58.14416919 -33.25651821 -46.88660415 0.00000935 -83.23792109 0.00000845 -58.18543779 27.70311343 40.25054941 -14.86117384 2.35471159 -5.59026943 -108.11561926 36.21590453 124.43699814 0.00000739 30.25879515 0.00000865 -49.11730865 -4.35023542 -30.55909112 -16.91123901 11.091069 0.53196306 53.37079093 -2.26620931 -1.97871392 -34.63050089 -1.88572823 5.57699286 -6.64371442 -0.00000491 -0.00000144 -53.28998517 -1.15642256 10.20486371 34.94583026 -4.00812461 -4.08885664 -18.59405462 -13.1472872 -6.89116828 0.00000381 0.00000462 0.00000211
0.06908114 1.03992485 0.02511926 6.04961134 -25.39892067 4.20218426 2.58647812 -0.28262831 -4.00153778 2.47689418 -4.81020113 -0.45539963 3.00931556 -9.28398586 3.47581566 12.00846576 7.70841371 -3.3226562 -4.42906682 21.86332523 13.43410163 2.68799754 3.57939035 -8.70863767 -58.75340227 -33.88588014 -46.00632584 0.00007749 -82.96344105 0.00007945 -58.74655083 28.05619902 39.90727123 -14.83832065 2.44383263 -5.54778232 -108.17505584 35.78025068 123.98078231 0.00000304 30.61578269 -0.00002155 -49.1859965 -4.38634349 -31.23500574 -21.36648799 11.72214856 1.43622013 51.6641228 -3.01468226 -2.17563879 -32.09669505 -1.68191152 5.41787041 -4.49909391 -0.00000713 -7.1e-7 -53.80637744 -0.99436829 9.78988498 34.01500133 -3.6930878 -4.21152894 -17.57170095 -20.5678266 -2.09776225 -0.00001132 -0.00000423 3.7e-7
0.08072975 1.05682357 0.02515322 7.30714482 -27.63555546 3.7344804 2.73198879 1.00818038 -3.00102051 2.56471802 -4.36460449 -0.38974457 3.10438167 -8.82484244 3.53146429 12.02460656 7.57743722 -3.59663597 -5.23038848 21.83160933 12.98035054 2.75531896 3.57377357 -8.92880492 -59.07438923 -33.97075588 -45.89836598 0.00002947 -82.84376738 0.00003436 -60.0210642 27.98727889 39.76283152 -14.76133549 2.90004556 -5.59575454 -108.17398269 36.00917898 123.46781612 -2e-8 31.21448167 0.000008 -48.82354456 -5.73197803 -32.31780685 -25.52129734 11.32811367 3.20068509 50.01708834 -1.24128864 -2.16940689 -28.68692638 -1.34660632 4.82612379 -2.79088835 0.00000476 -0.00000123 -51.49009423 -1.33236061 9.9581362 33.04438525 -3.92885477 -2.89252531 -11.10246098 -22.91943547 0.00038089 0.000015 -8.1e-7 0.00000129
0.09132371 1.07433731 0.02877758 8.07760144 -30.07116382 2.80037846 2.93543071 2.35568863 -1.59707248 2.73607506 -3.90973895 -0.14501493 3.29430374 -8.35150732 3.7678621 12.08985116 7.42861525 -4.01680912 -5.3802415 21.97505526 11.9712928 2.83462525 3.90854517 -9.25393567 -58.96233956 -33.36521191 -46.57197489 0.00007962 -83.11406254 0.00007569 -61.10681304 28.13232169 39.76367513 -14.66506692 3.46364023 -5.65041183 -108.2478807 36.65752734 123.39165604 -0.00001771 31.655407 0.00001975 -48.70950181 -7.41749927 -33.34253601 -28.48999401 10.58559387 5.25160251 47.72612598 1.05323263 -1.94643035 -24.83725924 -0.90877299 3.74095875 -1.61692741 0.00141842 -0.35914162 -47.94781848 -1.80092862 9.76462747 34.60518694 -4.50815183 -1.0165172 -6.27207353 -20.68676259 0.08001114 -0.00000575 -0.0000141 -1.5e-7
0.09792192 1.08794922 0.03472515 8.41815135 -31.14595827 2.89799722 3.04020607 2.49166118 -1.54270347 2.82977348 -3.65328885 0.01322722 3.39664912 -8.08993446 3.92244495 12.1376903 7.37383652 -4.19974673 -4.99920537 22.2847839 11.23503883 2.90270293 4.49464821 -9.58337475 -58.73051812 -32.73199976 -47.45225182 0.00000552 -83.53613042 -0.00000102 -60.79362676 28.69605584 39.68013397 -14.605913 3.71713364 -5.55774036 -108.38734706 37.15133393 123.87797233 0.0000128 31.6494502 -0.00000775 -49.05717964 -7.81648821 -33.57237299 -30.36405912 10.33077738 6.39678078 44.71312592 1.53044142 -1.60778249 -20.26103662 -0.35682331 1.96683904 -0.82997922 0.01177522 -1.03469878 -45.61306923 -1.75023541 7.84688536 41.20653503 -5.5687327 -0.30985642 -5.28287199 -16.48045436 0.39249125 -2.6e-7 0.00000842 0.00000409
0.10185219 1.09425278 0.04199738 8.54363225 -31.45609475 2.7187047 2.96238707 2.48673133 -1.17054641 2.82659381 -3.63345112 0.20003896 3.40556179 -8.06951696 4.11009136 12.15639545 7.33343993 -4.28663127 -4.43233291 22.40549752 10.52184234 3.10654291 4.87907865 -10.28762077 -58.32290395 -32.57415173 -47.93555449 -0.00000664 -83.87524698 -1.2e-7 -60.3188365 29.09485627 39.82387368 -14.63832224 3.56734001 -5.59880092 -108.60600399 37.66884041 124.64507205 0.00001075 31.46718277 -0.00000506 -49.66508059 -7.77896248 -33.34495873 -32.65266143 9.60567669 7.76546796 43.24142311 1.30592663 -1.1308179 -17.28691539 0.17799199 -0.48281767 -0.00000728 0.00000674 -0.0000011 -43.6441078 -1.38656902 5.79974331 49.3554995 -6.70015312 -1.03782135 -5.15026027 -11.41207588 0.87629105 0.00000383 0.00000165 -0.0000011
0.1037469 1.09260612 0.04981414 8.3105859 -31.24900397 2.62430122 2.83255906 2.33508768 -0.91833646 2.80175956 -3.71789227 0.36228405 3.39060165 -8.16087947 4.27514935 12.1390665 7.32095707 -4.41265972 -4.03702196 22.37075591 9.94718352 3.42340077 5.00387955 -11.28758103 -57.82737519 -32.7124217 -47.82472882 -0.0000215 -84.11105361 -0.00001743 -60.39567525 29.26683367 40.05110462 -14.72554521 3.44252392 -6.08801399 -108.67242789 37.85585385 125.23372801 -0.0000108 31.25380301 0.00001449 -50.11595293 -7.89127015 -33.20984257 -35.21057217 8.85303487 8.86284563 42.98328102 0.72026945 -0.65646643 -14.84481157 0.50211362 -2.39188649 0.00000316 0.00000176 0.00000185 -41.17946001 -0.28675913 3.33141366 56.99618064 -7.79204258 -2.82846787 -5.49739058 -6.20809599 1.58064584 -5.25547004 -0.4544781 4.92866236
0.10486679 1.08372819 0.05878693 7.65025785 -31.32881409 2.34442376 2.72700756 2.39127604 -0.49824325 2.79349354 -3.72237634 0.48918507 3.39118411 -8.17156247 4.40310028 12.11924813 7.31548409 -4.60846772 -3.67853858 22.34583156 9.47471417 3.69054151 5.11974079 -12.12514654 -57.3715506 -32.73523175 -47.64554325 0.00001559 -84.34471139 0.00003221 -60.41264883 29.15710936 40.30265226 -14.78776537 3.58687478 -6.77574037 -108.51404099 37.68642832 125.48940667 0.00000846 30.96627749 -0.00001093 -50.13285837 -7.84187368 -32.86943886 -38.09955371 8.34377885 10.28806542 44.11413224 -0.03052682 -0.4120982 -12.81151285 0.62820103 -3.46766721 7.3e-7 -0.0000012 -0.00000109 -37.5637899 1.51075235 0.93106883 62.65338104 -8.86008565 -5.52898777 -6.34264735 -2.71475995 2.5767713 -7.50088759 -1.4155607 10.62713408
0.1052186 1.06959381 0.06900607 6.63722893 -31.81272364 1.8624972 2.63390205 2.65721688 0.05703467 2.77142741 -3.59648133 0.55182251 3.3754805 -8.04644438 4.46434787 12.16679322 7.27075447 -4.70085513 -3.10441454 22.35403326 8.97513753 3.84235225 5.25994105 -12.60527083 -56.99567498 -32.72524036 -47.67792344 0.00012559 -84.49818399 0.00011889 -60.12092061 28.84654956 40.60811441 -14.79114661 3.77011462 -7.08649775 -108.18297523 37.5282831 125.55692699 -5.6e-7 30.70694776 3.1e-7 -49.78898441 -7.6375214 -32.22354634 -41.18313407 7.858438 12.09961419 46.20179848 -0.85120483 -0.25266936 -10.77087434 0.72533706 -4.5866975 0.00000287 0.00000198 -7.5e-7 -32.63481204 3.43337971 -1.52443349 65.29790737 -9.72657662 -8.86276896 -6.80416618 -2.51191991 2.69974162 -8.48308797 -2.11130223 13.87838272
0.10459742 1.05098916 0.080261 5.43808018 -32.50854516 1.08534638 2.48594185 2.98252013 0.86248342 2.69122819 -3.40866661 0.59100032 3.3016808 -7.85044028 4.50062457 12.28561271 7.17907795 -4.6763601 -2.30781602 22.36670472 8.40866648 3.81692035 5.46686227 -12.54806994 -56.5901553 -32.62025475 -48.05709971 0.00004898 -84.46271019 0.00006185 -59.80165252 27.99351876 40.66357006 -14.74450278 3.93798794 -6.98988811 -107.87137346 37.6746541 125.51201295 -0.0000151 30.6108041 0.00001613 -49.08655902 -7.46567606 -31.73220796 -44.31394858 6.88748036 14.10218132 48.7845014 -1.44220881 0.0458337 -8.84379435 0.84717087 -6.1582202 -0.16303372 -0.00041928 0.15000677 -27.02189084 5.21915764 -5.64167259 65.48600995 -9.65411965 -9.91399599 -7.62031272 -3.2449249 1.37343592 -9.11199693 -2.35667637 14.38248239
0.10242479 1.02879501 0.09064571 4.24586511 -33.39042779 0.74725911 2.30882306 3.31890607 1.13807372 2.56364507 -3.20797828 0.59016865 3.17562721 -7.64113993 4.49644057 12.36325809 7.09877742 -4.60921626 -1.53275359 22.46928941 7.93178689 3.60136898 5.81677554 -11.93442832 -56.25267229 -32.22430455 -48.66216355 -0.00013965 -84.37198294 -0.00013881 -59.5769193 26.99313746 40.32914529 -14.65908018 4.39219985 -7.0279832 -107.55659325 37.909543 125.10693429 -7.1e-7 30.80552671 0.00000857 -48.49987164 -7.27919888 -31.8174166 -47.09360017 5.92844981 15.68521121 51.02894803 -1.61627115 0.42976969 -7.29554955 0.91664332 -7.57312845 -0.324867 -0.00169514 0.29889285 -21.77032379 6.09414499 -11.22897361 64.26208889 -8.75063169 -9.90694271 -9.615374 -0.53578478 2.18146181 -9.50589665 -2.54501976 14.85419934
0.09869717 1.0068332 0.09814221 3.20887125 -34.32396319 0.70544714 2.15548402 3.72052289 1.10469739 2.44461177 -3.02462189 0.61919298 3.05942728 -7.45030885 4.52266584 12.34527461 7.04105638 -4.56966192 -0.89732741 22.64113104 7.49372411 3.28741177 6.23670701 -11.04937705 -56.05696505 -31.59323689 -49.40618591 -0.00007138 -84.46226284 -0.00006597 -59.43004907 26.4745851 40.28591855 -14.55421439 5.03806216 -7.22626264 -107.28424688 38.20582763 124.43010932 -0.00000233 31.19603894 0.00001505 -48.50919478 -7.21904362 -31.99432788 -49.4971525 5.17491608 17.26228444 52.21336029 -1.86157115 0.79384494 -5.54748445 0.92667178 -8.93657363 0.00000317 1.8e-7 0.00000337 -17.6265659 5.20239673 -16.40792391 62.57201858 -1.3674133 -9.91339295 -11.35068674 0.03668079 4.24682242 -11.36792964 -3.91071928 18.75489156
0.09219815 0.9901046 0.10084634 2.33436757 -35.02176239 0.64241751 2.08302046 4.20969385 1.01897176 2.3683478 -2.87312313 0.69139803 2.98876243 -7.29231727 4.59285997 12.32603524 6.98066136 -4.57197872 -0.47646298 22.6706398 7.20414199 3.02562113 6.54109226 -10.32001007 -56.10025216 -31.07575688 -50.19187155 1.1e-7 -84.53597562 0.00000999 -59.03867225 26.35786268 40.28935921 -14.46669127 5.40197046 -7.09995974 -107.16739082 38.56826334 123.99187804 7.6e-7 31.52076226 -7.3e-7 -48.64410226 -7.16102641 -32.02197745 -51.15168027 4.43332995 18.69333443 51.42849144 -1.97036447 1.27706123 -3.02150358 0.81202222 -9.377335 0.00000689 0.00000289 -8.2e-7 -14.86155811 3.15771307 -19.8266432 60.40131228 5.44979221 -9.98539341 -15.05948089 -0.5052423 6.8414227 -15.03167728 -3.26599609 17.36687406
0.08267947 0.98404663 0.09686138 1.74372522 -35.21876631 0.08908594 2.04941478 4.62444686 1.51284395 2.336913 -2.69288231 0.82720925 2.96656891 -7.09912669 4.72544597 12.42461686 6.87794531 -4.70567787 -0.26449518 22.47001375 7.02701998 2.92008664 6.71171074 -10.03828434 -56.29173543 -30.83079613 -51.0185786 -0.00000637 -84.31765316 0.00000701 -58.32278523 26.16727047 39.69423499 -14.38644441 5.48362863 -6.53048271 -106.88158054 38.8671745 123.86640645 -0.00000622 31.75241239 3.9e-7 -48.05975939 -7.14490209 -32.166731 -51.12588206 3.14063607 20.14768852 46.72184874 -1.78124247 2.11614805 1.88076389 0.48043886 -11.91865841 4.2e-7 0.0000066 -0.00000114 -13.14766939 0.62013928 -19.92486693 57.39623853 6.57013647 -10.13033511 -23.88692734 -1.54904475 9.28096447 -15.43035783 -0.56836551 7.06137645
0.07060092 0.99020875 0.08385286 1.75077712 -34.94806018 -0.29498651 2.03358234 4.89275181 2.08736679 2.34598902 -2.49806965 0.93256997 2.98115111 -6.89149668 4.82693774 12.58069144 6.78165664 -4.94287175 -0.2633504 22.21506591 6.96378683 2.98906049 6.91254183 -10.27259396 -56.43354415 -30.8927402 -51.61907426 -0.00005134 -83.96258776 -0.00003505 -57.57299202 26.03725598 38.7146262 -14.30966124 5.53959281 -5.93379969 -106.28888022 38.9461582 123.87837754 -0.00000882 31.95143894 0.00000346 -47.10335096 -7.15808107 -32.50728437 -48.95681566 1.77798722 20.98662138 37.76098736 -0.67851924 3.44396298 5.40281604 0.00805627 -15.07771031 0.00000441 0.000007 -2.5e-7 -12.91735112 -1.34745562 -16.78125751 53.86306226 4.92120816 -10.13820904 -31.83485822 -2.07540718 8.93065893 -11.63268477 -0.00047739 0.20344442
0.05694064 1.00478691 0.06378084 2.49123947 -34.11032499 0.09182503 2.00418868 4.84241243 2.20154001 2.36384813 -2.43467163 0.94848066 2.99983936 -6.82753187 4.84262893 12.60814463 6.7748347 -5.22466278 -0.33174586 22.02708503 7.10012394 3.23849843 7.25457321 -11.04559735 -56.28189902 -31.27129018 -51.75573461 -0.00003899 -83.79355923 -0.00002787 -57.11376111 26.14729285 38.15477837 -14.29847442 5.54986968 -5.85495111 -105.87506105 38.93761464 124.18452999 0.00000105 31.92559309 -0.00001072 -46.82837491 -7.03403333 -32.64894619 -44.73397359 0.74244955 21.03205287 25.12323825 1.53039967 5.12118225 4.30226082 0.38177328 -18.08921863 0.00001027 0.00001175 -0.000007 -14.65883641 -1.90660597 -12.44329615 51.64559329 3.05065254 -10.05119357 -35.35513167 -2.18931195 7.78423514 -8.54695844 -0.00000549 -7.8e-7
0.04427024 1.02262017 0.04433559 3.5603081 -33.12072591 0.06687896 1.86911772 4.99966096 2.99844408 2.34445789 -2.65466974 0.99564779 2.9874044 -7.04652003 4.89308628 12.47997365 6.82644784 -5.50861585 -0.29573506 21.85541842 7.24540931 3.52900184 7.4980776 -11.91144708 -55.68705293 -31.70675794 -51.87124846 0.00013112 -83.74027342 0.00013256 -57.08040937 26.10365228 38.57201763 -14.3661755 5.33409706 -6.1165744 -106.03406976 39.46984263 124.80993187 -0.00000306 31.50753907 -8.3e-7 -47.56450259 -6.98898701 -32.11822702 -42.17288966 -1.17201825 20.05174666 16.69319823 6.20900855 7.64893485 -3.19716117 1.13009027 -13.13628837 0.00000768 0.00000585 -0.00000211 -17.1491705 -2.34396019 -7.80669984 49.36538266 2.04633105 -9.89780988 -34.82244416 -2.32258727 7.25223362 -3.01457413 -0.00000495 -0.00000758
0.03383111 1.03841697 0.03088456 4.17974653 -31.45348146 -0.44731032 1.89242605 4.94064536 4.04629874 2.38901232 -3.14449952 1.05774637 3.04369296 -7.52757663 4.96009242 12.27383304 6.8757963 -5.52289709 -0.56639314 21.62958497 7.4699973 3.60535936 7.21431065 -12.09830966 -55.15239883 -31.95795362 -52.36553098 0.00004436 -83.44512995 0.00005141 -57.21124257 25.70333447 39.44251646 -14.47207744 4.66950765 -5.96710742 -106.64951217 40.60037074 125.46629796 0.00001317 30.95644265 -0.00001923 -48.55852256 -7.18938701 -31.19083105 -41.29095931 -2.67471634 19.19899674 14.21089232 9.54107225 8.5799112 -7.62988882 1.07870798 -9.2818714 0.0000038 0.00000455 -0.00000458 -19.74386643 -3.0654843 -4.20989289 47.75486521 1.48912037 -9.2027523 -31.68734 -2.55174653 7.66945781 -0.5833802 -0.00000908 4.1e-7
0.02360252 1.05490197 0.01989604 4.06763772 -28.03126307 0.78239881 2.43162981 3.33735984 2.56766683 2.63596718 -3.68208504 0.86058635 3.28156195 -8.07298054 4.77007279 12.00154942 6.95996367 -4.99364572 -1.46202679 21.35760591 8.34792975 3.46484469 6.34234972 -11.58716242 -55.1950661 -32.11467733 -52.64646903 0.00005256 -82.8119022 0.00006456 -56.89870336 25.50074132 39.38182883 -14.57653656 3.58981547 -5.20745983 -106.8746605 41.0241198 125.90786664 0.00000139 30.54192601 0.00000547 -48.63043071 -7.07792128 -30.75007041 -40.38750904 -1.25080931 16.75677914 16.03235571 7.04191669 6.92719035 -4.5456245 0.96115675 -10.74532061 0.00000449 -0.00000393 -0.00000425 -22.25033153 -3.02567308 -3.50274705 47.1978922 -1.40831344 -7.47790841 -28.46226795 -2.06455239 6.84798204 -0.36637086 -0.00000256 0.00000494
0.01591746 1.06657036 0.01575146 3.64920169 -25.64391477 1.13297281 2.78609745 2.48502839 2.0653632 2.79952322 -4.04378427 0.7500152 3.4406182 -8.43598091 4.66629602 12.00480203 6.93826715 -4.64658394 -1.67267377 20.87497188 8.74815724 3.39383987 5.49267637 -11.2674469 -55.0402603 -32.36190501 -52.62776905 0.00003834 -82.08464138 0.00005069 -57.00588894 25.42557432 38.87415979 -14.62533004 2.71328297 -4.39655549 -106.72620415 41.38161021 126.23091369 -0.00000284 30.30391478 0.00000381 -48.47183314 -7.3455336 -30.97602724 -41.87690582 0.05521298 15.36080259 28.64831765 3.01551375 4.27644363 -4.88438733 1.02651894 -11.39323144 0.00000447 0.00000113 6.9e-7 -24.6889378 -3.19848064 -2.41489897 46.96148664 -3.70736102 -6.19579103 -25.23576392 -1.36078265 5.07728654 -1.11707203 -0.00000569 9.3e-7
0.0096192 1.07157188 0.01485954 3.34773581 -24.55955713 1.00343066 2.75207562 2.20395666 2.30913208 2.72628568 -4.23785381 0.70630765 3.36632523 -8.63210663 4.62821587 12.23120243 6.9066842 -4.62481282 -1.17901128 20.51678158 8.65050532 3.51513263 5.23704993 -11.5973798 -54.46005286 -32.9558148 -51.95449294 0.00003097 -81.61390688 0.00003002 -57.92912499 25.80042379 38.61736478 -14.62880546 2.4549042 -4.09383368 -106.60211958 41.56699785 126.60292146 -0.0000091 29.89640116 -0.00000585 -48.90644794 -7.88799814 -31.49406364 -42.59270251 1.26776291 14.4595993 43.3649153 1.96576321 2.33114947 -6.85637328 1.10830981 -10.51150723 -0.00001367 -0.00000603 2e-8 -27.34597018 -3.23605775 -1.01028168 46.79291025 -4.62727055 -5.38475117 -21.61823237 -1.14456315 4.83785037 -1.53880641 0.00000395 0.00000469
0.00359463 1.07019737 0.01330292 3.00212902 -24.07431393 1.07969504 2.6696166 1.98622144 2.21087446 2.65000766 -4.32148558 0.65323782 3.28458821 -8.72563887 4.57815393 12.29804619 6.88897508 -4.5760029 -0.8582113 20.27917349 8.52560891 3.60383001 5.15175904 -11.85245379 -54.02321304 -33.33787993 -51.06696345 0.0000359 -81.54168156 0.00003987 -58.65649814 26.13128638 38.62536874 -14.6539655 2.37475195 -4.18613553 -106.85126756 41.3590573 127.00499193 -0.00000267 29.35763586 0.00000166 -49.40791227 -7.91649598 -31.68981173 -41.3265969 2.97161517 13.09682278 56.274236 2.2253727 1.21364414 -8.75575336 1.24254854 -10.2806709 0.00000264 0.00000114 -0.00000279 -30.11147549 -2.9692581 0.3307174 46.81397414 -5.36765678 -4.81409041 -18.72933151 -1.06350016 4.83167932 -1.16306958 0.0000119 0.00000251
-0.00158364 1.06022789 0.01186043 2.28132345 -23.7400652 0.84515949 2.76311333 1.81990973 2.17200583 2.72250673 -4.39925579 0.71148272 3.36062548 -8.808116 4.63911591 12.11809115 6.82991111 -4.43333392 -0.7373368 20.02739859 8.22967411 3.54425159 4.75600147 -11.62301253 -54.03882275 -33.11643193 -50.38153829 -0.0000481 -81.88233765 -0.00004532 -58.76839228 25.99260082 38.87032898 -14.73369792 2.11597168 -4.46309949 -107.66247919 41.16595452 127.34652062 -0.00000488 29.08069918 -0.00000164 -49.75243018 -7.37129609 -31.49875182 -37.95969181 4.69229547 11.71238246 66.7531953 -0.42174888 0.56582461 -10.44571759 1.5668073 -11.58494045 -8.76845218 -0.55070851 3.56569421 -33.50364215 -2.7316557 1.90627227 48.65656437 -6.60304217 -4.19558706 -17.42627014 -0.85220085 3.67680619 0.00000238 0.00001943 -0.00001017
