HIERARCHY
ROOT Hips
{
  OFFSET 4.3602899495453355e-8 1.1673772430419926 0.00903120994567871
  CHANNELS 6 Xposition Yposition Zposition Xrotation Yrotation Zrotation
  JOINT Spine
  {
    OFFSET 0.00000400409843159832 0.10717498984890383 -0.009311363000479054
    CHANNELS 3 Xrotation Yrotation Zrotation
    JOINT Spine1
    {
      OFFSET -1.157133440709887e-8 0.10585321386790758 -0.004285265132451881
      CHANNELS 3 Xrotation Yrotation Zrotation
      JOINT Spine2
      {
        OFFSET -1.2021792727953998e-8 0.10599313230062335 -0.007812673855060945
        CHANNELS 3 Xrotation Yrotation Zrotation
        JOINT Neck
        {
          OFFSET -3.2927685248284505e-8 0.26240295415719994 -0.044881304131893486
          CHANNELS 3 Xrotation Yrotation Zrotation
          JOINT Head
          {
            OFFSET -1.1268817613937174e-8 0.1746685200511402 0.056256497133401515
            CHANNELS 3 Xrotation Yrotation Zrotation
            End Site
            {
              OFFSET -8.617178878150887e-9 0.10756811731632654 0.02107021751552555
            }
          }
        }
        JOINT LeftShoulder
        {
          OFFSET 0.10574355691983202 0.2300922422130116 -0.07323001980788171
          CHANNELS 3 Xrotation Yrotation Zrotation
          JOINT LeftArm
          {
            OFFSET 0.14878172464754674 -0.04653430124026747 -0.03069340943884992
            CHANNELS 3 Xrotation Yrotation Zrotation
            JOINT LeftForeArm
            {
              OFFSET 0.2410901499999964 2.514874553050106e-8 -2.5644150081216566e-8
              CHANNELS 3 Xrotation Yrotation Zrotation
              JOINT LeftHand
              {
                OFFSET 0.3167439969976485 9.305862591624248e-8 0.0055278706856974474
                CHANNELS 3 Xrotation Yrotation Zrotation
                End Site
                {
                  OFFSET 0.06210611293049251 -0.1056924643799253 0.03949498917827464
                }
              }
            }
          }
        }
        JOINT RightShoulder
        {
          OFFSET -0.10574409307527087 0.23009141295444557 -0.07322999494236766
          CHANNELS 3 Xrotation Yrotation Zrotation
          JOINT RightArm
          {
            OFFSET -0.14878099894090208 -0.04653001551703495 -0.030692881610262193
            CHANNELS 3 Xrotation Yrotation Zrotation
            JOINT RightForeArm
            {
              OFFSET -0.24108999999999764 -2.5144341053717767e-8 2.9072947757557976e-8
              CHANNELS 3 Xrotation Yrotation Zrotation
              JOINT RightHand
              {
                OFFSET -0.3167448378500485 -3.304013818095086e-8 0.005523816194027642
                CHANNELS 3 Xrotation Yrotation Zrotation
                End Site
                {
                  OFFSET -0.06210627893580878 -0.10570000668807578 0.039495226662701347
                }
              }
            }
          }
        }
      }
    }
  }
  JOINT LeftUpLeg
  {
    OFFSET 0.12297482524469029 -0.06742086731113295 -0.010003017167751174
    CHANNELS 3 Xrotation Yrotation Zrotation
    JOINT LeftLeg
    {
      OFFSET 3.29102216173327e-8 -0.45703384336647745 0.010304781301190422
      CHANNELS 3 Xrotation Yrotation Zrotation
      JOINT LeftFoot
      {
        OFFSET 6.562466081661e-8 -0.5002806931369024 -0.03690416879508984
        CHANNELS 3 Xrotation Yrotation Zrotation
        JOINT LeftToeBase
        {
          OFFSET 0.02595079309341415 -0.14255124139316394 0.19507613876404925
          CHANNELS 3 Xrotation Yrotation Zrotation
          End Site
          {
            OFFSET 0.010732212189788037 -0.00003523758576667464 0.11362316400109373
          }
        }
      }
    }
  }
  JOINT RightUpLeg
  {
    OFFSET -0.12297503780805406 -0.0674172528256134 -0.01000298679994319
    CHANNELS 3 Xrotation Yrotation Zrotation
    JOINT RightLeg
    {
      OFFSET 0.0000015762103336008915 -0.45703794623816363 0.010304776602924667
      CHANNELS 3 Xrotation Yrotation Zrotation
      JOINT RightFoot
      {
        OFFSET -0.0000014796473382927555 -0.5002806877425285 -0.03690424189268969
        CHANNELS 3 Xrotation Yrotation Zrotation
        JOINT RightToeBase
        {
          OFFSET -0.02594992229596689 -0.1425528302873685 0.19507509351502048
          CHANNELS 3 Xrotation Yrotation Zrotation
          End Site
          {
            OFFSET -0.01073336011005574 -0.000035035181829541786 0.11362416403777789
          }
        }
      }
    }
  }
}
MOTION
Frames: 92
Frame Time: 0.03333333333333333
0.13483525 1.02156342 0.00744943 -2.85197622 -61.62827529 -2.62865889 9.35084418 -0.66375267 -0.51391258 2.81992987 -0.16839937 -1.18058386 2.81740904 -0.1909625 -1.18040316 2.41513544 7.15123692 0.48163584 -6.48159413 38.67678083 -5.57843547 0.51037915 -12.95028406 -10.62824916 -14.45540812 4.92502447 -35.61544496 0.00001632 -44.56734914 -0.00000241 15.90611764 -13.78453108 15.07976588 0.57046252 15.85069066 9.87009863 15.64798912 26.35033831 59.17689046 -179.99992866 82.03958357 179.999928 5.7860872 2.10467519 -12.36759563 -40.93502576 14.28825901 29.764113 45.89352865 9.72470897 0.1358205 0.24006779 8.8861164 -13.8284868 -0.2394921 -0.00000249 -2.5e-7 -24.98507762 -15.86114298 -31.14290457 44.93311257 2.99352478 -1.04388057 -17.56739914 -5.30298641 24.85091557 1.03802681 -0.00000336 0.000001
0.13392469 1.0224733 0.0060525 -2.62188469 -61.43888062 -2.30991668 9.28490597 -0.68988451 -0.53923824 2.8144382 -0.17737819 -1.18267582 2.81183234 -0.19967009 -1.18255461 2.40893151 7.14957236 0.4194743 -6.4593737 38.60251075 -5.60108533 0.50831088 -12.81769527 -10.67401965 -14.53808157 4.90834769 -35.49144411 0.00001596 -45.1602227 0.00001627 15.60991809 -13.66874095 14.95418021 0.58471862 15.72734698 9.74714358 15.46297622 26.31813828 59.42742378 -179.99998838 82.23379327 179.99998273 5.8873712 1.9256266 -12.27941926 -40.7841653 14.31307504 29.52887863 45.37815938 9.69945204 0.16977386 0.62292896 8.93181999 -13.84219904 -0.21675666 0.00000255 0.00000169 -24.93717897 -15.862136 -31.10577451 44.87286943 2.70375016 -1.0335292 -17.56422351 -5.30854662 24.88363841 1.03285515 0.00000682 -0.00000223
0.1325549 1.0235891 0.00452709 -2.44036129 -61.19395559 -2.032661 9.2365556 -0.69678585 -0.55143122 2.80938192 -0.17925517 -1.20101085 2.80666913 -0.20169824 -1.20092801 2.41407814 7.12814073 0.36544714 -6.50918926 38.45412989 -5.63294112 0.50321444 -12.77245733 -10.74701339 -14.61048103 4.72260558 -35.32638849 0.00000163 -45.4633527 -0.0000081 15.705178 -13.60712594 15.10919904 0.60008847 15.51882766 9.60925489 15.19697366 26.30590261 59.673132 179.99995788 82.54141693 -179.9999597 5.78011464 1.72845825 -12.09767666 -40.57933025 14.35847067 29.25002012 44.77134623 9.69455791 0.25465585 1.05407399 8.9734399 -13.84120494 -0.20428641 -0.0000021 -0.00000377 -24.78065349 -15.90244168 -31.06374994 44.71887945 2.47585686 -1.00243581 -17.46146045 -5.30887875 24.98628788 0.89550162 -3.4e-7 -0.00001424
0.13068123 1.02486198 0.00268761 -2.33361833 -60.89007408 -1.83411531 9.20946745 -0.72161801 -0.57653257 2.81444175 -0.18714258 -1.21605034 2.81158607 -0.20969726 -1.21599416 2.40777336 7.09953006 0.30950325 -6.54868812 38.27897159 -5.71934113 0.49676287 -12.90073804 -10.80956395 -14.70137032 4.54635006 -35.14578452 0.00001517 -45.60879129 -6.1e-7 15.68827764 -13.44066691 15.15761808 0.61123417 15.34792902 9.50533264 14.87158851 26.24438059 59.85658616 179.99985024 83.1176289 -179.99989122 5.63335039 1.53998618 -11.88239318 -40.3247465 14.40905264 28.97642783 44.09814289 9.70137654 0.37044263 1.51221803 9.01863227 -13.8513388 -0.22901447 0.00000141 0.00000471 -24.59053556 -15.93356481 -30.96492781 44.68058645 2.26072002 -0.99648841 -17.38814375 -5.27483739 24.91666722 0.6189889 -0.00002192 0.00000281
0.12829117 1.02624489 0.00040659 -2.13199187 -60.46902588 -1.57984495 9.14565496 -0.79040418 -0.5904162 2.8068658 -0.21055325 -1.21919706 2.80368047 -0.23288557 -1.21913274 2.37945058 7.0587444 0.27160796 -6.51918368 38.06680761 -5.87892286 0.49690553 -12.93311787 -10.80188931 -14.84275003 4.17148027 -35.11475203 0.00000864 -45.7544153 -0.00000524 14.58253544 -13.00626318 14.88934302 0.62604315 15.1325951 9.36301031 14.46981879 26.20385339 60.06688731 179.99985427 84.3001945 -179.99987325 4.66118068 1.65692096 -11.74747267 -40.10830231 14.40525061 28.68235908 43.34612734 9.74753925 0.51032255 2.00662414 9.02995927 -13.82652497 -0.22391766 3.6e-7 0.00000248 -24.40771226 -15.96109581 -30.79875214 44.74472486 1.86701057 -0.95443547 -17.30149882 -5.19558291 24.66821003 0.26346654 0.00000733 3.8e-7
0.12548156 1.02783997 -0.00224199 -1.88657283 -59.87445925 -1.34828651 9.08549288 -0.90245459 -0.55031154 2.80380602 -0.24887941 -1.22249425 2.79997245 -0.27137713 -1.22239511 2.31526249 6.99834062 0.2856705 -6.56976388 37.80197368 -6.00877496 0.50033269 -13.01149992 -10.74600186 -15.04939913 3.67041913 -35.17713485 0.0000179 -45.9905787 0.00002061 12.7018833 -12.4294465 14.63818815 0.6347607 14.88576664 9.26902104 13.89823644 26.04511809 60.31277519 179.99990765 86.37180763 -179.99991492 2.69794155 1.89002859 -11.56577966 -39.94978441 14.3559785 28.38104011 42.50060668 9.8582233 0.69689001 2.55143206 8.87964263 -13.75703042 -0.24775504 -0.00000148 0.00000293 -24.11626465 -16.04330787 -30.55759378 44.78064312 1.33844843 -0.82023233 -17.15026267 -5.08448355 24.33977524 -0.13991956 -0.00000564 0.00000368
0.12240935 1.02966118 -0.00527114 -1.54958726 -59.09442616 -1.15334112 9.04443268 -1.01371742 -0.42638057 2.81580824 -0.2885733 -1.19760471 2.81129783 -0.31123973 -1.19752148 2.21182925 6.9067213 0.33685075 -6.72776225 37.42148931 -6.13725205 0.50016037 -13.1719708 -10.72437501 -15.28158557 2.86938 -35.34267399 0.0000132 -46.14087591 -0.00000528 11.29747944 -11.80744063 14.97200873 0.63841089 14.65154258 9.21938287 13.03707663 25.5101629 60.68422077 179.99981016 89.61789765 -179.99982426 0.28117255 2.33147074 -11.34555209 -40.00344888 14.31635817 28.25788626 41.62486068 10.00074605 0.78833922 3.11191486 8.41418734 -13.56101738 -0.31905323 0.00000388 0.00000355 -23.70261583 -16.18439346 -30.15781418 44.75312453 0.61224162 -0.58331226 -16.94376013 -4.94003701 23.91248807 -0.54626572 -0.00001495 -0.00000432
0.1191521 1.03185554 -0.00868895 -0.88347533 -58.04209457 -0.8764692 8.95464064 -1.15103891 -0.17990218 2.81754631 -0.34073561 -1.09518932 2.81241862 -0.36274786 -1.09514636 2.05210473 6.78473906 0.43531672 -6.85847217 36.94101645 -6.34445667 0.49800619 -13.31218942 -10.73086836 -15.24506281 1.52804753 -35.78127353 0.00001297 -46.42638294 0.00001449 9.11029056 -10.99805209 15.6760316 0.63806424 14.38878187 9.20450805 11.90279614 24.42581465 61.06367205 0.00017197 85.58484992 -0.00019229 -3.76781117 3.63143291 -11.16391369 -40.52915182 14.33099963 28.54344052 40.7958151 10.16207357 0.5556252 3.54778069 7.48175748 -12.9938732 -0.31613602 0.00000324 0.00000615 -23.1670267 -16.41302795 -29.49215141 44.56991972 -0.48057454 -0.17375675 -16.68095314 -4.76352446 23.38734863 -0.97110861 0.00004473 0.00000731
0.11588591 1.03392288 -0.01204214 0.01691729 -56.53103825 -0.57853504 8.87999037 -1.39875571 0.11842026 2.83695465 -0.4330777 -0.90672513 2.83121733 -0.45321923 -0.90679392 1.78334145 6.5977928 0.64326133 -7.12303113 36.25143698 -6.59684387 0.50000669 -13.72722584 -10.65409554 -14.97166678 -0.02220429 -36.58502321 0.00000927 -46.92339021 -3e-8 7.03073389 -10.11430253 15.93030287 0.62220134 14.12938938 9.34421439 10.37076769 22.41928455 61.1860037 0.00005294 79.35700953 -0.00003954 -9.30039263 4.91029712 -10.49503151 -41.58262474 14.32797102 29.10945562 40.16804771 10.16466975 -0.01773987 3.79352499 6.17829189 -12.02348456 -0.2306115 -2.2e-7 -8.8e-7 -22.55268975 -16.88808907 -28.79907153 44.29869807 -1.75404269 0.44458005 -16.25190528 -4.58399905 22.98957302 -1.57340934 0.00025735 -0.12514691
0.11295088 1.03498505 -0.01458734 1.06697875 -54.44221642 -0.29417525 8.90978255 -1.85597474 0.43918703 2.87918825 -0.59835425 -0.62466825 2.87302702 -0.61542111 -0.6247472 1.34536684 6.34054202 0.97553255 -7.56472721 35.33310533 -6.88468325 0.52339691 -14.0495241 -10.35822492 -14.46331407 -1.90741832 -37.95917772 0.00001833 -47.61463567 0.00000881 6.72901952 -9.23068265 15.40677808 0.60098947 13.87322698 9.54797702 8.17135063 19.32413519 61.10282229 -0.00005242 71.6721788 0.00005286 -15.1662329 6.73839403 -9.72096492 -43.23933231 14.16809585 29.67720686 40.06071737 10.13289779 -0.76794537 3.63261019 4.73890967 -10.66511494 -0.16508662 -0.00000118 -0.0000022 -21.97188169 -17.6863195 -28.28510416 44.13799251 -3.11100148 1.27999764 -15.7570856 -4.41099689 22.66550404 -2.51926454 0.00632213 -0.577943
0.11049765 1.03457687 -0.01556179 2.36059931 -51.95995194 0.04269268 8.97744876 -2.38406479 0.80981705 2.90089524 -0.78898447 -0.29954394 2.89506686 -0.80235055 -0.29933894 0.7416765 6.00802778 1.49487418 -8.1847254 34.23486332 -7.16970322 0.58421312 -13.87272034 -9.69100168 -12.97666038 -5.06403633 -39.74031397 0.0000139 -48.32071991 -0.00000507 6.52307037 -8.7585844 14.77716185 0.56175499 13.88225623 9.95371366 5.20853982 14.70314202 60.66010197 -0.00002905 62.80580837 0.00001669 -21.48180585 9.31736012 -9.85616768 -45.45771761 13.86428097 30.17925931 40.51259799 10.11147368 -1.64555899 3.08168125 3.31655168 -8.79291341 0.22998665 -1.8e-7 -0.00000856 -21.5849539 -18.59473593 -27.81096248 44.2685419 -4.67379944 2.22518647 -15.41968513 -4.20836726 22.04500775 -3.36965675 0.00701445 -0.40659551
0.10844148 1.03268593 -0.01340119 3.69784871 -49.4871596 0.32340787 9.04835092 -2.74973466 1.12680186 2.86928059 -0.92453688 -0.00080693 2.86491653 -0.93407553 0.00043046 0.06714033 5.60374159 2.21617944 -9.12081299 32.99874793 -7.27379348 0.67791454 -13.27358612 -8.58880859 -10.90462719 -8.70854722 -41.98976133 0.00003049 -48.37570827 0.00001466 7.84480296 -9.76270842 12.8986205 0.4913339 14.32439107 10.65478772 1.18233174 8.29987389 59.42876736 1.2e-7 52.78425167 0.00000654 -28.33577775 11.71921408 -10.49987026 -48.05466896 13.68932669 30.82083836 41.60480369 10.05468021 -2.78654868 2.49636442 2.63917955 -6.72727527 0.57506134 -6.2e-7 -0.00000383 -21.26632367 -19.44591495 -27.48872184 44.49941361 -6.02585865 3.07819923 -15.12011277 -4.16982443 22.14544015 -4.33736658 0.00003202 -0.00024823
0.10686194 1.02996262 -0.0067976 4.78529842 -47.45375781 0.41810017 9.06107714 -2.69343774 1.36070001 2.83142573 -0.91755464 0.30144833 2.82984669 -0.9226697 0.30340153 -0.47216769 5.20962243 2.74203496 -10.10229371 31.60765492 -7.23071612 0.73674991 -13.25523599 -7.89582156 -8.27837841 -10.9067551 -44.19687775 0.00002786 -47.6753876 0.0000201 8.64958019 -10.87497705 11.61661603 0.44318933 14.11061642 11.16970338 -4.34745116 2.09177568 57.07509913 0.0000029 40.55500003 -0.00000474 -39.59187061 15.16102856 -10.82771482 -50.83038527 13.90364537 31.59995972 44.09296092 10.01276699 -4.43007175 1.00131897 8.59832584 -3.94734081 0.11425766 -0.00000409 -0.00000548 -20.83821973 -20.20972786 -27.2843681 44.58791674 -7.07210189 3.63382607 -15.01607294 -4.23243911 22.55450889 -4.33935618 -0.00470754 0.36602591
0.10573155 1.02737396 0.00556906 5.74861818 -46.09435464 0.11376055 8.84582141 -2.28082332 1.70277257 2.72941048 -0.79315985 0.64729769 2.73048406 -0.7936375 0.64944106 -0.81588078 4.86899399 3.22042571 -10.63653281 30.51221286 -7.46681142 0.77579573 -12.84394489 -7.34779611 -4.90663835 -11.70040134 -47.2215959 0.00001942 -46.00667907 0.00001904 7.76934235 -10.25977371 11.58462766 0.38797115 13.77737841 11.80892126 -11.80388475 -3.27514233 52.7882743 0.00000904 25.69268066 -0.00000164 -60.56430025 18.98794847 -9.28335962 -53.21008729 14.15581338 32.79000595 47.51029934 10.01437473 -6.68865735 -1.83614999 19.66192485 -0.71667247 0.2952291 0.00001006 -0.00000126 -19.82538024 -20.7634743 -26.60871465 43.82835233 -8.00228353 3.91104685 -14.42253506 -4.25978401 23.33193093 -4.52568151 -0.00352185 0.56672249
0.10494743 1.02553383 0.02523776 6.56029713 -44.8458004 -0.78893191 8.30387148 -1.79084613 2.29117474 2.5281408 -0.64617932 1.02294014 2.53054523 -0.6430809 1.02495874 -1.12896213 4.46514453 3.98855506 -10.53831095 29.36740599 -7.53945748 0.83091356 -11.13639875 -6.0135132 -1.42038938 -11.61845036 -52.11838148 0.00002355 -42.81464668 0.00001952 8.22668698 -8.56381264 8.99407513 0.3291431 13.56379146 12.50645676 -23.30232225 -6.45397613 45.7906295 0.00000298 6.08700331 -0.00001328 -89.76337909 19.18741568 -1.18154739 -55.23742896 14.26320064 34.33469769 50.85200245 10.01972812 -8.36029543 -5.17128891 22.78391736 1.10762228 0.78778665 -0.00000823 0.00000139 -17.49203566 -20.91702236 -24.81436672 41.72765319 -8.1931502 3.7541422 -12.97965616 -5.72074079 24.48251006 -5.14050417 -0.00409993 0.61168131
0.10442507 1.0245887 0.05386542 6.78594662 -43.07297306 -2.01241306 7.3672723 -1.49679188 2.6480285 2.23407873 -0.56089148 1.39040699 2.23804606 -0.55406304 1.39205433 -1.08376678 3.94584533 4.91131818 -9.62941316 27.72077098 -7.08302596 0.85275919 -9.12233665 -4.26922885 3.22889622 -10.37313643 -57.6681892 0.00001072 -38.99134968 0.00000873 8.52208767 -6.51250911 5.15066948 0.35598666 12.27665805 12.58461703 -33.50986713 -10.19372994 37.77750633 0.00000245 -0.99908635 -0.00000205 -105.70396344 18.56172912 -1.65554367 -56.29756575 14.17919241 34.71554059 53.61317532 10.07235574 -8.68731854 -8.34537567 20.11297491 2.08260398 0.77024523 0.00000227 -1.1e-7 -13.87416358 -20.78338572 -22.56717767 38.79485477 -8.6212553 2.79633838 -10.93833509 -7.90533755 25.4863535 -5.99095057 -0.00464924 0.65109979
0.10477014 1.02503464 0.09125743 6.12323101 -40.40732083 -3.05013149 6.29106651 -1.32615597 2.39850088 1.95010579 -0.5047072 1.55984855 1.95537116 -0.49577957 1.56080506 -0.62724653 3.24732427 5.79421705 -8.74656181 25.08657065 -6.2438216 0.85985595 -8.02729704 -2.80471753 9.74915578 -7.33312337 -62.03338945 7.3e-7 -36.21185795 0.00001141 8.8773071 -3.57477985 2.42336119 0.45594779 9.48806628 12.07197351 -43.08992447 -12.93628758 30.0488048 0.00000773 -0.99906182 -0.00000551 -108.34861477 21.85788738 -4.28937151 -55.30748492 14.02115367 32.73413815 55.86556266 10.15293377 -8.3459167 -11.71223996 18.6788048 2.48514537 0.51302284 -0.0000055 -0.00000241 -9.62234461 -20.63707446 -20.91940052 35.95077948 -9.55022639 0.82359541 -7.99773843 -9.83729153 26.01367021 -8.10097115 -0.00119462 0.33231224
0.1064126 1.02568382 0.13587055 4.80141307 -36.82966228 -3.54729898 5.27800421 -1.12294336 1.88670129 1.81556629 -0.42835419 1.46994158 1.82049651 -0.42081791 1.46949484 -0.17321724 2.48527269 6.15090229 -8.68901744 21.4273486 -5.19460719 0.82319698 -6.67643147 -1.24324031 15.8968047 -2.71753387 -65.02985857 0.00000244 -33.78922771 0.00000102 10.33377536 0.02984833 -1.93049554 0.57405286 5.04165572 10.44041106 -53.09192231 -12.95118813 23.54954187 -0.00000297 -0.99906822 -0.00000254 -109.25514794 24.05286026 -0.68617301 -52.35021228 13.91033022 28.4927603 57.35338943 9.96670142 -7.52440778 -14.3851866 18.13858016 2.15859568 -0.14903754 0.00000635 0.00000319 -5.76515401 -20.60652745 -20.15396065 34.49142884 -10.55827962 -1.99669355 -3.7336803 -11.83529258 26.04410622 -11.14497223 -0.00286959 0.50569105
0.10997923 1.02674896 0.18461752 2.95302866 -33.22823585 -4.16759369 4.40980798 -0.64032787 1.68058015 1.76246517 -0.25952184 1.34106967 1.7653516 -0.2545827 1.339879 0.30723535 1.80892908 6.08630145 -8.29948272 17.68380316 -4.29451617 0.67327305 -4.42402684 0.60651398 20.07760221 4.22281437 -66.43945033 0.0000058 -31.41172361 0.00000226 9.8446557 4.06900067 -6.76501564 0.54258573 0.39367178 8.02786408 -63.16992331 -10.1479464 18.61168532 -0.00000397 -0.99908303 0.00000985 -111.40588747 24.56342455 7.20017322 -48.28164577 13.95820852 23.96810984 58.40002588 9.79555053 -6.34699311 -17.0428739 17.91507685 1.6499508 -1.12835119 0.00000881 0.00000108 -2.63165732 -19.70809873 -18.27990742 34.39454631 -11.75731704 -6.33124757 2.46024732 -15.82082132 24.57604537 -13.56075774 -0.03482001 1.72140052
0.11480181 1.02815536 0.23071263 0.85829032 -30.2858603 -4.63728862 4.02630767 0.22098391 1.32131457 1.63009748 0.02809765 1.01078002 1.63021084 0.03109341 1.01074207 0.91972644 1.17915178 6.38739337 -7.4326232 14.65538972 -3.6682384 0.31552512 -1.07472669 3.32435702 21.33265594 13.02214774 -65.57737349 0.0000167 -29.3926572 8.7e-7 -0.32953409 7.4809659 -7.51885847 0.44054216 -1.74013939 6.42762326 -73.72753827 -4.60597499 13.86216477 -0.00000278 -0.99908429 0.00000774 -112.55659284 22.4953292 17.52255494 -43.62502623 14.4292805 20.02506721 58.93474782 9.78724243 -5.3938092 -19.86962591 17.75729925 1.38087764 -1.8506387 0.00000999 7.6e-7 -2.68770825 -18.18863042 -17.3239293 38.4379385 -12.38185906 -9.92631767 6.44877094 -15.04998857 18.11314069 -15.87658731 -0.45635772 6.05964607
0.11901232 1.0263932 0.26776123 -1.16881113 -27.13662801 -4.46528369 4.1717582 0.83991245 0.4067291 1.4592964 0.2214501 0.58391909 1.45849404 0.22403748 0.58405874 1.58216563 0.70559905 6.42109462 -6.9794034 11.9964176 -2.89992063 -0.1683972 2.22469569 5.50001049 17.41445289 21.84310821 -59.94915261 -0.00000653 -28.81769573 -0.00000491 -20.82463743 7.77617524 -1.83483706 0.36734122 -1.90352752 4.94927146 -82.97538546 -0.91954384 11.83650992 -0.00002129 7.78202794 0.00000186 -106.91207556 24.40330578 21.73234035 -39.24960314 14.71467511 16.12878501 59.36252747 9.80243786 -4.73922064 -22.23797073 17.31828173 1.36793473 -2.2069047 0.00000966 0.00000743 -5.77471807 -14.88826143 -18.21384253 49.04134346 -11.57020063 -9.60558512 5.08466331 -3.01106811 12.05216521 -21.21593701 -2.88376743 15.35740802
0.1213562 1.0250737 0.29889819 -3.09246944 -22.64196328 -3.88513971 4.53027218 0.88394153 -0.65185675 1.31134567 0.22576762 0.16314238 1.31080129 0.22751431 0.16253056 2.21544735 0.27329069 5.94074134 -6.43437482 8.77626016 -1.64717058 -0.49790042 4.254018 6.38066314 7.36014296 25.99612586 -48.91007341 0.00001186 -29.83593937 0.00001141 -47.86922613 3.40426764 10.52592555 0.36333395 -0.63090963 3.36584391 -89.48990895 1.84210054 13.34586559 1.6e-7 24.89318886 -0.00000298 -90.31325228 30.25461034 11.39482065 -34.94406617 14.51183248 11.91730879 59.30263918 9.89449645 -3.82331071 -24.17967911 16.03658827 1.39179229 -2.44321738 -0.00000266 0.00000179 -9.46972066 -12.50853192 -17.49706389 60.90672071 -3.37128774 -7.85635 2.15299627 -0.3225464 12.45486858 -19.76085935 -6.02464628 21.58041168
0.12190705 1.02834671 0.32950324 -4.97313838 -16.92787282 -2.95820513 4.82093658 0.7426642 -1.60974421 1.37998898 0.18948552 -0.37579128 1.38011673 0.18849026 -0.37640515 2.69023241 -0.27764819 5.09808784 -5.22789504 4.37381297 0.28815425 -0.52411465 4.7568788 5.77130949 -6.21874992 22.65838862 -35.62105092 0.00000279 -31.34464851 0.000004 -65.92536323 -4.20505036 15.50174567 0.37853593 0.34210465 1.95936917 -91.71530244 7.53819487 18.56342595 -0.00000194 43.56635784 0.00000293 -66.09637152 30.48488657 -6.85352618 -30.00802612 13.96554962 7.63789171 58.06990845 10.29468792 -2.65190213 -25.55168347 13.50507724 1.15801476 -2.58356197 -0.00000654 0.00000484 -13.58399067 -11.67321786 -15.96921039 69.01161809 -1.8530531 -5.50602578 -3.15234844 -1.0507578 13.97785876 -22.28809825 -4.60346578 11.56690647
0.11788138 1.03352753 0.35953771 -6.93795096 -10.77990672 -2.09571445 5.17621806 0.92703966 -2.33381785 1.67716406 0.27454818 -0.91468198 1.67845538 0.27064805 -0.91489306 3.08089055 -1.00063152 4.09465539 -3.57617003 -1.01422902 2.13680918 -0.21376495 3.32390905 3.83379572 -19.26537475 12.22555511 -23.87683998 0.0000135 -31.99714172 0.00001654 -70.79831906 -5.33853246 13.61313003 0.32580291 0.24422295 0.32198345 -89.89563644 15.58945015 25.77577491 0.00000767 57.60077429 -0.00002345 -44.74585291 24.85522827 -17.77145487 -25.01641533 13.21794606 4.69197193 56.51551727 10.68450256 -1.41007062 -26.52816194 9.97874396 0.35375801 -2.66927058 -0.000001 5.7e-7 -17.71539967 -12.16528948 -14.18283153 72.55799982 -4.26833112 -2.74791794 -7.50593053 -1.66202907 14.6656612 -23.03614526 -1.66483423 4.0240437
0.1093972 1.03773834 0.38836757 -8.94364305 -4.25066124 -1.41440607 5.9130004 1.11756278 -3.07335233 2.07224875 0.37279574 -1.46458031 2.0753976 0.3656543 -1.46411022 3.10441081 -1.86419846 3.42344684 -2.00336299 -6.64869678 4.0801188 0.12902356 1.30991015 1.34437967 -29.000634 -3.50584599 -16.3414513 0.00002345 -31.25632078 0.00001944 -70.43339798 -5.76183587 14.93165662 0.38752613 1.30890968 -1.02108483 -83.98842093 26.40980677 29.50869776 -0.00002449 64.85865089 0.00001655 -28.88391651 19.11783224 -21.03433099 -20.67724731 12.36551331 3.45709226 55.41917475 11.00509691 -0.02798711 -27.43752163 5.53570509 -1.12675187 -2.75040094 -0.00000498 0.0000029 -21.47278761 -13.12396126 -12.41223835 72.92313188 -5.98212389 -0.19016783 -10.64247082 -2.05538586 14.58318784 -21.75476727 0.92567385 -2.45813632
0.09630966 1.03925575 0.41825571 -10.71501901 3.49897634 -0.87895903 6.81457235 0.56683541 -4.05243252 2.53417803 0.22144102 -1.82574707 2.53616451 0.21434735 -1.82495037 2.42676283 -2.70184985 2.59717448 -0.42854071 -12.23682057 6.66657309 0.39609887 -0.81367529 -1.34412848 -37.45925446 -21.28988616 -14.17970395 0.00001141 -29.51137124 -0.00001203 -66.11551259 -7.60737298 14.43274924 0.44271068 2.11737329 -2.75991156 -73.51490134 38.03917262 29.05505229 -0.00003876 68.5400448 0.00002925 -15.05369998 11.54232625 -20.65746634 -17.7781792 11.18053765 4.08614556 55.37808638 9.39087996 1.45571276 -28.26742572 1.45113535 -2.93932711 -2.90424169 -0.00000248 -0.00000146 -24.46161338 -14.19911619 -10.78780524 70.01355075 -1.326805 2.05281637 -14.32721723 -2.26539362 12.92703785 -14.85632973 1.99789832 -10.05866485
0.07830523 1.0388105 0.45166064 -11.80894603 12.7780319 -1.02780463 7.38983264 -0.83713801 -4.96276882 2.76337093 -0.22563962 -1.76274823 2.76300581 -0.22683081 -1.76335258 1.42198725 -3.43525164 1.39673434 1.9952164 -17.4314717 9.40503462 0.56658747 -3.0863194 -2.86120486 -47.51349999 -38.06133031 -20.23141259 0.00000868 -28.70725645 0.00000556 -55.524071 -9.98924508 12.65235759 0.35005524 1.52715734 -4.42085333 -57.5393046 50.97723682 24.11015138 -0.0000446 67.81451374 0.00003464 -2.48336107 3.90549997 -19.99896273 -17.20313242 10.02862161 7.20151421 56.61087008 1.6904264 2.88844275 -29.17591059 0.83288845 -2.09000338 -2.94248015 -0.00000527 -5.7e-7 -26.47793464 -15.60175941 -9.22177664 63.27833895 1.68998231 4.29319088 -17.24134477 -2.06923083 10.37113181 -6.1112501 0.35965764 -4.32285198
0.05962283 1.04024437 0.48781344 -11.92636775 23.05865037 -2.25840718 7.61455227 -2.92727866 -5.59733269 2.62150474 -0.90579274 -1.49881821 2.62587657 -0.90080174 -1.49876089 0.54337605 -4.15260165 0.49498696 4.75673931 -21.96689522 11.97987273 0.63500336 -4.23374183 -2.86586999 -60.45088418 -52.57750571 -35.19302447 0.00002312 -31.328727 0.00002334 -36.22305503 -10.5738982 14.02840274 0.3520768 1.56807188 -4.60171897 -32.55011899 61.3372782 9.66949236 -0.00000263 63.99943636 0.00000204 6.55418803 0.36688707 -18.72778483 -18.95326574 8.65975809 12.22735862 58.13506031 -5.88067965 4.48631937 -29.73984326 -0.72803859 -1.3201492 -2.96919952 -0.00001609 0.00000281 -27.81645414 -16.32474553 -8.97349537 53.44707358 -3.09568704 6.08057118 -13.49967095 -2.17687285 12.66639862 -0.3475403 0.00202708 -0.32676146
0.04285969 1.04060577 0.52631473 -11.1956749 33.47290947 -4.39907017 7.83342674 -4.87442066 -5.96839853 2.40797449 -1.54675394 -1.25830353 2.42489154 -1.53736521 -1.25197 -0.11820361 -4.9602742 -0.25009632 7.04834216 -26.81729926 15.03706313 0.69468941 -5.34031855 -3.24948972 -79.28150804 -65.52672629 -58.08825242 -0.00000861 -34.53728183 -9.8e-7 -15.10871941 -9.91770198 14.59967927 0.53939131 3.03673668 -3.73133987 -5.26066774 63.43274947 -6.91887304 -0.00003832 60.95291594 0.00003367 13.38779653 -1.7870817 -15.5470262 -22.72939401 7.08780884 18.02761343 59.28432627 -6.29217855 5.73716384 -29.76725872 -5.43389245 -3.68943421 -3.28222833 -0.00000361 -0.00000137 -29.87834833 -16.18840878 -8.74906863 45.44005118 -7.62225697 6.35590979 -11.25571145 -3.04201641 5.62170182 -0.04934028 6.6e-7 0.00000309
0.02885901 1.0353176 0.56837551 -9.88059632 43.15017451 -7.03336426 8.29295708 -5.98525767 -6.19117605 2.42838573 -1.92295035 -1.00005168 2.45948883 -1.90726714 -0.98838146 -0.66375286 -5.75389693 -1.18128958 8.00445716 -31.92259194 17.59867176 0.76014583 -6.81793971 -3.85666795 -116.6574051 -73.14233344 -99.16756804 0.00001596 -37.27172113 0.00000586 0.35256879 -10.39484889 12.33558436 0.795313 5.4844536 -1.92017699 12.35964232 59.40476929 -13.35720865 -0.00000914 59.08467476 0.00001204 16.34062785 -5.18545056 -12.01445615 -28.33239002 5.99237343 23.82805991 61.46577729 -6.88928366 5.34038529 -29.22994832 -3.59713484 -4.14823891 -3.42390594 -0.00000637 -0.00000204 -29.36625194 -15.03257357 -9.5966598 35.72660955 -7.95842324 4.87650652 -6.61355144 -3.06648758 6.82173177 0.12947404 0.00000211 1.4e-7
0.01739937 1.02517494 0.61217037 -7.50373646 51.75302805 -10.47298831 8.87533282 -6.62765601 -6.24691909 2.55733632 -2.14801719 -0.6544263 2.60310833 -2.12373515 -0.63908851 -1.23287108 -6.35028644 -2.26076454 7.69858749 -36.22341118 18.556496 0.79370133 -7.37202121 -3.70466071 -157.87763536 -70.56554214 -143.60628746 0.00002607 -41.45701073 0.00001635 10.9510641 -10.54726326 8.20633917 0.97921552 8.38541068 0.66211036 21.04328483 53.47091598 -10.83331622 -0.00002856 56.09990847 0.0000104 18.6815337 -7.40972095 -8.09689332 -34.84005108 3.86845579 28.59795427 64.75066795 -7.48439234 4.93346338 -28.58015875 -2.64390275 -4.10035053 -3.05642822 -0.00000434 0.00000351 -27.60103122 -14.34168788 -11.65298775 26.68415108 -6.51728685 2.86270597 -0.39064338 -0.7030454 12.3127386 0.75453634 0.00001391 0.00000666
0.00890344 1.01150946 0.65725636 -4.47009545 59.00512773 -14.02321838 9.51781586 -6.94803083 -6.46565578 2.63850732 -2.25529528 -0.40767389 2.69680102 -2.22313238 -0.3871873 -1.06274286 -6.60823247 -3.44042596 7.09711341 -39.23078522 18.98959699 0.81417223 -7.88890791 -3.87614368 177.79506644 -65.64954063 -170.38190141 0.00000431 -48.72038405 -0.00000672 18.65468038 -11.13775058 2.9467928 1.05887786 12.01098424 3.43513421 25.37536538 46.66350537 -3.92557065 -0.00001155 51.6110663 0.00001591 22.46503147 -8.10141263 -3.30546951 -39.5169691 0.57103326 31.68754233 66.75912791 -7.41579184 5.66310328 -28.79999082 -6.93771232 -6.75734648 -3.22573303 -0.00000416 1.4e-7 -28.03563693 -14.09685593 -14.64599259 24.25266455 -3.04085801 0.94556159 3.26054689 -0.31025315 12.55577736 1.39174131 0.00000593 0.0000066
0.0037181 0.99659838 0.70308548 -2.16144101 64.56406897 -15.98117147 10.28314364 -6.86011216 -7.10943811 2.7832399 -2.20735378 -0.48043346 2.84512171 -2.1705292 -0.4567529 -0.03000551 -6.60505444 -4.46275002 6.45593212 -40.92759695 19.03943366 0.82913963 -8.49007325 -4.23195903 155.84177155 -62.42847187 166.75758073 -0.00000603 -59.3112372 -0.00001414 22.58884712 -11.0849565 5.26892279 0.97449083 16.17829897 6.24526795 26.79708005 39.2791584 5.61787448 -0.00000942 46.92218041 0.00001253 24.12516969 -8.3524189 1.40408251 -42.11702763 -2.22286671 33.37639405 67.75225307 -7.45350999 6.56493486 -28.97763118 -10.85408146 -10.69063704 -3.30352957 -0.00001996 9.3e-7 -29.09544836 -14.42461321 -18.56202613 25.44007056 -2.69723887 -0.92272577 5.19547125 -0.0821873 12.28699678 1.35274852 0.00000737 -0.00000487
0.00006149 0.98252938 0.74822514 -0.95095363 68.28588874 -16.02683555 11.01962247 -6.08160739 -7.59605522 2.99674988 -1.92275778 -0.74697752 3.04805653 -1.88670253 -0.72559916 1.23163451 -6.55617523 -5.21393655 5.40883126 -41.88715607 17.64553834 0.84558158 -8.52464942 -3.90037756 136.73480329 -61.23047571 146.63223148 0.00002628 -70.4731352 0.00001938 26.53647948 -8.69379617 16.96766296 0.75614402 19.1014894 8.46873482 25.33898932 32.36896024 16.8868262 -0.00000653 41.99381107 0.0000083 24.56387656 -9.44872781 7.1682536 -42.99001963 -3.89650807 33.88971528 68.03092185 -7.51653041 7.51615137 -29.62651588 -12.73463414 -13.78463711 -3.39707859 0.00002484 0.00000985 -30.56339071 -14.57405202 -22.63977756 27.48874817 -3.71500251 -2.64679841 6.23737273 0.04428255 10.84943218 1.42310752 1.1e-7 0.00001132
-0.00504599 0.96970344 0.79316682 -0.30975679 70.14411151 -14.75034901 11.5471044 -4.74306693 -7.6702988 3.16682168 -1.45723672 -0.98085093 3.20119505 -1.42532632 -0.96503243 2.42536263 -6.5551039 -5.62456732 3.55780883 -42.49802904 15.43722151 0.88045632 -8.89805155 -3.56922045 120.06122268 -65.79965847 126.87743761 0.00008105 -77.49767816 0.00007871 31.36794152 -6.97162742 25.78080693 0.63960653 19.94904322 9.32771614 22.63475665 25.6195137 28.30525223 -0.00001267 37.42545475 0.00002312 25.9979138 -12.05389207 13.12845026 -42.79434997 -4.52726427 34.01744596 67.47330268 -7.72781546 8.40108814 -30.06554287 -13.21227525 -16.78328922 -3.59093855 -0.00000442 0.00000762 -32.43886591 -13.8282311 -26.19520467 28.67899113 -3.53669381 -4.26210499 7.73734214 0.18861611 9.69648263 1.86117131 -0.00000518 -0.00000245
-0.01201192 0.95973998 0.8391239 -0.00163178 70.50484227 -12.51552725 11.97694043 -3.75912248 -7.38177142 3.21353746 -1.11376613 -1.14763221 3.23563615 -1.08884205 -1.13453818 3.4860713 -6.59437776 -5.49723897 1.24456611 -42.60596349 13.29202517 0.88065401 -9.24264222 -3.92990906 85.5502174 -73.38373768 88.33210033 0.00003293 -76.75358937 0.00001712 34.55677465 -9.05011686 29.11162429 0.63464042 19.67177857 9.35602067 21.40266341 18.88334205 37.57004864 -0.00000447 33.69034723 0.00000258 26.37791397 -13.01267715 15.77841331 -41.67227019 -3.84769669 34.15230109 65.62555707 -7.77584546 9.20301639 -30.17806371 -13.01126628 -19.79063674 -3.74187926 5.8e-7 0.00000746 -34.3256418 -12.71488302 -29.17415611 28.42169052 -2.89814012 -5.1923147 8.95664784 0.31732931 10.21211162 2.20565879 -0.00000156 -0.00001291
-0.01966954 0.95210351 0.88746751 0.80687404 69.73348003 -10.43541443 12.22562661 -3.55441925 -6.56164032 3.16471652 -1.05166979 -1.08965077 3.18254289 -1.03237554 -1.07557315 4.24828135 -6.70352933 -5.20982629 -1.76974578 -42.88799371 11.48935105 0.82186207 -9.61419709 -5.36256435 26.4037658 -69.27455021 25.21439162 0.00003278 -69.39915698 0.00003114 34.6929166 -9.32925019 26.17688295 0.7615913 17.69120116 8.30350651 21.46524388 13.09818306 44.56734045 -0.00002155 30.93342989 0.00000287 26.48886422 -12.38372515 15.11405021 -39.96188373 -2.03007391 34.62165741 62.4907771 -7.85737789 9.89255791 -29.96492313 -12.59053534 -22.79289683 -3.81702611 0.00004083 0.00001259 -36.46385113 -11.28447628 -31.27224706 27.75499203 -3.02628637 -5.36138228 10.35041363 0.46033644 10.56571488 2.7357154 -0.00000197 -6.4e-7
-0.02693355 0.94408944 0.93904111 2.58567841 67.94535484 -8.79606637 12.23203451 -3.85366408 -5.31429407 3.12162039 -1.17674701 -0.87287783 3.13834624 -1.16101319 -0.85641377 4.64083629 -6.90795448 -4.79220936 -6.19855994 -43.45479739 9.45027831 0.7560069 -9.76108081 -6.65161386 -2.27257587 -52.25586841 -6.40737597 0.00002655 -58.98658336 0.00002075 29.9312372 -12.96372359 22.56884601 0.90219876 14.13741608 6.34739586 21.37537379 6.27899782 50.44086278 0.0000016 29.1217093 -0.0000029 26.28094533 -11.1620299 11.58136113 -37.7169108 0.68083896 35.31628792 58.44636543 -8.27933879 9.95857529 -29.2408739 -11.1111097 -25.29727608 -3.7844402 0.00000523 -0.00000819 -39.57181847 -9.06440429 -32.71768661 27.92039368 -3.01676388 -5.2020742 15.12437143 0.87218592 10.15645911 3.20053261 -0.00000129 6.7e-7
-0.03238102 0.93451972 0.99329821 5.87916593 65.39435804 -8.0335718 11.9840606 -4.78818135 -3.79184555 3.00826077 -1.52199271 -0.62802522 3.02479753 -1.5107558 -0.60609813 4.85509268 -7.06154557 -3.80821543 -12.78979213 -42.94056309 6.11402201 0.73511704 -9.7716176 -7.03298703 -11.12118823 -29.99637018 -17.76917225 0.0000093 -49.19619742 0.0000041 26.75640355 -18.00952294 26.01764398 0.92067262 10.17223985 4.05186037 21.89126892 -2.43458928 55.2209901 0.0000021 28.63997634 -0.00000795 21.29689661 -9.66094764 3.47169823 -35.35590047 4.50376456 35.83994309 53.67805521 -9.17917342 9.72387447 -27.21759741 -7.19585585 -26.99144592 -3.56254874 8.3e-7 0.00000337 -43.0753482 -5.83182739 -34.0254745 29.65336721 -2.58586364 -5.54124219 17.00020269 1.59110842 16.63597184 1.58000525 -0.0247657 1.50108399
-0.03650324 0.91797963 1.04853598 10.91611076 62.39954791 -8.04067305 11.75212383 -6.43924288 -2.31462037 2.69600923 -2.09502173 -0.27514282 2.71559067 -2.08510712 -0.23829347 4.77338345 -7.04847713 -2.6226338 -21.22757058 -41.30486953 2.67164877 0.68494067 -8.45424516 -7.47677508 -10.29562879 -9.41703722 -22.28520624 0.00001919 -42.16183589 0.00002036 17.82933254 -14.5892999 26.63323982 0.57939611 3.34746547 -0.08277577 22.25178221 -9.58295479 59.18720595 -0.00000942 28.90031963 0.0000107 10.83367504 -7.4231517 -6.49730249 -33.27816474 8.51678566 35.8722346 49.13661874 -10.5149251 8.6291709 -24.12873906 -1.00881357 -27.48430774 -2.46299273 -0.0000089 -0.00000953 -48.76752042 -1.44109457 -36.24133041 35.65479481 -0.97213141 -6.0883789 12.92346044 1.90537336 28.65368141 0.00003321 -3.9e-7 0.00000191
-0.04108803 0.89954577 1.09163676 16.89546711 58.62148914 -7.97449297 12.44413535 -8.09104924 -0.562666 2.49187761 -2.67936984 0.04200947 2.51053236 -2.6695526 0.10396936 3.70701401 -7.09861174 -1.06536538 -30.98103157 -39.62000561 -0.37995693 0.64418428 -5.17089955 -5.97093785 -3.59521809 4.74987981 -30.47707702 -0.0000056 -33.25652109 -0.00000698 3.6959066 -13.63380917 27.89920156 -0.68345143 -6.130458 -5.45674514 20.84573979 -14.18520131 62.09675796 -0.00000792 28.52264389 0.00001636 -5.12886173 -4.4375196 -13.40469294 -31.3790476 12.68969809 34.22858273 44.62619662 -11.16156217 7.12131067 -21.71027412 3.89362167 -28.10600822 -0.89381281 0.00003355 0.00001214 -60.39566117 4.7998737 -38.22137329 47.88588999 3.65012602 -4.95089511 7.68823806 0.38916922 25.57125971 -0.06096666 0.00001606 0.0000043
-0.04372983 0.88328232 1.12510627 21.93613011 53.39873033 -8.08605735 13.8247539 -8.67311619 1.91676965 2.99155036 -2.96182182 0.75212804 3.00896547 -2.94519407 0.8177215 2.44677286 -7.03226958 0.8158806 -39.16806074 -37.5763153 -2.05845277 0.55199202 -2.88433169 -2.34592153 7.6679441 13.83064795 -46.27645656 0.00000468 -26.37824863 0.00000908 -4.38120308 -12.71806023 28.18105979 -2.09235636 -13.74996464 -8.03605012 17.34423574 -17.96020271 61.98136315 -0.00000546 27.1079995 0.00000783 -24.07090616 -1.87940351 -15.7553608 -29.84365047 16.73258113 33.46519941 40.75957584 -10.3650712 5.23545244 -21.43892403 5.31803829 -28.5697754 -0.14457397 0.0000065 0.00000154 -70.51349254 9.66316603 -36.91747724 55.46806113 7.23527386 -3.63249552 5.05038908 -0.2323925 21.77231487 -0.53401898 -0.00002576 0.0000027
-0.04344503 0.87101226 1.15827196 26.27043508 48.32844339 -8.59197966 14.53247779 -8.36301867 4.1464631 3.56275822 -2.93947549 1.4950214 3.57818589 -2.91986621 1.54599357 3.16448813 -6.65342143 1.960207 -39.95265933 -36.36195943 -0.10980627 0.19912088 0.4302277 1.77277155 17.97158664 15.16479628 -62.82519668 0.00001822 -23.58366714 0.00001948 -0.82737597 -12.36103246 27.81247718 -1.82152847 -14.07907106 -5.97294836 15.50317651 -25.02694411 60.84534075 -0.00000822 25.43198546 0.00000703 -34.56270224 1.1075714 -18.26162842 -27.73936393 19.37321844 32.21787237 37.13353149 -8.88968301 4.08660286 -22.15732471 6.61060987 -27.09786434 0.07422385 0.00034829 -0.18396805 -78.49848384 13.01230455 -33.94586886 60.62279288 8.90953693 -2.49103223 2.89955234 0.02450527 18.77760443 3e-8 -0.00001952 0.0000045
-0.0424264 0.86066039 1.18848027 29.80880277 45.63974162 -8.14265249 14.69617482 -8.02918306 6.0071948 3.79816848 -2.86525541 1.7699723 3.79836301 -2.85610516 1.81169629 5.83758387 -6.35083791 1.9491721 -35.96186461 -36.00882574 1.16768195 -0.14914051 2.80943902 3.7652329 23.06328032 13.24895573 -71.88742797 0.00000238 -22.389776 0.0000056 0.68861992 -12.80171541 28.29751241 -1.83226799 -14.70566348 -5.50236089 15.09744695 -29.19617212 62.37862497 -0.00000135 22.81242527 -0.00001549 -36.51077197 3.41555149 -21.56443029 -24.4966178 19.66318325 27.85923919 33.41827297 -5.75440507 4.99214368 -23.40878318 6.65024169 -24.86174302 -1.36152345 -0.00001409 -0.00000558 -84.98054157 15.49280911 -33.53297038 65.10177155 8.69898908 -1.00436973 0.9015986 2.63689584 15.69492571 -0.00003299 0.00000255 -0.0000074
-0.04219742 0.85288873 1.21398855 31.22639366 44.15125803 -6.62320835 15.38970018 -7.65876861 7.6460358 4.07733189 -2.78385617 1.96440283 4.06331683 -2.78524419 2.00281906 8.65342602 -6.03411911 1.230631 -31.30999457 -34.44363593 0.20593374 0.0329962 1.71115645 2.60470575 23.44551121 12.75696016 -74.43572866 0.00000254 -19.85673555 -0.00001197 -0.76212962 -13.67467659 28.95206073 -1.93536807 -14.94510435 -5.93615944 15.14624482 -29.63183651 63.6841792 -0.00002146 20.68155886 0.00000518 -40.23678958 4.37098605 -22.22569977 -21.02910915 19.77093794 23.83798529 29.78809202 -3.11628903 6.46558888 -24.05261925 6.1645776 -22.78693484 -2.93160354 -0.00000746 0.00001059 -89.19659389 16.97451553 -33.76839778 68.78088917 8.43412123 0.0977012 -0.70691078 5.19171256 12.99068826 -0.00003399 -0.00000857 -4.4e-7
-0.04396099 0.84587891 1.23697144 31.54359657 42.67969699 -4.86917001 16.04073114 -7.38199004 8.10036681 4.26316066 -2.70065533 1.8611017 4.24025428 -2.71021241 1.89981432 10.01860841 -5.44485564 0.45972621 -26.22046298 -31.51007633 0.49848776 0.23442416 0.42648922 0.75062372 21.39860351 13.36121002 -72.04713725 -0.00000143 -18.83223331 0.00001018 0.46204821 -13.84164178 29.99841486 -1.60590102 -12.91049776 -5.60033877 14.58735122 -30.16891033 62.93792362 0.0000024 20.38092134 0.00000461 -40.52062875 4.13764552 -22.84649173 -18.40535508 20.64997746 22.13361156 26.86974947 -2.70868936 6.34010394 -22.98096162 6.09136439 -23.40634447 -2.91939097 0.00000218 0.00000327 -92.29501961 17.99874843 -33.22973811 72.02184182 8.35329021 0.48810935 -2.1338659 7.07502343 11.73536192 -0.15825598 4.3e-7 0.00000698
-0.04662382 0.8406855 1.25691187 32.31869693 41.76809681 -4.15029881 15.9021711 -7.34275475 7.89575869 4.17906947 -2.65834927 1.49240601 4.14613872 -2.67737888 1.53173387 10.13103765 -4.98644477 -0.222923 -24.22414151 -29.24689481 0.79534158 0.35769638 -0.58099188 -0.49248386 18.72552696 14.80264248 -67.14080741 0.00000202 -20.49659814 -0.00000635 2.49059975 -13.8987616 33.15034022 -1.28088105 -11.35688211 -4.71803521 11.11651938 -31.26481752 58.61579846 0.00000588 20.94360426 -0.00000898 -39.37161768 3.7818696 -24.36824388 -17.79598498 21.28401289 21.79484036 25.58820562 -2.42424745 5.53801928 -21.39111912 5.88868173 -24.69463807 -3.52750196 0.00001551 0.00000163 -94.74468636 18.59901197 -32.85976782 74.62754674 8.32308309 0.86513358 -3.41519558 8.08540868 10.96008163 -0.49466841 0.00000137 0.0000047
-0.04917132 0.83823227 1.27347982 32.5891921 41.7319926 -3.9957678 15.51994425 -7.30480847 7.6102187 3.98853593 -2.60741104 1.0075098 3.94268936 -2.63785474 1.04799965 9.53678874 -4.88180686 -0.90057902 -24.84519443 -28.19073851 -0.34356903 0.46441922 -1.73991585 -1.40156266 15.25131704 16.6390002 -60.93960665 0.00001162 -23.48428347 -0.00000127 3.32170272 -14.35462458 35.48811941 -0.95700243 -9.67798397 -3.75843966 6.20961218 -32.55502481 51.94675316 0.00000266 21.83743755 -0.00000126 -39.67031011 3.11915954 -25.07925437 -18.20696715 21.13236028 22.04536131 25.89254223 -2.14600805 5.97841396 -19.58881262 4.92234408 -25.61519092 -4.76115085 0.0000176 -1.5e-7 -95.67454122 18.54272301 -33.1452593 76.64891554 8.17734189 1.31255432 -4.74067295 8.65566471 10.1637341 -0.74398808 -0.0000113 6.1e-7
-0.05187679 0.83606339 1.28608825 31.52990037 42.3313284 -3.61693017 15.30063806 -7.00418376 6.90236606 3.78323344 -2.45881473 0.39829273 3.7277792 -2.50011202 0.4409752 8.50433319 -4.94274932 -1.67151517 -25.67158571 -28.11068274 -1.48447466 0.55767578 -2.99056273 -2.06860184 11.10681978 19.18085258 -54.42238085 7e-8 -29.14220918 0.00000497 3.77147638 -14.50047134 37.0974173 -0.6349008 -7.53119967 -3.04509304 1.82320093 -32.66511702 44.64565723 0.00000498 22.34689458 -0.00000892 -37.64745393 2.045989 -25.33867706 -19.08805934 20.81539386 23.05224587 27.79287677 -2.48848056 7.01651565 -18.72692826 3.57456999 -26.10896281 -5.39489974 0.0026517 -0.48438735 -95.0892745 18.03758037 -33.59341741 78.50072077 7.93119316 1.35890566 -6.16379933 8.84096515 9.55323202 -0.91697223 -0.0000021 -9.5e-7
-0.05399386 0.83467621 1.29494385 29.48998015 43.60008373 -3.2071079 15.08878311 -6.54184902 5.97042606 3.57791957 -2.24633875 -0.26072554 3.51652216 -2.29892903 -0.21744416 7.35077563 -5.03489821 -2.5559789 -25.84908325 -28.67121475 -2.07629061 0.56272671 -3.03754218 -2.60357286 5.95641119 20.64495828 -48.27274088 -0.00000272 -36.51547469 -0.00000257 7.98143327 -15.46893056 39.58308713 -0.38235646 -5.73777899 -2.39315925 -2.70057603 -31.22943004 37.02991111 -0.00001235 22.42468751 -0.00000896 -36.81183796 1.86961532 -25.53252334 -20.55575715 20.31401713 24.64308787 30.83102323 -3.04263587 8.25466128 -18.75986413 2.44873981 -26.40098366 -6.13464263 0.00534614 -0.68548364 -93.13709582 17.21585777 -34.41450237 80.07498192 7.67140187 1.17149356 -7.65911371 8.62015451 9.55947344 -1.07536225 3.5e-7 -0.00000168
-0.05506468 0.83557541 1.30053025 26.96667606 45.87111169 -2.83649651 14.63502339 -5.85010943 5.07416135 3.34189365 -1.95649307 -0.89322195 3.27877164 -2.01993819 -0.85324027 6.25519024 -5.15150439 -3.66846006 -24.20887357 -30.14551282 -1.74799445 0.57492404 -3.19521953 -3.67177666 0.77126317 19.52124882 -42.32889139 0.00000813 -44.09679999 0.00001278 10.77488934 -16.45911381 38.39777451 -0.18357454 -4.00583558 -2.14999921 -6.8266496 -29.15170082 30.26049434 0.00000612 21.97890403 -0.00000897 -38.74880843 1.26272968 -25.17937998 -22.42408209 19.38634962 26.19083539 34.23600818 -3.65032154 9.54870017 -18.90133799 1.92869512 -26.28182603 -6.64851105 0.00015717 -0.11422173 -89.94591592 16.1890608 -36.19850082 81.16924267 7.44964684 1.04127774 -9.17370829 8.09981382 10.04299002 -1.19911884 0.00000269 -0.00000241
-0.05501532 0.83790374 1.30257934 23.92760845 48.97884421 -2.1575153 14.15504719 -4.82963212 3.91523291 3.10425804 -1.551735 -1.5523116 3.04730347 -1.62519713 -1.5190558 5.4871072 -5.46239554 -4.53377434 -21.44119096 -32.86537459 -0.90571353 0.61467144 -4.08442302 -4.93221756 -3.43717785 17.77571756 -37.58021879 0.0000223 -53.59823671 0.00001228 14.15076533 -16.878838 35.15701465 0.09443651 -1.36055992 -2.04357847 -10.08843726 -27.66967746 24.81177548 -0.00000259 21.01089277 -0.00000408 -41.13623686 1.22500519 -25.59567899 -24.17425498 17.76563343 27.53643499 37.77706337 -4.25031439 10.37517945 -18.92380551 1.76306023 -25.9656301 -6.64759946 0.00000369 0.00000834 -85.94093867 14.84029588 -38.64092256 81.84678346 7.20039232 0.81849853 -10.57311617 7.12993264 10.52229638 -1.1270643 0.00000996 -0.00000481
-0.05445059 0.83988808 1.30115479 20.45330127 52.69599559 -1.26689923 13.83012118 -3.47362733 2.52418523 2.92353631 -1.03424506 -2.15307062 2.88215678 -1.11589106 -2.13018689 5.06094188 -6.00660994 -4.9676358 -18.44161177 -36.6706129 0.42583813 0.57856103 -3.18126027 -5.50127318 -6.33959979 13.32185543 -35.4337225 0.00004097 -63.29473742 0.00002166 22.84834762 -17.11806072 34.72406002 0.41264676 1.71461526 -1.86013621 -12.85806659 -26.38417594 20.13570869 -0.00000586 19.78615381 0.00001019 -46.05099655 1.98050157 -26.2989754 -25.41575384 14.4439545 28.79870719 41.28920488 -4.18234557 10.31482486 -19.39315417 0.66657368 -25.69841995 -5.96429431 0.00003573 0.00001144 -81.46489556 13.08056429 -41.02656299 82.22566584 6.87049857 0.30862316 -11.85020645 5.39581725 10.92360462 -0.93437338 0.00000796 8e-7
-0.05402779 0.84118874 1.29656677 16.68168437 57.00177968 -0.3688642 13.60307207 -1.95728253 1.30795649 2.82943176 -0.47259998 -2.60874863 2.80850676 -0.5603524 -2.59894875 4.93360031 -6.56171947 -5.08192878 -15.09252203 -40.38141727 2.48821503 0.51215859 -1.34855908 -5.52536566 -7.06721707 6.00512751 -34.59320983 0.00002916 -72.26953817 0.00000428 27.74127568 -16.60709155 32.86749238 0.67307338 4.34352774 -1.15899371 -16.53332872 -24.54904041 15.31024887 -2.8e-7 18.90427588 -6.3e-7 -51.55536328 3.38720607 -27.52798645 -26.78169688 10.28735343 30.02670609 44.4004296 -3.78874081 10.25969908 -20.26061755 -1.7108108 -26.23147338 -5.62180976 -0.00000615 0.00001771 -76.55811947 10.82788175 -43.08303068 82.20575348 6.66919876 -0.32391157 -13.00024049 2.91662388 11.1532304 -1.74360073 0.00000984 -0.00000281
-0.05335844 0.84309327 1.28883803 12.83523986 61.82668323 0.3684964 13.4213752 -0.69766067 0.42580976 2.74774992 -0.01840898 -2.87408036 2.74461817 -0.10845459 -2.87514171 5.20798449 -7.10743644 -5.01541505 -11.97309476 -43.84273557 4.86334364 0.48936134 -0.50838456 -5.82147378 -6.05891371 -0.80332375 -31.97431064 0.0000792 -81.21951694 0.00006811 27.89294253 -15.4502497 29.32088032 0.87357971 6.74936197 -0.1743537 -19.95695995 -21.57122656 11.00363683 -0.00001193 18.06075878 0.00000384 -55.06558987 6.5351787 -28.46816497 -28.73256843 6.23688199 31.23272063 47.0497759 -3.40725789 10.23315588 -21.32869184 -4.38016345 -26.85029429 -5.65920703 -0.00002068 0.000008 -71.48702985 8.37923785 -45.16830262 81.84571583 6.95014742 -0.78470233 -13.39547655 -0.06461682 13.09978147 -3.20595616 -0.00001553 3e-7
-0.05172627 0.84576461 1.27698495 8.70447671 66.91238988 1.31516152 13.2773523 0.38863782 -0.31007519 2.72595301 0.35510438 -2.90195282 2.73716878 0.26901452 -2.91183954 5.70163153 -7.74339344 -4.71419675 -9.4084693 -47.30664576 6.6860239 0.53163929 -1.3974581 -6.50956206 -4.76172222 -6.37677219 -26.71596338 0.00033834 -88.4224653 0.00033308 25.37406854 -14.0110484 26.59214721 1.01921558 8.90717953 0.6931339 -23.61428057 -17.96795395 7.33549359 5e-7 17.7482881 -0.00000872 -58.74826857 9.49624941 -28.55461304 -31.06246504 2.69649141 32.04045643 49.73177268 -3.51768528 10.21284322 -22.3586976 -5.49478664 -26.71593978 -5.07002311 -5.6e-7 0.00000974 -66.42210151 5.48090551 -47.13624052 80.82999435 7.02967491 -1.06723884 -12.8306701 -2.66979853 15.45906419 -4.09779925 0.00003199 -0.00000223
-0.04907278 0.84993072 1.25946015 4.3061216 71.80322863 2.74929993 13.23244397 1.43729991 -0.92746258 2.72773512 0.70609551 -2.78223423 2.75004485 0.62697104 -2.80018095 6.21139758 -8.42233974 -4.11511584 -6.85839753 -50.58092002 8.30361274 0.56455044 -2.62502511 -6.369976 -4.70738454 -13.17430675 -21.53640062 179.99878786 -88.52233672 179.99877162 19.14795063 -12.37540901 22.19056895 1.07809106 9.92037968 1.071179 -29.2386369 -13.50994152 5.04575728 -0.00000441 18.67196531 0.00001579 -60.72447707 12.15733889 -30.45703471 -33.7085519 0.01505837 32.36166584 52.59135151 -5.68021086 10.05730649 -21.82775658 -3.47799143 -27.06602784 -2.64214319 0.00000411 -0.00000155 -61.27291694 2.28720451 -48.60987315 78.57926756 4.85398432 -1.37386129 -11.78584053 -3.14625205 18.81178624 -4.59598219 0.00003248 0.00000521
-0.04615415 0.85673341 1.23269666 0.62112595 76.09596363 3.61826029 13.21500656 2.02750158 -1.18687551 2.68755148 0.88409168 -2.44982765 2.71196491 0.8158735 -2.4721181 6.37701675 -8.97248435 -3.53301647 -4.61757474 -53.18127489 10.31175119 0.58036354 -3.22860987 -5.54261743 -5.8786321 -22.55867183 -18.86971882 179.99883352 -88.96911183 179.99881982 14.89472571 -11.04426079 17.55461355 1.12590098 10.92846337 1.51047097 -34.49817667 -7.15910314 3.64653146 -0.00000254 19.59864278 -0.0000034 -61.52558695 13.81572776 -31.69886208 -36.83243886 -2.26776358 32.5162797 55.23080158 -9.47384579 9.88318331 -19.86463923 -1.40897335 -29.21611983 -0.16958239 -0.00000847 -0.00000748 -56.17908814 -0.85175142 -48.83274359 74.58637257 1.91250757 -1.84681157 -9.42669927 -3.16653356 22.84691842 -5.15859199 -9.5e-7 -0.0000114
-0.04182967 0.86860401 1.19340239 -1.29525112 79.29996247 3.09441149 13.2028093 2.03515266 -1.16865058 2.75087906 0.84616172 -1.96853276 2.76940918 0.79242504 -1.9889285 5.92559349 -9.32078524 -2.90289376 -3.73383948 -54.47657104 11.80312106 0.64100354 -4.93668232 -5.63015747 -5.67124426 -33.46105577 -16.66407335 0.00263 -89.69206752 0.00261876 13.50200091 -10.33102673 15.62937289 1.12029095 11.61350164 2.27659435 -38.59056725 1.39627813 3.1695107 9.2e-7 20.36892259 -0.00000724 -62.07343927 15.78946711 -31.58438752 -39.62710627 -4.16028088 31.55418123 57.52983409 -10.46286097 9.94123561 -19.68617299 -2.07196216 -29.49119703 -0.1093936 -0.00005627 0.00000224 -50.90760022 -3.57783247 -47.54506331 68.09656265 -1.80105961 -2.81315355 -5.75239671 -2.70140303 26.36352901 -5.22139801 0.00000945 -0.0000107
-0.03328573 0.88941755 1.14022825 -1.3431331 80.29877186 1.36550236 13.10013876 1.34350721 -1.26909801 2.96696142 0.56870076 -1.44418015 2.9750883 0.533126 -1.45608842 5.33206231 -9.42161637 -2.11661418 -4.73427573 -54.30444284 12.14143622 0.71617714 -8.7659794 -6.93626776 -1.37262496 -43.32022173 -13.24811238 0.00119461 -89.33141206 0.00119235 13.49907181 -9.31487889 13.48524835 1.07476706 12.19321106 3.36005088 -42.77710976 11.38477199 4.82274878 -0.0000084 22.33151608 0.00000264 -59.07500757 17.45904156 -29.00055029 -40.78587604 -3.83131427 30.03963338 58.67599972 -10.32931946 9.96519026 -19.32062774 -1.42331008 -29.69391096 0.04617155 0.00001915 -0.04529894 -45.14441859 -6.19367975 -44.98977198 57.57492518 -5.14196685 -4.43445711 -1.1410034 -1.6963692 27.80677253 -3.95509557 0.00000176 -0.00000532
-0.02112838 0.91834457 1.0735141 1.62357534 78.04391625 -3.08113989 12.80667871 0.2655103 -1.08563397 2.98283273 0.16046923 -0.87784045 2.98392603 0.14236063 -0.88114752 4.86708396 -9.35469975 -1.34919327 -6.5200116 -53.15462811 11.21487031 0.59911654 -14.11110403 -9.56237968 8.21922134 -51.41571506 -8.15278039 0.00055834 -88.53503683 0.00054242 14.44345584 -7.79700738 11.84018432 1.01845491 12.7563532 4.43086114 -45.22823855 21.81153635 8.77705948 -0.00000802 27.35511271 0.00000745 -53.61908795 17.52596139 -22.92610434 -41.17438489 -1.30646521 28.71307778 60.22389505 -9.7581353 9.7506619 -19.80554691 1.30826318 -26.95285159 -0.00002446 0.00001481 -0.00000389 -39.15747839 -7.85004373 -40.63254037 42.05946818 -9.66025008 -6.52464918 8.05155746 0.13582744 26.13705276 -3.33778913 0.00002154 -0.00000602
-0.00665147 0.94726267 0.99929879 5.47814407 71.91314568 -8.35855389 12.27379451 -0.6957854 -0.64195731 2.85291711 -0.21114434 -0.34408232 2.85287684 -0.21540658 -0.34063128 4.06638231 -9.03338134 -0.46527216 -8.38822007 -50.55133998 10.50512974 0.19313951 -18.92802649 -12.55558955 20.57772543 -57.88509173 -1.10015756 0.00029703 -86.49035507 0.00027706 15.25400511 -5.87377917 9.14390844 0.94696588 12.46570592 5.15974315 -46.06302349 33.16954774 14.3075102 -0.00001703 36.50852221 0.00000465 -46.58736261 16.61073616 -17.37161768 -41.27586384 1.58040872 28.75267041 61.99930983 -8.66350476 7.4006912 -21.63474191 4.74929221 -21.5861246 0.00001367 0.00001355 -0.00000479 -33.61382869 -7.38937028 -34.39238488 22.34364921 -10.7610204 -7.28048274 22.4438213 -0.63684436 21.9123419 0.46711905 -0.01771316 1.26873091
0.00948008 0.96791071 0.92857425 7.20792282 62.18397955 -11.26135693 11.54492461 -1.76042807 -0.45878082 2.8003656 -0.60463891 0.2776231 2.80466866 -0.59335991 0.28657793 2.72481795 -8.18174049 0.30681917 -11.82791438 -45.13410905 9.01443266 -0.58220143 -23.85361343 -16.09303417 31.78451481 -59.60182883 6.55603834 0.00012593 -85.01561448 0.00012972 17.04711032 -5.24318312 6.36963256 0.89035546 11.25274238 5.27625385 -49.61047768 47.63801657 23.92876847 -0.0000034 46.60308715 -0.00000655 -37.31791605 14.25516732 -15.57923659 -40.92158032 5.00401516 29.86580705 63.2400862 -2.14535407 4.41923475 -24.2822719 4.82527444 -19.05115546 -0.05310692 0.00002696 0.00000392 -34.00213815 -8.78395015 -30.45426247 10.5899157 -7.39617783 -2.2648866 25.47698752 4.53036075 25.81146401 7.21331754 0.00001579 0.00001
0.02636976 0.97928425 0.86301464 6.09384089 50.33327837 -10.86884732 11.7839542 -3.35690763 -0.70098884 2.92806416 -1.1014983 0.49676018 2.93922371 -1.08380435 0.51264113 1.27326378 -6.87555243 1.4926905 -14.50886494 -36.78299914 7.61221265 -1.18870282 -27.21887792 -17.98518365 37.14708584 -58.83596357 10.5134742 0.00024369 -84.37869018 0.00023097 18.20411562 -4.44013618 4.07292593 0.83986818 9.83078865 5.19018567 -63.35012054 61.03752904 44.90025094 -0.00001271 54.37519072 0.00000596 -27.47055906 11.19756728 -16.15049904 -39.4959294 8.96537207 30.18594577 64.90717448 5.65307229 1.94209228 -27.12134917 5.83100042 -18.28783575 -0.49290085 0.00001797 0.00000196 -43.46710136 -8.23742775 -25.45290972 22.82253842 0.20356524 2.91336341 18.24989076 3.04673303 27.66522174 3.42985468 0.05194044 -1.66139712
0.04589177 0.99406703 0.79772673 3.73368264 38.05621702 -9.74185237 12.83717928 -5.70366553 -1.04786672 3.09037727 -1.86963563 0.2163659 3.10760123 -1.854321 0.24834692 0.9070489 -5.20743084 3.02335652 -14.91725896 -26.52040741 7.24018073 -0.86885439 -26.99184566 -16.56176038 35.94497034 -58.65447799 8.94841573 0.00011719 -83.48721767 0.00009468 18.6452609 -2.27394337 0.49101285 0.78465153 10.38325135 6.45513867 -84.34520084 68.19576962 74.11336481 0.0000023 61.72126546 -0.00000454 -19.8118681 8.61899715 -14.10359164 -37.26402811 14.12225921 29.97955219 65.08309377 7.30883928 -0.44313433 -29.28060229 12.14334152 -14.47821598 -0.95104639 -0.00000559 -0.00000383 -48.31827193 -9.95656051 -17.88566515 37.22317834 0.12932549 5.44676381 9.8338936 0.48617745 14.45435809 1.1137166 0.05831671 -1.75490313
0.06966851 1.00994068 0.74312391 2.43228023 26.78836937 -8.71500452 12.60940756 -7.94802628 -1.78039519 2.94445056 -2.57260376 -0.20563457 2.96328274 -2.56433911 -0.15889398 1.39124812 -3.48961961 3.91435024 -13.78666895 -16.4954895 6.64205502 -0.31780873 -25.05421428 -14.36054994 31.21509761 -58.70995719 3.78442262 0.00022137 -81.45519084 0.00020765 21.5161317 -1.01983815 -1.88151724 0.73928331 11.65873411 7.58758861 -95.25614698 71.73265196 95.23854444 -0.00003062 71.33434829 0.00002146 -9.59576356 6.1663527 -12.12937218 -34.87510291 19.50967923 29.11738071 63.30129063 7.870508 -3.7958825 -30.93397301 17.79205607 -9.9484335 -1.39263689 -0.00000501 -0.0000066 -49.63651624 -11.11945406 -11.74564268 51.25180291 0.70980834 5.92496171 1.61466785 -0.38111046 8.71186991 -2.25274121 0.24589004 -3.59515899
0.09649228 1.02317205 0.6961679 1.86880127 16.54173623 -7.33969495 11.53035992 -8.98886594 -2.52516616 2.80820082 -2.88581829 -0.55802971 2.82239578 -2.88439335 -0.51352951 1.40172625 -2.02697235 4.0338485 -12.50792167 -8.3070337 5.95305774 -0.03288635 -23.30693694 -13.18107145 22.30955863 -57.53871139 -5.42828409 0.00014516 -78.59140062 0.00014087 25.73149889 -2.50449149 -2.960786 0.70608231 13.18322179 8.30451746 -86.54093956 76.82573748 97.25096902 -0.00009825 82.41709811 0.00008797 3.35039298 2.67764556 -13.7431684 -32.25477058 23.0317176 25.84124487 61.41373982 9.79845951 -7.13230908 -32.54798778 22.49812949 -4.20115462 -2.60274906 0.00000912 -0.00000463 -49.29554474 -11.30470653 -8.01317486 63.77746526 3.69703092 4.64761691 -0.93836986 -0.63926245 8.55866057 -9.76531544 1.38750686 -8.50560613
0.12344404 1.03425933 0.65381769 1.0604083 7.45119129 -6.24098421 11.23083869 -8.69216768 -2.63747853 2.96308833 -2.80040009 -0.64368324 2.97154491 -2.80178703 -0.60985201 0.88690128 -0.85193234 3.56656529 -12.45235 -2.44581412 5.63687872 0.031704 -21.99231789 -13.04631638 11.19949373 -54.54836368 -16.51511213 0.00005031 -75.47547011 0.00003865 28.36044501 -4.62023019 -1.59004075 0.65443492 14.14772728 8.97724377 -41.57119895 80.1802713 62.57760721 -179.99981908 87.92514271 179.99981591 10.28198766 1.58294024 -17.88432085 -29.24536988 23.18339794 21.6303234 59.75279563 10.16797022 -8.63946965 -30.94709246 27.31338942 -4.18385521 -5.9138883 -0.00002145 3.2e-7 -45.59475861 -10.80869265 -5.50112172 72.85926836 5.77390425 2.61936188 -2.065665 -0.73326667 7.88224228 -13.20733495 2.79122641 -10.18544574
0.14659382 1.04349221 0.61564047 0.13672706 0.09963849 -5.68926867 11.38737466 -7.78300398 -2.01091901 3.27136228 -2.54043221 -0.57923608 3.27134479 -2.54562214 -0.55771123 0.59252202 0.11210621 2.95395449 -13.82759072 2.04058589 4.91941259 -0.0180291 -21.72615749 -13.402266 1.88794623 -48.4781218 -25.63031841 0.00004328 -73.66306167 0.00003007 27.48084889 -5.74452331 1.29429911 0.63676908 14.10618741 9.16268434 -6.16789882 73.30146224 36.86669362 -179.99991229 83.18849198 179.99990412 9.37830521 3.87930445 -18.317172 -27.00837932 21.5463108 16.89598161 58.40867171 11.09490296 -7.05253806 -29.31321013 26.6568249 -3.81933731 -8.58853622 -0.00001337 0.00000679 -39.09634463 -9.74196224 -4.51705885 78.2403506 4.54683125 0.64270438 -3.4044836 -0.8431303 8.10789862 -11.919728 2.01643194 -7.84936304
0.16493988 1.0489695 0.5802481 -0.17952356 -5.99076578 -5.30778101 11.19711367 -6.94180921 -1.34966473 3.41457797 -2.30476561 -0.47365883 3.40959146 -2.31264341 -0.46100207 0.58821445 0.96760771 2.57514958 -15.12266074 6.43498094 3.61101078 -0.03225044 -21.49336266 -13.54078073 -4.02891701 -40.36079135 -32.06558349 0.00004918 -73.22988466 0.00003312 25.15197727 -5.44083239 4.82505132 0.64604743 13.19682223 9.00710391 -0.26372133 63.73890143 38.53177809 -179.99993471 83.10516801 179.99993132 9.13762609 2.58948173 -13.34025249 -26.15999299 18.56577258 12.88714807 57.9581728 12.01663968 -3.79116057 -27.06580346 20.29047043 -4.91675613 -11.17342922 0.00002179 0.00001187 -32.15375864 -8.23481766 -5.14319062 79.82347812 1.52168424 -1.37604416 -3.69029233 -0.78102024 7.55985291 -6.95684706 -0.00491747 0.03337237
0.17917161 1.05075866 0.54720348 0.05311718 -12.38649128 -4.80475915 10.52758027 -5.84883797 -1.16066131 3.29491787 -1.96301499 -0.46576978 3.28903132 -1.97111784 -0.4580672 0.80728154 1.76391873 2.5435231 -15.38041149 10.90190254 2.51542515 0.10440047 -20.16766275 -12.93696295 -7.40490825 -32.06196129 -36.84270136 0.00006405 -72.22836009 0.00007161 25.0482326 -5.67027563 6.98527517 0.64320853 12.92931707 9.02423059 1.42736052 53.77237495 42.38915112 -179.99991998 83.81944253 179.99990038 13.84180938 0.55025295 -9.31182652 -25.57155988 16.1482654 10.62347235 56.96490105 12.4563512 -1.88898106 -26.95603866 13.15293831 -5.12633261 -10.80669663 0.0000057 0.0000141 -25.84585435 -7.07685072 -7.43579423 77.84530225 -1.22687157 -3.60796172 -4.57493174 -0.69318421 6.50032807 -1.69342329 -0.45012399 6.43680866
0.18956877 1.04948218 0.51549778 0.34842377 -19.78399745 -4.53775827 9.78513336 -4.39525082 -1.11976182 3.07188222 -1.48275034 -0.5000369 3.06656861 -1.49039972 -0.49497804 1.10361158 2.60739053 2.47763366 -15.12288752 15.32643564 2.16313496 0.28941137 -18.08438137 -11.98708749 -9.20863842 -23.69087868 -40.18230106 0.00003606 -69.78847317 0.0000312 26.27183748 -6.86933618 7.90336982 0.63901522 13.32664599 9.10099741 3.57715754 45.81221938 44.5190904 -179.99996726 83.55903569 179.99996836 14.34968267 1.16318354 -9.14357338 -25.81637952 16.6029636 11.04857796 56.00423671 12.11467189 -2.7563782 -28.35750093 11.95050892 -3.77960862 -7.82464306 0.00000141 0.00000343 -20.65866267 -7.41040049 -11.63161182 72.49684667 -3.94377201 -5.68061295 -5.05644749 -0.69261873 6.75368838 -2.22478993 -0.69289518 7.93324634
0.19612087 1.04621201 0.48185557 0.85938203 -27.08568662 -4.87247518 9.18250923 -3.09102881 -0.82110413 2.80665974 -1.04501276 -0.47075317 2.80204202 -1.05247098 -0.46648899 1.20208618 3.44620667 2.51049853 -14.798825 19.60870714 2.45350499 0.51518008 -15.41500653 -10.37969266 -10.27254332 -16.61841272 -42.6160148 0.00006213 -65.36653375 0.00005501 25.13738875 -8.08397284 9.32240455 0.57898352 14.29041438 9.78683462 6.80687486 39.80800225 44.69910238 179.99997344 81.84832068 -179.99998039 9.94127046 2.71419873 -10.28021695 -28.6348836 18.35916966 13.99176087 56.70372265 11.44346612 -4.98588731 -29.13315903 15.79407982 -1.75694642 -5.78560704 0.00000911 -0.00000139 -17.252396 -9.54026758 -16.48778828 64.31024908 -6.89534223 -6.95576042 -3.74904595 -0.55900961 6.70612165 -3.34343933 -0.98114097 9.33456477
0.19851806 1.04152604 0.44610873 1.13036288 -32.6511555 -5.53309486 8.89975525 -2.3783014 -0.51241749 2.68034522 -0.80483144 -0.35598293 2.67710812 -0.81071343 -0.35239764 1.30175849 4.0981621 2.60364887 -14.90571871 22.90255469 2.96745773 0.68146106 -12.77500176 -8.56641681 -11.46354858 -11.9843473 -44.41781403 0.00002367 -59.34777293 0.00001811 20.94469106 -8.16794616 9.12350741 0.52918594 15.40518741 10.25302142 9.21695928 34.5802343 45.55429275 -179.99997534 80.08484205 179.99997205 6.39643794 4.32335603 -11.44662927 -32.08510687 19.08952963 17.45017133 58.05569682 11.03862654 -6.27032314 -29.34323826 18.48719323 -0.62416876 -5.41550923 -0.00000349 0.00000293 -14.78189181 -13.50397574 -21.59577609 54.59977486 -8.99302577 -6.93526257 -2.23821747 -0.51826072 7.78809981 -1.87489029 -0.84212454 8.61435284
0.19679663 1.03612168 0.41135746 0.28042534 -36.63426453 -6.28207616 9.01462192 -2.00970983 -0.46241788 2.81442306 -0.67328502 -0.36763903 2.81169203 -0.67878721 -0.36542084 1.55796631 4.53771871 2.47564612 -14.34449035 24.99842319 3.11561981 0.69995001 -12.11925394 -8.24768736 -11.75874565 -7.5832833 -43.61788436 0.00002353 -54.56260173 0.00000719 17.68199793 -7.92124683 8.4989392 0.5615191 15.15519179 9.95375439 10.42089812 31.86877914 47.69397141 -179.99987849 79.73990026 179.99988926 5.52595637 4.7721861 -11.77172705 -34.06495114 19.33817842 20.17172151 59.04306202 10.37696401 -6.98216837 -29.39751053 20.45871296 0.17902345 -5.18040571 -0.00000371 0.00000736 -12.35126728 -18.83267462 -26.86781441 44.29366611 -9.87273436 -5.79017993 -0.81246958 -1.19454425 8.44947569 1.23426612 -0.32942692 5.43894823
0.191063 1.03153793 0.37512291 -0.40548091 -40.57097675 -6.88702238 8.68234982 -1.48965728 -0.54660336 2.73668575 -0.48589167 -0.51694114 2.73400678 -0.49238062 -0.51553597 1.92999654 4.90352719 2.32028274 -12.89004685 26.76085983 3.04918726 0.67949479 -12.09349735 -8.51705276 -10.63477332 -3.34935592 -41.90873501 0.00004265 -52.0883149 0.00003459 15.85275122 -8.59430248 9.74993279 0.58865909 14.51997944 9.69535419 11.73167725 30.65179094 50.03476076 -179.99990005 79.99478568 179.99988157 5.94760521 4.35331756 -11.05332023 -36.57014216 18.93582882 23.16031751 60.58164848 10.0940077 -7.34655282 -27.77937679 21.98986223 -0.3220515 -4.99722706 -0.00001327 0.00000474 -10.9415028 -22.9631355 -30.06742918 35.41344052 -9.63821728 -4.20293854 0.75835788 -5.51165964 7.8349926 4.29867867 0.00001846 0.00001231
0.18270265 1.02777183 0.33250545 -0.29288272 -45.02217599 -7.17636996 7.93225658 -0.68016684 -0.88256843 2.47029326 -0.20594947 -0.66683817 2.46856708 -0.21244705 -0.66621292 2.22428507 5.23177747 2.41443397 -12.39208491 28.54676635 3.11645492 0.70871264 -10.74166805 -7.85503433 -9.59486786 -0.21345394 -41.84667197 0.0000272 -51.01409146 0.0000149 14.36203155 -9.00440419 11.15499065 0.55974072 15.28577775 9.97519116 13.09899732 28.47844725 52.1664217 -179.99997027 79.62909362 179.99995288 5.98546776 4.00348417 -9.73173613 -39.83983611 18.1079657 26.83992987 61.79642665 10.26402834 -7.5251953 -25.24117981 23.17976792 -1.58449888 -4.74378035 -0.00000735 -0.00000124 -10.82715157 -23.34691964 -30.00074467 30.50259498 -9.52377644 -3.69764236 5.40781174 -10.17413443 8.9733617 4.94709295 -0.00001002 0.00002936
0.17414151 1.02303069 0.28484432 -0.36650452 -49.38183591 -7.15414402 7.66004069 -0.13715432 -1.78516243 2.42098678 -0.01514971 -0.823847 2.41988619 -0.01953141 -0.82378249 2.22553632 5.61671437 2.34640487 -13.16417447 30.43014512 3.25723503 0.71652109 -8.54453792 -6.90185146 -9.46920151 2.65860673 -42.65632107 0.00001752 -50.76148912 0.00002054 14.64107246 -9.68319808 12.34605975 0.48341649 16.68221723 10.60307092 14.04249774 26.6626342 53.39748494 179.9999647 79.0951606 -179.99999873 5.74725958 3.67611113 -9.35977599 -42.55942551 16.78446717 30.08950426 62.74143427 10.23734365 -7.54867885 -22.04392178 24.37438766 -3.91937645 -4.58915855 -0.00001584 2.1e-7 -11.47104177 -21.46733982 -28.44018904 29.37464682 -10.18185395 -4.9974579 8.64056771 -8.6603947 11.24552977 -0.39845416 -0.68651772 7.77904171
0.16599584 1.01643193 0.23595159 -0.97239047 -52.63940874 -7.29630945 7.9190167 0.00799512 -2.6571107 2.50499987 0.04605609 -0.97796453 2.50355486 0.04420341 -0.97807413 2.26429565 5.95139334 2.0341966 -13.86025752 31.97167762 2.92635514 0.70637687 -7.65742001 -6.60152165 -9.50921281 5.30701854 -42.49024433 0.00002607 -50.50585282 0.00001888 15.26986358 -10.92955748 13.59050028 0.43728961 17.41852478 10.93254522 14.33019225 26.02178686 54.36283772 -179.99996859 78.78272891 179.99995822 5.5173218 3.15328176 -9.547159 -44.48975969 15.08723937 32.15147456 63.34792356 10.12998561 -6.87644438 -19.18979383 24.44508935 -5.80878023 -4.34548458 0.00001272 0.00000936 -10.28283301 -20.62860978 -25.94223993 27.85544574 -10.54401555 -6.2100628 -0.02441025 -7.70552202 16.44865262 -0.75282465 -0.03254851 1.71179104
0.15840583 1.00671276 0.18670314 -1.75507509 -54.12860037 -7.34385953 8.54157726 -0.16443387 -3.03770334 2.60461055 0.00376244 -1.15953257 2.60299762 -0.00039797 -1.15977371 2.34955021 6.09453779 1.75003107 -14.21227884 32.67168364 2.27063414 0.70093658 -8.59805322 -7.28510032 -9.45752203 6.71139661 -40.62946022 0.00003119 -49.69675817 0.00003274 15.32021841 -11.5521322 13.91453082 0.47525578 17.0570077 10.64965941 14.12287963 26.1544583 56.01495155 -179.99990774 78.48132297 179.99990104 5.54174764 2.88859378 -9.62091417 -46.50272035 13.60205875 33.35104012 63.9424416 10.20599709 -5.49502677 -17.16959177 21.28697593 -7.12488257 -3.71653964 0.00000644 9.5e-7 -8.50909229 -20.75258409 -25.80805845 25.45672193 -7.94318567 -5.02726009 -4.50989247 -7.08452099 27.23532379 2.63306933 -0.06513682 2.43422952
0.1540717 0.99561839 0.14200099 -2.17613404 -54.41191567 -7.06494754 9.32706989 -0.41116519 -2.58832254 2.62994411 -0.06337886 -1.36946077 2.62837439 -0.07768349 -1.36982381 2.39428806 6.1603081 1.59252313 -14.20818364 33.08397155 1.63117527 0.65352225 -10.49936659 -8.68293258 -9.85098319 6.96317469 -38.36313699 0.00002931 -47.90449472 0.00002756 15.56438402 -12.54181676 14.07933962 0.57444087 15.64361274 9.83219609 13.70579657 26.86649955 57.74680108 -179.99997519 78.55495603 179.99995883 5.63119607 3.17860415 -9.76265966 -48.64560939 12.13775825 33.59189998 64.33459459 10.41349684 -3.68995574 -15.307338 16.16582243 -8.74595082 -2.96403333 -0.00000532 -4.5e-7 -11.36533567 -21.01554235 -28.3799347 29.92414498 -5.79961499 -2.93751794 -10.05153659 -4.64799099 32.14935815 2.53328689 -0.00000403 0.00002345
0.15164521 0.98981095 0.1057894 -2.39071285 -55.22234905 -6.9746455 9.72274454 -0.10694668 -1.5533877 2.73962064 0.0369603 -1.45163195 2.73985788 0.0132315 -1.4529625 2.35491121 6.19540592 1.48703021 -13.52029342 33.43609686 0.73100509 0.60418412 -12.19035352 -9.52072727 -11.30354014 6.6580825 -37.92467864 0.00001337 -44.8929567 0.00000503 15.50505218 -14.39117939 14.59068658 0.62195703 14.19599716 9.35541016 13.54986661 27.74309714 58.24869121 -179.99996125 79.08690473 179.99994903 5.92005969 3.35899269 -10.08829483 -49.81053067 11.09476334 33.76680848 63.58134373 10.48599785 -2.19785679 -13.45061313 12.20361827 -9.89118227 -2.28785714 -8.3e-7 0.00000607 -17.26822459 -20.88608205 -31.37882793 38.21455804 -0.25716757 -0.44986947 -16.14300174 -5.61511511 28.07199125 1.50544868 0.00002876 -3.3e-7
0.14977107 0.9916848 0.07640297 -2.82454705 -56.75757864 -7.07565126 9.94263914 -0.01332146 -1.34195512 2.91175161 0.06237516 -1.31562292 2.91221684 0.03995543 -1.31690309 2.27261335 6.38216536 1.38384809 -12.70353756 34.59276704 -0.31621699 0.59744686 -12.32663572 -9.61227441 -13.02676784 6.50877722 -39.05845096 0.00001017 -42.33686096 -0.00000371 16.33012425 -15.68106951 15.00987823 0.58069125 14.73719233 9.80285558 14.10488327 27.73017538 57.12101569 -179.99992969 79.3591478 179.99993033 5.75050821 3.67236343 -10.6268073 -49.35156187 10.78896569 34.16487941 61.20471948 10.57771923 -1.50647032 -10.59668848 10.57861174 -10.89659767 -1.62903842 -6e-7 -0.00000267 -20.15518671 -19.49119053 -31.19664965 42.0590382 1.33246459 -0.16822515 -17.81372749 -5.67574611 26.57490552 0.45181814 -0.00001394 2.9e-7
0.14744278 0.99733231 0.05290649 -3.0870993 -57.8263849 -6.79546308 10.24475015 -0.53837768 -1.79040382 3.02188584 -0.11074522 -1.22184163 3.01983353 -0.12857861 -1.22195972 2.20715691 6.63692527 1.34876467 -12.08740885 35.99981486 -0.87933296 0.61945601 -11.4396463 -9.29012555 -13.511724 5.9387466 -39.92333449 0.00000661 -41.48622894 -0.00000885 16.78314637 -16.0098939 15.53271438 0.50597568 16.10765731 10.47061373 14.70021627 27.40154408 56.16088299 179.99997098 79.48182609 -179.99998946 5.63736556 4.2456365 -11.15067674 -48.07243969 10.69234847 33.88412142 58.24373176 10.60941308 -1.0707376 -7.97166474 9.49141402 -12.23947957 -1.1283422 -0.0000026 6e-7 -21.30252326 -17.95319953 -29.53712192 43.85844362 0.76769417 -1.18231352 -18.57142909 -5.75572841 26.06862844 0.61587414 0.00002396 0.00000936
0.145548 1.00354005 0.03569561 -3.2122518 -58.58208156 -6.18437607 10.45619438 -0.82325438 -1.88744461 3.11845596 -0.19861883 -1.33069059 3.11547162 -0.21843821 -1.33026464 2.28922551 6.70812396 1.30302241 -11.61478975 36.4753678 -1.425897 0.60662017 -11.80132087 -9.48367934 -13.03246825 5.20003336 -38.67592006 0.00001659 -41.55935349 0.00000619 16.19820192 -15.77607806 16.3194858 0.49658556 16.27648469 10.54685841 14.34307182 27.81699468 56.67711569 179.99996641 80.45411792 -179.99997928 6.09096523 4.96508075 -11.24617578 -46.48679245 10.93935465 33.05898909 55.54910017 10.56731348 -0.67612207 -7.07289277 5.71401389 -13.20113431 -0.59461798 6.1e-7 -0.00000391 -22.3994095 -17.41973132 -29.37725368 44.63354494 1.078656 -1.21660015 -18.18146677 -5.62249643 25.73694072 0.91473139 -0.00000995 0.00000926
0.1437528 1.00834664 0.0233763 -3.23257039 -59.1931984 -5.42812544 10.43803805 -0.70230406 -1.62738407 3.12859252 -0.15040637 -1.52154885 3.12623535 -0.17644446 -1.52151904 2.37997515 6.68181633 1.18751314 -10.72542455 36.41284753 -2.18092965 0.56970034 -12.72492883 -9.95569134 -12.90654281 4.07936777 -36.84959413 0.00000767 -40.75245442 0.00000112 15.11546891 -15.92740778 16.6103124 0.54271204 15.53713203 10.16265837 13.71043182 28.5489171 57.93504125 -179.99993612 81.68995308 179.99993928 6.66464136 5.48819287 -11.19882294 -45.23506091 11.6459786 32.29126792 53.06431056 10.40430496 -0.43974636 -5.89953816 4.42273241 -13.03203124 -0.09836508 3.8e-7 -0.00000246 -23.24392627 -16.95087006 -29.68107845 45.17315754 1.56277778 -0.98672455 -18.22364097 -5.53155628 25.24032758 0.8048216 -4.7e-7 0.00000153
0.1418391 1.0119716 0.01518354 -3.0790106 -59.63948086 -4.64177971 10.18821606 -0.61090279 -1.30564259 3.07309358 -0.12290454 -1.54482158 3.07129563 -0.15096179 -1.54496688 2.47329816 6.72648644 0.91839925 -9.34259003 36.5632764 -3.12331426 0.5417338 -13.22262852 -10.26409658 -13.25496773 3.30694202 -36.08105348 0.00001175 -39.99829191 0.00001081 14.87250788 -16.14618684 16.58987269 0.58899998 14.92435519 9.71558514 13.77717119 29.2111242 58.40348647 179.99992981 82.5433455 -179.99995221 6.79599068 5.71999664 -11.47015288 -44.36721661 12.35899702 31.76400805 50.99509433 10.44820997 -0.29355277 -4.14693722 5.42979912 -13.02449417 -0.00314765 -0.00001001 -9.4e-7 -23.93822084 -16.73399748 -30.22121448 45.52224728 2.16341579 -0.63903048 -18.54834236 -5.48543232 24.71652821 0.70252115 0.00000106 0.00000224
0.13983252 1.01466949 0.01054949 -2.89178413 -60.12553678 -3.98743062 9.80354844 -0.57567955 -1.04391252 2.99245187 -0.12116968 -1.44566507 2.99071252 -0.14749377 -1.44573168 2.57841025 6.84659422 0.6865994 -7.92172022 37.14440849 -4.1801236 0.5395447 -13.11207482 -10.2931973 -13.80610077 3.15930393 -36.31236981 0.0000207 -39.97034651 0.00001758 15.41213811 -16.15549585 16.37171861 0.59547081 14.95600035 9.64606889 14.68587808 29.36061429 57.74061192 179.99994343 82.70249439 -179.99995723 6.47571584 5.55507903 -11.97972301 -43.64947798 12.93219403 31.45993168 49.55922063 10.41512589 -0.27155905 -2.97568374 6.08923676 -13.21545255 0.00182623 -0.00000389 7.3e-7 -24.57397368 -16.74775824 -30.88096157 45.64565852 2.98497135 -0.26212798 -18.73600871 -5.41560123 24.21314879 0.72952714 0.00000706 -0.00000194
0.13802149 1.01665451 0.00813826 -2.70380097 -60.69434376 -3.45551955 9.45452686 -0.61029882 -0.83717252 2.87426389 -0.14252883 -1.30868179 2.87214482 -0.16618116 -1.30862274 2.6232933 7.01098771 0.54148355 -6.77346931 37.96168458 -5.01736594 0.54532237 -12.70228906 -10.24189129 -14.16991713 3.58699176 -36.76106937 0.00000754 -40.78260386 0.00000769 16.08216765 -15.87521676 16.02803615 0.57050849 15.54931406 9.88398989 15.6957415 28.77297125 57.10378807 179.99990243 82.39358061 -179.99992602 6.59448233 4.82917458 -11.95618008 -43.01116711 13.39846428 31.2261174 48.44068732 10.2387353 -0.25334216 -1.93278424 6.90055957 -13.42266323 0.05101931 0.00000179 -0.00000295 -24.98725826 -16.55007805 -31.11789186 45.66712851 3.4600803 -0.22759189 -18.90584774 -5.37557503 23.87898139 0.75246041 -0.00002438 0.00000607
0.13673239 1.01846809 0.00692699 -2.59308782 -61.16409005 -3.0332846 9.29505454 -0.63566904 -0.68875008 2.79242628 -0.15679992 -1.20533454 2.79003379 -0.17881241 -1.20521855 2.5689677 7.11784821 0.49604457 -6.21043395 38.49496086 -5.43762927 0.54184818 -12.63144201 -10.28476489 -14.30093563 4.29519058 -36.75784874 0.00001018 -42.25893709 3.3e-7 16.40190356 -15.22177955 15.65689739 0.56162965 15.86747955 9.9568878 16.02371419 28.06222552 57.38222115 -179.99994335 82.21837769 179.99993414 7.00853187 3.70700642 -12.01167471 -42.32028626 13.74693833 30.78323361 47.38604505 9.94636298 -0.13239245 -0.95626923 7.87931078 -13.49147586 0.10000741 -0.00000587 -0.0000036 -25.12592251 -16.18626214 -31.0035162 45.53434025 3.35818238 -0.53531824 -18.67057469 -5.36652523 24.07085317 0.84573466 -0.00001717 -0.00000448
0.13577345 1.02014999 0.00684866 -2.73749758 -61.47901234 -2.80242447 9.32797589 -0.62711727 -0.61493048 2.80109822 -0.15530896 -1.17798884 2.79872294 -0.17720482 -1.17789937 2.48138523 7.1512401 0.48583233 -6.30675175 38.66810287 -5.53900701 0.52706814 -12.89975796 -10.44312482 -14.35810624 5.00295406 -36.19953254 0.00002215 -43.89088143 0.00002045 16.42650488 -14.45027744 15.28889603 0.56803239 15.86339469 9.89365241 15.87746901 27.3110132 58.19537193 179.99995649 82.13767372 -179.99996662 6.42761049 2.92859273 -12.16821851 -41.53778347 14.03753372 30.18361474 46.543691 9.79239966 0.02649175 -0.33371267 8.61547493 -13.54716991 0.10016288 -0.00000832 -0.00000525 -25.09231898 -15.93802416 -31.01486423 45.25578788 3.14804557 -0.89535567 -18.04613176 -5.34331764 24.57167182 0.94561624 -0.00001733 6.5e-7
0.13483522 1.02156349 0.00744945 -2.85197764 -61.62828246 -2.62866918 9.35084669 -0.66378489 -0.51390132 2.81992752 -0.16838768 -1.18058537 2.81740774 -0.19096248 -1.18040325 2.41513309 7.15124464 0.48163567 -6.48159436 38.67678316 -5.57843671 0.51037102 -12.95027536 -10.62829825 -14.45540965 4.92502184 -35.61544585 -0.00000244 -44.56734933 -0.00001377 15.90611329 -13.78455734 15.07976911 0.57046751 15.85069485 9.87011751 15.64798592 26.35033833 59.17690539 179.99988603 82.03958413 -179.99988684 5.78604059 2.1046673 -12.36759655 -40.93492121 14.28828959 29.76407924 45.89332735 9.72474508 0.13582983 0.24015379 8.88610343 -13.82847963 -0.23948825 5.2e-7 -0.00000193 -24.98499823 -15.86116083 -31.14288551 44.93299498 2.99348153 -1.04388292 -17.56734924 -5.30297193 24.85104427 1.03801714 -0.0000205 0.00000765
