HIERARCHY
ROOT Hips
{
  OFFSET 0 1.1673769999999999 0
  CHANNELS 6 Xposition Yposition Zposition Xrotation Yrotation Zrotation
  JOINT Spine
  {
    OFFSET 0.000003812944337411511 0.10717500000681812 -0.009311
    CHANNELS 3 Xrotation Yrotation Zrotation
    JOINT Spine1
    {
      OFFSET 0 0.1058532983696241 -0.004285186608692496
      CHANNELS 3 Xrotation Yrotation Zrotation
      JOINT Spine2
      {
        OFFSET -8.470329472543003e-22 0.10599345671141647 -0.007812688101110094
        CHANNELS 3 Xrotation Yrotation Zrotation
        JOINT Neck
        {
          OFFSET -8.470329472543003e-22 0.26240299999999994 -0.04488100000000002
          CHANNELS 3 Xrotation Yrotation Zrotation
          JOINT Head
          {
            OFFSET -4.235164736271502e-22 0.17466899999999996 0.05625600000000003
            CHANNELS 3 Xrotation Yrotation Zrotation
            End Site
            {
              OFFSET -4.235164736271502e-22 0.10756799999999966 0.021070000000000005
            }
          }
        }
        JOINT LeftShoulder
        {
          OFFSET 0.10574399999999999 0.23009199999999996 -0.07323000000000002
          CHANNELS 3 Xrotation Yrotation Zrotation
          JOINT LeftArm
          {
            OFFSET 0.14878212914559852 -0.04653266654569688 -0.030693304075147546
            CHANNELS 3 Xrotation Yrotation Zrotation
            JOINT LeftForeArm
            {
              OFFSET 0.24109000000000003 2.220446049250313e-16 -5.551115123125783e-17
              CHANNELS 3 Xrotation Yrotation Zrotation
              JOINT LeftHand
              {
                OFFSET 0.316792 0 -1.1102230246251565e-16
                CHANNELS 3 Xrotation Yrotation Zrotation
                End Site
                {
                  OFFSET 0.06265729429771016 -0.10569948639925819 0.03859412819617963
                }
              }
            }
          }
        }
        JOINT RightShoulder
        {
          OFFSET -0.10574399999999999 0.23009099999999982 -0.07323000000000002
          CHANNELS 3 Xrotation Yrotation Zrotation
          JOINT RightArm
          {
            OFFSET -0.14878040829228295 -0.04653159475972379 -0.030692917709113934
            CHANNELS 3 Xrotation Yrotation Zrotation
            JOINT RightForeArm
            {
              OFFSET -0.24109000000000003 -6.661338147750939e-16 -2.7755575615628914e-17
              CHANNELS 3 Xrotation Yrotation Zrotation
              JOINT RightHand
              {
                OFFSET -0.31679300000631333 -8.881784197001252e-16 -5.551115123125783e-17
                CHANNELS 3 Xrotation Yrotation Zrotation
                End Site
                {
                  OFFSET -0.06265795211397429 -0.10570764472283312 0.03859362014678265
                }
              }
            }
          }
        }
      }
    }
  }
  JOINT LeftUpLeg
  {
    OFFSET 0.12297511767165623 -0.06742078536803264 -0.010003
    CHANNELS 3 Xrotation Yrotation Zrotation
    JOINT LeftLeg
    {
      OFFSET 0 -0.457033849483632 0.010304509991859542
      CHANNELS 3 Xrotation Yrotation Zrotation
      JOINT LeftFoot
      {
        OFFSET 0 -0.500280623664138 -0.036905110570505176
        CHANNELS 3 Xrotation Yrotation Zrotation
        JOINT LeftToeBase
        {
          OFFSET 0.025950805788189563 -0.14255151365608373 0.19507593811975638
          CHANNELS 3 Xrotation Yrotation Zrotation
          End Site
          {
            OFFSET 0.010732117804750613 -0.000035441498015504746 0.11362327680684622
          }
        }
      }
    }
  }
  JOINT RightUpLeg
  {
    OFFSET -0.12297488233495055 -0.0674172146317622 -0.010003
    CHANNELS 3 Xrotation Yrotation Zrotation
    JOINT RightLeg
    {
      OFFSET 0.00000159348816348992 -0.45703784846455486 0.01030460015485039
      CHANNELS 3 Xrotation Yrotation Zrotation
      JOINT RightFoot
      {
        OFFSET -0.0000015934881634621645 -0.5002806236608007 -0.03690511058134042
        CHANNELS 3 Xrotation Yrotation Zrotation
        JOINT RightToeBase
        {
          OFFSET -0.0259497668227143 -0.14255297441554501 0.19507500887383716
          CHANNELS 3 Xrotation Yrotation Zrotation
          End Site
          {
            OFFSET -0.010733201844058626 -0.000035030229497263656 0.11362417898958707
          }
        }
      }
    }
  }
}
MOTION
Frames: 94
Frame Time: 0.03333333333333333
-0.00134524 1.11788452 0.00137195 -16.91106033 -39.01316507 -9.26580974 7.99415859 -0.03949528 -0.27491523 16.41350154 -0.12265141 -0.74687051 16.4135427 -0.19028666 -0.72254896 0.37116754 7.48096302 0.83754813 -6.98212945 21.59727338 11.88300122 -37.57107141 -4.82251431 1.54582055 -41.63574658 -7.02238034 -61.68904716 -0.00000837 -64.98719212 -0.00001076 -119.35966471 1.12138051 32.54640297 -41.17630198 -8.60564249 -9.94230692 -46.81352577 58.24000738 100.94099227 179.99997782 81.5548226 -179.99997502 -52.46185159 -17.21752062 -29.27479393 -20.41295918 43.64211764 27.39520382 22.79039042 0.51331943 -0.67705687 2.033188 1.27885281 -2.91119052 0.00001019 0.00000489 -0.00000245 4.35573992 5.22046691 -5.96123941 30.81469457 -0.3066411 1.07974404 -20.55818981 -17.48134225 4.47838402 -0.02049014 0.00000748 -3.6e-7
-0.00125833 1.11783234 0.00124978 -16.91103108 -39.01166009 -9.26442816 7.98769157 -0.03981214 -0.26435163 16.4850411 -0.12265031 -0.74687098 16.40357292 -0.19029253 -0.72254514 0.37751843 7.47226106 0.83616147 -6.93938417 21.57339394 11.87577476 -37.56196707 -4.89926899 1.57524083 -41.6156729 -6.94383917 -61.60846648 -0.00001458 -65.0642038 -0.00001684 -119.41655442 1.07592843 32.55933829 -41.17440347 -8.55790738 -9.84906476 -46.73661312 58.20406625 100.8459046 179.99994603 81.53061675 -179.99994805 -52.41859295 -17.32692465 -29.2632252 -20.43476724 43.64282749 27.45615835 22.80609839 0.53665019 -0.76855685 2.03179639 1.23051514 -2.85768548 -0.03232001 -0.00000205 -0.00000197 4.33046041 5.20073328 -5.96583215 30.84541329 -0.40712428 1.07011767 -20.54867391 -17.36916384 4.52687769 0.0139651 0.00001433 -4.5e-7
-0.00117361 1.11778725 0.00111417 -16.91090474 -39.00755369 -9.26113821 7.97854488 -0.04094044 -0.2536453 16.54533594 -0.12263846 -0.74687483 16.43243828 -0.19030566 -0.7225422 0.38716291 7.4698392 0.83766762 -6.89130423 21.55603269 11.87000793 -37.56647262 -4.92846212 1.56383758 -41.64803865 -6.91745434 -61.56912939 -0.00001952 -65.09457695 -0.00000113 -119.43610991 1.05817844 32.56324615 -41.16763237 -8.54538668 -9.85405413 -46.78441624 58.16288699 100.84956862 179.99999592 81.52833035 179.99999847 -52.3860521 -17.36357622 -29.24201826 -20.42854654 43.60743252 27.41656961 22.81761428 0.58821177 -0.73192254 2.03477971 1.21814355 -2.8753694 -0.05528068 -6.4e-7 0.00000131 4.30995188 5.22218548 -5.95024464 30.87302613 -0.39064369 1.0560014 -20.55479131 -17.41545626 4.52199865 0.02662053 -0.00001577 -0.00000441
-0.00109151 1.11775047 0.00096748 -16.91076117 -39.00139433 -9.25618292 7.96637635 -0.04216776 -0.24285046 16.59484853 -0.12265044 -0.74687503 16.46251417 -0.19029217 -0.72254912 0.39863061 7.47029023 0.84012807 -6.84058086 21.5524585 11.86804604 -37.5643781 -4.93654452 1.57035614 -41.67978224 -6.91458498 -61.55557571 0.00003659 -65.0983129 0.00002249 -119.46800086 1.0383726 32.54697155 -41.16812246 -8.5401316 -9.85764222 -46.8213723 58.13254461 100.85366973 179.99996309 81.52777986 -179.99997275 -52.36098255 -17.39951294 -29.22403082 -20.42857629 43.58849901 27.39452054 22.82321775 0.62298918 -0.71535501 2.04089298 1.20019769 -2.87899551 -0.0426103 -0.00000519 -0.00000218 4.28916096 5.22209924 -5.95520177 30.89876829 -0.38131498 1.06457266 -20.56070404 -17.4246528 4.51355896 0.02865565 0.00000928 0.00000424
-0.00101297 1.11772247 0.0008117 -16.91071652 -38.99383356 -9.24984831 7.95082309 -0.04449533 -0.23302438 16.63476643 -0.12259326 -0.74624028 16.49250443 -0.19011859 -0.72193785 0.41098094 7.47137002 0.84301319 -6.78762478 21.55404101 11.86693968 -37.57136921 -4.94443515 1.56550907 -41.69639337 -6.91112759 -61.54629347 -0.00000454 -65.09816771 0.00000583 -119.48986682 1.02542908 32.53329837 -41.17049935 -8.54793909 -9.87343197 -46.86976286 58.11275184 100.87649388 179.99996408 81.53314431 -179.9999683 -52.34440957 -17.42453984 -29.20633683 -20.42507574 43.57362789 27.36759672 22.82162228 0.64806977 -0.69571543 2.05091048 1.18898709 -2.88319832 -0.05233395 -0.00000232 0.00000145 4.27169515 5.240551 -5.94920067 30.92195133 -0.35910287 1.0644245 -20.56718975 -17.47109226 4.4997303 0.02317554 -0.00001309 7.5e-7
-0.00093776 1.11770363 0.00064907 -16.91085433 -38.98540777 -9.24241033 7.93133346 -0.04901052 -0.22413399 16.66793366 -0.1223963 -0.74402535 16.52168975 -0.18945063 -0.71981997 0.42415449 7.47146225 0.84584347 -6.73288159 21.55737634 11.86618692 -37.56701509 -4.92057983 1.51810815 -41.74868463 -6.93289636 -61.55106376 -0.00000147 -65.07741614 0.00000211 -119.47882608 1.03544845 32.53258205 -41.17220593 -8.56019658 -9.88903926 -46.91694135 58.09984701 100.90429456 -179.9999633 81.54067161 179.99995482 -52.33131795 -17.45092003 -29.18828494 -20.40071236 43.53672389 27.31143397 22.81434743 0.690317 -0.66073668 2.06423896 1.18928048 -2.90014471 -0.02723394 -0.00000192 0.00000172 4.25516242 5.25280367 -5.94217767 30.94295825 -0.34704292 1.05755193 -20.57025299 -17.50574015 4.49296912 0.04448339 0.00000188 -0.00000384
-0.00086612 1.11769516 0.00048195 -16.91129483 -38.97676949 -9.23420561 7.9062069 -0.05472122 -0.21522484 16.69509195 -0.12214499 -0.74151579 16.54777699 -0.18869848 -0.71740949 0.43821799 7.47157455 0.84881186 -6.67766587 21.55978477 11.86496523 -37.5669186 -4.92020013 1.50677363 -41.75162447 -6.93044626 -61.54613784 0.00002742 -65.0742982 0.00002788 -119.49781711 1.02561388 32.52167597 -41.17069671 -8.57106233 -9.88431955 -46.94194048 58.09250863 100.91862079 179.99995118 81.54600929 -179.99994766 -52.31761599 -17.49366471 -29.17060666 -20.38232733 43.51755517 27.27099467 22.80056571 0.72861224 -0.63989797 2.08060902 1.17265649 -2.9064706 -0.03782161 0.00000239 0.00000225 4.24038759 5.2631613 -5.93583842 30.96079781 -0.32918877 1.05018765 -20.57249234 -17.54460776 4.48388609 0.03932312 0.00000392 -1.9e-7
-0.00079746 1.1177066 0.00031272 -16.91211447 -38.96851219 -9.22551884 7.87884306 -0.06056616 -0.20655122 16.71890569 -0.12189174 -0.73862294 16.56952574 -0.18784647 -0.71464004 0.45233375 7.47182645 0.85167415 -6.62271953 21.5616734 11.86363669 -37.56050306 -4.882413 1.53705401 -41.75028232 -6.96118444 -61.5787186 0.00000712 -65.03994886 0.00000316 -119.54626576 1.00410453 32.48003031 -41.16169123 -8.57564651 -9.86009291 -46.94592032 58.08508001 100.91539813 179.999967 81.54737623 -179.99996758 -52.29993071 -17.55327203 -29.15301471 -20.36983642 43.5219113 27.24301764 22.7757136 0.77203803 -0.62416053 2.10197813 1.12706615 -2.90577311 -0.0168288 0.0000034 -0.00000199 4.2294477 5.27078647 -5.93801527 30.97160481 -0.32765945 1.0537024 -20.57032335 -17.56038945 4.47733405 0.04195562 -0.00000898 6.2e-7
-0.00074002 1.11773285 0.00014332 -16.91340099 -38.9612453 -9.21664005 7.85081715 -0.06549347 -0.19764211 16.74009321 -0.12160843 -0.73540188 16.58674602 -0.18687698 -0.71155249 0.46678947 7.4721208 0.85429622 -6.5680428 21.56372105 11.86104136 -37.56077371 -4.88645441 1.50566067 -41.74156165 -6.95331439 -61.57194 0.00004826 -65.03817375 0.00004447 -119.55107786 1.0035907 32.47511037 -41.15924153 -8.57633415 -9.8729036 -46.95397315 58.08263264 100.91990869 179.99999393 81.55122586 179.99999474 -52.29706032 -17.57865638 -29.14736349 -20.3515176 43.52952552 27.21780739 22.74210069 0.76227372 -0.62301913 2.1269611 1.13230198 -2.89843735 -0.05514836 0.00000201 6.4e-7 4.22173001 5.28276952 -5.93880729 30.97810581 -0.34777088 1.05491226 -20.56350937 -17.56078144 4.47942301 0.06309542 -0.00000889 -0.00000123
-0.00069822 1.11777145 -0.00002405 -16.9152186 -38.95553601 -9.20787656 7.82281296 -0.06803349 -0.18788445 16.75861473 -0.12128954 -0.73186557 16.60003153 -0.18582984 -0.70816472 0.48155178 7.47244513 0.85592044 -6.51483942 21.56604783 11.85794087 -37.56145039 -4.88904722 1.46741682 -41.73034438 -6.9453514 -61.56511487 -0.00002027 -65.03563249 -0.00001476 -119.55145609 1.00589998 32.47370825 -41.15943203 -8.57597679 -9.87570297 -46.94589728 58.08411463 100.91452046 179.99997347 81.5533284 -179.99998193 -52.29497711 -17.61206428 -29.14300719 -20.33134281 43.54486312 27.19739455 22.7014816 0.76391826 -0.62755722 2.15502019 1.11965736 -2.88813094 -0.0591265 -0.00000444 0.00000431 4.2158467 5.28345302 -5.95255906 30.97987438 -0.35773485 1.07266635 -20.55762201 -17.55020279 4.47198264 0.08248384 -0.00000332 6.5e-7
-0.00067269 1.1178215 -0.00018711 -16.91769478 -38.95200984 -9.19953393 7.7950803 -0.06925787 -0.17804141 16.7742012 -0.12093771 -0.7280357 16.61023932 -0.18467714 -0.70450291 0.49567362 7.47268132 0.8570477 -6.46271239 21.56856954 11.85451808 -37.56007438 -4.91391788 1.47124097 -41.68105432 -6.91779264 -61.55062182 0.00000871 -65.04795288 0.0000157 -119.58669772 0.98552322 32.4551983 -41.16113263 -8.57551191 -9.87553246 -46.93141442 58.0892165 100.90696401 179.99997437 81.5554202 -179.99997951 -52.29491951 -17.64702986 -29.13964526 -20.30427014 43.5599774 27.1785166 22.65418447 0.72839528 -0.64489255 2.18556593 1.14639584 -2.87341371 -0.04029907 0.00000482 -0.00000354 4.21246923 5.28893626 -5.95539658 30.97774946 -0.34543879 1.07519829 -20.55183863 -17.57063706 4.46014261 0.06297968 -0.00000215 -0.00000171
-0.00065939 1.11788025 -0.00034344 -16.92090971 -38.95127456 -9.19196247 7.76552652 -0.06993097 -0.16796254 16.78606412 -0.12055851 -0.72388604 16.61755925 -0.1834513 -0.70051889 0.51039016 7.4729266 0.85791405 -6.40914938 21.57145143 11.85058113 -37.56903298 -4.94818292 1.44709458 -41.62186885 -6.8745916 -61.52102205 0.00001055 -65.07526979 0.00000886 -119.60058344 0.97521951 32.45888129 -41.16768684 -8.57805749 -9.86261595 -46.9058936 58.10207312 100.89705799 -179.99999292 81.55800037 179.99999091 -52.29673577 -17.69080912 -29.13530438 -20.27485503 43.57887106 27.15868539 22.60341511 0.73330212 -0.65676469 2.21734083 1.13275173 -2.86234115 -0.03531345 0.0000065 -0.00000451 4.21036229 5.2814925 -5.97116882 30.97215831 -0.36013911 1.09014522 -20.54205054 -17.54370925 4.45636966 0.06893604 -0.00000549 0.00000383
-0.00065477 1.11794151 -0.00049096 -16.92533049 -38.95500813 -9.18590536 7.73332923 -0.07007851 -0.15758153 16.79404988 -0.11924448 -0.7195463 16.62242749 -0.18127443 -0.69654247 0.52585405 7.4731717 0.85856647 -6.3549112 21.57482133 11.84618503 -37.56923694 -4.93541504 1.41609347 -41.58934187 -6.87497059 -61.5306247 0.00002262 -65.06332016 0.00002044 -119.60417776 0.97765124 32.44737306 -41.17006787 -8.58470323 -9.88036409 -46.90268494 58.11845483 100.90872735 -179.99990609 81.56594931 179.99991291 -52.30745549 -17.70791994 -29.13417993 -20.2431782 43.59893942 27.13804623 22.55156504 0.72893708 -0.66692264 2.24869842 1.13229025 -2.85403982 -0.08060685 -0.00000229 0.00000542 4.20819011 5.26643019 -5.99081649 30.96564809 -0.39161273 1.10470812 -20.52920355 -17.48852096 4.46129913 0.06065155 0.00000782 0.00000418
-0.00065607 1.11800262 -0.00062688 -16.92989844 -38.96055753 -9.18031072 7.69861529 -0.0696791 -0.14674129 16.7987667 -0.1177416 -0.71499409 16.6252909 -0.17884888 -0.6924135 0.5420333 7.47345012 0.85902391 -6.3004198 21.5783637 11.84128958 -37.57193248 -4.95574618 1.42526656 -41.5087167 -6.84424032 -61.52327462 -1.2e-7 -65.07693036 -6.5e-7 -119.64124965 0.95632655 32.42535346 -41.16789875 -8.59364441 -9.88873831 -46.89601101 58.13715866 100.91953448 -179.99997811 81.57394926 179.99996476 -52.3165441 -17.73289764 -29.13063182 -20.20526083 43.61035661 27.10446588 22.50117057 0.77424906 -0.66065609 2.27910052 1.095873 -2.85665059 -0.09895352 -2.3e-7 -0.00000288 4.20607186 5.25671805 -5.99572792 30.95948441 -0.40676235 1.09687765 -20.51672052 -17.46253061 4.46782664 0.07782599 -0.00000924 -4e-8
-0.0006609 1.11806564 -0.00074926 -16.93358581 -38.96471794 -9.17380395 7.66110414 -0.06885493 -0.13536597 16.79963509 -0.11617732 -0.71024488 16.62617792 -0.17630475 -0.68810727 0.55894949 7.4737053 0.85932537 -6.24570243 21.58210166 11.835819 -37.57083146 -4.94959612 1.43180925 -41.44315661 -6.83832376 -61.53678267 0.00002311 -65.06727352 0.00003659 -119.67409029 0.94160281 32.39834041 -41.16781206 -8.60122451 -9.87915317 -46.86548666 58.15963727 100.91391229 179.99998238 81.57854246 -179.99997488 -52.32475406 -17.77140907 -29.12852895 -20.16589399 43.62074787 27.0705103 22.45054544 0.82288024 -0.65685602 2.30895391 1.05564264 -2.85809567 -0.06600345 -0.00000802 -0.00000109 4.2059329 5.25274347 -5.99460401 30.95146704 -0.41348195 1.08205068 -20.50484529 -17.45538796 4.4728258 0.08515847 0.00001969 0.00000396
-0.00066532 1.1181321 -0.00085657 -16.93863113 -38.97301621 -9.16881207 7.62034769 -0.06757295 -0.12334918 16.79620315 -0.11455077 -0.70531381 16.62498561 -0.17369934 -0.68362368 0.57644515 7.47397986 0.85949217 -6.1901823 21.5860239 11.8287501 -37.57144559 -4.93115579 1.40609488 -41.38654901 -6.84119003 -61.55717024 -0.0000249 -65.04969437 -0.00001439 -119.67991485 0.94469024 32.37972656 -41.16872142 -8.6030257 -9.90362536 -46.84317808 58.18588033 100.91835674 -179.99998007 81.58585175 179.99997181 -52.34548191 -17.77760993 -29.13632332 -20.12494442 43.63318639 27.03818442 22.39924274 0.82177814 -0.65831013 2.33761547 1.06727437 -2.85821764 -0.07979773 6.8e-7 -0.00000242 4.20713723 5.25312609 -6.00024106 30.94226897 -0.42965862 1.07778198 -20.49236551 -17.43457794 4.47817013 0.07445497 -0.00000521 0.00000377
-0.0006668 1.11820122 -0.00094554 -16.94298585 -38.98175258 -9.16381247 7.57559271 -0.06583685 -0.10989988 16.78782745 -0.1128843 -0.70020476 16.62170755 -0.17099616 -0.67898223 0.59456265 7.47423783 0.85955624 -6.13401634 21.59006594 11.82122601 -37.55915445 -4.9116913 1.42540367 -41.31284901 -6.84497127 -61.58367539 -0.00002037 -65.03012182 -0.00003616 -119.7221762 0.92744062 32.34172201 -41.17236725 -8.5979838 -9.88516547 -46.77550828 58.2165076 100.88903486 -179.99996436 81.58583403 179.99993674 -52.3603192 -17.81774785 -29.14421913 -20.08319341 43.64553306 27.01591927 22.34817011 0.79645307 -0.68117574 2.36466915 1.1002566 -2.84799821 -0.06335238 -0.00000477 -0.00000195 4.21044883 5.26167456 -6.00279162 30.93081118 -0.45823291 1.07052733 -20.47773936 -17.41158714 4.48943209 0.06829903 0.00001347 -0.00000805
-0.00067479 1.11827477 -0.00101435 -16.94300472 -38.98025288 -9.15422036 7.52677789 -0.06187883 -0.09494895 16.77377132 -0.11113499 -0.69494206 16.61626297 -0.1682069 -0.67419529 0.6132952 7.47451807 0.85954352 -6.07719788 21.59419143 11.81326751 -37.57095551 -4.91707258 1.41745161 -41.21694017 -6.83932731 -61.60812087 -0.00002683 -65.00712938 -0.00001085 -119.74235689 0.92440241 32.30864183 -41.17266832 -8.58696545 -9.90752445 -46.69868694 58.24404158 100.84943254 179.99998467 81.58274129 -179.99998489 -52.38702059 -17.82170957 -29.16911077 -20.04361157 43.65851285 26.99097628 22.29536704 0.71730571 -0.70591975 2.39186849 1.17696095 -2.83449437 -0.0391221 0.00000303 -1.8e-7 4.21709549 5.2578628 -6.01618913 30.91528602 -0.50159081 1.07721076 -20.46322511 -17.36715905 4.50190349 0.06821811 0.00001301 0.00000481
-0.00069033 1.11831879 -0.00107139 -16.94303748 -38.9807903 -9.14545041 7.47465732 -0.05737261 -0.08021517 16.75476603 -0.10934007 -0.68957176 16.60906008 -0.16533708 -0.66931538 0.63250413 7.47474235 0.85948645 -6.02019663 21.59838084 11.80507096 -37.57041176 -4.91385542 1.42175729 -41.12494155 -6.83878195 -61.63573087 0.00000213 -64.98178181 9e-7 -119.77024583 0.91669493 32.27482852 -41.17022985 -8.59105054 -9.89780853 -46.61993429 58.27961681 100.815211 -179.99999753 81.58173771 179.99999653 -52.40783269 -17.85180925 -29.18308908 -20.01524314 43.66873763 26.9722624 22.25924179 0.69463329 -0.72114141 2.41123868 1.19842891 -2.8264845 -0.02917278 -1e-7 0.00000345 4.21933447 5.25974055 -6.02218387 30.90841707 -0.49727913 1.0778154 -20.45928299 -17.37366137 4.4969382 0.06017784 -0.00000424 0.00000316
-0.00071501 1.11835381 -0.00111803 -16.94352424 -38.98469235 -9.13801731 7.41931336 -0.05288318 -0.06587341 16.73072445 -0.10753283 -0.68410953 16.60010749 -0.16244673 -0.66434988 0.6519917 7.47506152 0.85904976 -5.96413874 21.6023884 11.79811223 -37.57361783 -4.9209236 1.42228842 -41.0162553 -6.82507648 -61.65500844 0.0000284 -64.96821175 0.00002101 -119.7935328 0.9099644 32.24766546 -41.16893554 -8.59716014 -9.893739 -46.54340151 58.32141481 100.7882905 179.99998277 81.58294987 -179.99998915 -52.43428321 -17.87294156 -29.19903171 -19.98989208 43.67814185 26.95107372 22.22865207 0.70118369 -0.72267946 2.42763864 1.19527465 -2.82676494 -0.04878616 0.00000364 -5e-7 4.21932689 5.25521935 -6.0252869 30.90364062 -0.46521057 1.07164112 -20.45911564 -17.39907934 4.48461994 0.07050748 -0.00000385 9.1e-7
-0.00075101 1.11840088 -0.00115353 -16.94227985 -38.98562834 -9.1291968 7.36112241 -0.04907704 -0.05214234 16.70173509 -0.10569618 -0.67857485 16.58934924 -0.15949305 -0.65932402 0.67194696 7.47551849 0.85775147 -5.90930482 21.60612998 11.79156373 -37.57421697 -4.92512709 1.41971833 -40.90935082 -6.81839248 -61.68154678 0.00000525 -64.945264 -0.00000192 -119.8124114 0.90801215 32.21699616 -41.1683239 -8.59638988 -9.89957328 -46.4520729 58.3644316 100.7501455 -179.99993274 81.58153598 179.99992762 -52.46684007 -17.88120465 -29.22417381 -19.96169015 43.68805843 26.92640658 22.19292461 0.70274962 -0.72293901 2.44609816 1.19501211 -2.82765107 -0.08688108 0.00000663 -9.4e-7 4.2234081 5.25857515 -6.02482233 30.894235 -0.45849743 1.06341674 -20.45499776 -17.41353178 4.48158397 0.08867379 -0.00000402 5.5e-7
-0.00079867 1.11845894 -0.00117766 -16.94030765 -38.98627957 -9.12013218 7.30071498 -0.04584451 -0.03972361 16.66800282 -0.10382183 -0.67298836 16.5766622 -0.15649355 -0.65425215 0.6924667 7.4760245 0.85615325 -5.85562055 21.60901776 11.78535461 -37.56174716 -4.89736719 1.40364305 -40.83506817 -6.83996845 -61.72642972 0.00001343 -64.89917369 0.00001237 -119.81653129 0.91841422 32.18907582 -41.16962847 -8.59867521 -9.88691597 -46.34617917 58.41302727 100.70481109 -179.9999798 81.57892758 179.99996665 -52.49898455 -17.90107101 -29.24833807 -19.92904674 43.69692302 26.897639 22.15223153 0.67715333 -0.72337536 2.46619912 1.2242367 -2.82975357 -0.02654195 0.00000396 -0.00000257 4.2306622 5.26026325 -6.0316835 30.87967008 -0.45996661 1.06705116 -20.44964637 -17.41394867 4.47720351 0.09533787 -0.00001025 -0.00000184
-0.00085714 1.11851921 -0.00119039 -16.93917057 -38.99071944 -9.11267081 7.23859059 -0.04311347 -0.02784131 16.62911832 -0.10192956 -0.66736881 16.56185314 -0.15348755 -0.64914867 0.71375655 7.47657237 0.85427546 -5.80264824 21.61159136 11.77842666 -37.5628178 -4.9015706 1.42091604 -40.70451318 -6.83217466 -61.76086912 -0.00000123 -64.87564409 -0.00001095 -119.8448301 0.91167841 32.14836166 -41.17099903 -8.59761113 -9.90661784 -46.2535959 58.46523474 100.67360213 -179.99996676 81.57955688 179.99995002 -52.54248318 -17.88803594 -29.28042926 -19.8970128 43.70870085 26.87362313 22.11198445 0.65957366 -0.72599157 2.48515441 1.24515338 -2.83208774 -0.02702196 -0.0000042 0.00000217 4.23880124 5.25999819 -6.03760817 30.86335489 -0.46616866 1.06708944 -20.44275147 -17.40561177 4.47671339 0.07492508 -0.00000746 0.00000256
-0.00091972 1.11857605 -0.0011915 -16.94029272 -39.0023648 -9.10833894 7.17601695 -0.04060823 -0.01628406 16.58670048 -0.10004663 -0.66174789 16.54555171 -0.15049392 -0.64403312 0.73548168 7.47723212 0.85181732 -5.75121211 21.61396252 11.77184993 -37.56349736 -4.88967022 1.43050938 -40.57870852 -6.82846395 -61.79723919 -0.00001704 -64.8546783 -0.00001816 -119.86345847 0.90956695 32.11793718 -41.17251975 -8.60361497 -9.90903519 -46.16666779 58.52433343 100.65303984 179.99996434 81.58310995 -179.99996738 -52.58366081 -17.88666813 -29.3048021 -19.86424733 43.72124785 26.85677579 22.07429197 0.67189318 -0.73476386 2.50181596 1.24039296 -2.83352495 -0.01666971 -0.00000521 -0.00000336 4.2461048 5.26363266 -6.04369111 30.84797208 -0.4505356 1.06861916 -20.43881873 -17.41328474 4.46753397 0.05325115 -0.00000143 8.8e-7
-0.0009876 1.11863998 -0.00118052 -16.94013116 -39.01048857 -9.10252486 7.11354693 -0.03811093 -0.00508138 16.54113125 -0.09812893 -0.65615168 16.5279098 -0.14750384 -0.63894006 0.75741491 7.47780128 0.84965094 -5.70132364 21.61607386 11.76576717 -37.56091817 -4.86229174 1.44503828 -40.46382506 -6.84284034 -61.84903262 0.00002136 -64.81611682 0.00001385 -119.88318739 0.90978576 32.08026804 -41.17370858 -8.60598413 -9.9011736 -46.06053326 58.58288825 100.61606815 179.99993188 81.58244382 -179.99993701 -52.62336659 -17.89167759 -29.33203539 -19.83237082 43.73737073 26.83732929 22.03411103 0.66863761 -0.73875651 2.51924221 1.24547483 -2.83617523 -0.03386399 0.00000468 6e-8 4.25564736 5.25690226 -6.05622211 30.8286962 -0.4301306 1.07683923 -20.43526921 -17.41576603 4.45482372 0.04749286 0.000001 -0.00000239
-0.00106311 1.11870834 -0.00115791 -16.93705843 -39.01004218 -9.09303772 7.05101764 -0.03547978 0.00575926 16.49276104 -0.09623711 -0.65058635 16.50903939 -0.1445252 -0.63388387 0.77944679 7.47822011 0.84813435 -5.65213086 21.61780648 11.76055557 -37.55687567 -4.82931666 1.4610294 -40.35870981 -6.87496593 -61.9173398 0.00000217 -64.75547374 0.0000161 -119.90156727 0.91465095 32.03067446 -41.17293871 -8.60937484 -9.91100725 -45.95198217 58.63930007 100.57519698 -179.99993583 81.58025459 179.99993011 -52.66738634 -17.88065659 -29.36606245 -19.80096882 43.75403375 26.81484469 21.99202858 0.68173556 -0.73989686 2.53778237 1.22593719 -2.83793545 -0.0624064 -0.00000111 -0.00000222 4.26997407 5.2608354 -6.05635859 30.80608968 -0.41719978 1.07132806 -20.4305148 -17.43828252 4.44760207 0.04718883 -0.00001315 0.00000269
-0.00114675 1.1187812 -0.0011278 -16.93114555 -39.00562063 -9.07943235 6.98804954 -0.03280998 0.01622663 16.4419583 -0.09436187 -0.64507701 16.48907552 -0.1415646 -0.62887427 0.80159175 7.47856125 0.84694228 -5.60185078 21.61925133 11.75591099 -37.5530313 -4.80019693 1.49671502 -40.24456537 -6.90881498 -61.9905347 -0.00002906 -64.6904794 -0.00001838 -119.93532118 0.91131509 31.97046484 -41.17191611 -8.61008597 -9.90718375 -45.82323333 58.6945937 100.51656407 179.99999854 81.5735969 179.99999615 -52.7081843 -17.8809649 -29.40130109 -19.76767635 43.77165085 26.79064029 21.94635894 0.67218492 -0.74738068 2.55776116 1.22452155 -2.83578394 -0.01964193 0.00000525 0.00000132 4.28518347 5.26218681 -6.05946052 30.78203901 -0.41713813 1.06736592 -20.42478683 -17.45017625 4.44473349 0.0536534 -0.00001465 -0.00000419
-0.00123506 1.11885818 -0.00109127 -16.92615167 -39.00405075 -9.06695049 6.92492086 -0.03050375 0.02629173 16.38869756 -0.09250194 -0.63967485 16.46791956 -0.13866736 -0.62395303 0.82471449 7.47884528 0.84600281 -5.549618 21.62037023 11.75197455 -37.55503061 -4.76387093 1.49881626 -40.14065767 -6.94546909 -62.06383209 -0.00002341 -64.62469006 -0.00001824 -119.93948958 0.92535322 31.92519801 -41.16930634 -8.60755121 -9.9295479 -45.70822548 58.75043002 100.46976204 -179.99999013 81.56920329 179.99998967 -52.75630986 -17.85586969 -29.44177683 -19.73194951 43.79026034 26.7601966 21.89902204 0.68099859 -0.74278488 2.57809123 1.2090053 -2.84065093 -0.00009341 -0.00000855 -0.00000227 4.30211357 5.26797282 -6.06251227 30.75506634 -0.38063259 1.0672466 -20.4231859 -17.49644664 4.42516987 0.06666635 0.00001078 0.00000436
-0.00132758 1.11893822 -0.00104802 -16.91963225 -38.99848912 -9.05274218 6.86206859 -0.0290483 0.03602201 16.3339802 -0.09065883 -0.63438144 16.44599774 -0.13580432 -0.619138 0.85190833 7.47909429 0.84513694 -5.49874003 21.62130957 11.74830186 -37.55416833 -4.74838489 1.51078532 -40.02668509 -6.96373577 -62.12015274 0.00001786 -64.57485582 0.00001026 -119.95306039 0.93101491 31.88537511 -41.16829039 -8.60520728 -9.9202283 -45.56769217 58.80692893 100.40237488 -179.99989301 81.56001985 179.99987487 -52.79753087 -17.85647355 -29.47953763 -19.69446288 43.80649643 26.73050715 21.85003466 0.66484594 -0.74690925 2.59896674 1.21624233 -2.84102484 -0.00009023 -0.00000215 -0.00000687 4.32095165 5.27100617 -6.0695834 30.72639601 -0.37909435 1.07131923 -20.4177015 -17.50948482 4.41807161 0.06694586 -0.00001643 0.00000192
-0.00142346 1.1190213 -0.00099809 -16.90948648 -38.98344521 -9.03431701 6.79973952 -0.02792844 0.04544744 16.27824689 -0.08889812 -0.62920959 16.42344198 -0.13301371 -0.61444478 0.88000406 7.47932847 0.84426612 -5.44989992 21.62205644 11.74525999 -37.55268673 -4.72802821 1.52521874 -39.924697 -6.99910398 -62.19112407 -0.00000394 -64.50412637 0.00000127 -119.96662448 0.94029597 31.83504453 -41.16742465 -8.60182336 -9.91788001 -45.41579029 58.86004395 100.32267916 -179.999946 81.54726673 179.99993983 -52.84015614 -17.8503295 -29.52316635 -19.66030498 43.82500848 26.69981463 21.79931032 0.63088106 -0.75125687 2.62100542 1.2298684 -2.83822145 -0.00006856 7.5e-7 -0.00000517 4.34213517 5.26787678 -6.07909913 30.69544739 -0.40599012 1.07717038 -20.40938955 -17.49917113 4.42136923 0.05112057 -0.00001004 0.00000378
-0.00152009 1.11910629 -0.0009424 -16.90097795 -38.97430768 -9.01830329 6.73818785 -0.02705307 0.05457428 16.22183172 -0.08714086 -0.62418568 16.40038059 -0.13032177 -0.6098615 0.90785792 7.47957015 0.84335358 -5.40496189 21.62261414 11.74370234 -37.5486336 -4.71193537 1.54696496 -39.81520906 -7.02560221 -62.25586239 0.00001073 -64.44488127 -0.00000159 -119.98521919 0.94478944 31.78574591 -41.16529589 -8.59595415 -9.91939712 -45.27252526 58.91379653 100.25065589 179.99992316 81.53609814 -179.9999252 -52.88353456 -17.83879255 -29.5658758 -19.61800835 43.83467068 26.658349 21.74864744 0.6179689 -0.74533655 2.64243835 1.2398624 -2.8443261 -0.00006846 -0.000007 -0.00000482 4.36201912 5.25832758 -6.09160101 30.66377036 -0.41212672 1.08431971 -20.40244174 -17.49474461 4.41760557 0.04563155 0.0000025 -0.00000155
-0.00161628 1.11919327 -0.0008814 -16.89634544 -38.97749104 -9.00753271 6.6776682 -0.02623415 0.06340145 16.16511986 -0.08544837 -0.61932369 16.37692602 -0.12769832 -0.60543876 0.93543111 7.47981296 0.84240062 -5.36213665 21.62305087 11.74249046 -37.54594455 -4.69104863 1.55739707 -39.70389373 -7.03832885 -62.30517572 0.00002169 -64.4082052 0.00001771 -119.99319613 0.95044283 31.75827502 -41.16433904 -8.60626641 -9.89473812 -45.15328396 58.97710057 100.20664434 179.9998802 81.53234802 -179.99988265 -52.92105187 -17.84881068 -29.59161542 -19.5845103 43.8630173 26.63996095 21.6986278 0.62309576 -0.75273851 2.66216057 1.22048973 -2.84332712 -0.0000288 0.00000329 1.6e-7 4.38075648 5.25619395 -6.10368948 30.63201257 -0.41168497 1.09123607 -20.39453317 -17.49077462 4.41227234 0.04468191 -6.7e-7 -0.00000243
-0.0017112 1.11928146 -0.00081516 -16.89195956 -38.98232663 -8.99751507 6.6187589 -0.02541369 0.07190241 16.10861449 -0.08380716 -0.61468596 16.35320735 -0.12516779 -0.60122424 0.96211939 7.48009174 0.84132567 -5.32173095 21.62350202 11.74071234 -37.54083793 -4.64120152 1.56439698 -39.61242961 -7.08118836 -62.38182671 -0.00002142 -64.34379493 0.00000626 -119.9935724 0.96556678 31.71537211 -41.16409762 -8.60693055 -9.92141274 -45.05465217 59.03702915 100.17665695 -179.99990198 81.53086242 179.99989817 -52.97088928 -17.8116834 -29.62940159 -19.5366301 43.87014167 26.59895903 21.64908586 0.61906166 -0.74645013 2.68128759 1.23814667 -2.85461836 -0.00008603 0.00000224 -0.00000308 4.39945413 5.25140629 -6.11893366 30.59997091 -0.44051679 1.09946697 -20.38248279 -17.45404312 4.41926886 0.03397319 0.0000041 -0.00000445
-0.00180356 1.11937225 -0.00074415 -16.88817413 -38.98948879 -8.98860634 6.56173323 -0.02453124 0.08008041 16.05288555 -0.08224663 -0.61028231 16.3294246 -0.12277789 -0.59721461 0.98722753 7.48033411 0.84024207 -5.28772257 21.6239345 11.73882747 -37.5309127 -4.5890313 1.60343349 -39.51590994 -7.12424682 -62.45995318 0.0000188 -64.28160881 0.00003891 -120.01816404 0.96615399 31.66373103 -41.17251763 -8.61297982 -9.90886874 -44.93867667 59.10226968 100.13688162 -179.99988206 81.52785842 179.99988054 -53.01374844 -17.80591546 -29.65940275 -19.49823036 43.89417033 26.58074736 21.59759469 0.55713912 -0.76488285 2.70020671 1.29397144 -2.8510973 -0.00007932 -0.00000201 -0.00000262 4.4194018 5.25773454 -6.13309757 30.56765792 -0.50714565 1.1080977 -20.36550424 -17.39046731 4.4406135 0.02870711 0.00000429 -0.00000551
-0.00189488 1.11946259 -0.00066893 -16.88599115 -39.00148757 -8.9819392 6.50671237 -0.02342699 0.08801125 15.9982704 -0.08074017 -0.60611371 16.30572886 -0.12048735 -0.5934271 1.01018695 7.4805723 0.83917362 -5.26087257 21.62421488 11.73765753 -37.52658879 -4.54162176 1.63779496 -39.41316414 -7.15931863 -62.532767 -0.00000377 -64.22969897 -3.6e-7 -120.0377754 0.96791214 31.61685325 -41.17303991 -8.61020217 -9.91556915 -44.8381732 59.16120818 100.10439115 -179.99989783 81.52529218 179.99989514 -53.05717716 -17.78311431 -29.6915675 -19.46056667 43.92093133 26.56880472 21.54708882 0.508799 -0.78845396 2.71801554 1.33678745 -2.84572293 -0.00006416 -7.3e-7 -0.00000298 4.43839481 5.26143839 -6.14965281 30.53509997 -0.54621927 1.12007029 -20.3515086 -17.34336931 4.45068252 0.0369625 -0.00000321 0.0000019
-0.00198744 1.11955444 -0.00058982 -16.88450418 -39.01568771 -8.97640762 6.4539579 -0.02205283 0.09569869 15.94513459 -0.07930622 -0.60219481 16.28224191 -0.11829828 -0.58987654 1.03042094 7.48081731 0.8381271 -5.24151482 21.62425115 11.73746723 -37.52849437 -4.51065819 1.66788538 -39.30135967 -7.17598715 -62.5891446 0.00001327 -64.19641509 0.00001572 -120.05418584 0.96809624 31.58170827 -41.17459271 -8.60985525 -9.91478264 -44.74209416 59.22024125 100.07558734 -179.99993907 81.5234549 179.99992878 -53.09773462 -17.76604786 -29.71976908 -19.41544903 43.93762575 26.54387133 21.49660614 0.46454977 -0.80036055 2.73559852 1.39091469 -2.84921956 -0.00009771 -0.00000123 -6.2e-7 4.45704018 5.26148435 -6.16159554 30.50178853 -0.57190245 1.12274554 -20.33744108 -17.30689217 4.4597796 0.03327688 -0.00000512 -0.00000335
-0.0020826 1.11965248 -0.00050682 -16.88041606 -39.02271268 -8.96798615 6.40369744 -0.02035628 0.10310705 15.89381942 -0.07795097 -0.59854533 16.25906323 -0.11626238 -0.58656193 1.04738559 7.48102203 0.83716993 -5.22984045 21.62411257 11.73803054 -37.53228018 -4.48782432 1.70361733 -39.19324804 -7.19446186 -62.64676173 -0.00001649 -64.15778944 -0.00000242 -120.07435418 0.96676982 31.54165408 -41.17615088 -8.61064004 -9.91539446 -44.64183944 59.27472438 100.03936843 -179.99996755 81.51913342 179.99995586 -53.13631579 -17.74824842 -29.74951013 -19.38063812 43.96921345 26.53046898 21.44326199 0.4069285 -0.81861274 2.75472907 1.43427078 -2.84439246 -0.00008541 -5.6e-7 0.00000223 4.4791157 5.26025388 -6.18244529 30.46479868 -0.63524794 1.1400278 -20.31988679 -17.23518107 4.4774982 0.02905874 -0.00000106 0.00000769
-0.00217839 1.11975914 -0.00042064 -16.8777508 -39.03451948 -8.96196581 6.3566121 -0.01782822 0.11022103 15.84504628 -0.07684793 -0.59521152 16.23641338 -0.11454064 -0.58350259 1.05997032 7.48115907 0.83665269 -5.22371222 21.62395576 11.73873555 -37.5264739 -4.47153525 1.74607966 -39.0890347 -7.20414945 -62.69416672 -0.00003583 -64.13163446 -0.00002324 -120.10071827 0.95952541 31.50247761 -41.17712431 -8.60734873 -9.92029415 -44.55094662 59.32627153 100.00832129 179.99990739 81.5154785 -179.99990572 -53.17369699 -17.7254987 -29.77817571 -19.32908531 43.98129568 26.49027482 21.38703081 0.36928104 -0.81371145 2.77506028 1.48872702 -2.85692872 -0.0000205 -7.4e-7 0.00000282 4.50296588 5.26723822 -6.2011384 30.42495907 -0.71351788 1.15637937 -20.29853292 -17.15343952 4.50113165 0.02194079 0.00001198 0.00000347
-0.0022759 1.11987114 -0.00033055 -16.87080778 -39.03505541 -8.95171002 6.31281721 -0.01373216 0.11717101 15.79641 -0.07597416 -0.59202662 16.21350192 -0.11305139 -0.58055363 1.06747658 7.48124582 0.83621825 -5.22772541 21.62370223 11.74006798 -37.51738582 -4.43851786 1.81519584 -39.00502262 -7.24924015 -62.77396865 0.00002039 -64.06629623 0.00002653 -120.14437488 0.94943787 31.43643725 -41.17733528 -8.60567697 -9.91872415 -44.44435792 59.37198605 99.9593098 179.99992615 81.50685418 -179.99993557 -53.20733235 -17.70896486 -29.80939742 -19.29006897 44.00949195 26.47037741 21.32670363 0.28840428 -0.83183939 2.79743978 1.55426276 -2.85173385 -0.00002483 -0.00000444 -1e-7 4.53055424 5.27520202 -6.21365381 30.38103244 -0.81232377 1.16551322 -20.27415943 -17.06910795 4.53390262 0.01321063 -0.00001399 -4.8e-7
-0.00237165 1.11998047 -0.00023442 -16.86083692 -39.03341901 -8.94135203 6.27369775 -0.00844675 0.12408864 15.74670733 -0.0751182 -0.58890321 16.18986573 -0.11163516 -0.57765028 1.07055285 7.48132226 0.83583166 -5.24295697 21.62335946 11.74225081 -37.51967011 -4.41572609 1.87393735 -38.91619308 -7.28480083 -62.84353043 -0.00000315 -64.00993903 0.00001185 -120.17887005 0.94233272 31.38106444 -41.17728634 -8.60356874 -9.91151928 -44.33372756 59.41418626 99.9039621 -179.99999531 81.49628775 179.99999034 -53.23801287 -17.6960088 -29.84044003 -19.25897394 44.03597881 26.45104227 21.27199227 0.25447883 -0.83838628 2.81771798 1.57151484 -2.85095036 8.5e-7 0.00000886 0.00000241 4.55704612 5.28522605 -6.21870414 30.33558299 -0.86887856 1.17057447 -20.25454214 -17.03133919 4.55053095 0.00703723 0.00001131 -0.00000209
-0.00246299 1.12008301 -0.00013328 -16.85125589 -39.03715724 -8.93448145 6.24270426 -0.00559474 0.13098973 15.69654801 -0.07432677 -0.58585042 16.16551404 -0.11025118 -0.57481542 1.06971694 7.48134567 0.83550535 -5.26656365 21.62297244 11.74493376 -37.51857008 -4.40754327 1.91598828 -38.8296346 -7.29633202 -62.8862219 0.00001502 -63.98352166 0.00002458 -120.20196825 0.9359052 31.34681884 -41.17702426 -8.598843 -9.90360034 -44.23813829 59.45457992 99.85941345 -179.99998342 81.48778496 179.99997265 -53.26620154 -17.68207349 -29.86708361 -19.22321841 44.04612303 26.43024321 21.22317388 0.22455482 -0.85001367 2.83465431 1.60500571 -2.85243943 -0.00006216 -0.00000267 -0.00000179 4.58036578 5.29016187 -6.22606011 30.29063858 -0.89387842 1.18075097 -20.23852619 -17.00966998 4.55414042 -0.0305106 -0.00000971 1e-7
-0.00255296 1.12018059 -0.00002844 -16.83770651 -39.03067968 -8.92447784 6.22182217 -0.00425158 0.13778318 15.64691948 -0.07356703 -0.58291463 16.14061588 -0.10896239 -0.57206982 1.0651492 7.48137343 0.83521122 -5.29631961 21.62259571 11.7477962 -37.51768161 -4.40413683 1.95204221 -38.76036176 -7.31382521 -62.9292704 -0.00000405 -63.94988742 -0.00000471 -120.2206441 0.93265621 31.31150456 -41.17652851 -8.59101189 -9.9022854 -44.13944536 59.48581642 99.80455623 179.99996069 81.47576818 -179.99996575 -53.29154264 -17.66357934 -29.89666122 -19.19061946 44.04764402 26.40287157 21.17891362 0.21158081 -0.852524 2.85045668 1.6204629 -2.85665566 0.00004887 -0.00000918 0.00000372 4.60389418 5.28617629 -6.22436673 30.24455608 -0.8900512 1.17816748 -20.22568878 -17.02288192 4.55083159 -0.04026978 0.00001393 1e-7
-0.00263587 1.12027611 0.00007923 -16.82428311 -39.02560031 -8.91646366 6.21153329 -0.00380165 0.14436581 15.59901953 -0.07287027 -0.58017069 16.11530329 -0.10772188 -0.56952144 1.05586285 7.48136276 0.83497103 -5.33357339 21.6222728 11.75090326 -37.51409164 -4.40125764 1.97362949 -38.70742452 -7.32261803 -62.95640767 -0.00001338 -63.93218965 -0.00001441 -120.22821073 0.93147672 31.29448399 -41.16831374 -8.58462056 -9.8819463 -44.05255355 59.50941129 99.75285867 179.99994269 81.46338167 -179.99995673 -53.30481554 -17.6637401 -29.91565226 -19.17407582 44.06825264 26.39627491 21.13700339 0.20163017 -0.86107326 2.8647714 1.61080728 -2.85357343 -0.00005724 -0.00000376 -7.2e-7 4.62863168 5.29883671 -6.2176817 30.19826968 -0.90997964 1.17559483 -20.20995842 -17.02923374 4.55539352 -0.09716674 -1.6e-7 -0.00000326
-0.00271696 1.12037018 0.0001908 -16.80895046 -39.02027703 -8.90966094 6.21040601 -0.00435812 0.14947668 15.55491558 -0.07225204 -0.57774871 16.08959052 -0.10664678 -0.56726504 1.04211302 7.48134223 0.83475738 -5.37867921 21.62180929 11.7542294 -37.51190143 -4.37831609 2.00868774 -38.67431975 -7.35640968 -63.00516405 -0.00002926 -63.89280918 -6.8e-7 -120.24028535 0.93111646 31.26214598 -41.1689721 -8.58968601 -9.88877836 -44.00426251 59.53424612 99.73401602 -179.9999849 81.45856258 179.99998544 -53.3236008 -17.63821514 -29.93228995 -19.16140968 44.08226057 26.38962947 21.09987281 0.19165412 -0.86571667 2.87693822 1.60659033 -2.85332047 -0.00001397 -0.00000528 -0.00000393 4.64976038 5.28562163 -6.22803345 30.15098634 -0.92058775 1.19371234 -20.19606944 -17.00855051 4.55169931 -0.11706916 0.00001349 -0.00000162
-0.00279243 1.12045364 0.00030637 -16.79387041 -39.02149441 -8.90703008 6.21415955 -0.00764148 0.15335157 15.51508514 -0.07168738 -0.57561118 16.06275234 -0.10570906 -0.56526137 1.02488459 7.48130012 0.83458231 -5.42992896 21.62143714 11.75755424 -37.49967349 -4.36535989 2.04222874 -38.64583516 -7.37183635 -63.03304082 -0.00000839 -63.87773855 0.00000898 -120.2510466 0.92678548 31.24073415 -41.17458796 -8.59605466 -9.90377054 -43.98100089 59.56057451 99.73706007 -179.99997816 81.45901245 179.99996978 -53.34412182 -17.60180031 -29.94517293 -19.15628399 44.09395807 26.39373774 21.07049124 0.15529148 -0.87701507 2.88464248 1.63375098 -2.85191083 -0.00003525 -0.0000047 0.00000217 4.66724399 5.27703616 -6.23029405 30.10593409 -0.92824785 1.20270199 -20.18137435 -16.99211137 4.55099104 -0.15509352 -0.00000573 -0.0000022
-0.00286402 1.12052551 0.00042492 -16.77908904 -39.02735603 -8.9078544 6.22103102 -0.01242488 0.15591483 15.4813132 -0.071275 -0.57420124 16.03570444 -0.10500543 -0.56391801 1.00392184 7.48124598 0.83444042 -5.48711927 21.62141112 11.76006749 -37.50025536 -4.36157847 2.04135705 -38.62147978 -7.36689034 -63.03675974 0.00003847 -63.88888131 0.00001986 -120.23256198 0.93374998 31.25208487 -41.17702186 -8.60364445 -9.91268908 -43.97701475 59.58349903 99.75305373 -179.9999724 81.46197256 179.99997005 -53.35957962 -17.56849042 -29.95127173 -19.16315373 44.10874017 26.40763424 21.05070302 0.13175517 -0.88290268 2.88766714 1.64651108 -2.85304514 -0.00001496 -4e-8 -0.00000304 4.68144186 5.27467738 -6.22274185 30.06432625 -0.93385342 1.20047401 -20.16658722 -16.98371751 4.5539323 -0.15607642 -0.00001062 1.8e-7
-0.00292964 1.12058235 0.00054542 -16.76548163 -39.03808474 -8.91235164 6.22944584 -0.01784032 0.15720545 15.45418028 -0.07103415 -0.57379869 16.00862656 -0.10457644 -0.56326912 0.97934602 7.48118265 0.83431401 -5.54968807 21.62138828 11.76278577 -37.48892183 -4.34674072 2.05541628 -38.61266703 -7.36774445 -63.04117441 0.00001382 -63.90166332 0.00002143 -120.22356688 0.93481362 31.26145024 -41.17889313 -8.60474321 -9.90482438 -43.97077523 59.60225592 99.76369042 179.99990862 81.46334908 -179.99991345 -53.36919755 -17.54592688 -29.95418432 -19.17698457 44.11940632 26.42710136 21.04186598 0.13060041 -0.88420643 2.88540286 1.64323709 -2.85781384 -0.0000758 -0.00001089 -0.00000148 4.69175194 5.27233605 -6.21785867 30.02778135 -0.94490269 1.20394453 -20.15306948 -16.96176924 4.55797538 -0.16518561 0.00001089 5.3e-7
-0.00299018 1.12061691 0.00066656 -16.75025862 -39.0436013 -8.91620951 6.23766642 -0.02267283 0.15739711 15.43523096 -0.0708457 -0.57373389 15.98184493 -0.10428973 -0.56291869 0.95199313 7.4810841 0.8342161 -5.61585736 21.62132304 11.76543372 -37.48181584 -4.35376552 2.07681369 -38.5965013 -7.35621844 -63.03549298 -0.00003361 -63.92261604 -0.00001868 -120.2206047 0.93119782 31.26811135 -41.17943061 -8.59526939 -9.91006212 -43.95819648 59.61123003 99.76078447 179.99998558 81.46040613 -179.99999004 -53.37879827 -17.5104335 -29.96468251 -19.20420504 44.12883201 26.45204892 21.04620476 0.13684272 -0.87814526 2.87763657 1.62573886 -2.86396583 -0.00007897 0.00000374 9.7e-7 4.70007213 5.2745595 -6.21360963 29.99776867 -0.97376135 1.21353363 -20.14214158 -16.93015686 4.56581504 -0.12605905 -0.0000057 -0.00000343
-0.0030405 1.12062714 0.00078128 -16.73774629 -39.05232892 -8.9232861 6.24238405 -0.02633836 0.15572813 15.42101825 -0.07079364 -0.57404685 15.95711389 -0.10418225 -0.56291546 0.93228704 7.48099597 0.83412025 -5.67408041 21.62118536 11.76786649 -37.4903414 -4.37026339 2.04275616 -38.58801779 -7.32640355 -63.00714632 -0.0000171 -63.96248972 -0.00000292 -120.17217196 0.95009731 31.31440761 -41.17950051 -8.59146536 -9.91386336 -43.95867741 59.62186982 99.77011203 179.999991 81.46059671 -179.99999875 -53.38831417 -17.47464277 -29.97192317 -19.24021385 44.13651112 26.48523915 21.06384443 0.16884136 -0.86959506 2.86403877 1.5840865 -2.87121047 -0.00007552 -0.00000527 0.00000161 4.70303806 5.2776072 -6.20490477 29.97780222 -0.98410259 1.21747947 -20.13642149 -16.9148294 4.5694167 -0.0947996 0.00000345 -0.00000255
-0.00308519 1.120625 0.000895 -16.72818906 -39.06639213 -8.934455 6.2436962 -0.02934789 0.15353263 15.4072636 -0.07077981 -0.57457934 15.93246418 -0.10418036 -0.56310329 0.9160652 7.48087967 0.83404978 -5.72930812 21.62085445 11.77018218 -37.49037202 -4.40675255 2.03984855 -38.55512115 -7.27761451 -62.96828526 2e-7 -64.01920355 -0.00001666 -120.1487469 0.95259154 31.35053174 -41.17912222 -8.58895542 -9.92396992 -43.96957412 59.63627886 99.79117286 179.99993953 81.46385799 -179.99993992 -53.40143219 -17.43047024 -29.97934591 -19.27834031 44.14017437 26.53037677 21.08844374 0.15886618 -0.87851051 2.84626151 1.5896107 -2.87231632 -0.00006782 -0.00000769 -0.00000106 4.70311795 5.27713188 -6.19446706 29.96160849 -0.96189095 1.21907043 -20.13498692 -16.92126043 4.56243507 -0.09279688 -0.00000623 0.00000429
-0.00312229 1.12062973 0.00100783 -16.71846184 -39.0769141 -8.94582696 6.24237165 -0.03178591 0.15131991 15.39410739 -0.07085948 -0.57530568 15.91011297 -0.10438132 -0.56384355 0.90113724 7.48074834 0.83398455 -5.78373235 21.62044864 11.77240739 -37.48727144 -4.43290701 2.04702415 -38.53045448 -7.243262 -62.94143208 0.00001326 -64.06074474 0.0000196 -120.13166201 0.95424827 31.37758878 -41.17919332 -8.58505869 -9.92363886 -43.96580117 59.64932064 99.79899537 -179.99994996 81.46409529 179.99994843 -53.41286175 -17.39389767 -29.98871168 -19.30894539 44.1323247 26.55793108 21.11147198 0.15680649 -0.87009165 2.82980729 1.59967726 -2.88309765 -0.00005793 -0.00000864 -0.00000203 4.70605094 5.27669124 -6.18947412 29.94191269 -0.95012952 1.2315372 -20.13201233 -16.91686173 4.55503705 -0.0966332 -0.00000193 -0.00000311
-0.00315748 1.12065094 0.00111879 -16.70830871 -39.08326554 -8.95689224 6.23912937 -0.03328757 0.14906348 15.38162776 -0.07099424 -0.57624943 15.8917406 -0.10476246 -0.56486804 0.88575246 7.48063231 0.83391254 -5.8391196 21.62005028 11.77442203 -37.49142468 -4.43780842 2.02552038 -38.53160764 -7.2281437 -62.9238643 -0.00001979 -64.08507118 0.00000117 -120.08989936 0.97268233 31.41755915 -41.18416845 -8.58012596 -9.89861747 -43.93614157 59.66182759 99.78507248 179.9999993 81.45962243 179.99999733 -53.41987187 -17.37742157 -29.99837713 -19.34223942 44.13675824 26.59008648 21.12618668 0.16300551 -0.86194564 2.81750203 1.5855727 -2.88995738 -0.00006455 0.00000371 -0.00000337 4.71463712 5.28305217 -6.17943984 29.91544207 -0.98050279 1.23787728 -20.12065546 -16.887191 4.56514132 -0.09250406 0.0000054 0.00000856
-0.00317684 1.12068214 0.00122697 -16.69809802 -39.08407059 -8.96693994 6.23563272 -0.03462195 0.14636141 15.37004256 -0.07128333 -0.57799742 15.87914981 -0.10541593 -0.56667448 0.87007632 7.48049356 0.83384552 -5.89546857 21.61957786 11.77629488 -37.49113065 -4.4308925 2.02449764 -38.54472474 -7.23957437 -62.93276139 -0.00000317 -64.07987265 0.0000059 -120.06101463 0.98940851 31.42956106 -41.18557701 -8.57531567 -9.91923043 -43.9336027 59.66819039 99.78823681 179.99995456 81.45813077 -179.99994589 -53.43449893 -17.32231379 -30.01562823 -19.37311556 44.14360931 26.6341657 21.13475692 0.11938084 -0.88506743 2.80767784 1.61047323 -2.87895189 -0.00009398 -8.3e-7 -0.00000344 4.72493789 5.2744342 -6.16778877 29.88478432 -0.98976444 1.2357367 -20.10836509 -16.87147837 4.57194239 -0.07775066 0.0000045 -0.00000215
-0.00319257 1.12070457 0.001331 -16.69026653 -39.08533281 -8.97828405 6.23406077 -0.03582248 0.14321865 15.35910848 -0.07168447 -0.58042181 15.86809443 -0.10636624 -0.56910474 0.85409017 7.48035673 0.83376622 -5.95275423 21.61899852 11.77804123 -37.48935916 -4.4213176 2.03365888 -38.5602965 -7.24983676 -62.93903639 -0.0000053 -64.0786143 7.8e-7 -120.03929207 1.00086142 31.44585545 -41.18136351 -8.57807587 -9.90015869 -43.9254698 59.6737237 99.78609963 -179.99992811 81.45548206 179.99992838 -53.43676735 -17.30304926 -30.0209979 -19.40242761 44.14568043 26.67417376 21.14804572 0.09691636 -0.90112835 2.79603626 1.62005147 -2.87206554 -0.00008305 0.00000637 -0.00000405 4.7342405 5.2619469 -6.15361358 29.85729946 -0.9646719 1.22930576 -20.10092155 -16.88521932 4.56743273 -0.06967404 -0.00003025 0.0000014
-0.0032039 1.12070557 0.00143028 -16.68487337 -39.08587688 -8.99040444 6.2354055 -0.03675197 0.14011483 15.34880623 -0.07218654 -0.58328767 15.85802024 -0.10748199 -0.57196464 0.83790831 7.48020059 0.83369226 -6.01084531 21.61827959 11.77983081 -37.49208868 -4.4155341 2.03104901 -38.57797719 -7.26115508 -62.94718554 0.00003572 -64.07376697 0.00001143 -120.00757326 1.01903444 31.46119849 -41.1806228 -8.58203074 -9.91956296 -43.94024523 59.67951126 99.80309771 179.99990902 81.45709905 -179.99989851 -53.44851699 -17.25042114 -30.03219941 -19.43245805 44.13959758 26.70694479 21.17176325 0.08734584 -0.90364779 2.78008271 1.62495953 -2.87274659 -0.00007176 0.000006 2.5e-7 4.74168914 5.25502323 -6.1428552 29.83944903 -0.97464347 1.22831111 -20.09447352 -16.86918392 4.57449677 -0.04152862 -5.4e-7 0.00000151
-0.00321228 1.12068199 0.00152428 -16.67926793 -39.07700898 -8.99935774 6.24062523 -0.03739308 0.13679983 15.33914528 -0.07277728 -0.58648759 15.84894555 -0.10876337 -0.57511689 0.82159111 7.48006825 0.83358012 -6.06955043 21.61750443 11.78182653 -37.49434358 -4.41409979 2.03952395 -38.5984805 -7.27802738 -62.95986338 -0.00004058 -64.06036506 -0.00003473 -119.98598271 1.03267391 31.46750524 -41.17112568 -8.57677108 -9.92862607 -43.93238285 59.67366409 99.7914991 179.99994309 81.45086 -179.99994209 -53.45248026 -17.20975087 -30.04650729 -19.47395113 44.1389548 26.75565373 21.20440251 0.03136371 -0.92484779 2.76038637 1.65624675 -2.86011214 -0.00005045 -0.00000575 -0.00000148 4.74969356 5.2603767 -6.13113126 29.83051053 -1.0038747 1.23195926 -20.09247657 -16.85523618 4.58481906 -0.00184927 -4.7e-7 0.00000592
-0.00321616 1.12064095 0.00161286 -16.67733613 -39.07046171 -9.01009977 6.25309309 -0.03756554 0.1334489 15.33047004 -0.07349429 -0.59010301 15.84118617 -0.11024077 -0.57865663 0.8053613 7.47994672 0.83345277 -6.12832668 21.6165431 11.78408641 -37.49834259 -4.41618018 2.05406626 -38.61654146 -7.28776076 -62.96506631 0.00005773 -64.05591982 0.00005302 -119.97061389 1.04079889 31.47660964 -41.17007984 -8.57682289 -9.92034317 -43.92340757 59.67075808 99.78155429 -179.99997155 81.44571855 179.99998222 -53.45301696 -17.18463656 -30.05463189 -19.51319069 44.13042658 26.79438943 21.24500501 -0.04028991 -0.93212558 2.73715844 1.71535317 -2.85646267 -0.00008566 0.00000353 0.00000151 4.75474875 5.26267978 -6.12533705 29.82976493 -1.02431406 1.2420453 -20.09542224 -16.84003204 4.5902203 0.03389423 0.00000406 -0.00000278
-0.00321571 1.12058945 0.00169761 -16.67725096 -39.06604096 -9.02221728 6.2739072 -0.03724957 0.12977769 15.32283667 -0.074635 -0.59407084 15.83480327 -0.11220327 -0.58243623 0.78898168 7.47979337 0.83330827 -6.1866271 21.61535755 11.78602974 -37.50251368 -4.42133873 2.07792011 -38.63420995 -7.29753223 -62.97233524 -0.00001839 -64.0523344 -0.0000097 -119.96254152 1.04499454 31.47620146 -41.16807364 -8.5661527 -9.94548398 -43.93282762 59.66030964 99.78038094 179.99991649 81.44163872 -179.99991793 -53.45787821 -17.13108716 -30.06864786 -19.55029771 44.11444318 26.8237501 21.29151234 -0.07364758 -0.92326332 2.71176529 1.74760756 -2.86224606 -0.0000914 0.00000727 -0.00000347 4.75851582 5.2764814 -6.10973338 29.8333726 -1.01613448 1.24226661 -20.1027347 -16.86544051 4.58699222 0.0571495 -0.00000968 0.00000275
-0.00321202 1.12053917 0.00177525 -16.67669391 -39.05848355 -9.03320152 6.30021478 -0.03638892 0.12554669 15.31621025 -0.0759642 -0.59838444 15.82964013 -0.11444709 -0.58647056 0.77212712 7.4796766 0.83312027 -6.24394025 21.61343364 11.78840515 -37.50880005 -4.4445405 2.06945566 -38.66382072 -7.28619296 -62.95042351 -0.00002427 -64.07112211 -0.00000542 -119.93303155 1.05675487 31.50688541 -41.1695704 -8.55846439 -9.9285846 -43.91921096 59.64810168 99.75877804 -179.99995168 81.43319566 179.99994366 -53.4516594 -17.11478219 -30.07523973 -19.58632984 44.09828287 26.85624 21.33589427 -0.10660106 -0.92371115 2.68782078 1.77552568 -2.8623452 -0.00006122 0.00001219 0.00000699 4.76120179 5.27215338 -6.10361499 29.83688069 -1.0177034 1.24946138 -20.108906 -16.86306086 4.586832 0.06506618 0.00001545 0.00000496
-0.0032036 1.12049614 0.00183954 -16.67847976 -39.05752859 -9.04701673 6.33107518 -0.03362221 0.12071601 15.31062956 -0.07741541 -0.60295437 15.82670629 -0.11682696 -0.59078977 0.75496495 7.47952308 0.83292085 -6.29978627 21.61096068 11.79145379 -37.51468972 -4.4506669 2.06042589 -38.70307057 -7.28527963 -62.93521205 -0.0000102 -64.08566656 -0.00001203 -119.90165494 1.0693474 31.53591906 -41.17098569 -8.56013254 -9.9224114 -43.93892022 59.63710864 99.76570068 -179.99997926 81.43138469 179.99997467 -53.44560179 -17.09075982 -30.07484331 -19.62513111 44.09363383 26.89906272 21.37622136 -0.11841933 -0.92968011 2.66579462 1.77584657 -2.85873644 -0.00011107 0.00000236 0.00000258 4.76295918 5.2706773 -6.09460818 29.83934778 -1.01436368 1.25174681 -20.11291798 -16.86315439 4.5869497 0.05276788 -2.7e-7 0.00000446
-0.00319395 1.12046181 0.00188119 -16.6779432 -39.05056064 -9.05789772 6.36641641 -0.0317129 0.11486615 15.30639852 -0.07892863 -0.60782679 15.82504394 -0.11936351 -0.59538836 0.73770198 7.47941762 0.83266851 -6.35438394 21.60944983 11.79446535 -37.52224689 -4.45680958 2.052429 -38.75136433 -7.29357263 -62.92762591 -0.00000528 -64.08877622 1.2e-7 -119.87052274 1.08377618 31.55684672 -41.17107103 -8.56219586 -9.93863332 -43.97295435 59.62046515 99.7796074 179.99998755 81.43046187 -179.99998578 -53.44169016 -17.04921959 -30.07740964 -19.66356548 44.0904197 26.9382121 21.40987941 -0.14201316 -0.93503344 2.64860914 1.78192931 -2.85321688 -0.00003949 -0.00000498 0.00000312 4.76512532 5.26899249 -6.07928812 29.83999578 -1.02690435 1.24467273 -20.11306816 -16.85889318 4.59536889 0.05275705 0.00000483 -0.00000177
-0.00318317 1.1204306 0.00190821 -16.67586829 -39.0387625 -9.06632735 6.40627695 -0.0311366 0.10821181 15.30455952 -0.08051974 -0.61295665 15.82415781 -0.12199209 -0.60023627 0.72040858 7.47928955 0.83235422 -6.40752378 21.60839875 11.79746478 -37.52914774 -4.48005148 2.08389639 -38.78333693 -7.29043618 -62.91288644 -0.00001314 -64.10134007 1.5e-7 -119.87296177 1.0770641 31.56643048 -41.17242915 -8.56531748 -9.91457274 -43.98442206 59.60022287 99.77187891 179.99989003 81.424653 -179.99988746 -53.42601469 -17.04444875 -30.07301765 -19.69807807 44.08353717 26.97643947 21.43860736 -0.19743543 -0.95211762 2.63452775 1.81862375 -2.8413602 -0.00007566 -0.00000337 6.1e-7 4.766954 5.26408678 -6.06877475 29.84115553 -1.05477305 1.24463577 -20.11237844 -16.83897012 4.60643134 0.03515796 -0.00000662 0.0000026
-0.00316924 1.12038925 0.00193176 -16.67716381 -39.03660799 -9.07859225 6.44973406 -0.03093624 0.10088579 15.30507847 -0.08218092 -0.61826179 15.82377538 -0.12476386 -0.60521122 0.70313516 7.4792577 0.83175877 -6.45883426 21.60751938 11.8005066 -37.53512584 -4.51110216 2.08015997 -38.82318502 -7.2672998 -62.87483116 0.00000237 -64.13934 0.00000335 -119.84918016 1.08071528 31.60216744 -41.17255257 -8.57064444 -9.91095152 -44.03258312 59.58082563 99.79509737 -179.99996638 81.42585713 179.99997183 -53.4131398 -17.02270601 -30.06414615 -19.73209508 44.07448589 27.01585405 21.47326307 -0.20027552 -0.96340319 2.61759575 1.81369297 -2.83485162 -0.00005733 0.00000397 0.00000174 4.76416264 5.25665793 -6.05728858 29.846891 -1.03775797 1.24159345 -20.11717614 -16.84930889 4.60262648 0.0256624 -0.00001556 -0.00000535
-0.00315372 1.120327 0.00195456 -16.67917241 -39.03618607 -9.0913773 6.49671525 -0.0307758 0.09310208 15.30787339 -0.08392466 -0.6237218 15.82382256 -0.12759884 -0.61030445 0.6858825 7.47922544 0.831081 -6.50818988 21.60674816 11.80361009 -37.5359918 -4.53667749 2.08391776 -38.86906843 -7.25010455 -62.84220998 0.00001981 -64.17297426 0.00002836 -119.83132472 1.08198781 31.62858742 -41.1717216 -8.56761345 -9.93006497 -44.09152924 59.55622917 99.82282105 179.99987835 81.42742752 -179.99987812 -53.40347624 -16.98173357 -30.05984126 -19.77304448 44.06366656 27.05550624 21.51808053 -0.23410449 -0.96738441 2.59586294 1.8423121 -2.83259207 -0.00005422 -0.00000244 -0.00000359 4.75680235 5.2463709 -6.04745079 29.86060029 -1.01435911 1.23947304 -20.12618644 -16.85992485 4.59687275 0.01389224 -0.00000116 0.00000423
-0.0031358 1.12023804 0.00197287 -16.68011682 -39.03209551 -9.10236412 6.54742246 -0.03023524 0.08485164 15.31313786 -0.08573303 -0.62933772 15.82425213 -0.13052961 -0.6154814 0.66869194 7.47921862 0.83034068 -6.55529139 21.60606758 11.80679358 -37.53996537 -4.54843493 2.08301199 -38.93246553 -7.24620173 -62.81707315 -0.00003251 -64.19489138 -0.00002146 -119.80865787 1.08749997 31.65817607 -41.1726128 -8.56787607 -9.92199354 -44.13698884 59.52936179 99.83746217 -179.999971 81.42600562 179.99997525 -53.3855711 -16.96613713 -30.05001651 -19.82302625 44.05005364 27.10515 21.57461709 -0.27503508 -0.98117146 2.56907144 1.8724968 -2.82426358 -0.000064 1.9e-7 9.4e-7 4.74509376 5.23964299 -6.04129769 29.88555201 -1.03594796 1.24290259 -20.13620334 -16.83244214 4.60637677 0.0198653 -0.00000621 -0.00000247
-0.00311717 1.12013054 0.00198741 -16.68117128 -39.03189411 -9.1126472 6.60178117 -0.02872428 0.07628388 15.32106915 -0.08759182 -0.6350818 15.8249828 -0.13350952 -0.6207317 0.65166315 7.47922248 0.82950855 -6.59951421 21.60545151 11.810011 -37.53863348 -4.55497387 2.08360159 -39.00569476 -7.24641725 -62.79437049 -0.00001295 -64.21490293 -0.00001711 -119.7882542 1.09209063 31.68356555 -41.17359145 -8.56521452 -9.929302 -44.19740798 59.49926586 99.86169988 179.99997209 81.42645273 -179.99997473 -53.36871685 -16.93976996 -30.04010404 -19.87285237 44.02757311 27.13838918 21.64044954 -0.30373398 -0.96870823 2.5384743 1.90659803 -2.83143806 -0.00003236 -0.00000457 -4.4e-7 4.72751004 5.2378322 -6.03533256 29.91951506 -1.04140308 1.24692696 -20.15191885 -16.82055119 4.60938414 0.03304862 0.0000267 0.00000246
-0.00309503 1.12000809 0.00200472 -16.68348064 -39.03635211 -9.12401122 6.65828609 -0.02637005 0.0674955 15.33099584 -0.08950769 -0.64089213 15.82633425 -0.13654794 -0.62605774 0.63476427 7.47926098 0.82856604 -6.64130132 21.6048638 11.81333396 -37.53567261 -4.57310659 2.04101321 -39.09155338 -7.22368979 -62.74107012 0.00000113 -64.26186167 0.0000046 -119.73813663 1.10868249 31.74309629 -41.1761759 -8.5604478 -9.92123146 -44.25383229 59.46852129 99.88209703 -179.9999454 81.42618232 179.99993649 -53.34745813 -16.92758855 -30.02613108 -19.92906798 44.00987168 27.18717796 21.71274564 -0.33272534 -0.97229749 2.50410362 1.93593735 -2.83049786 -0.00005437 0.00000358 -0.00000241 4.70592312 5.23704097 -6.03078526 29.9600386 -1.04794363 1.25082508 -20.16985872 -16.80316215 4.61396616 0.02382506 -0.00001405 -0.00000192
-0.00306733 1.11988274 0.002025 -16.68593886 -39.03901633 -9.13451927 6.71643404 -0.02253904 0.05840806 15.34288264 -0.09143675 -0.64679917 15.82847728 -0.13963935 -0.63145528 0.61805923 7.4793418 0.82749372 -6.68057501 21.60436134 11.81692813 -37.54062128 -4.59428928 1.99093015 -39.17628308 -7.20052638 -62.68741447 0.00000656 -64.30686584 0.00000515 -119.68240249 1.1288539 31.8042447 -41.18041627 -8.55895152 -9.92222323 -44.31707726 59.43680996 99.90731588 -179.99995916 81.42705272 179.99996258 -53.32761895 -16.90934173 -30.01270251 -19.98487071 43.99245932 27.23506546 21.78561209 -0.36302014 -0.97640568 2.46930676 1.96473173 -2.82842916 -0.00009714 0.0000023 0.00000176 4.68457001 5.23892279 -6.01310012 30.00130675 -1.02312873 1.23462803 -20.19023786 -16.82897006 4.61367094 0.02569873 -0.00000678 -5.8e-7
-0.00303571 1.11977196 0.0020417 -16.69045702 -39.04317465 -9.14545289 6.77586107 -0.01836968 0.04889666 15.35674717 -0.09340673 -0.65279346 15.83218226 -0.14277962 -0.63691761 0.60160788 7.47952745 0.82586009 -6.71737478 21.60373805 11.82216882 -37.53535651 -4.58818537 1.9937706 -39.26486899 -7.20781384 -62.66659854 0.00001269 -64.32356345 0.00001382 -119.66577255 1.13130651 31.82948424 -41.18378221 -8.56635605 -9.91521549 -44.39306614 59.40645549 99.94420969 -179.99999651 81.43093589 -179.9999964 -53.30417692 -16.90136322 -29.99170476 -20.03119809 43.97582686 27.27345744 21.8504787 -0.38350956 -0.97491527 2.43818298 1.98828878 -2.82965133 -0.00006951 0.00000527 -1e-8 4.66677441 5.24322838 -6.00791059 30.03842821 -1.0102797 1.23742451 -20.2087671 -16.83608699 4.61066437 0.01520798 -0.00000467 -0.00000299
-0.00299971 1.11968414 0.0020543 -16.69690999 -39.04905119 -9.15672109 6.83654653 -0.01469934 0.03870335 15.37369681 -0.09542018 -0.65888102 15.83746606 -0.14595398 -0.64246306 0.5855441 7.47978797 0.82395748 -6.75095784 21.60307334 11.82709195 -37.53698396 -4.57618913 1.9619918 -39.36751965 -7.21615299 -62.64190506 -0.00002079 -64.34136537 -6.6e-7 -119.62357066 1.14888081 31.87101279 -41.18687371 -8.56019075 -9.91701192 -44.46286318 59.37057805 99.97126014 179.99991186 81.43223256 -179.99991976 -53.28171536 -16.88686146 -29.97612577 -20.06132105 43.95518413 27.29562303 21.90373045 -0.37604515 -0.96594419 2.41249382 1.99544573 -2.83625583 -0.00003896 -0.00000122 -2e-8 4.65227322 5.2367908 -6.01133825 30.06868375 -1.02188697 1.2442452 -20.22002808 -16.80548453 4.61762263 0.00879251 0.00001123 -7.1e-7
-0.00295739 1.11961533 0.00206567 -16.70426885 -39.05509866 -9.16788399 6.89791518 -0.0123813 0.02791211 15.3928384 -0.09741163 -0.66499196 15.84381516 -0.14915184 -0.64800872 0.56956008 7.48007427 0.82187846 -6.78246281 21.60244618 11.83095275 -37.53194161 -4.58330508 1.94837123 -39.45675166 -7.20543994 -62.60134021 0.00000399 -64.37717862 0.00000803 -119.59933079 1.15288172 31.91082854 -41.18908515 -8.55989299 -9.90719714 -44.53930613 59.33535883 100.00433792 179.99994438 81.43517828 -179.99995022 -53.25511801 -16.88504938 -29.95405422 -20.08574797 43.94146923 27.31656768 21.94691683 -0.3548009 -0.95974804 2.39125411 1.98405003 -2.84023606 -0.00011525 1.1e-7 6.9e-7 4.6411901 5.2301204 -6.00994 30.0920365 -1.00138857 1.24263864 -20.23079496 -16.80869717 4.61504539 -0.00660674 -0.00000213 0.00000113
-0.00290987 1.11954658 0.00207588 -16.71216843 -39.05988875 -9.17840926 6.96004761 -0.01111301 0.0150726 15.41384253 -0.09943543 -0.67109932 15.8512487 -0.15234865 -0.65354243 0.55365515 7.48051647 0.81915693 -6.81176804 21.6008704 11.83395535 -37.5277703 -4.57116082 1.9375992 -39.55613727 -7.21545278 -62.57993183 -0.0000063 -64.39320068 -6.4e-7 -119.57487663 1.16040814 31.93898066 -41.18928238 -8.56291271 -9.92176287 -44.63901431 59.29884166 100.05550029 179.99993015 81.44223274 -179.99992904 -53.23302762 -16.86356824 -29.93313975 -20.11438142 43.93664276 27.34151429 21.99017895 -0.27725595 -0.94875286 2.37051223 1.90588736 -2.84378619 -0.00000358 0.00000119 -0.00000264 4.63000059 5.21833142 -6.00124349 30.11489055 -0.93438145 1.22766631 -20.245502 -16.85768394 4.59964251 -0.00767623 0.00001009 0.00000137
-0.0028584 1.1194648 0.0020854 -16.72141543 -39.0673577 -9.18994669 7.023014 -0.01058541 0.00153221 15.43666497 -0.10145204 -0.67718417 15.85977249 -0.15552552 -0.65905625 0.5380193 7.48088075 0.8172168 -6.83910306 21.59817068 11.83634824 -37.52960245 -4.56866685 1.90071094 -39.65675299 -7.20556103 -62.53484964 -0.00002596 -64.43197933 -0.00000395 -119.53289431 1.17412849 31.99558381 -41.1906392 -8.56552323 -9.89635208 -44.72077143 59.26288252 100.09236946 -179.99995514 81.44654936 179.99994716 -53.20129843 -16.87779413 -29.90434369 -20.14476891 43.92924167 27.37172023 22.03960551 -0.20779322 -0.94488151 2.34649133 1.8386707 -2.84487772 -0.0416859 -7.6e-7 8.3e-7 4.61527036 5.20134888 -5.99434994 30.14304879 -0.85060053 1.21230778 -20.26401463 -16.91379453 4.5790715 0.01302815 -0.00000583 0.0000076
-0.00280597 1.11936752 0.00209344 -16.73159082 -39.07484461 -9.20137926 7.08676215 -0.01007475 -0.01269353 15.4619993 -0.10343711 -0.6832306 15.86984669 -0.15870441 -0.66451657 0.52285287 7.4811561 0.81595245 -6.86403526 21.59426169 11.83853325 -37.53383086 -4.57977686 1.84134621 -39.75782598 -7.18531438 -62.48022762 -0.00001769 -64.47820327 -0.00000571 -119.47547474 1.19587493 32.05893551 -41.1831652 -8.56873625 -9.91916737 -44.84303056 59.22133152 100.15781578 179.99999925 81.45679774 179.99999268 -53.17668727 -16.85519694 -29.87892877 -20.17633287 43.91798107 27.40005338 22.09458249 -0.17008824 -0.9398503 2.3199139 1.80687741 -2.84717677 -0.04807978 0.00000247 0.0000023 4.59938678 5.19806534 -5.98541353 30.17828892 -0.80023492 1.19757262 -20.28224006 -16.95205662 4.57018862 0.00482726 8e-7 -0.00000841
-0.00275385 1.11926338 0.00209967 -16.7408781 -39.07750192 -9.21050373 7.15088236 -0.00872289 -0.02753576 15.48940609 -0.10543881 -0.68920224 15.8813735 -0.16184741 -0.6699085 0.50815083 7.48139647 0.81478716 -6.88721715 21.58900258 11.84085494 -37.5308313 -4.58166151 1.84221663 -39.85151948 -7.18380817 -62.44821102 -0.00004139 -64.50230009 -0.00003129 -119.46626073 1.19412588 32.08610471 -41.18571726 -8.56277313 -9.90623919 -44.91711185 59.1785502 100.18247433 -179.99996283 81.45812896 179.99996094 -53.14662609 -16.86281615 -29.85685776 -20.21070648 43.90745261 27.42770884 22.15166887 -0.1500725 -0.93389124 2.29271105 1.78720563 -2.8483111 -0.0536277 -0.00001114 0.00000162 4.58419564 5.19951954 -5.98119402 30.21636886 -0.76946715 1.19239706 -20.3015186 -16.97760111 4.56419541 0.00639041 0.00000519 0.00000371
-0.00270247 1.11916084 0.00210362 -16.75047058 -39.07943962 -9.21905623 7.21554836 -0.0067084 -0.04328892 15.51857262 -0.1074052 -0.69509054 15.89418739 -0.16494773 -0.67521937 0.49389815 7.48161888 0.81374414 -6.90883944 21.58331106 11.84327127 -37.54102374 -4.60067655 1.81727751 -39.93816244 -7.1643517 -62.39861151 0.00000731 -64.54218652 0.00002061 -119.43848825 1.20031545 32.1323978 -41.1856693 -8.56085097 -9.89589452 -45.00092967 59.13412901 100.21370451 179.99997259 81.4608653 -179.99997394 -53.1151601 -16.87082516 -29.83224797 -20.24141754 43.89400779 27.44657456 22.2077673 -0.13054555 -0.91885748 2.26622252 1.77281451 -2.85452378 -0.05008242 0.00000185 -0.00000252 4.56960389 5.2010318 -5.97692772 30.25452565 -0.74771861 1.18565678 -20.31965104 -16.99607889 4.56225346 0.02005945 -9e-7 9.8e-7
-0.00265297 1.1190638 0.00210555 -16.75840153 -39.07600762 -9.22505743 7.28019185 -0.00406304 -0.06024662 15.54946937 -0.10933738 -0.70087879 15.90818919 -0.16798359 -0.68044283 0.48008487 7.4818201 0.8128382 -6.92910297 21.57801772 11.84599886 -37.54729837 -4.62264976 1.7575201 -40.04871358 -7.14939398 -62.34582812 0.00000117 -64.5753889 -0.00000957 -119.3849667 1.22271447 32.188159 -41.18302051 -8.55707084 -9.91695204 -45.09647135 59.08449293 100.25015463 -179.99994342 81.4641712 179.99993584 -53.08918548 -16.85334224 -29.81462668 -20.27057823 43.88080378 27.45719898 22.26126043 -0.04166297 -0.88967646 2.24217822 1.68614199 -2.86614402 -0.05188398 -0.00000389 -0.00000242 4.55685192 5.19979199 -5.96945942 30.28923082 -0.67468175 1.17694171 -20.34342236 -17.06719872 4.53953453 0.00553508 0.00001686 -0.00000185
-0.0026054 1.11897415 0.00210472 -16.76698199 -39.07347419 -9.23112736 7.34408853 -0.00243243 -0.07843247 15.58270805 -0.11122216 -0.70650925 15.92383585 -0.17096483 -0.6855198 0.46691619 7.48196522 0.81209753 -6.94755958 21.5738037 11.8489916 -37.55263998 -4.6525776 1.67096604 -40.16974949 -7.11625827 -62.26693449 -0.00003129 -64.63115367 -0.00002504 -119.31378029 1.25106823 32.27508872 -41.18260385 -8.56005097 -9.88261686 -45.17193084 59.03787285 100.27255984 -179.99996708 81.46493988 179.99996123 -53.05003314 -16.88491098 -29.78422635 -20.29559053 43.8683527 27.46340816 22.31043833 0.06248618 -0.85656834 2.22030402 1.5862433 -2.88017147 -0.06050621 0.00000544 -5.9e-7 4.5451812 5.19726873 -5.95983885 30.32156983 -0.59594307 1.16301812 -20.36604892 -17.14373806 4.51646177 0.01730457 1.3e-7 0.00000397
-0.00256157 1.11889328 0.0021005 -16.77476691 -39.06917566 -9.23510582 7.40640236 -0.00188478 -0.09775704 15.61778878 -0.11305824 -0.71196839 15.94091396 -0.17385616 -0.6904365 0.45436774 7.48209383 0.81154145 -6.96458699 21.57034767 11.85156447 -37.55169002 -4.67499715 1.61132765 -40.29002251 -7.10050326 -62.20962005 -4.4e-7 -64.6671632 -0.00000975 -119.26269275 1.27164483 32.33256015 -41.18039508 -8.55855138 -9.89507833 -45.27032484 58.98744585 100.31058613 179.99996683 81.46860715 -179.9999729 -53.0204712 -16.87700439 -29.76240889 -20.31581215 43.8574737 27.46792356 22.35261487 0.14378723 -0.83101357 2.20171816 1.50685617 -2.89010477 -0.08472312 -0.00000297 3.3e-7 4.53501049 5.19463317 -5.95181608 30.35126032 -0.50647925 1.15178606 -20.38943618 -17.23148573 4.48738099 0.00562442 0.00000476 0.00000534
-0.00251977 1.11882324 0.00209289 -16.78257392 -39.06468083 -9.23858612 7.46674769 -0.00192892 -0.11763632 15.6545476 -0.11484824 -0.71724911 15.95920022 -0.17664938 -0.69520269 0.44241285 7.48216731 0.81119417 -6.97994318 21.56752861 11.85260345 -37.55170786 -4.68982275 1.59081237 -40.39687812 -7.09429186 -62.1677417 0.00001932 -64.69369471 0.00001996 -119.24019043 1.27669877 32.36858391 -41.17462576 -8.56557108 -9.89879451 -45.37908937 58.937704 100.35777369 179.99998797 81.47437642 -179.99999967 -52.98669053 -16.87874987 -29.73357517 -20.32746975 43.84175725 27.46671288 22.38855593 0.19382971 -0.81192429 2.18585554 1.4650621 -2.8982131 -0.1095489 0.00000791 0.00000181 4.52674506 5.19267977 -5.9459891 30.3785405 -0.47009974 1.14026335 -20.40473747 -17.27041842 4.47966252 0.00675148 -0.00000192 3.1e-7
-0.00247298 1.11876137 0.00208181 -16.79051908 -39.0599764 -9.24193056 7.52458354 -0.00252416 -0.1373749 15.69293488 -0.11656791 -0.72227874 15.97879868 -0.17936441 -0.69978746 0.43105089 7.48220327 0.81106746 -6.99370425 21.56547487 11.85243544 -37.55141984 -4.71124779 1.614203 -40.48118989 -7.08657616 -62.13309304 0.00001479 -64.71817789 0.00001468 -119.25259417 1.26242393 32.38079361 -41.17714557 -8.56390966 -9.89660706 -45.46580835 58.88903182 100.38762106 179.99996749 81.47635993 -179.9999707 -52.95459111 -16.88333943 -29.71016187 -20.33636652 43.82822335 27.46698093 22.41956889 0.24538575 -0.79913609 2.17230337 1.41946495 -2.90265184 -0.09091858 0.00000486 -0.00000402 4.51994746 5.19156915 -5.94341425 30.40293617 -0.43004968 1.13489594 -20.41955381 -17.31140253 4.46791685 0.00217134 -1.9e-7 -0.00000775
-0.00240725 1.11869835 0.00206716 -16.79864102 -39.05508871 -9.24512995 7.5800552 -0.00513488 -0.15636235 15.7332967 -0.11816851 -0.72650392 15.99992415 -0.18197059 -0.70413433 0.42046497 7.48217999 0.81119887 -7.00606011 21.56411449 11.85254084 -37.54702721 -4.7325555 1.62496903 -40.57400826 -7.07695214 -62.09395856 0.00001812 -64.74726342 0.00000362 -119.25639077 1.25201316 32.39932512 -41.17156221 -8.56228452 -9.90321894 -45.56730247 58.83651313 100.42628552 179.99998439 81.47951299 179.99999314 -52.91976442 -16.88346788 -29.68401842 -20.34539379 43.81412756 27.46927665 22.45152578 0.28969779 -0.79284106 2.15821004 1.38075395 -2.90286957 -0.08228596 -0.00000157 -4.8e-7 4.51235777 5.19130988 -5.94346525 30.42784087 -0.3856576 1.13320002 -20.43458454 -17.35561568 4.45369025 -0.00088486 9.7e-7 -9e-8
-0.00233841 1.11862686 0.00204886 -16.80690827 -39.05015325 -9.24823173 7.63291157 -0.00879736 -0.17149563 15.77552607 -0.11967094 -0.73033855 16.02259158 -0.18423463 -0.70768312 0.41071249 7.48208389 0.81160347 -7.01727144 21.56411418 11.85318469 -37.54438928 -4.75962679 1.62297198 -40.65865356 -7.05328908 -62.0404675 -0.00001222 -64.78732521 -0.00002304 -119.2601942 1.24070126 32.42948252 -41.17159673 -8.5609427 -9.87284968 -45.64348013 58.7884917 100.44794194 179.9999587 81.48091079 -179.99996814 -52.87938289 -16.92482926 -29.65200404 -20.35891294 43.80269236 27.47485903 22.48670231 0.340975 -0.78522469 2.1428835 1.33134304 -2.90275247 -0.07112254 -0.00000406 0.00000172 4.5027526 5.19173732 -5.94323248 30.45695841 -0.36543721 1.12928045 -20.44791906 -17.37849159 4.45028739 0.00464703 -0.00000568 -0.00000246
-0.00226655 1.11854919 0.00202636 -16.81522894 -39.04517502 -9.25114391 7.68337129 -0.01456391 -0.18455768 15.81927063 -0.12111904 -0.73383764 16.0465138 -0.18634196 -0.71075436 0.40166464 7.48195395 0.81229448 -7.0283074 21.56451447 11.85402239 -37.53993454 -4.784884 1.6165405 -40.74193802 -7.03029047 -61.9886997 -0.00004243 -64.82627772 -0.00002445 -119.26360103 1.23004105 32.45560809 -41.17004199 -8.55835529 -9.86614356 -45.73567526 58.73993173 100.48234327 179.9999898 81.48536369 -179.99999401 -52.84362434 -16.950035 -29.6220142 -20.37685728 43.79368722 27.48478587 22.52481014 0.3770133 -0.78012543 2.126317 1.29332339 -2.90046601 -0.04873032 -0.00000295 0.00000546 4.49158026 5.19266232 -5.94032677 30.48865985 -0.33972251 1.12122887 -20.46251446 -17.40883968 4.44624251 0.00049458 -0.0000085 0.00000216
-0.00219184 1.11847427 0.00199915 -16.82364644 -39.04031624 -9.25386097 7.73134457 -0.02012921 -0.19645471 15.86450454 -0.12251416 -0.73700273 16.07171032 -0.18829972 -0.71348163 0.39334689 7.48174443 0.81330361 -7.03755245 21.56517839 11.85511474 -37.53541946 -4.81039166 1.61668418 -40.82034325 -7.00732008 -61.93869585 -0.0000083 -64.86452429 -9.3e-7 -119.27362777 1.21548685 32.47639598 -41.16841552 -8.55960233 -9.8624881 -45.8343722 58.69237973 100.52289713 -179.99997509 81.49132534 179.99997008 -52.80778929 -16.97515287 -29.59000183 -20.38866939 43.77855121 27.4833614 22.56088923 0.42663378 -0.76500601 2.11109049 1.25117824 -2.90451 -0.02394176 -0.00000585 -9.1e-7 4.48098174 5.19703743 -5.94407261 30.52016491 -0.34874355 1.12343665 -20.47343952 -17.4052136 4.4519569 0.00005382 0.00000385 -0.00000372
-0.00211494 1.11840897 0.00195912 -16.83213115 -39.03559565 -9.25630815 7.77617243 -0.02441433 -0.20745295 15.91143291 -0.1238004 -0.73980803 16.09837685 -0.19011591 -0.71586257 0.38592884 7.48144558 0.81465372 -7.04547911 21.56569991 11.85753227 -37.5373523 -4.81808582 1.60962749 -40.905853 -6.99910589 -61.90123995 -0.00000506 -64.88935527 -0.00001264 -119.27728519 1.20664535 32.49686028 -41.16790087 -8.56471943 -9.84972073 -45.92988119 58.64629317 100.56212386 179.99992081 81.49721226 -179.99992127 -52.76956392 -17.01028098 -29.55498195 -20.39533582 43.76232305 27.47782601 22.59066161 0.45273992 -0.75280515 2.0992649 1.23540137 -2.90731902 -0.01104115 -0.00000678 6.9e-7 4.47132601 5.20757257 -5.94177956 30.54955974 -0.36515858 1.11801264 -20.48112383 -17.40452188 4.46235194 0.01929064 -0.00000584 8.1e-7
-0.00203614 1.11834839 0.00190898 -16.84067345 -39.0311374 -9.2584946 7.81713413 -0.02737178 -0.21779566 15.9601948 -0.12477791 -0.74214931 16.12668803 -0.19155147 -0.71796422 0.37949235 7.48093104 0.8171088 -7.05174161 21.56706983 11.86054667 -37.54597094 -4.8445753 1.60547246 -40.97245554 -6.97709401 -61.85624159 -0.00002501 -64.92326192 -0.00000284 -119.28582223 1.19405446 32.51402644 -41.1660668 -8.55915858 -9.85705269 -46.0206303 58.5959945 100.59366427 179.99996247 81.50074318 -179.99997303 -52.73541547 -17.02900327 -29.52836471 -20.40442473 43.75277182 27.47379067 22.61705691 0.4707795 -0.73884173 2.08952359 1.22182192 -2.90943447 -0.0441707 -0.00000264 -0.00000453 4.46103814 5.21198224 -5.94302154 30.57773663 -0.37364605 1.11582818 -20.48874843 -17.40324573 4.46887251 0.01839139 -0.00000928 0.00000442
-0.00195561 1.11828972 0.00185383 -16.84923472 -39.0269954 -9.26042723 7.85553514 -0.02953968 -0.22773881 16.01033252 -0.12546358 -0.74419341 16.15629514 -0.19264515 -0.719801 0.37369304 7.48010958 0.82095489 -7.05664038 21.56906906 11.86475553 -37.55050316 -4.86073148 1.62026547 -41.04002096 -6.96537008 -61.82176969 0.00003298 -64.94759366 0.00001661 -119.3093979 1.17406591 32.51956349 -41.16539643 -8.55548612 -9.84762977 -46.10166347 58.54666141 100.61801717 -179.9999801 81.50270963 179.99997715 -52.69703452 -17.0634891 -29.49841194 -20.4085192 43.73926238 27.47537234 22.64063073 0.45144969 -0.74689524 2.08082309 1.24754178 -2.90155162 -0.01860952 -0.00000776 -1.5e-7 4.45027545 5.21374647 -5.9495675 30.6061014 -0.40317207 1.11936076 -20.49388772 -17.37647723 4.4821163 0.01999352 -0.00000924 9.7e-7
-0.00187375 1.11823227 0.00179471 -16.85783029 -39.0232456 -9.26207671 7.89112495 -0.03111713 -0.23755092 16.06182661 -0.12593722 -0.74599554 16.18717018 -0.19344189 -0.72144005 0.36892086 7.47924858 0.82504909 -7.05943921 21.57164997 11.86928362 -37.55707173 -4.87508348 1.60530585 -41.12081149 -6.95572886 -61.78513084 0.00000795 -64.96996828 0.0000024 -119.31019392 1.16784923 32.53647427 -41.16507914 -8.55139877 -9.85638625 -46.19113193 58.49701058 100.64903656 -179.99995608 81.506068 179.99994947 -52.66286283 -17.08313298 -29.47174893 -20.41106612 43.72496675 27.47463573 22.66306859 0.42922319 -0.75402676 2.07285348 1.27802434 -2.89434123 -0.02248341 0.0000053 9e-8 4.43856149 5.21234769 -5.9502405 30.63474072 -0.42542742 1.11090069 -20.49829633 -17.35823395 4.49752312 0.0364579 0.00001029 -0.00000314
-0.00179074 1.11817574 0.00173285 -16.86643495 -39.01997915 -9.26344312 7.92200051 -0.03265382 -0.24617381 16.1147447 -0.12617885 -0.74747934 16.21943471 -0.19397164 -0.72280835 0.36571327 7.4783906 0.82908224 -7.05953151 21.57534459 11.87370527 -37.55913551 -4.86370802 1.62769834 -41.19895853 -6.9729291 -61.77912955 -0.00000965 -64.96597647 -0.00000931 -119.33847194 1.14980843 32.52250032 -41.1666494 -8.55252095 -9.86956699 -46.2866925 58.45054981 100.68781195 -179.99993182 81.51158172 179.99993206 -52.63040554 -17.10057887 -29.44373724 -20.41275925 43.71058923 27.46793825 22.68525875 0.43955342 -0.74983512 2.06536399 1.27855221 -2.89285786 -0.02517617 -0.00000236 0.00000335 4.42551029 5.19967861 -5.95783872 30.66323939 -0.44074904 1.1081331 -20.50339745 -17.33168542 4.50953251 0.00876722 0.00000849 3.9e-7
-0.00170703 1.11812004 0.00166942 -16.8749645 -39.01725734 -9.26456786 7.9466444 -0.03409127 -0.25193624 16.16944696 -0.12627688 -0.74892671 16.25349033 -0.19425695 -0.72384125 0.36588082 7.47764126 0.83268312 -7.05518822 21.57964194 11.87745552 -37.56214407 -4.85735166 1.62574334 -41.28218902 -6.98001675 -61.75870628 -0.00000662 -64.97330512 0.00000157 -119.35150558 1.1386123 32.52787946 -41.17297321 -8.55691177 -9.85329111 -46.36309442 58.40873545 100.71476855 179.99990868 81.51491879 -179.9999127 -52.59239348 -17.14519176 -29.41047168 -20.4185107 43.70418116 27.47470905 22.70592216 0.4481162 -0.76194498 2.05846977 1.26978918 -2.88162108 -0.05613255 -0.00001477 0.00000609 4.41154279 5.18356475 -5.95940682 30.69095167 -0.40442747 1.09622726 -20.51350348 -17.35389741 4.50442375 0.0044901 0.0000085 0.00000725
-0.00162969 1.11806458 0.00161222 -16.88347094 -39.01517728 -9.26535406 7.96599561 -0.03485209 -0.25565482 16.2253471 -0.12626697 -0.75001783 16.28879058 -0.19446369 -0.72491038 0.36684698 7.47746388 0.83345537 -7.0429072 21.58367827 11.87895583 -37.55628754 -4.85472765 1.62166562 -41.36757108 -6.98733206 -61.73909343 0.00004546 -64.97932151 0.00004499 -119.36536147 1.12737215 32.5268128 -41.17346019 -8.55677599 -9.86754829 -46.45266812 58.36368144 100.7497465 179.99994933 81.51953823 -179.99995451 -52.55960453 -17.16592533 -29.38266941 -20.41870512 43.6905756 27.47440578 22.72634671 0.4395258 -0.7735356 2.05156166 1.287458 -2.87243269 -0.06307406 2.5e-7 -3.7e-7 4.39739356 5.16827966 -5.96456734 30.71970219 -0.41625059 1.08628689 -20.51786524 -17.32987387 4.51837496 0.00984226 0.00000932 0.00000429
-0.00151974 1.11800911 0.00152251 -16.89193748 -39.01375968 -9.2658293 7.9797242 -0.0349184 -0.25840003 16.28198978 -0.12614312 -0.75028615 16.32487475 -0.19442081 -0.72518934 0.36771752 7.47745738 0.83345658 -7.02736286 21.58802708 11.87939396 -37.55533616 -4.86520824 1.61163947 -41.43843909 -6.98133073 -61.70996856 -0.00001637 -64.9964722 -0.00000602 -119.37687866 1.11560521 32.53049497 -41.17049502 -8.55879671 -9.88890057 -46.54839427 58.31936416 100.79046927 179.99997874 81.52546968 -179.99998153 -52.52755303 -17.18302767 -29.35423381 -20.4193424 43.67904191 27.4767595 22.74636347 0.43724789 -0.78851023 2.04474272 1.29671637 -2.86132081 -0.06263725 1.9e-7 0.00000263 4.38286277 5.15309518 -5.97467255 30.74881596 -0.42491005 1.08421731 -20.52359508 -17.30470031 4.52810444 0.01851544 0.00000172 -0.00000425
-0.00134255 1.11795273 0.00136585 -16.90038934 -39.01312876 -9.26600181 7.98856288 -0.03492744 -0.26094662 16.33813922 -0.12597787 -0.75006826 16.36049817 -0.19422139 -0.72501271 0.36782504 7.47746708 0.83345417 -7.00657288 21.5914617 11.87765451 -37.55008584 -4.87450625 1.62630999 -41.49834886 -6.9747939 -61.68305593 -0.00001938 -65.01281518 -0.00003214 -119.40868007 1.09233759 32.52556374 -41.18307584 -8.56793654 -9.87317084 -46.61576941 58.28741397 100.81846108 -179.99996095 81.53009066 179.99995519 -52.49433806 -17.22929968 -29.3219916 -20.41338755 43.6583709 27.45918603 22.76741856 0.47782518 -0.77742201 2.03779555 1.27868475 -2.86553648 -0.02940189 -0.0000038 -0.0000029 4.37330039 5.19203932 -5.97587792 30.77878884 -0.47195477 1.09196184 -20.52842168 -17.29463113 4.54228308 0.0151597 0.00000489 0.00000656
