HIERARCHY
ROOT Hips
{
  OFFSET 0 1.1673769999999999 0
  CHANNELS 6 Xposition Yposition Zposition Xrotation Yrotation Zrotation
  JOINT Spine
  {
    OFFSET 0.000003812944337411511 0.10717500000681812 -0.009311
    CHANNELS 3 Xrotation Yrotation Zrotation
    JOINT Spine1
    {
      OFFSET 0 0.1058532983696241 -0.004285186608692496
      CHANNELS 3 Xrotation Yrotation Zrotation
      JOINT Spine2
      {
        OFFSET -8.470329472543003e-22 0.10599345671141647 -0.007812688101110094
        CHANNELS 3 Xrotation Yrotation Zrotation
        JOINT Neck
        {
          OFFSET -8.470329472543003e-22 0.26240299999999994 -0.04488100000000002
          CHANNELS 3 Xrotation Yrotation Zrotation
          JOINT Head
          {
            OFFSET -4.235164736271502e-22 0.17466899999999996 0.05625600000000003
            CHANNELS 3 Xrotation Yrotation Zrotation
            End Site
            {
              OFFSET -4.235164736271502e-22 0.10756799999999966 0.021070000000000005
            }
          }
        }
        JOINT LeftShoulder
        {
          OFFSET 0.10574399999999999 0.23009199999999996 -0.07323000000000002
          CHANNELS 3 Xrotation Yrotation Zrotation
          JOINT LeftArm
          {
            OFFSET 0.14878212914559852 -0.04653266654569688 -0.030693304075147546
            CHANNELS 3 Xrotation Yrotation Zrotation
            JOINT LeftForeArm
            {
              OFFSET 0.24109000000000003 2.220446049250313e-16 -5.551115123125783e-17
              CHANNELS 3 Xrotation Yrotation Zrotation
              JOINT LeftHand
              {
                OFFSET 0.316792 0 -1.1102230246251565e-16
                CHANNELS 3 Xrotation Yrotation Zrotation
                End Site
                {
                  OFFSET 0.06265729429771016 -0.10569948639925819 0.03859412819617963
                }
              }
            }
          }
        }
        JOINT RightShoulder
        {
          OFFSET -0.10574399999999999 0.23009099999999982 -0.07323000000000002
          CHANNELS 3 Xrotation Yrotation Zrotation
          JOINT RightArm
          {
            OFFSET -0.14878040829228295 -0.04653159475972379 -0.030692917709113934
            CHANNELS 3 Xrotation Yrotation Zrotation
            JOINT RightForeArm
            {
              OFFSET -0.24109000000000003 -6.661338147750939e-16 -2.7755575615628914e-17
              CHANNELS 3 Xrotation Yrotation Zrotation
              JOINT RightHand
              {
                OFFSET -0.31679300000631333 -8.881784197001252e-16 -5.551115123125783e-17
                CHANNELS 3 Xrotation Yrotation Zrotation
                End Site
                {
                  OFFSET -0.06265795211397429 -0.10570764472283312 0.03859362014678265
                }
              }
            }
          }
        }
      }
    }
  }
  JOINT LeftUpLeg
  {
    OFFSET 0.12297511767165623 -0.06742078536803264 -0.010003
    CHANNELS 3 Xrotation Yrotation Zrotation
    JOINT LeftLeg
    {
      OFFSET 0 -0.457033849483632 0.010304509991859542
      CHANNELS 3 Xrotation Yrotation Zrotation
      JOINT LeftFoot
      {
        OFFSET 0 -0.500280623664138 -0.036905110570505176
        CHANNELS 3 Xrotation Yrotation Zrotation
        JOINT LeftToeBase
        {
          OFFSET 0.025950805788189563 -0.14255151365608373 0.19507593811975638
          CHANNELS 3 Xrotation Yrotation Zrotation
          End Site
          {
            OFFSET 0.010732117804750613 -0.000035441498015504746 0.11362327680684622
          }
        }
      }
    }
  }
  JOINT RightUpLeg
  {
    OFFSET -0.12297488233495055 -0.0674172146317622 -0.010003
    CHANNELS 3 Xrotation Yrotation Zrotation
    JOINT RightLeg
    {
      OFFSET 0.00000159348816348992 -0.45703784846455486 0.01030460015485039
      CHANNELS 3 Xrotation Yrotation Zrotation
      JOINT RightFoot
      {
        OFFSET -0.0000015934881634621645 -0.5002806236608007 -0.03690511058134042
        CHANNELS 3 Xrotation Yrotation Zrotation
        JOINT RightToeBase
        {
          OFFSET -0.0259497668227143 -0.14255297441554501 0.19507500887383716
          CHANNELS 3 Xrotation Yrotation Zrotation
          End Site
          {
            OFFSET -0.010733201844058626 -0.000035030229497263656 0.11362417898958707
          }
        }
      }
    }
  }
}
MOTION
Frames: 66
Frame Time: 0.03333333333333333
0.00397375 1.07253784 0.00386683 13.30532844 -19.10342614 -1.3141283 12.98232987 1.0962123 -0.83975298 9.23956051 0.68056553 -1.02555769 9.2260142 0.8050304 -1.08146127 -6.51542267 2.46852727 0.02222353 -20.98167277 12.166146 1.28515133 3.09637058 -11.58091694 -10.49244677 -34.21147611 -8.85153764 -47.89868502 0.00005283 -89.38523921 0.00008113 6.09965069 34.11523315 6.42129514 6.56099213 18.23598074 9.44509923 -15.52601427 19.53210937 41.63809499 179.99987017 82.54708871 -179.99988658 21.89846466 -4.75115955 -13.04964726 -47.46498163 2.20113983 16.75418682 47.25618295 -6.80035169 4.28177922 -13.33101811 0.71925529 -9.59706402 -0.00043371 -0.00000103 -0.0000019 -39.92065686 -7.30419661 -11.68729999 44.05703981 -5.16681637 -3.12126724 -10.86404802 -1.33826211 9.44207426 0.00000691 0.00000517 -0.00000529
0.00556655 1.07743462 0.00404787 12.76808196 -18.9084484 -1.4257082 13.1569271 1.13188611 -0.58696747 9.30221707 0.69000274 -0.88352576 9.28876418 0.81544174 -0.94234234 -7.10122995 2.37819716 0.24934013 -20.14603573 12.00080105 1.14681013 3.2414604 -11.76700755 -10.57131868 -33.44093812 -9.19439031 -48.60809032 -0.00116822 -88.73303945 -0.0011759 7.65711203 32.72195293 5.86698427 6.67366232 18.22416727 9.44632328 -15.46305261 19.67769333 41.54590611 179.99997941 82.07861677 -179.99999029 21.6604454 -3.64994321 -13.4121137 -46.39313146 2.70095791 16.62328447 46.07111007 -7.5960912 4.18745624 -12.77436256 1.13755995 -9.35565356 -0.0638509 -0.00001026 0.00000233 -38.65564001 -7.49605755 -11.76207971 42.66844569 -5.33928914 -3.19990216 -10.22786553 -1.34959901 9.87775632 -7.5e-7 0.00000264 0.00000126
0.00707337 1.08147949 0.00438295 12.33523671 -18.76040007 -1.50541573 13.31284094 1.16640686 -0.3586917 9.35652328 0.70262299 -0.75117761 9.34311113 0.82900304 -0.81282933 -7.66064716 2.29975537 0.43906144 -19.3470944 11.87474173 0.98874688 3.37976178 -11.94249317 -10.647377 -32.84632991 -9.58333253 -49.32076553 0.00042257 -88.04324466 0.00045136 9.13961784 31.4840436 5.4596539 6.79855225 18.22167404 9.41027179 -15.38389446 19.7929178 41.49416767 -179.9999124 81.71037494 179.99988282 21.47497076 -2.56810108 -13.77449405 -45.50808827 3.14184573 16.52744389 45.07012075 -8.08392399 4.0754505 -12.32462151 1.26861289 -9.12041204 -0.15574859 -0.00000997 -0.00000127 -37.59792187 -7.67329674 -11.81985725 41.46656512 -5.471037 -3.30743173 -9.67482998 -1.35972676 10.2841173 0.00001733 0.00000219 0.00000177
0.00857077 1.08423218 0.00455437 12.02901372 -18.67519984 -1.5461422 13.43916839 1.20606245 -0.15522968 9.39703972 0.72193375 -0.62915557 9.38346879 0.8496011 -0.69360399 -8.18516511 2.23754552 0.580538 -18.60808961 11.78857529 0.82314121 3.50608186 -12.10516666 -10.7174462 -32.43500382 -9.9822069 -50.07129808 -0.00048288 -87.31984026 -0.00048357 10.49839117 30.54254515 5.20845253 6.92114829 18.22992551 9.37344415 -15.29958035 19.93252109 41.45152628 -179.99987462 81.49369946 179.99991616 21.36943066 -1.57809684 -14.17692917 -44.90694772 3.48237295 16.45754925 44.38512049 -8.38338632 3.96221728 -12.01129508 1.2920012 -8.90236253 -0.26878473 -0.00001104 0.00000234 -36.87137296 -7.80359871 -11.90429137 40.60467323 -5.52643523 -3.3814218 -9.25357635 -1.36895383 10.61610481 -0.00000736 -0.00000386 0.00000427
0.01002571 1.0845694 0.00446595 12.02427369 -18.68886981 -1.51516362 13.52972367 1.25618182 0.02688494 9.42085574 0.750414 -0.51676674 9.4069323 0.88006633 -0.5839894 -8.67014056 2.19411867 0.66794714 -17.94438113 11.73949984 0.66009759 3.61703397 -12.25403186 -10.77909775 -32.20245309 -10.3615016 -50.8867634 -0.00032689 -86.56768866 -0.00032314 11.7042763 29.99534434 5.09876781 7.03871251 18.2463422 9.33696095 -15.23674332 20.13698209 41.41982995 179.99986294 81.46118081 -179.99987642 21.36360714 -0.73455344 -14.65222079 -44.91776883 3.60801486 16.42242933 44.33636126 -8.52229201 3.88544767 -11.95908432 1.34905277 -8.74907214 -0.39583362 0.00001726 0.00000208 -36.82413856 -7.81851502 -12.02675091 40.40665646 -5.49946088 -3.38588797 -9.09259137 -1.39145498 10.87744063 0.00000818 0.00002587 0.00000369
0.01145588 1.08465027 0.00391738 12.08813712 -18.65144159 -1.50825776 13.58265235 1.31589067 0.18092125 9.4266504 0.78887311 -0.41585325 9.41213802 0.92091385 -0.48582486 -9.11586332 2.16949735 0.70216469 -17.35941027 11.72177237 0.50578173 3.71166091 -12.38957195 -10.83158016 -32.13162387 -10.70288998 -51.78014191 -0.00015849 -85.79280245 -0.00015139 12.75053348 29.87355255 5.09993573 7.14998447 18.26846557 9.30157466 -15.21100046 20.42735617 41.39970193 179.9999828 81.61822162 179.99999372 21.46351464 -0.06253764 -15.21710587 -45.06748567 3.64993625 16.44521088 44.32933891 -8.65244519 3.74330959 -11.87811333 1.36402725 -8.62207762 -0.55792876 0.00000181 0.00000171 -36.88069762 -7.82703549 -12.12481881 40.2758068 -5.51547049 -3.34773613 -8.94493731 -1.40160703 11.04720919 0.00001144 0.00000816 0.0000017
0.01279295 1.08484711 0.00304391 12.13436843 -18.64018772 -1.53826894 13.48823429 1.38469135 0.21845234 9.36856679 0.85016302 -0.35447227 9.3528282 0.98730417 -0.42669832 -9.45706353 2.2474713 0.4778966 -17.24767653 11.94391476 0.26624707 3.74802884 -12.45695332 -10.86413458 -32.98329221 -10.87679012 -53.03483132 -0.00025589 -84.88749772 -0.0002314 13.18041643 31.25217562 5.54610269 7.25568355 18.35988148 9.25838119 -15.21373256 20.87037987 41.55376508 179.99999773 82.59838333 -179.99998422 22.10289 0.05342956 -15.96209218 -45.22574094 3.74152411 16.57874098 44.28628603 -8.7708428 3.5528343 -11.76499384 1.26957376 -8.47819904 -0.696932 -0.00001209 -0.00000311 -36.91984823 -7.84876908 -12.17028446 40.11549221 -5.48802826 -3.28265284 -8.77644057 -1.38569472 11.04611216 0.0000074 0.00000128 0.00000442
0.01414434 1.08510948 0.00192229 12.15226826 -18.67261747 -1.62528322 13.4735368 1.36085803 0.33639764 9.39443282 0.84091093 -0.22618452 9.37835121 0.99016298 -0.29858612 -10.0451219 2.39666006 0.27616119 -17.96518049 12.48422503 0.06162864 3.76934005 -12.49352705 -10.91215721 -33.46871494 -10.57613139 -54.3920991 0.00018413 -84.56155547 0.00020038 12.53075101 32.31864325 6.31871812 7.34889468 18.47191266 9.21562734 -15.55657191 21.45102355 42.27319852 -179.99995919 83.50660733 179.99997252 23.28658143 -0.28148329 -16.07037963 -45.38423972 3.85025754 16.79836058 44.24546085 -8.85975124 3.36140714 -11.64278427 1.10985483 -8.33361592 -0.8912762 0.00000593 -0.00000117 -36.94324658 -7.89769278 -12.23650186 39.74579535 -4.62365513 -3.11150443 -7.63421436 -1.26828712 11.0628845 -0.23300477 0.0000073 0.00000118
0.01602773 1.08551674 0.00026738 12.21618871 -18.67191185 -1.79137016 13.62600138 1.17195992 0.50988347 9.57437055 0.7067211 -0.05297695 9.55991731 0.87414008 -0.12149129 -10.63199297 2.58398253 0.23395518 -19.51642121 13.28893924 0.00114678 3.73185591 -12.4185512 -10.94785228 -32.80247928 -9.90530026 -54.86151608 -0.00031647 -85.59315045 -0.00032302 10.01153683 32.5035858 7.27965994 7.3596965 18.54959665 9.20183411 -16.19383532 21.89721774 43.54540925 -179.99997634 83.65899071 179.99997413 24.65016794 -1.15697591 -14.93594188 -45.61511746 3.83231177 16.97998129 44.18970674 -8.89221764 3.23903844 -11.46302425 0.97041164 -8.21587734 -1.34067886 -3e-8 -0.00000641 -37.27633768 -8.00182735 -12.34310848 39.72860775 -4.50395997 -2.80702535 -6.52497278 -1.12362913 10.72177439 -1.15407989 0.00005645 0.0000018
0.01895363 1.08545326 -0.0028833 12.34101051 -18.62424072 -2.01555468 14.00141717 0.76957333 0.68180422 9.9471592 0.40990393 0.11428717 9.93732928 0.5989096 0.05518927 -10.75898855 2.74484455 0.47045399 -21.38533822 14.15537891 0.1484105 3.58625648 -12.14062984 -10.92663855 -30.374493 -9.13589774 -53.21672414 -0.00006118 -88.52135692 -0.00007122 5.34219921 31.54406166 7.83310146 7.21470414 18.52599892 9.24805908 -16.83823377 21.86728755 44.9839153 179.99997798 82.35074633 -179.99998755 25.61735713 -2.37080307 -12.22322042 -46.82655986 3.33569097 17.03927626 45.36300116 -8.07238234 3.28463503 -9.19278593 0.73490624 -7.94235322 -2.27218949 0.00001606 0.00000126 -38.10756518 -7.94992833 -12.50028551 40.1617763 -4.27655475 -2.49914997 -4.82933531 -0.94763675 10.52410232 -2.24404889 0.00001989 0.00001235
0.02233375 1.08486923 -0.00922015 12.28917587 -18.70095406 -2.22072236 14.58488837 0.12231442 0.71780459 10.48985663 -0.0525651 0.20486586 10.48810488 0.15741675 0.16106144 -9.84865374 2.80387528 1.00523015 -22.50474604 14.78132319 0.42870425 3.29537865 -11.59240822 -10.79876133 -26.24757434 -8.3763329 -48.37168168 -179.99957413 -86.79185638 -179.99958071 -0.95052645 29.94463338 7.01915867 6.86645363 18.35435067 9.37335086 -17.00485417 21.14312059 45.82054144 179.99998219 79.23456106 -179.99999217 25.56231639 -3.57380304 -8.15881214 -47.70809988 2.88273821 17.03939039 46.10346096 -7.80416104 3.34752713 -7.45922308 0.48763689 -7.96521175 -3.7812798 0.0000018 0.00000334 -39.43587541 -7.38804208 -12.4244532 41.21827968 -3.92938202 -2.61720228 -2.42876943 -0.73960097 10.66852721 -3.54306294 -0.00034837 0.18377617
0.02469337 1.08324387 -0.01923857 11.74611854 -19.09983842 -2.47493171 15.27058081 -0.71407959 0.53218166 11.10720328 -0.64144982 0.14680218 11.1165929 -0.41569334 0.1230405 -7.38900468 2.70804214 1.69448229 -21.49716566 14.91996807 0.58670457 2.85210149 -10.76914255 -10.52749684 -21.47807761 -7.52666991 -39.92561724 -179.99995239 -81.45426745 -179.99995983 -7.49806143 28.95988964 4.194136 6.34758727 18.03587648 9.48338264 -16.33703577 19.80684138 45.22520231 -179.99998752 74.69906896 179.99999435 24.00463987 -4.49626237 -3.56571288 -48.46342387 2.56944095 17.37944429 47.09176732 -7.36485923 3.34098089 -5.30325887 -0.16455791 -8.29428025 -5.65578094 -0.00000593 -1.2e-7 -40.83427385 -6.21561638 -11.67705003 42.75409432 -3.57352886 -3.44553923 0.27015767 -0.51861865 11.23683442 -5.27434184 -0.01605793 1.20430417
0.02455374 1.08056061 -0.0317698 10.69711673 -19.6955149 -2.99130059 15.88119561 -1.63802953 0.06369328 11.65038255 -1.28268661 -0.10826247 11.67291264 -1.05018117 -0.1096262 -3.1590002 2.45931827 2.22638926 -17.19121825 14.53941582 0.25550614 2.29069165 -9.75341297 -10.1114503 -17.79151965 -7.02127711 -28.65757776 -179.99995913 -77.47499028 -179.99996222 -12.11730341 29.53478264 -0.46746707 5.72255053 17.66584273 9.54302173 -14.82317083 18.29462598 42.50291163 -179.9999967 70.05264363 179.99998643 20.90053498 -4.934188 0.51009609 -49.00500909 2.36162971 18.35268111 48.11455207 -6.87461679 3.25225587 -3.11414804 -1.27939586 -9.08443001 -7.3979325 0.00000237 -0.00000272 -41.7216076 -4.8340295 -10.10517624 44.24704572 -3.59758588 -4.68409055 2.51621705 -0.32291464 11.99939995 -6.55991585 -0.04451547 2.00587798
0.02216369 1.07723923 -0.04497215 9.36117475 -20.06826272 -4.00787396 16.21941112 -2.52838861 -0.69175918 11.96202684 -1.88812737 -0.5623316 11.99772678 -1.65937063 -0.54201793 2.58840609 2.13038654 2.19857895 -9.23916356 13.82244786 -0.90511281 1.68814348 -8.70921784 -9.60009819 -16.27867736 -8.50556743 -16.52438114 -179.99996547 -77.23936774 -179.9999841 -12.31769396 31.0053057 -6.35191621 5.07742947 17.42031747 9.57198702 -12.87738662 17.29462097 37.39642413 -179.99998784 67.35272022 179.99995998 16.96336146 -4.53985301 3.41898527 -49.32575327 1.99817605 19.65384478 48.96702396 -6.51113699 3.30758905 -1.34778814 -2.39439446 -9.72525157 -8.58738948 -0.00000501 0.000003 -41.79819246 -3.86856745 -8.08712505 45.27696319 -4.29446204 -5.69414268 3.82470886 -0.19581979 12.48572586 -7.34098066 -0.06413962 2.40829595
0.01961805 1.07445076 -0.05767598 7.88009091 -20.09896095 -5.49877825 16.13583574 -3.2799644 -1.66810807 11.93069159 -2.38142808 -1.16231814 11.97783043 -2.16538676 -1.12418507 9.06834566 1.85194354 1.26523701 1.4702933 12.9905552 -3.08018732 1.15047982 -7.8403897 -9.09135128 -16.40495008 -13.86466106 -6.14125324 179.99999744 -82.64138249 -179.99999336 -6.70986868 31.36187595 -12.57045435 4.51931501 17.49467959 9.54886549 -11.0943126 17.62362625 30.31067388 -179.9999642 68.85363958 179.99994677 13.77577469 -2.89425125 5.27958721 -49.31270232 1.34872953 20.7433042 49.46713166 -6.359836 3.72412091 -0.0921765 -2.78184543 -10.06289209 -9.09105585 -0.00000936 -0.0000028 -41.08543569 -3.66338337 -6.25238249 45.62314277 -5.10849822 -6.07231823 4.46927854 -0.12657658 12.42087331 -7.80885122 -0.0712283 2.53708209
0.01932771 1.07435074 -0.07004524 6.32903278 -20.41979135 -7.08155406 15.58290924 -3.82550999 -2.73412038 11.53090148 -2.71805366 -1.81029343 11.58620337 -2.51987775 -1.76068602 15.07989128 1.77059052 -0.6964701 12.83820903 12.16128522 -6.16942923 0.78297325 -7.32755292 -8.69981013 -17.32192205 -23.47483346 0.12749319 0.00000586 -85.80176252 9.3e-7 3.83827605 29.4130294 -17.25319552 4.12480146 18.03291822 9.46578571 -9.8204197 20.08096416 22.2233372 179.99996496 76.22775168 -179.99996011 13.41135598 0.08212864 6.65063863 -48.64430097 0.84187119 21.55788269 49.21635879 -6.37111025 4.32533679 0.91095499 -2.10099447 -10.1519286 -9.07715979 -0.00000338 0.00000609 -39.81605478 -4.07467274 -4.96625996 44.92637534 -4.65677391 -5.89491329 5.22892658 -0.04686486 11.97114735 -8.01120557 -0.06938927 2.50437318
0.02236965 1.07814773 -0.08329484 4.87056472 -21.75630945 -8.26754629 14.63497856 -4.13281844 -3.70161284 10.83165022 -2.89082954 -2.38967599 10.8911054 -2.71144383 -2.33610403 19.28273012 1.99098272 -3.47163663 22.08494986 11.44914599 -9.68563771 0.64902401 -7.27109628 -8.51079902 -20.27579822 -35.87254188 0.57307724 0.00009206 -69.44480332 0.00009242 17.13117265 26.77409298 -18.57788423 3.9170283 19.05872088 9.32581661 -9.10972153 25.15004636 14.4269202 -179.9961156 89.85825734 179.99611143 17.56251216 4.00898054 7.85077465 -47.2668699 1.09827677 22.44573049 47.82512596 -6.49701214 4.64572396 1.94960646 -0.61196226 -10.03594832 -8.70531274 7.2e-7 -0.00000687 -38.26034744 -4.68743527 -4.23782398 42.77936365 -2.04940715 -5.52719036 6.19225361 0.04377959 11.62459655 -7.11794373 -0.04924433 2.11151396
0.02777522 1.08371201 -0.09821387 3.65912415 -23.87139206 -8.82980946 13.46291755 -4.1985384 -4.36687813 9.97154126 -2.91913372 -2.79693882 10.03084902 -2.75678006 -2.74653462 20.56354752 2.52492738 -6.50673397 26.66131805 11.18795688 -12.83857728 0.74022725 -7.66465998 -8.54185393 -29.33166832 -48.09610796 -6.84980313 0.00000395 -51.3239715 0.00000865 30.89886884 26.70369736 -17.16667922 3.86175203 20.44902191 9.14240404 -9.13065411 32.69147845 8.09604025 -0.00003027 71.48151038 0.00004143 26.66698528 8.45118975 8.78478222 -45.63997506 2.09969757 23.52488748 45.52430178 -5.9800529 4.47773525 3.01298229 0.31562475 -10.15016794 -7.98934215 0.00000261 -0.00000377 -36.54629179 -5.19822594 -4.01609044 39.76000631 1.8310446 -5.26950189 5.92451156 0.00804765 11.64162431 -3.6112829 -0.01047214 0.97437533
0.03349314 1.08762039 -0.11465359 2.82215969 -25.72294023 -8.77987547 12.27082121 -4.05538968 -4.59882352 9.11103817 -2.82780367 -2.96257861 9.16636075 -2.67928229 -2.92095951 18.38096045 3.27082357 -9.04462241 25.16374481 11.8744908 -14.79993428 0.97980824 -8.40988158 -8.73641207 -48.0177093 -55.6794662 -23.53011597 0.00001123 -35.27279212 0.00001658 42.52612591 30.47016754 -15.44336713 3.88237939 21.96516985 8.94314414 -10.53660022 41.84162391 3.99794095 6.7e-7 50.37979975 -0.00000505 39.52716962 13.30916378 9.17482245 -44.35857797 3.25239634 24.23310422 43.00383819 -4.79886146 4.06227964 4.11333618 0.20623152 -10.22652701 -7.14271351 -0.00001011 -0.00000535 -35.13369328 -5.45679181 -4.43057839 38.21205584 4.78146806 -5.28419166 2.87680184 -0.30338811 11.53312087 -0.0000024 -0.00001152 -0.00000218
0.03890531 1.08945938 -0.13186533 2.61688306 -26.65254786 -8.35629997 11.22268776 -3.75058947 -4.39175951 8.37736935 -2.62593648 -2.86364639 8.42598591 -2.48840925 -2.83408421 12.97649617 4.03657246 -10.36230788 17.76491951 13.72450206 -14.96117237 1.26016383 -9.3665419 -8.99399848 -69.22628712 -55.74182086 -41.88093749 0.00000725 -24.66461736 0.00000896 49.58124904 36.09407155 -14.42949554 3.88746458 23.32796104 8.76950505 -14.30557468 51.13031316 2.56006145 0.00000153 30.03346422 0.00001203 53.62137616 18.55561028 8.58641968 -43.81650208 3.88625975 24.23446597 40.65610742 -3.98324712 3.68954295 5.50231574 0.07833209 -10.18386911 -6.48208935 0.00000271 0.00000128 -34.72666884 -5.40554043 -5.37783491 40.34001958 5.32948677 -5.62942497 -2.08957168 -0.74514779 10.67966638 0.00001385 -0.00000325 6.1e-7
0.04295052 1.08897926 -0.14936777 3.20153975 -26.57556998 -7.43416569 10.39591022 -3.29242782 -3.81458648 7.82562275 -2.29619114 -2.52260833 7.86591412 -2.1690663 -2.50569153 5.37175396 4.6009676 -10.02766928 6.01437742 16.27637647 -13.15916423 1.49264806 -10.4168787 -9.21539808 -81.57375138 -51.50198036 -51.73590619 0.00001288 -21.30189508 -0.00001101 50.8243585 40.56111895 -12.94821141 3.80307636 24.30158894 8.66407017 -21.02045969 58.8826475 3.92766522 -0.00000293 13.2799774 0.00001049 65.91019704 23.52290787 6.73973595 -44.16026114 3.99399788 23.54306949 38.61997274 -3.52481943 3.33547248 7.09760177 -0.05158393 -10.03342937 -6.04823395 -0.00001085 0.00000382 -35.57727797 -4.87102181 -6.87222087 46.49669111 4.04865228 -6.18352969 -6.57602268 -1.00067373 9.21380211 0.0000036 0.00000517 0.00000526
0.04394749 1.08573692 -0.16761401 4.23934132 -25.65199369 -6.09369786 9.77237004 -2.64214675 -2.96523174 7.43184401 -1.80098531 -1.99547227 7.46288437 -1.68630306 -1.98959785 -2.8652475 4.79116983 -8.07254128 -7.65498975 18.52671014 -9.88871405 1.64359146 -11.51057731 -9.33810793 -84.37492785 -47.49265729 -53.99395544 0.00000853 -24.91698051 -0.00001078 47.03826755 41.73131413 -10.43418583 3.59736026 24.7506941 8.65030428 -29.83132975 63.95982314 7.44257988 0.00000427 1.81058544 -0.00000203 73.64757094 27.07460199 4.23483216 -45.11528698 3.97186057 22.47961371 36.65618502 -3.50240593 2.90064266 8.70351667 -0.16177335 -9.80664194 -5.4852349 0.0000024 -0.00000109 -36.46414832 -3.99710214 -8.46525582 54.58582623 2.45343305 -6.82098062 -9.12201924 -1.00999003 7.75376131 0.0000143 0.00000976 0.00000612
0.04148194 1.08066246 -0.18761378 5.07566991 -24.12656934 -4.90070412 9.27018334 -1.74959279 -1.96509211 7.12168893 -1.10313446 -1.3521028 7.14240363 -1.00394831 -1.354902 -10.02750605 4.54415799 -5.00234942 -20.44718014 19.56397706 -6.2874549 1.74226725 -12.6633388 -9.35210516 -80.22717933 -45.63981434 -51.80880363 -0.00000868 -33.47209986 -0.00000898 41.02676518 39.0783946 -8.77843019 3.28383181 24.65111733 8.72177413 -38.36741101 66.36741997 11.46403659 0.00000309 0.0000133 -0.00001146 75.30238258 28.65620991 2.22236516 -46.01267157 4.00028613 21.45295851 34.52455964 -3.72647399 2.55956864 10.0299264 -0.26578592 -10.09087873 -4.37913862 0.00001177 0.0000012 -35.8135631 -3.29003226 -9.7287821 61.70358724 1.31249598 -7.40997435 -9.62324225 -0.86877819 6.5104339 0.00001551 0.00001335 -0.00000542
0.03637039 1.07345512 -0.21008205 5.28026115 -22.37051522 -4.06229441 8.79704445 -0.58662232 -0.91439521 6.81363864 -0.19230129 -0.65384329 6.82254506 -0.1093182 -0.66401788 -14.73197537 3.92629403 -1.62544646 -29.89182489 19.14583856 -3.6806366 1.86078293 -13.90942074 -9.29154439 -70.72417547 -45.75301317 -45.97007287 -0.00000317 -44.0762946 -0.00001149 35.3298293 33.85234942 -10.08867246 2.90174751 24.05944818 8.85006507 -44.89464738 67.04717525 15.08329238 0.00000476 0.00000559 0.00000612 71.46700462 28.66885325 1.20813735 -46.47962715 4.11879228 20.51067768 32.32296515 -3.8571257 2.40668878 11.09256391 -0.36511485 -10.57751519 -2.83148625 0.00000956 -0.00000163 -33.36977309 -2.95855713 -10.87404032 66.79469319 0.32153944 -7.9077224 -9.17596696 -0.6814679 5.39826182 -0.00000415 0.00000694 0.00000528
0.03054518 1.06334832 -0.23483852 4.74944685 -20.91644872 -3.2441495 8.29387657 0.81933763 0.12714624 6.45474718 0.89386114 0.05274609 6.44997733 0.9647145 0.0344218 -16.29146545 3.10374201 1.23627705 -34.62838059 17.72684588 -2.94218004 2.07570168 -15.23947048 -9.21066723 -57.17151813 -46.08269064 -36.37871237 -0.00002668 -54.07929218 -0.00001286 30.78128134 28.17218275 -14.39650286 2.4896796 23.06406902 9.00209925 -49.85736755 67.13944188 19.26553681 -0.00000158 0.0000227 0.00000852 64.50485509 27.95702549 1.03059532 -46.52104203 4.44629394 19.67162341 30.45405826 -3.74000193 2.19672465 12.1339256 -0.47894672 -11.06457853 -1.31080198 0.00001038 0.00000152 -29.57937587 -2.97454883 -12.29443039 69.93429133 -0.88554254 -8.60574259 -9.05642165 -0.54949388 4.62626809 -0.00000223 -0.00003397 0.00001332
0.02572063 1.05260253 -0.26218519 3.65604344 -20.31624883 -2.09709327 7.76278775 2.36255236 1.10544216 6.04432134 2.06292271 0.73552978 6.02413096 2.13117271 0.70644588 -14.87327281 2.27941107 3.03934325 -34.7548751 16.05318867 -4.22055866 2.42743646 -16.56233158 -9.1575357 -42.23243647 -44.28712732 -24.64891167 0.00001344 -61.87144342 0.00001957 27.48251611 23.86661321 -20.12583703 2.07141398 21.74852704 9.15202663 -55.08442097 67.49517781 25.82857208 0.00000181 0.26473626 -0.00000755 57.08851692 27.08699081 1.69769976 -45.72569231 5.16867738 18.83127001 28.17280201 -3.32186051 1.93191863 13.75444501 -0.66694803 -11.54535973 -0.35423639 0.00000138 -0.00000684 -25.20870889 -3.42180836 -14.16333499 70.65465793 -1.8744841 -9.86531523 -9.07107743 -0.40336883 3.74817162 -0.10805798 -0.00031829 0.17137075
0.0221364 1.04384629 -0.29234136 2.44584562 -20.79409174 -0.64812374 7.27925441 3.87771758 1.96828714 5.64338381 3.18036183 1.36893917 5.60690138 3.25878249 1.32607823 -11.39051558 1.62506061 3.69286807 -31.55270481 14.78784914 -7.08927081 2.89561848 -17.71458701 -9.16089411 -29.88298034 -39.18050789 -14.44826309 -0.0000014 -67.10695768 8.2e-7 25.5682542 22.01325519 -25.3426227 1.65883033 20.18938128 9.28351439 -62.73847846 68.4382876 36.33064229 0.00000471 5.50636202 0.00002062 51.07856956 26.05920443 3.43640505 -43.79064321 5.98160096 17.71097754 24.41697482 -2.4185903 2.26522329 16.63332963 -1.06827238 -12.61681924 -0.00001456 -0.00000435 0.00000109 -21.13912496 -3.75761493 -17.15367745 68.56834413 -0.98772499 -9.997107 -8.64925774 0.01082971 1.9916494 -3.65452506 -0.36563733 5.70126954
0.01802686 1.03676666 -0.32680282 1.68079262 -22.17161332 1.05018299 6.97113816 5.17741341 2.69878635 5.3599209 4.09937214 1.92999198 5.30813019 4.19967876 1.87166989 -7.16403894 1.2362902 3.54801775 -26.88631857 14.37337583 -10.79416195 3.40191777 -18.51168446 -9.23129228 -22.4894041 -31.36068368 -8.46113512 -0.00001184 -70.36430053 -0.00001038 24.9578313 23.15110846 -28.64740262 1.26417787 18.48813489 9.38680267 -74.18636912 69.6961302 51.14765214 0.00000549 12.28246061 -0.00000211 47.22520489 24.72349334 6.16265945 -40.62504062 6.34869197 16.2470187 18.03291582 -0.32177734 3.90577145 21.14003249 -2.12031192 -16.14562818 -0.00001832 -0.00000291 0.0000019 -17.80015797 -4.30126023 -20.23428892 63.74765871 1.76328185 -9.91968232 -8.89193791 0.17485984 2.03492259 -8.92113211 -2.29005303 14.29101123
0.0116041 1.0293885 -0.36919631 1.70477565 -24.11232605 3.09661162 6.98618482 6.06228845 3.21175214 5.31373578 4.69794728 2.40796479 5.2495984 4.82713879 2.33452359 -3.47290362 1.12268891 3.21842879 -22.58222302 15.03065602 -14.43790464 3.83981064 -18.81501923 -9.36597669 -19.68604915 -22.03748445 -7.06945991 0.00002077 -72.50093709 0.00002952 24.84812116 27.55288512 -29.44704508 0.91142996 16.81260615 9.457505 -88.368026 70.9278835 68.34933829 0.00001862 21.10290338 -0.00000778 45.30300682 23.14556901 9.24341928 -37.57554806 6.07327202 14.29379449 11.38071595 3.41485751 6.61677809 21.44024616 -2.36547953 -17.57215261 8.4e-7 -0.00000494 -4.6e-7 -15.84136796 -4.43881121 -23.11997894 59.00047955 4.75845533 -9.84116516 -13.1032333 -0.30068649 6.13062969 -15.74489178 -1.37132136 11.02591094
0.00450261 1.01628112 -0.41950478 2.73654275 -26.29636197 5.24236548 7.43977661 6.43307869 3.52370548 5.6069142 4.9103392 2.80298932 5.53529359 5.06781134 2.71753869 -1.1494035 1.22806408 3.31789434 -19.95559333 16.75185676 -17.13741885 4.11763115 -18.58402779 -9.54912841 -19.7747992 -12.0561414 -9.62769111 -0.00000388 -74.05896566 -3.7e-7 23.46153082 34.98222292 -27.40083722 0.64105017 15.41063921 9.49796902 -102.22648412 72.67747777 84.5716449 0.000006 32.37212838 -0.00001718 44.41111982 21.3710826 11.64322868 -36.2781904 5.25015332 13.62029654 5.90463872 8.1292794 8.98400193 18.43070685 -2.15694966 -19.51254518 0.00000812 0.00000318 0.00000408 -16.24490972 -3.75971891 -25.09231062 56.19876605 6.35394807 -9.8064907 -19.31470663 -0.83484998 11.4793952 -17.22088482 -0.50205032 6.67340366
0.00008951 1.00120659 -0.47528625 4.95739976 -28.26727739 7.5170311 8.35870586 6.28378376 3.74741895 6.27630807 4.73963467 3.13375138 6.20287082 4.9181715 3.0417773 -0.35601543 1.46471493 4.22713037 -19.53682874 19.2601026 -18.19504207 4.19314794 -17.89248426 -9.74988308 -20.82110318 -1.90649714 -15.39889623 -0.00001216 -74.99716025 -0.00000956 18.05780974 44.03917231 -21.31479357 0.50719833 14.56998511 9.5164959 -113.69546121 76.24688692 97.89218248 7.3e-7 45.97035161 -0.00000956 43.45878321 19.10420234 12.30285921 -38.05170643 3.9928089 14.09723442 4.1442331 9.85684857 9.88669895 13.43722866 -0.50865582 -20.41480957 0.0000175 0.00000495 -0.00000704 -20.18610115 -1.81143699 -25.55405447 56.72047939 6.16679806 -9.84852787 -26.26722025 -0.77015351 15.72161036 -13.78261013 -0.0521617 2.15761059
0.00050149 0.99495026 -0.53234968 8.12467906 -29.76338882 10.03849111 9.72173611 5.62516314 3.84410184 7.32324385 4.25017046 3.38363382 7.25691327 4.4316333 3.29631297 -0.61418688 1.74488948 5.97552222 -20.96875516 22.01852437 -17.27405471 4.08101531 -16.90415142 -9.92969402 -21.15463501 7.7959701 -23.70389038 -0.00002601 -74.83298065 -0.00001617 5.59819432 51.61993282 -8.97474642 0.56670404 14.52651994 9.52036288 -121.85294393 82.5068247 107.42603239 -0.0000235 61.07040281 0.00002443 41.67057237 15.89654752 10.57835819 -41.74679946 2.50089264 14.80461269 5.43312683 9.1684966 9.47186447 10.05019781 -0.7777269 -20.66607459 0.00000441 0.00001056 0.00000296 -26.72552119 0.90473697 -24.66859961 58.81965947 6.6270824 -9.82267878 -28.85223135 -0.61557258 17.19992709 -10.51985614 -0.01307232 1.08740628
0.00606457 0.99954169 -0.58538993 11.47091596 -30.84498801 12.85878671 11.33263671 4.61566641 3.94904056 8.58977907 3.53427567 3.59037152 8.53720677 3.70207326 3.51620687 -1.06047493 2.00019661 8.26524505 -23.07644779 24.38634044 -14.53327202 3.83448002 -15.81791435 -10.05460183 -19.81413304 15.98992086 -33.75814822 -0.0000076 -73.06903869 0.00001404 -12.7288993 53.67534891 8.19469036 0.86142115 15.35716623 9.50390644 19.54897321 88.59111975 -33.42606782 -0.00004231 76.24818985 0.00002463 38.80313129 11.56574555 6.50835483 -46.74208591 0.88262323 14.68312248 11.43497376 4.84135829 8.3953486 8.66117161 -0.56249713 -21.66887064 -0.00000383 1.9e-7 0.00000156 -33.92845113 3.88835189 -23.27099222 60.90304141 6.72629302 -9.80844094 -27.3196665 -0.03176729 17.12372665 -9.27110491 -0.01060318 0.9799401
0.0168629 1.01099822 -0.6272263 14.4328654 -32.17158686 15.51158844 12.90932645 3.42897143 4.12823409 9.84403703 2.68296197 3.79249801 9.80818456 2.83032962 3.73519042 -0.82184671 2.18807846 10.60703366 -24.20758584 25.89570671 -10.6337629 3.51627657 -14.80311262 -10.10602781 -16.95351092 21.44274303 -44.39460647 0.00002676 -69.64943006 0.00002725 -27.8780679 49.15825465 20.96530114 1.39815133 16.91131472 9.44446865 31.02268884 78.53520256 -45.51471137 -0.01069955 89.83278008 0.01069326 35.01905963 6.24997429 0.81423182 -52.23083335 -0.29317787 14.31097196 21.31776986 0.77754201 6.75068169 7.66280425 -0.38739924 -21.8034157 4.1e-7 -0.00000287 -0.00000465 -39.28715928 6.17990317 -22.03595874 60.43477007 6.76641353 -9.81476832 -24.80327749 0.79799398 17.12610654 -7.85932541 -0.00085714 0.27553929
0.02968255 1.02832444 -0.65866105 17.05643607 -33.34412354 18.24083184 14.21778897 2.17577476 4.37677745 10.88438263 1.76798017 4.00290186 10.86508708 1.89920684 3.96370128 0.64019588 2.29001213 12.49937791 -22.86308493 26.44734857 -6.54908684 3.1757243 -13.95116441 -10.08060116 -13.7692961 23.45373648 -54.02436561 3.9e-7 -65.19460854 -8e-8 -35.04057224 41.20248038 24.40313871 2.13096406 18.82554698 9.31942433 21.47363217 68.16598725 -37.42735809 179.99996492 79.64043523 -179.99997391 30.63530151 0.16902029 -5.33908713 -56.19089269 -0.04535222 13.87438991 30.18500753 -1.15740113 4.442965 6.76751462 -0.20172245 -20.05853796 -0.08657083 -0.00000489 -0.00000826 -42.45217083 7.45400168 -21.58772901 57.31070761 6.85368545 -9.82498846 -22.43103376 1.99594536 17.24880528 -5.85122672 -0.00000556 0.00000654
0.04183979 1.0468355 -0.6814583 19.39808783 -33.7764634 20.58885498 15.11312557 0.88491643 4.63419096 11.58500467 0.83790613 4.21661168 11.58001248 0.96694343 4.19518125 3.34550792 2.30725924 13.58169417 -18.34245724 26.25949103 -3.27810601 2.8396787 -13.26351006 -9.98746463 -11.59055601 22.29356934 -61.24302055 -0.00001022 -60.89170538 -0.00001145 -36.31103 32.73608029 21.20851323 2.9504825 20.63051389 9.13762798 10.87246508 58.36508342 -28.00438458 179.99995705 73.03828667 -179.99997775 26.06262873 -6.42439541 -10.67594376 -59.11395334 1.10992089 13.0071026 39.11302828 -1.05273558 2.26867593 3.72986117 0.30715021 -16.86333764 -0.5071138 -0.00003582 -0.00000515 -44.28571529 7.49155964 -21.72402418 53.10699562 7.30881463 -9.85415866 -20.45687705 3.07419845 17.1364219 -3.56063309 -0.00000167 0.00000247
0.05188934 1.06226606 -0.69943731 21.70269043 -33.43391601 21.9456832 15.55861307 -0.39023086 4.87091434 11.91362045 -0.07290624 4.41702689 11.91967544 0.07303803 4.41157345 6.82752255 2.25758041 13.71428957 -11.03254885 25.64598103 -1.60539713 2.51815005 -12.67918093 -9.84534667 -10.87313485 18.98865244 -65.48226465 -0.00002744 -58.09350467 -0.00000953 -34.09987814 24.98899176 15.48224658 3.69425551 21.91182774 8.95589329 1.16116015 49.47816906 -17.84149525 179.99996234 70.42949846 -179.99996613 22.03916716 -13.06912627 -14.01090022 -60.65075009 2.18579303 11.97345464 46.13925369 0.01890247 0.77472848 -0.43350943 0.80035367 -13.86725759 -1.08727647 0.00000144 -2.2e-7 -45.92897749 6.49973672 -21.44907332 49.20237208 8.28097328 -9.89623868 -18.37728019 3.39872949 16.71208037 -1.81667508 0.00001703 0.00000501
0.05960534 1.07312087 -0.71568397 24.07125921 -32.89817037 22.39730664 15.62891713 -1.58063952 5.0568979 11.93341312 -0.93094444 4.57641567 11.9476099 -0.75311227 4.5845399 10.34354541 2.17288325 12.9747525 -2.24471975 24.84123063 -1.91184132 2.21699687 -12.12385284 -9.68232735 -11.18539137 14.82151738 -66.87923214 -0.00001496 -57.82004895 -0.00001627 -29.85065919 18.53770378 10.58504033 4.1967262 22.45079336 8.85037311 -6.50225308 41.65119764 -7.4339367 179.99997076 71.13748407 -179.99997284 19.72971199 -18.97092812 -14.38692547 -60.99887461 2.89076881 11.0945713 51.05661701 2.03536729 0.07062712 -4.42312665 1.0952211 -11.32101818 -1.76674781 0.00000195 0.0000035 -47.77757242 5.12035509 -20.34800845 46.04033115 9.44609537 -9.9341216 -16.06687293 3.09852073 16.28860026 -0.98101632 -0.00001243 -0.00000405
0.0652864 1.07945015 -0.73182153 26.04843053 -32.64610754 22.32686853 15.4587677 -2.62906301 5.15845066 11.76085219 -1.69783241 4.66981901 11.78061565 -1.48397858 4.68885574 13.1582852 2.09576732 11.59185393 6.25251809 23.99396671 -4.03674284 1.94901415 -11.55344281 -9.53148727 -11.92997467 10.95896735 -65.81533104 -0.00001129 -60.39203455 -0.00001274 -24.72740202 14.25226782 8.31570197 4.36193544 22.28100599 8.85970035 -11.75800078 34.84442487 2.41316719 -179.99997871 74.0070306 179.99996836 20.1285084 -22.99185817 -11.48726587 -60.290717 3.73172089 10.69375164 54.11112232 4.86370682 -0.23033444 -7.14336848 1.08144171 -8.55967759 -2.63796712 -0.0000142 -0.00000798 -49.61168397 3.90935388 -18.80648647 43.69214204 9.38412203 -9.9513215 -13.7355024 3.61116529 16.35618842 -0.64940309 -0.00000107 -0.00000151
0.06961567 1.0823597 -0.74789416 27.15965078 -32.54127961 21.93380869 15.19302133 -3.47169083 5.18176192 11.52283516 -2.33300858 4.68607399 11.54604628 -2.09182627 4.71335385 14.7811922 2.07220472 9.85377602 12.81457699 23.26193608 -7.31610166 1.7341285 -10.97033885 -9.42358107 -12.94301456 8.1948209 -62.77357057 0.00002529 -65.34606088 0.0000318 -20.02712324 12.99888412 8.60612763 4.20261505 21.64527801 8.95799819 -14.74390746 28.79280224 10.6849171 179.99994538 77.77408819 -179.99992812 22.94602734 -23.97439652 -6.25429954 -58.89477821 4.67077836 10.70055568 55.06905772 7.69370186 -0.31629814 -7.60730583 0.81950692 -5.85899249 -3.67318995 0.00001325 0.0000042 -50.99773043 3.02790849 -17.41242365 42.37976014 9.12748989 -10.00222275 -11.99113383 3.88445838 16.7014994 -0.24881645 0.00000808 0.00001061
0.07378749 1.08266731 -0.76267721 27.39839245 -32.19454059 21.01936261 14.93243064 -4.08652702 5.10221564 11.31077942 -2.80375046 4.61416679 11.3352365 -2.55510037 4.64718984 15.07748531 2.14010181 8.02675155 16.39864103 22.8394056 -10.83160466 1.58982361 -10.40944005 -9.37689915 -14.56389601 6.73158388 -58.39494685 -0.00007337 -71.64166403 -0.00007726 -16.9613089 14.68717925 10.33281963 3.8188127 20.88384713 9.08327156 -15.73793411 23.20652307 16.581508 179.99991349 81.40233315 -179.99995005 26.36248274 -21.59009848 -0.73251494 -56.79242739 5.58434507 10.1804139 54.86785705 8.44130243 0.00124952 -8.20745719 0.67834763 -4.2441317 -4.07662348 0.0000028 0.00000686 -51.83862522 2.36441317 -16.41391896 41.88680892 8.73058944 -9.86002739 -10.79576419 3.72437784 17.19617328 -0.00001293 5.4e-7 0.00000954
0.07895636 1.081828 -0.77549316 27.11539406 -31.41647787 19.5329412 14.72175412 -4.46769277 4.90331378 11.1658848 -3.09321305 4.44490404 11.18928225 -2.86145052 4.48136837 14.23911343 2.31711748 6.30449788 16.75599916 22.86225349 -13.71432019 1.51846918 -9.90813178 -9.38868039 -17.24618243 6.14003802 -53.41594453 -0.00002417 -78.04586363 -0.00001431 -15.99121483 18.13761461 12.49606816 3.34786524 20.30330511 9.18288741 -15.09570453 17.96491901 19.93853577 -179.99983337 84.27747421 179.99983956 28.49076879 -16.83560541 3.37876083 -54.72391468 5.93630629 9.36917045 53.13544582 6.38785534 0.73381801 -9.17469402 0.77592556 -4.51480474 -3.44124913 0.00002596 -0.00000913 -52.19662141 1.8017166 -15.95326076 41.6499833 8.32032228 -9.04998964 -9.89261448 3.20559734 17.46152523 -0.00000699 0.00000389 4.7e-7
0.08581063 1.08029915 -0.78571221 26.77339471 -30.42579573 17.74805582 14.55956115 -4.62036905 4.57184844 11.08452033 -3.20319547 4.16739928 11.10463823 -3.00932699 4.20508752 12.65919979 2.5931452 4.79329422 14.3161696 23.29936513 -15.35102376 1.50183717 -9.48158393 -9.436353 -21.11051624 5.63872518 -48.50148262 -0.00005622 -83.52176901 -0.00005552 -16.5667624 21.87033217 14.56273364 2.92294742 20.07623011 9.23496617 -13.28571086 13.09679171 21.26282622 179.99992728 86.22262404 -179.99992899 28.69378423 -11.40126893 5.67250071 -53.13621716 5.68814013 8.75619753 50.55786457 5.7145878 1.7024376 -10.10828216 0.96705611 -5.46489687 -3.20009399 -0.00001541 0.00000607 -52.25746945 1.25813201 -15.47169432 41.35016552 8.00837869 -8.30177767 -9.13867205 2.32756295 17.56489951 -5.9e-7 -0.00000134 3.2e-7
0.09420784 1.07802177 -0.79350732 26.6627683 -29.47099274 16.05851 14.42401427 -4.56775863 4.09132747 11.0400408 -3.15120552 3.77092507 11.05529448 -3.00721885 3.80781262 10.77756903 2.93260772 3.52292388 9.89467281 23.94239834 -15.4720661 1.50725657 -9.11765064 -9.48740281 -25.82804548 4.53370501 -44.13494933 0.00009208 -87.48219154 0.00011485 -17.55638743 24.85661193 16.15998453 2.64917746 20.20788872 9.24130804 -10.83437085 8.71008439 21.43483219 -179.99996466 87.37190633 179.99996107 27.41011728 -6.72553947 6.50960067 -52.23214153 5.00859387 8.28332148 48.4657615 5.79646065 2.75990854 -12.28426247 1.30537561 -6.92248576 -2.74929036 0.00000328 -0.00000947 -52.34253193 0.91463743 -14.88730481 41.04155582 7.92631032 -7.72302488 -8.50487146 1.24536101 17.35180227 0.0000114 0.00004322 -0.00000157
0.10352965 1.07501969 -0.79962242 26.71882982 -28.58161932 14.62015273 14.29399405 -4.32730311 3.47432483 11.0015673 -2.96521954 3.25165776 11.01128562 -2.87190434 3.28591126 8.95610939 3.28621675 2.47023009 4.38503118 24.50017173 -14.15143159 1.50307705 -8.79117857 -9.51420583 -30.84319508 2.50328848 -40.58408639 -0.0007362 -89.84668859 -0.00075723 -17.94036113 26.75216357 16.98398386 2.59107676 20.57335122 9.21213363 -8.2257539 4.98241048 21.35183042 179.99997302 87.98747597 -179.99995872 25.42225004 -3.55553787 6.30067367 -52.53002711 4.01880216 7.90222139 47.68916488 6.35538285 3.68511113 -14.29761453 1.61778254 -8.02223674 -2.37217224 -0.00000603 0.00000276 -52.56652271 0.74893137 -14.40849305 40.83441043 7.94532781 -7.2848175 -7.98036291 0.17264939 17.12070338 0.00000451 0.00000576 -0.00000232
0.11282904 1.07153976 -0.8043322 26.67632329 -27.72315638 13.36398597 14.1517118 -3.94832457 2.72050966 10.94311993 -2.67877478 2.62068205 10.94790519 -2.62736335 2.6509946 7.41320756 3.60813384 1.58402015 -1.45782639 24.72965353 -11.73612196 1.47299767 -8.48521342 -9.50727192 -35.66069204 -0.38833606 -37.90684294 -179.99974005 -89.07051028 -179.99973053 -17.30810967 27.73155748 16.99175554 2.76774019 20.99694434 9.15799348 -5.83751092 2.13591458 21.67462927 179.99954115 88.30554841 -179.99954189 23.34299833 -1.97255533 5.32944348 -53.7157765 3.12252307 7.85017429 48.2127217 6.17035551 4.08900394 -15.18122521 1.7648543 -8.46639649 -2.15645812 -0.00001009 -0.00000235 -52.81543395 0.5483407 -14.27244512 40.83810538 7.99382241 -6.85145828 -7.63855301 -0.60616903 16.84664111 0.00000434 -0.00000328 -0.00000407
0.12127616 1.06804214 -0.8075441 26.40825313 -26.97609906 12.16711089 13.98570689 -3.49232448 1.84233386 10.84796969 -2.32732011 1.90774805 10.84930146 -2.30371253 1.93348405 6.21737821 3.86979537 0.80563669 -7.11006002 24.52886215 -8.72136985 1.42258686 -8.20386003 -9.47828858 -39.98018537 -3.83062339 -36.00558525 179.99943429 -88.76293983 179.99944383 -15.90557983 28.20501408 16.43643029 3.15490067 21.33105605 9.08975741 -3.93046952 0.34476125 22.71615777 179.99954741 88.46227881 -179.99956927 21.44335632 -1.61398076 3.8527 -55.07863603 2.66669837 8.32854636 49.3470348 4.94361011 3.88512469 -15.07262661 1.76836926 -8.4481074 -2.03867765 7.8e-7 -0.0000026 -52.88488443 0.22647263 -14.38345426 40.95998949 8.00876682 -6.38555954 -7.46394511 -1.03367035 16.57696685 -0.000008 0.0000019 0.00000339
0.12845902 1.06481034 -0.8094548 26.0182405 -26.37642291 10.88219783 13.79021056 -3.01826948 0.87728182 10.70888202 -1.94536407 1.15755315 10.70852029 -1.9352047 1.17858819 5.32137649 4.06507574 0.08324225 -12.26792306 23.95159428 -5.61025475 1.37474584 -7.97009767 -9.45388949 -43.67537213 -7.415784 -34.71636834 -179.99982159 -88.73401196 -179.99982001 -14.3166394 28.58140267 15.66258995 3.69271157 21.50123115 9.01991495 -2.65678648 -0.36744943 24.46441546 179.99871426 88.50011575 -179.99871475 19.7527535 -1.92107346 2.15395439 -56.2844466 2.51181363 9.27110231 50.557675 3.16731811 3.37805215 -14.64797862 1.70596288 -8.16367802 -1.93830977 -0.00000959 -0.00000489 -52.68592033 -0.16356794 -14.38362851 41.02118734 7.87966101 -5.95919542 -7.36937835 -1.31128189 16.43796291 0.00000432 0.0000049 -0.00000115
0.13456312 1.06230133 -0.81025787 25.69993595 -25.78571627 9.47238714 13.56053699 -2.57840057 -0.12462652 10.52324469 -1.563733 0.41934206 10.52272886 -1.55642773 0.43590668 4.61448746 4.20478724 -0.61826927 -16.77782725 23.15111709 -2.80726509 1.35758131 -7.81247903 -9.46357445 -46.71842209 -10.74253935 -33.89222339 179.99984033 -88.63874189 179.99984246 -13.06433877 29.10296812 14.92015236 4.29914523 21.50739638 8.96048634 -2.05754866 -0.15486752 26.7018783 179.999534 88.41944252 -179.99952687 18.26034684 -2.347045 0.50773366 -57.36127874 2.26423213 10.2222881 51.74838722 2.5043199 2.9755164 -14.86312351 0.91744243 -7.78916646 -1.86750723 -0.0000042 0.00000226 -52.2584133 -0.63135452 -14.18822576 40.7988071 7.4580333 -5.55571907 -7.246741 -1.48892384 16.50223488 -0.00001423 -0.00001192 0.00000394
0.13983046 1.06108536 -0.81009224 25.59687049 -25.14506358 8.10379199 13.29740733 -2.19291122 -1.08928076 10.29534484 -1.20692215 -0.2604069 10.29559236 -1.19678453 -0.24795756 3.9749701 4.30449758 -1.31138518 -20.55940366 22.29359553 -0.57097957 1.39142497 -7.75119045 -9.52560869 -49.12222201 -13.4830659 -33.45003905 179.99976525 -88.33741428 179.99976364 -12.35054756 29.77506411 14.32950497 4.88699738 21.39391062 8.92011097 -2.06392893 0.71602271 29.15216606 179.99900325 88.2300167 -179.99903154 17.04805516 -2.50643798 -0.87348674 -58.31225231 1.7400441 10.83561365 52.57021977 1.70303516 2.84777595 -14.95431561 0.65727129 -7.39303666 -1.71592857 -0.00001071 2e-8 -51.72353935 -1.2233547 -13.97082916 40.18732258 7.21489691 -5.07773114 -7.00700208 -1.87085266 16.602076 -0.00000755 0.00000608 0.000007
0.14429574 1.06122437 -0.80940269 25.67233314 -24.61859045 6.98730983 13.00744116 -1.87133025 -1.95917646 10.03578624 -0.89124101 -0.84833362 10.03706416 -0.8767749 -0.83968984 3.3100635 4.37324557 -1.9838846 -23.56036312 21.48672052 0.98179607 1.48089324 -7.79118469 -9.64012691 -50.90958794 -15.4274332 -33.37052586 -179.99995131 -87.87027095 -179.99995037 -12.00449676 30.41577365 13.91323971 5.38166151 21.21205406 8.90271409 -2.53007306 1.96889258 31.58669538 179.99953872 87.97250324 -179.99956831 16.29403125 -2.24482174 -1.87654384 -59.03092204 1.18125525 11.09529934 52.96407039 1.15560371 2.96666817 -14.9347066 0.51965475 -6.9057784 -1.66564991 0.00000348 0.00000138 -51.1734161 -1.85623125 -13.86673834 39.19170717 6.74599033 -4.52801989 -6.60072615 -1.84483386 16.84744336 0.0000146 0.00000104 7.7e-7
0.14805005 1.06193626 -0.80894653 25.76143418 -24.32341178 6.12890986 12.70724954 -1.60639065 -2.69228192 9.76334763 -0.62429606 -1.3286233 9.76526941 -0.60626564 -1.32362519 2.57761753 4.40811231 -2.60076177 -25.75479185 20.75251977 1.84763391 1.61448652 -7.92383156 -9.79025132 -52.09701668 -16.50748234 -33.6604668 179.9999155 -87.38093298 179.9999015 -11.61305616 30.80142528 13.62542063 5.73665093 20.99542646 8.90878114 -3.2933747 3.39062484 33.86532467 -179.99999028 87.70559725 179.99998029 16.18366733 -1.6280318 -2.51043434 -59.51478487 0.78502965 11.27347656 53.1380729 0.78720521 3.16474719 -14.86236023 0.46581859 -6.55620793 -1.65147899 0.00000796 0.00000308 -50.65726578 -2.42061508 -13.82269312 38.07603494 5.78101248 -4.0142744 -6.09568911 -1.13101632 17.29332649 -0.00000352 0.00001541 0.00000195
0.15108552 1.0623175 -0.80916794 25.73318284 -24.13720489 5.3602965 12.42156621 -1.37922426 -3.26412978 9.50257407 -0.40577549 -1.70141573 9.50446741 -0.38504318 -1.70008733 1.78782285 4.39679021 -3.1114152 -27.16666081 20.04595959 2.10868498 1.77037442 -8.13297419 -9.94824669 -52.69035423 -16.79319364 -34.30331474 179.99980343 -87.02476786 179.99980042 -10.75394083 30.8423122 13.40041182 5.9422019 20.75554644 8.93683543 -4.22859335 4.85115587 35.92360694 179.99953082 87.47605326 -179.99952127 16.80120678 -0.88041521 -2.89960425 -59.88487797 0.5238007 11.56533276 53.33615153 0.49194742 3.31273896 -14.78843575 0.39668543 -6.51493315 -1.59871906 0.00000527 -4.4e-7 -50.191466 -2.89693212 -13.74326583 37.19359749 4.59747856 -3.60048414 -5.66588682 -0.14611699 17.73638545 0.00000409 0.00000176 -4.7e-7
0.15309738 1.06219582 -0.80987686 25.4959266 -23.85460867 4.5372643 12.17657407 -1.16503109 -3.6660124 9.2774233 -0.2288334 -1.97722784 9.27857147 -0.20479429 -1.97981116 0.98811561 4.32596429 -3.4617804 -27.88847469 19.30071879 1.91200795 1.92395726 -8.39997247 -10.08571822 -52.69596613 -16.45746656 -35.22985941 179.9997903 -86.89462482 179.99978239 -9.22406857 30.70015032 13.20891627 6.02374815 20.49197854 8.98298718 -5.2695888 6.28799701 37.73551857 -179.99985173 87.29491716 179.99983475 18.06166428 -0.31003257 -3.23180558 -60.14532849 0.31406073 11.95145586 53.60092999 0.23199685 3.41879613 -14.71339482 0.23335974 -6.87584924 -1.46863041 0.00001118 -0.00000466 -49.70080853 -3.34575074 -13.62219054 36.73376634 3.79057637 -3.26433463 -5.4634207 0.42829703 17.8736247 0.00000342 -0.00001564 0.00000141
0.15375714 1.06224678 -0.81069428 24.96133103 -23.35335748 3.66823273 11.99131916 -0.93962004 -3.90194593 9.10442721 -0.08224972 -2.1706542 9.10413499 -0.0524354 -2.17753325 0.23851948 4.19053329 -3.61022481 -28.07507131 18.47470671 1.44958756 2.05407916 -8.70517489 -10.18158071 -52.14208049 -15.71677391 -36.32339724 -179.99996544 -86.98611419 -179.99997074 -7.15801962 30.76548139 13.04672434 6.02855115 20.20574784 9.04136002 -6.39646498 7.68253235 39.27973121 179.99967637 87.13442724 -179.99970195 19.70955253 -0.23303797 -3.67812537 -60.10483923 0.18718274 12.28592419 53.74764148 -0.04143014 3.52935431 -14.58406543 -0.03659171 -7.51563356 -1.28179047 0.00000766 8.6e-7 -49.02541212 -3.8303463 -13.54443779 36.6271203 3.76300568 -2.98513558 -5.51467274 0.23142593 17.51463732 7.1e-7 -0.00000506 -0.00000631
0.15306623 1.06255081 -0.81147865 24.12745066 -22.68373052 2.83703534 11.87301704 -0.68849493 -3.98933223 8.98879271 0.04669227 -2.29628195 8.98658056 0.08581113 -2.30792065 -0.41255388 3.99945871 -3.54331596 -27.91005816 17.57339196 0.92885133 2.14709772 -9.02704258 -10.22503796 -51.09460605 -14.76729253 -37.45261571 179.99984277 -87.20834856 179.99984925 -4.98172731 31.47600181 12.86555456 6.0063517 19.90628041 9.10487662 -7.60532109 9.04323734 40.52682932 179.9998964 86.94742795 -179.99990605 21.38431858 -0.88620803 -4.33214862 -59.70430916 0.18265145 12.50722341 53.76365627 -0.40699351 3.64274006 -14.42729346 -0.35402692 -8.14812782 -1.09698147 -0.00002194 -0.00000269 -48.16618904 -4.31738096 -13.52163784 36.84784257 4.47091801 -2.81123496 -5.8067189 -0.65053271 16.71313058 4.5e-7 0.00001032 -8.8e-7
0.15122872 1.06248001 -0.81254417 23.11603166 -22.03168404 2.11511362 11.81566756 -0.4139007 -3.95868995 8.92402741 0.16861911 -2.36592334 8.91953733 0.22019527 -2.38268662 -0.94348361 3.77568311 -3.28613771 -27.56372981 16.64493751 0.5345202 2.197868 -9.34181053 -10.21801557 -49.6563783 -13.73995612 -38.51219693 -179.99997859 -87.42992239 -179.99996815 -3.22443271 33.06589396 12.57679054 5.99044219 19.60946664 9.16722959 -8.88251113 10.39488686 41.44777413 179.99934994 86.6979124 -179.99938646 22.73294203 -2.33376515 -5.20387851 -59.11651972 0.26609758 12.65570281 53.84080596 -0.95078713 3.75576908 -14.34821419 -0.64523733 -8.32938188 -0.98351748 -0.00001704 0.00000488 -47.32075117 -4.70233528 -13.4783881 37.44053417 5.42741022 -2.77090378 -6.29125214 -1.74787258 15.74895911 0.00000398 0.00001002 0.00000403
0.1481933 1.06099647 -0.81446121 22.06021683 -21.55490714 1.51858651 11.80221952 -0.13811554 -3.85323973 8.89419887 0.28866832 -2.38681617 8.88738586 0.35416415 -2.40877908 -1.36078388 3.55041551 -2.90173566 -27.16342088 15.75699377 0.39192918 2.21012626 -9.62613217 -10.17203133 -47.94976553 -12.68973396 -39.4500536 179.99950722 -87.53655879 179.99951469 -2.28286483 35.41058032 12.17227092 5.98848633 19.33009459 9.22481378 -10.19550087 11.76875542 42.03301113 179.99996228 86.38733922 -179.9999645 23.5315964 -4.40942156 -6.24900617 -58.59264281 0.33260837 12.85138109 54.2170499 -1.47952491 3.90264944 -14.41368695 -0.8630689 -8.39958838 -0.92312583 0.00000547 0.00000317 -47.60863536 -4.61076511 -13.65795231 40.41259404 5.41669226 -2.94586517 -9.11998267 -2.03761946 15.13903372 0.00000471 0.00000255 -0.00000448
0.14166026 1.05940178 -0.81735795 20.71383089 -21.17784001 0.85422356 11.87094868 0.18942123 -3.50809069 8.90019107 0.41123838 -2.29320432 8.89098628 0.49283465 -2.32137955 -1.95424763 3.31811775 -2.3655914 -26.53688972 14.8620664 0.53296249 2.24510006 -9.94671294 -10.13285605 -45.61924483 -11.42237172 -40.6879573 -179.9998722 -87.66859316 -179.99987749 -1.74209324 37.76487021 11.48103978 6.02641709 19.04937598 9.28120614 -11.67233383 13.44784489 42.28908049 179.99994872 85.91627143 -179.99995225 23.70994058 -6.5137774 -7.63808495 -57.74575731 0.38759387 13.2817869 54.60197989 -2.25645083 4.11532673 -14.52812242 -0.96677228 -8.39938235 -0.87313124 0.00001856 -0.0000041 -46.82708848 -4.90809031 -13.37840581 41.81620802 3.70641351 -2.98681025 -10.09658954 -2.00855115 14.00739665 0.00000738 -0.00000497 0.00000357
0.13176658 1.05837204 -0.82113426 19.13876553 -20.77574172 0.2231637 12.00005935 0.49586452 -2.99356556 8.92705016 0.51690746 -2.09338125 8.91579305 0.61389459 -2.12790312 -2.72211901 3.11580414 -1.80484259 -25.75444233 14.07949617 0.88892167 2.32200621 -10.27851242 -10.12626021 -42.92778233 -10.10400544 -42.19046967 -179.99990546 -87.86563251 -179.99991557 -1.29769487 39.26147482 10.69061541 6.0829505 18.78687909 9.33389295 -13.13972037 15.30100196 42.28882668 179.99984642 85.39199058 -179.99983826 23.48892979 -7.96134053 -9.13702072 -56.52810533 0.49516311 13.85877936 54.75139443 -3.2779409 4.32646257 -14.56455963 -0.99370593 -8.40167051 -0.81554039 -0.00000639 -0.00000246 -45.88224382 -5.29856831 -13.17691637 43.3326939 2.02220636 -2.98881262 -10.8881625 -1.96574415 13.01619976 7e-8 0.00000576 0.00000146
0.12136428 1.05761299 -0.82530006 17.67111256 -20.38111735 -0.23951956 12.12043371 0.71699587 -2.48954358 8.95025977 0.58508616 -1.87254911 8.93763147 0.69310136 -1.91184554 -3.40650134 2.98534613 -1.39859423 -25.0699571 13.5448749 1.29751258 2.41042679 -10.54245708 -10.14573998 -40.55155703 -9.01946606 -43.5324022 179.99987627 -88.04431107 179.99987544 -0.93605645 39.66094429 10.18116194 6.11262969 18.57196711 9.37787519 -14.31357159 16.94510715 42.15754905 179.99997699 85.0266061 -179.99998361 23.25552106 -8.54268349 -10.29369713 -55.31376229 0.65056892 14.45291827 54.71247423 -4.22639303 4.4528374 -14.49341327 -1.03680155 -8.57815066 -0.75341771 0.00001698 0.00000469 -45.05895149 -5.67619591 -13.12576565 44.76458661 0.67690636 -2.96673663 -11.41746104 -1.92235978 12.27392739 0.00000655 -0.00002834 0.00000448
0.11098208 1.05743912 -0.8293615 16.40700191 -20.05427617 -0.5843052 12.26457943 0.84219881 -2.09614679 8.9911489 0.62051445 -1.68242113 8.97787099 0.73462576 -1.72543201 -4.03627925 2.88263539 -1.09570668 -24.32847218 13.19391896 1.4465384 2.52796024 -10.76265398 -10.19822546 -38.91049122 -8.57064705 -44.59763674 -179.99958728 -88.43521155 -179.99957864 0.09086628 39.09609974 9.50916606 6.17506555 18.45310885 9.40195595 -14.89230202 17.89253619 42.04066458 179.99996572 84.63761599 -179.9999815 23.01759391 -8.23516724 -11.06193982 -54.16181509 0.78583369 14.96338957 54.55083253 -5.68034566 4.50787527 -14.4038343 -0.73567453 -7.91987705 -0.66359193 -0.00001594 -6.8e-7 -44.30884084 -6.00302835 -13.02033935 45.89281585 -0.51565971 -2.95227731 -11.66864498 -1.85641303 11.61566216 0.00002133 -0.00000131 0.00000396
0.10116172 1.05889153 -0.8329596 15.39483548 -19.78793303 -0.84815615 12.42999064 0.93881726 -1.73536603 9.04457576 0.64489869 -1.50488653 9.03099939 0.76328485 -1.55136462 -4.66432725 2.7776805 -0.79995977 -23.53040295 12.88440241 1.49393896 2.6594296 -10.97591569 -10.26260566 -37.49089308 -8.39506665 -45.54227916 -179.99986489 -88.90416766 -179.9998474 1.41206542 38.16462882 8.71834627 6.25582256 18.36705858 9.41920084 -15.25113319 18.55758546 41.93654586 179.9999221 84.16418756 -179.99993228 22.74774187 -7.63101893 -11.69434368 -52.97276544 0.91091705 15.46568833 53.95600293 -6.97682407 4.545468 -14.11531899 -0.28064616 -7.74459576 -0.49532921 -0.00000108 -0.00000165 -43.45358686 -6.29735479 -12.73735046 46.35366759 -1.68276125 -2.95808673 -11.67379916 -1.76755005 10.99265803 0.00001735 0.00001406 0.00000774
0.09242781 1.06211885 -0.83591706 14.59204288 -19.55772936 -1.05798296 12.61120818 1.01748973 -1.39265834 9.10743337 0.66062057 -1.33725202 9.09373888 0.78179745 -1.38699414 -5.29049991 2.67149806 -0.51065579 -22.69128709 12.61027979 1.46755875 2.80151581 -11.18376176 -10.33545815 -36.24674675 -8.42167351 -46.3876165 -179.99975279 -89.43156067 -179.99973145 2.9236521 36.93880557 7.88793643 6.34999302 18.30585934 9.43140296 -15.44398807 19.00770045 41.83551268 -179.99991846 83.62816663 179.9998947 22.45825595 -6.79467978 -12.21426669 -51.69008666 1.04282871 15.99856073 52.85191896 -7.83927092 4.55037796 -13.55676613 0.29336538 -8.76407867 -0.29164561 0.00000678 1.9e-7 -42.42664579 -6.61684905 -12.31582491 46.11377481 -2.88018471 -3.003418 -11.53568389 -1.66861056 10.39488137 0.00001159 0.00000909 -0.00000275
0.08518391 1.06671606 -0.83818366 13.91446851 -19.33820388 -1.23245842 12.79772455 1.08141146 -1.07166236 9.17385795 0.67152853 -1.17748917 9.1602045 0.79458932 -1.23036209 -5.90982032 2.56729521 -0.23370123 -21.83518972 12.36997698 1.39415474 2.94858486 -11.38596477 -10.41305986 -35.15095111 -8.58558788 -47.16527013 -0.00001617 -89.99168127 0 4.50884516 35.55157991 7.10437477 6.4525898 18.2628554 9.43985072 -15.52614438 19.31856443 41.73555735 179.99987428 83.07508791 -179.9998757 22.16932209 -5.81455486 -12.65748095 -50.34727826 1.27205688 16.43753697 51.42561086 -8.61566973 4.52600644 -12.86790533 0.79097929 -9.66526339 -0.1090651 -0.00002543 0.000002 -41.24516312 -6.99530672 -11.85153126 45.33600904 -4.13857148 -3.11712907 -11.28162303 -1.55650694 9.77726165 0.00001803 -0.00000479 4.8e-7
0.08130955 1.07181533 -0.83972747 13.3047917 -19.12468084 -1.38342079 12.98110976 1.13246534 -0.77714582 9.23954654 0.68056974 -1.02554226 9.22601397 0.80503609 -1.08144682 -6.51540575 2.46853403 0.0222206 -20.98160485 12.16614937 1.28514768 3.09634334 -11.58091631 -10.49247028 -34.21149936 -8.85153505 -47.89868928 -0.0018403 -89.38545094 -0.00183772 6.09965702 34.11524437 6.4213105 6.56096909 18.23598052 9.44511803 -15.52601523 19.53209996 41.63808932 179.99991859 82.5470593 -179.99991615 21.89846719 -4.75116503 -13.0496686 -49.08521959 1.62984868 16.66673789 49.97376726 -9.27971851 4.48548513 -12.15966202 1.1423918 -10.19965114 -0.00044714 0.00000354 0.0000054 -39.97691042 -7.31054901 -11.65658989 44.18533697 -5.15214673 -3.12527863 -10.92157114 -1.3489812 9.47608126 0.00000711 -0.00000865 0.00000381
