HIERARCHY
ROOT Hips
{
  OFFSET 0 1.1673769999999999 0
  CHANNELS 6 Xposition Yposition Zposition Xrotation Yrotation Zrotation
  JOINT Spine
  {
    OFFSET 0.000003812944337411511 0.10717500000681812 -0.009311
    CHANNELS 3 Xrotation Yrotation Zrotation
    JOINT Spine1
    {
      OFFSET 0 0.1058532983696241 -0.004285186608692496
      CHANNELS 3 Xrotation Yrotation Zrotation
      JOINT Spine2
      {
        OFFSET -8.470329472543003e-22 0.10599345671141647 -0.007812688101110094
        CHANNELS 3 Xrotation Yrotation Zrotation
        JOINT Neck
        {
          OFFSET -8.470329472543003e-22 0.26240299999999994 -0.04488100000000002
          CHANNELS 3 Xrotation Yrotation Zrotation
          JOINT Head
          {
            OFFSET -4.235164736271502e-22 0.17466899999999996 0.05625600000000003
            CHANNELS 3 Xrotation Yrotation Zrotation
            End Site
            {
              OFFSET -4.235164736271502e-22 0.10756799999999966 0.021070000000000005
            }
          }
        }
        JOINT LeftShoulder
        {
          OFFSET 0.10574399999999999 0.23009199999999996 -0.07323000000000002
          CHANNELS 3 Xrotation Yrotation Zrotation
          JOINT LeftArm
          {
            OFFSET 0.14878212914559852 -0.04653266654569688 -0.030693304075147546
            CHANNELS 3 Xrotation Yrotation Zrotation
            JOINT LeftForeArm
            {
              OFFSET 0.24109000000000003 2.220446049250313e-16 -5.551115123125783e-17
              CHANNELS 3 Xrotation Yrotation Zrotation
              JOINT LeftHand
              {
                OFFSET 0.316792 0 -1.1102230246251565e-16
                CHANNELS 3 Xrotation Yrotation Zrotation
                End Site
                {
                  OFFSET 0.06265729429771016 -0.10569948639925819 0.03859412819617963
                }
              }
            }
          }
        }
        JOINT RightShoulder
        {
          OFFSET -0.10574399999999999 0.23009099999999982 -0.07323000000000002
          CHANNELS 3 Xrotation Yrotation Zrotation
          JOINT RightArm
          {
            OFFSET -0.14878040829228295 -0.04653159475972379 -0.030692917709113934
            CHANNELS 3 Xrotation Yrotation Zrotation
            JOINT RightForeArm
            {
              OFFSET -0.24109000000000003 -6.661338147750939e-16 -2.7755575615628914e-17
              CHANNELS 3 Xrotation Yrotation Zrotation
              JOINT RightHand
              {
                OFFSET -0.31679300000631333 -8.881784197001252e-16 -5.551115123125783e-17
                CHANNELS 3 Xrotation Yrotation Zrotation
                End Site
                {
                  OFFSET -0.06265795211397429 -0.10570764472283312 0.03859362014678265
                }
              }
            }
          }
        }
      }
    }
  }
  JOINT LeftUpLeg
  {
    OFFSET 0.12297511767165623 -0.06742078536803264 -0.010003
    CHANNELS 3 Xrotation Yrotation Zrotation
    JOINT LeftLeg
    {
      OFFSET 0 -0.457033849483632 0.010304509991859542
      CHANNELS 3 Xrotation Yrotation Zrotation
      JOINT LeftFoot
      {
        OFFSET 0 -0.500280623664138 -0.036905110570505176
        CHANNELS 3 Xrotation Yrotation Zrotation
        JOINT LeftToeBase
        {
          OFFSET 0.025950805788189563 -0.14255151365608373 0.19507593811975638
          CHANNELS 3 Xrotation Yrotation Zrotation
          End Site
          {
            OFFSET 0.010732117804750613 -0.000035441498015504746 0.11362327680684622
          }
        }
      }
    }
  }
  JOINT RightUpLeg
  {
    OFFSET -0.12297488233495055 -0.0674172146317622 -0.010003
    CHANNELS 3 Xrotation Yrotation Zrotation
    JOINT RightLeg
    {
      OFFSET 0.00000159348816348992 -0.45703784846455486 0.01030460015485039
      CHANNELS 3 Xrotation Yrotation Zrotation
      JOINT RightFoot
      {
        OFFSET -0.0000015934881634621645 -0.5002806236608007 -0.03690511058134042
        CHANNELS 3 Xrotation Yrotation Zrotation
        JOINT RightToeBase
        {
          OFFSET -0.0259497668227143 -0.14255297441554501 0.19507500887383716
          CHANNELS 3 Xrotation Yrotation Zrotation
          End Site
          {
            OFFSET -0.010733201844058626 -0.000035030229497263656 0.11362417898958707
          }
        }
      }
    }
  }
}
MOTION
Frames: 61
Frame Time: 0.03333333333333333
0.00033841 1.05156456 0.00192561 13.14099679 -21.11870929 1.98961977 10.26856015 0.65900422 -1.62307955 7.41510943 0.38540847 -1.50342614 7.40484718 0.47888957 -1.53512976 -9.04437271 2.91361189 -1.66328681 -17.68210969 12.02916327 0.13049332 1.70459162 -8.24248765 -9.85022396 -21.02322118 -6.94185133 -50.85136139 179.99939531 -89.0175553 179.99939127 33.94204989 18.9502636 11.08074506 6.85002371 19.28747422 8.96557989 -25.50608282 24.10258519 41.65401794 179.99998535 87.27498562 179.99998869 30.21010779 -18.25417725 -21.2160778 -49.98627938 1.54727992 21.43826972 42.41457963 -7.04855806 3.39055073 -2.60483666 1.22708237 -16.77724904 -0.69676536 -0.00001097 0.0000043 -39.43023399 -6.21038028 -17.3216386 44.3799504 3.731027 -5.58118445 -13.94499798 -2.71980879 15.65435325 -0.01485373 0.00001692 -0.00000482
-0.00074667 1.05294571 0.00104408 12.59483322 -21.27178408 1.58919536 10.3232593 0.61977486 -1.63952476 7.41320007 0.36786962 -1.49228949 7.40327836 0.45704326 -1.52349818 -9.1789411 2.88256635 -1.476865 -17.14968142 12.17305022 -0.28599694 1.77530897 -8.35280858 -9.90530349 -19.81474401 -6.5495731 -51.63710823 179.99958862 -88.01796844 179.99960677 34.36941874 19.64266147 10.19012733 6.9173279 19.35132402 8.97232982 -23.7095538 23.1162272 42.10750488 179.99986915 85.86852561 -179.99985628 31.70737078 -17.64122595 -19.22231546 -49.37093735 1.80415655 21.83526966 42.07093485 -7.37301541 3.44666994 -2.59801399 1.23775185 -16.76030275 -0.5502586 -0.00000288 0.00000419 -38.71942708 -6.43681585 -17.0053647 44.0247328 3.71820386 -5.53600255 -13.90031951 -2.68969326 15.5180402 -0.01709741 -0.00002048 0.00000209
-0.00133653 1.05419968 0.00056928 12.05203254 -21.45602794 1.20618771 10.29945032 0.54772248 -1.58760267 7.36572702 0.32517227 -1.43389101 7.3568148 0.41449933 -1.46429057 -9.02599271 2.84484259 -1.26410102 -16.32089748 12.38925665 -0.66567512 1.85978658 -8.45562931 -9.97492984 -18.33917692 -6.59642927 -52.46234536 -179.99976333 -87.17459854 -179.99975464 34.95347875 20.71128197 9.1273488 7.0461686 19.55919121 8.96345051 -21.59286625 21.90586846 42.39725026 179.99990988 84.43298846 -179.99991413 33.02133151 -16.67967582 -17.41144402 -48.78802612 2.05892224 22.21107519 41.83323591 -7.65353769 3.48864739 -2.63051075 1.2490025 -16.72503552 -0.40809801 6e-7 -4.1e-7 -38.02139638 -6.65630349 -16.7365545 43.66180611 3.76849486 -5.50496702 -13.82305472 -2.66346817 15.427229 -0.01699865 -0.00002567 -0.00000138
-0.00100513 1.05520668 0.00083527 11.52307242 -21.70276232 0.85974683 10.23517978 0.41945712 -1.46809437 7.30833334 0.23747107 -1.33218054 7.30133669 0.32942371 -1.36034992 -8.93421066 2.82624502 -1.00457217 -15.76846062 12.75874013 -0.92010923 1.96458389 -8.58068139 -10.05855252 -16.82442472 -6.94753953 -53.21945578 -179.99996754 -86.31363322 -179.99996863 35.64123306 22.08931511 7.96816845 7.21666031 19.90462169 8.92470966 -19.37076687 20.47244998 42.63494617 -179.99993885 83.01042838 179.99994722 34.0577898 -15.62523727 -15.83286823 -48.27124585 2.30679231 22.54907499 41.79757909 -7.85075964 3.50394404 -2.73979439 1.26299118 -16.65559281 -0.27949348 -0.00000663 4.3e-7 -37.3614972 -6.85559245 -16.55351989 43.29564859 3.93191039 -5.5019739 -13.68192308 -2.64341336 15.41807172 -0.01311029 -0.00000509 -0.00000616
0.00087058 1.05596374 0.0016964 11.05430464 -21.93072674 0.58671677 10.19308174 0.21202036 -1.31276698 7.2865286 0.08390505 -1.21394148 7.28255972 0.1768008 -1.23684343 -9.2636633 2.85543588 -0.70820455 -16.09315603 13.3116917 -0.97165149 2.0852786 -8.76136182 -10.14408614 -15.59865039 -7.32158592 -53.76286031 179.99987734 -85.24175309 179.99985133 36.3108921 23.57865792 6.87215699 7.38948403 20.30057679 8.85906666 -17.36443336 18.96985555 42.94636101 -179.99998886 81.67337907 179.9999864 34.77931666 -14.82884936 -14.41881053 -47.94193531 2.43997024 22.70649788 42.03953009 -7.89704672 3.50535048 -2.70461382 1.24532815 -16.50624223 -0.31890055 -0.00000367 0.00000608 -36.82185049 -7.04650981 -16.55093255 42.93450812 4.21261751 -5.50970733 -13.38612768 -2.61430035 15.47371353 -0.00653245 -0.00001473 9.3e-7
0.0036656 1.05681252 0.00173908 10.77972634 -22.11041902 0.41402507 10.24759246 -0.07962112 -1.21454985 7.33307923 -0.14244179 -1.14464051 7.33281408 -0.05686469 -1.15767299 -10.08482393 2.94733848 -0.47338327 -17.43062779 13.91728372 -0.83186637 2.19399069 -9.00874791 -10.20360102 -15.0153612 -7.31126812 -53.92527947 179.99988862 -83.90002105 179.99991611 36.76462647 24.73332277 6.11761033 7.49769248 20.52365832 8.80937474 -15.93522476 17.8159287 43.37761038 179.99997697 80.51847873 -179.99996532 35.27895923 -14.62457915 -12.86052493 -47.88428857 2.40391862 22.696028 42.31107801 -7.7897576 3.50685444 -2.24348687 1.16170736 -16.31814918 -0.82225433 0.00000842 -0.00000534 -36.50162229 -7.15222924 -16.57116512 42.51259855 4.42249486 -5.52876221 -12.93779995 -2.56466836 15.53441999 0.00000863 0.00002801 0.00000294
0.00505025 1.05675171 0.00001263 11.15564127 -22.18734209 0.66146825 10.39143861 -0.4323759 -1.25470334 7.40735476 -0.42756141 -1.18181077 7.41091607 -0.36153283 -1.18018122 -10.66058794 3.08535404 -0.5284295 -18.63818687 14.28761526 -0.64826601 2.25946942 -9.26522259 -10.21925681 -15.16145161 -6.84853947 -53.55883709 -179.99981122 -82.70929172 -179.99982679 36.81699991 25.63597135 5.41670389 7.48485326 20.38766222 8.82039119 -15.15418984 17.39498528 43.79015925 -179.99993146 79.60921325 179.99991415 35.75475056 -15.00282332 -10.60065665 -48.39170743 2.12120019 22.4577356 42.4191888 -7.38370282 3.52470476 -1.36993192 1.04182699 -16.45598532 -1.70882371 0.00000211 0.00000583 -36.97464471 -6.86135747 -16.51099898 42.47169654 4.28288989 -5.66524041 -12.69639634 -2.56178576 15.71553942 -0.00000414 -0.0000114 0.00000181
0.00369375 1.05713455 -0.00176478 11.2980966 -22.06529055 0.92313488 10.45597746 -0.7932102 -1.41137688 7.36645998 -0.72773941 -1.30990053 7.37338049 -0.68979678 -1.29153799 -9.43916807 3.22120362 -1.17119036 -17.19186483 14.13119572 -0.6597503 2.28490143 -9.40509289 -10.21978813 -15.70748388 -6.65752411 -52.56131299 -179.99994661 -82.69969265 -179.99992316 36.59037759 26.22398629 4.43721534 7.34642003 20.05452274 8.84169791 -14.59910053 17.54650916 44.00605498 -179.99994039 78.92112833 179.99992506 36.40848908 -15.42402507 -7.00041318 -48.41228376 2.15222904 22.32748583 41.96214949 -7.33286058 3.53012384 -0.64690256 0.97751612 -17.14453765 -2.36809936 0.00000438 0.00000122 -37.17165139 -6.72085956 -16.55178935 42.54103989 4.03540113 -5.79162184 -12.7623806 -2.63189496 16.07727728 0.00000869 0.0000074 -0.00000271
-0.00127964 1.05942017 -0.0002221 10.16851805 -21.38725956 1.05534871 10.16613157 -1.07458715 -1.50987629 7.04084707 -0.95828027 -1.40729881 7.05039983 -0.94450356 -1.37614671 -4.98280846 3.2913102 -2.54971505 -10.4956464 13.29417001 -1.07127866 2.3214452 -9.32959332 -10.26920105 -16.02501631 -8.1600277 -50.90262246 179.99966152 -85.04675907 179.99967854 36.55278053 26.5365176 2.69375493 7.14765139 20.20915841 8.67786611 -13.53569728 17.30085511 44.03296349 179.99996776 78.3323623 -179.99995667 37.24265441 -14.98043594 -1.70110431 -46.56019697 3.08548453 21.93031771 40.54628291 -8.02041229 3.53623646 -1.07730401 1.09703727 -17.58330564 -1.79562895 -0.00000469 -0.00000672 -35.91227784 -7.35593913 -17.35422144 42.58033307 4.1641237 -5.88810916 -13.36280061 -2.80265999 16.55236629 0.00000378 0.00000483 -0.00000824
-0.00878368 1.06541519 0.00787884 6.87344686 -20.04481619 0.83530856 9.3094685 -1.13874335 -1.26665392 6.35440726 -1.00338414 -1.308281 6.36493582 -0.99686183 -1.27468749 2.65426661 3.24390086 -4.43244787 1.89375811 11.7517275 -1.90043211 2.42247148 -9.09004408 -10.40276715 -15.40166987 -12.64806159 -48.59483323 0.0044828 -89.8660415 0.00446973 37.41710868 26.57632174 -0.20196816 7.05839489 21.74275597 8.1031229 -11.29793025 15.54138994 43.91977532 179.99986228 77.72302297 -179.99986988 37.85175569 -12.88704244 5.08191017 -41.90459096 4.9803658 20.95997627 38.13760002 -8.42153308 3.86438214 -1.94074608 0.16168017 -18.20714666 -0.76474168 -0.00000137 -0.00000333 -32.02496578 -9.06399738 -18.89350593 42.1419041 4.72449172 -6.28599601 -14.04130145 -2.96866837 16.89194631 -0.0000076 -0.00001766 -0.00000387
-0.01772365 1.07560653 0.02280181 1.64420926 -18.16897753 0.27841633 7.8890246 -0.88424693 -0.49856031 5.38165318 -0.76793753 -0.91135968 5.38996516 -0.74874595 -0.88733752 11.36477121 3.07652269 -6.27034149 16.89258542 9.67734943 -2.8732268 2.56779685 -8.88177695 -10.56611836 -13.26025438 -20.22214192 -45.61082491 0.00004105 -83.00042082 0.00005754 40.56374063 24.90145749 -5.92157874 7.39215167 24.92973937 7.06573532 -7.58606232 12.50979738 43.06399272 -179.99991377 77.33467937 179.99992006 37.54111508 -9.01456518 12.70550225 -34.66804372 7.31861267 19.34140952 34.87374606 -8.7750051 4.92266841 -1.95399784 -1.58526754 -19.86273194 -0.6933256 -0.00000641 0.0000011 -25.25245051 -11.57439984 -20.24597354 40.58806575 5.06983589 -7.36280796 -14.27619059 -2.99142085 16.80853687 0.00001781 0.00000365 5.2e-7
-0.02801177 1.0868795 0.04138257 -4.2041992 -16.03497525 -0.21248712 6.11729122 -0.32935499 0.67745226 4.27680653 -0.23897342 -0.24897103 4.27831285 -0.19792845 -0.24078651 17.99963345 2.85794483 -7.56338029 29.01938383 7.62582636 -3.65208895 2.64880219 -8.88048543 -10.63605466 -9.51175445 -29.37181961 -41.98477899 -0.00000681 -76.01440466 0.00000202 46.13020622 19.96662741 -14.34033489 8.38086414 28.77948484 5.78427653 -3.09758225 10.26021817 39.46850679 -179.99998111 78.29731236 179.99995962 35.880136 -4.0228122 20.53613702 -26.21914742 9.69502576 17.39103602 31.04642005 -9.46478744 6.39738448 -1.76407666 -3.51900473 -21.29698051 -0.52113806 2.6e-7 0.00000755 -16.86687412 -14.38245804 -20.78799753 37.97696128 4.84540994 -8.94287133 -14.33678776 -2.88635961 16.21237054 0.00001087 0.00000723 0.00000808
-0.03877393 1.09388794 0.05849931 -9.2905121 -14.30584735 -0.3772516 4.2720697 0.44291197 1.9924915 3.15391939 0.50313348 0.53818365 3.14410553 0.55824599 0.53371284 20.20798455 2.688213 -8.10601033 33.64336513 6.30262912 -4.30495578 2.56920014 -9.12896151 -10.52999806 -5.25468817 -37.74323728 -38.33438096 -0.00002729 -69.82971043 -0.00002465 52.03724668 13.75812152 -20.97690023 9.64975049 31.49252309 4.76402796 0.77481603 10.97031646 30.7814619 179.99987303 82.66441711 -179.99990306 33.22854456 1.09324971 28.03915854 -19.30727477 11.90641141 16.02435191 28.57070016 -9.44414911 7.3765883 -1.94497215 -6.06202963 -20.70443944 -0.00000341 -0.00000339 -0.00000311 -9.46265162 -17.00846994 -21.25724496 35.73152646 4.860728 -9.84720231 -15.04450853 -2.70314087 15.03867203 -1e-8 -0.00000153 -0.0000052
-0.04817594 1.09413498 0.06951968 -12.90054171 -13.66426209 -0.22618192 2.57288775 1.3142119 3.19563989 2.0660012 1.32722758 1.28980616 2.04224193 1.37822715 1.28174782 17.63616418 2.61490958 -7.86997872 29.79622647 6.08530591 -5.25818041 2.38441439 -9.62764868 -10.29508461 -3.36323599 -43.55569654 -36.38965515 -0.00002431 -63.85730113 -0.00002741 57.45757474 7.70982433 -24.39869983 10.22981262 31.84047637 4.60940422 4.40071028 15.4872477 17.7892987 -0.00006572 87.62097404 0.00006366 30.76144781 5.69786651 34.48780623 -14.9772155 14.04494767 15.94814999 27.6597271 -9.29851698 7.23834561 -2.88574863 -8.41926423 -20.257071 0.00001036 0.00000532 -0.0000027 -5.3764556 -19.02933715 -22.58146347 35.54490349 5.91343341 -9.82112605 -16.75270349 -2.57914434 13.75726899 0.00000507 0.00001388 -0.00000679
-0.05549861 1.0896135 0.07308532 -14.95427245 -14.04079885 0.12143254 1.17636256 2.14758701 4.13375377 1.08803115 2.09182604 1.90634601 1.05067338 2.12359044 1.90285032 11.75775627 2.59527637 -6.82953076 20.31001552 6.89870657 -6.781737 2.32171573 -10.45476469 -10.08169938 -7.12298463 -46.02566201 -38.13909505 -0.0000019 -56.74786558 -3e-7 61.84516311 3.76573645 -24.39377107 9.63344374 30.00886515 5.32312968 8.60941206 23.59418221 5.24988064 -0.00003137 72.2857706 0.00002969 29.9191079 9.78669732 38.96882384 -13.07184013 15.69472014 16.56569547 27.98289223 -9.16235863 6.44192289 -3.91223031 -9.83531909 -20.29721247 0.00000102 0.00000463 0.00000266 -4.73999522 -20.07319839 -24.38568556 37.40546632 7.50258726 -9.79621799 -18.8452445 -2.64234616 12.99003674 -0.0000082 -0.00001038 0.00000144
-0.06207259 1.08349464 0.07118232 -15.96840151 -14.73502129 0.64318446 0.19470491 2.78960048 4.77130278 0.34481876 2.65903761 2.36234069 0.29729109 2.6675559 2.36685317 4.74871945 2.54733554 -5.03558389 9.55411416 8.36161062 -8.66273653 2.61437432 -11.68284719 -10.01661104 -16.89426303 -44.57640719 -43.43475119 -0.00000679 -47.8826685 0.00000214 64.48792086 3.2507998 -21.7799472 8.40446937 27.27523949 6.22363278 10.06448656 34.9908768 -1.84116227 0.0000096 53.5213554 -0.00002189 31.63063968 13.5094591 40.87601779 -12.49517369 16.51248871 16.94024064 28.77731333 -9.10231401 5.80204149 -4.44200882 -10.27495854 -20.32336415 -0.00000331 -2.9e-7 -0.00000255 -5.82442438 -19.98089335 -26.05517576 40.14650604 8.04159993 -9.79044955 -20.74507698 -2.26342208 12.62833366 -0.00000441 0.00000204 0.00000569
-0.06956735 1.07762558 0.06619226 -16.66528542 -15.15740284 1.40878182 -0.35278704 3.09436411 5.16192975 -0.08250448 2.91850118 2.67905761 -0.13444318 2.90923189 2.69083236 -1.64683067 2.42641066 -2.7944046 0.8977851 10.0241607 -10.26889693 3.28295129 -13.18153494 -10.09532472 -28.98239274 -39.20512355 -49.19724876 -0.00000537 -38.18137599 0.00000616 64.39747609 6.02015045 -17.66558664 7.37890998 25.08410183 6.80828259 2.03112544 47.39828691 0.69749057 0.0000028 35.36632743 -0.00001073 35.74264378 16.57161133 40.37223498 -12.13850049 16.77114944 16.67623985 29.32599627 -9.08942938 5.57416986 -4.36083568 -10.40356254 -20.01340805 -0.00001134 -0.00000435 -0.00000579 -7.01791225 -19.22418865 -27.30306072 43.02872453 7.84992827 -9.79603309 -22.39527588 -2.04683869 12.02745666 0.00000373 0.00000325 0.00000319
-0.07807623 1.07197983 0.05916506 -17.19256444 -15.15443092 2.39466151 -0.57149682 3.00629734 5.39680985 -0.2361329 2.84320531 2.88945436 -0.28607739 2.82405624 2.90578152 -6.59437843 2.25145945 -0.63042119 -4.52887921 11.53434982 -10.94617589 4.0869516 -14.58967125 -10.21386326 -39.27933455 -31.64853121 -52.60348826 0.00000463 -29.68030114 0.00000809 60.85031312 10.51485682 -12.77704761 7.00638219 24.09461124 7.0756773 -18.80790185 54.34947754 15.23893922 -0.00000264 22.01261154 0.00002285 40.85444066 18.34568715 38.39463706 -11.88047396 16.78022156 16.09086471 29.44387274 -9.02833248 5.47546106 -3.86605032 -10.72001386 -19.67478828 0.00000443 0.00000142 -0.00000141 -8.12673899 -18.27360398 -28.23296046 46.00083471 7.73952593 -9.80269839 -23.85606578 -2.47055353 10.93514117 -0.00000796 -0.00000341 0.00000214
-0.08655774 1.06529046 0.0505621 -17.16859569 -14.93659866 3.56181205 -0.62169595 2.62981877 5.56375015 -0.23804136 2.5303269 3.02559062 -0.28106348 2.50644239 3.04386906 -10.00541733 2.07460961 1.01011917 -7.54662377 12.67028982 -10.49519597 4.70422495 -15.53934978 -10.28930598 -46.00655566 -24.48649003 -53.23591725 0.00000971 -24.37264111 2.3e-7 54.00609591 14.69182712 -7.6545015 7.22216416 23.95942404 7.21634145 -39.29855752 53.08738486 30.44030471 0.00000535 15.90323067 -0.00002166 44.8386828 18.47698444 36.09955209 -12.35563281 16.54162092 15.59766595 29.60241401 -8.90619966 5.2013254 -3.29310262 -11.06699339 -19.65467469 0.00000799 -0.00000118 9e-7 -9.83673153 -17.08655017 -29.00723181 49.1260205 6.7322171 -9.83865481 -25.14349985 -2.37568823 10.22260395 0.00000771 -0.00000136 0.00000121
-0.09388169 1.05685165 0.04101332 -16.54725647 -14.91671829 4.77389791 -0.60394567 2.19132316 5.72318091 -0.18069116 2.16444717 3.12252468 -0.21534487 2.13784799 3.14127167 -12.14958539 1.93418205 2.03140785 -9.67506756 13.40392448 -9.28383359 4.96829924 -15.90490751 -10.31122956 -49.03804287 -19.39743718 -51.88764225 -0.00000934 -23.13968622 -0.00001094 45.16361571 17.26354499 -3.27458919 7.6809541 23.95825644 7.39076424 -48.33495086 50.29737076 36.68400044 -0.00002686 16.73918849 -0.00000626 45.95429727 17.13714055 34.15048051 -13.75878247 16.13494891 15.42461745 30.31080342 -8.78907452 4.62948643 -2.89479863 -11.12536291 -19.81960883 -0.00001045 0.00000238 0.00000451 -12.34254839 -15.46412545 -29.66149634 52.57789023 5.77926829 -9.87605598 -26.32506476 -2.35895727 9.73498188 -0.00001187 -0.0000064 0.00000167
-0.09952587 1.04669594 0.03067036 -15.57769869 -15.43417937 5.96805621 -0.51523584 1.90162015 5.9083172 -0.07335662 1.91028448 3.22074633 -0.10184488 1.88218574 3.23965737 -13.35879218 1.83870054 2.66063741 -11.90196632 13.94850939 -7.9449757 4.95013619 -15.83349716 -10.30973651 -49.0265568 -16.62841569 -49.35964163 0.00000329 -25.44485055 0.00001878 36.30205782 18.2640238 -0.69941946 8.09806309 23.6769832 7.66864194 -48.80141876 50.48625129 36.25826727 0.00000153 22.12342353 -0.00000361 43.68488767 14.80861573 32.55574674 -15.78198137 15.81516509 15.60212646 31.65847586 -8.72116819 3.73676991 -2.73160392 -10.84865453 -19.81548361 8e-8 0.00000335 -0.00000601 -15.41623935 -13.26910353 -30.2244481 56.25048593 5.04823804 -9.90537806 -27.48322313 -2.34926441 9.42110891 -0.0636269 -0.00000251 0.0000041
-0.10289506 1.03613311 0.01957951 -14.39312759 -16.44217072 7.15641201 -0.30215017 1.83002093 6.13476332 0.12164433 1.81668881 3.35641922 0.09554288 1.78907799 3.37566902 -13.89504869 1.79434926 3.17051098 -14.31423351 14.61377589 -6.99386468 4.83938203 -15.57433593 -10.3201577 -46.9648157 -15.47303477 -46.19808894 -0.00000553 -29.93593149 -0.00000373 29.14453709 18.52860008 -0.24067351 8.38464434 23.14652145 8.01467708 -44.93253033 52.85441254 31.93559767 -0.00000197 29.29920493 -0.00000401 38.81179346 12.02122626 31.01476609 -18.03005886 15.68173257 15.93849097 33.22533613 -8.68226782 2.65042353 -2.6605543 -10.31576986 -19.52799273 0.00000241 -0.00000201 -0.00000599 -18.75659353 -10.65650328 -30.65110201 59.76451138 4.56733862 -9.92432388 -28.46113555 -2.30710418 9.20761022 -0.37160647 0.00001134 0.00000285
-0.1038591 1.02663056 0.00789261 -12.98820987 -17.56561943 8.3117177 0.06317454 1.88563492 6.40958377 0.42594136 1.80717327 3.54590679 0.39982908 1.78233516 3.56517121 -13.93707927 1.83050834 3.64896302 -16.5709765 15.60300034 -6.61016581 4.77655426 -15.29968689 -10.36344099 -43.85243059 -14.93761604 -42.86682448 0.00001618 -35.37970158 0.00001729 24.55231253 18.94785409 -1.35770449 8.58236697 22.57602062 8.25863147 -40.3948716 55.24597171 26.58611524 0.00001418 36.52546348 -0.00001443 32.95228051 9.17750624 29.2067263 -20.33788329 15.51162595 16.15589385 34.61371215 -8.64913241 1.68009097 -2.50068314 -9.51400348 -19.13881945 0.00000122 3.7e-7 0.0000035 -22.12128162 -7.94208811 -30.7656274 62.7571065 4.13483354 -9.93819475 -29.01305057 -2.25094656 9.04583001 -0.59711515 0.00000868 -0.0000076
-0.10310468 1.01891151 -0.00423589 -11.39130678 -18.43461702 9.34502276 0.56042856 1.90698189 6.7288203 0.82450444 1.75469304 3.77778729 0.7989984 1.73389194 3.79604653 -13.62721696 1.97930535 4.01118026 -18.47767648 16.9262559 -6.6428698 4.78659821 -15.05196597 -10.43786831 -40.50838484 -14.2240124 -39.8768966 0.00000337 -41.14848092 -0.00000176 22.45328673 19.72227061 -2.93933293 8.71938666 22.11493784 8.27785286 -37.86047848 56.57984421 22.96066204 0.00001348 43.28076917 -0.00001475 27.86205655 6.45932534 26.87896885 -22.69550108 15.05973155 16.13281186 35.66040187 -8.63749092 1.06407867 -2.1345783 -8.45552367 -18.85478023 -0.00000673 0.00000117 0.00000258 -25.31873324 -5.42018634 -30.40035748 65.07083031 3.47278129 -9.95427394 -29.05793788 -2.2108748 8.91170745 -0.76434431 -0.00000827 0.00000146
-0.10164346 1.01322571 -0.01648158 -9.72400356 -18.87214612 10.19851053 1.15532807 1.77951027 7.07459083 1.29227731 1.5752339 4.02275108 1.27017669 1.55856693 4.03846876 -13.12467999 2.22781712 4.17573033 -20.09691956 18.41250995 -6.79376657 4.81962385 -14.80008518 -10.52579707 -37.48422262 -12.9764125 -37.67808865 -0.000022 -47.04952702 -0.00001893 22.06384559 20.72650662 -3.98215472 8.7066402 21.83108304 8.32125367 -37.41400951 56.78697172 21.56647599 -0.00000158 49.68723345 -0.00001377 24.77124427 3.81738909 23.93180537 -24.97130312 14.35117385 15.91364425 36.19262873 -8.65222167 0.80039131 -1.54239801 -7.32015349 -18.82852228 -0.0000066 -0.00000675 0.00000156 -28.2132146 -3.34347575 -29.64204667 66.69111669 2.54164039 -9.97443761 -28.7192715 -2.19614954 8.79120284 -0.8814576 0.00003079 0.00000353
-0.10015551 1.0097055 -0.02825685 -8.12050586 -18.90732697 10.88061887 1.83938912 1.50440179 7.4220089 1.82561408 1.27875193 4.25603936 1.80948712 1.26676162 4.26792671 -12.6190553 2.5008942 4.19130331 -21.50297364 19.78695388 -6.85347753 4.81804194 -14.51610105 -10.60587042 -35.0202529 -11.2908236 -36.46320101 -0.00001057 -52.92923953 0.00000232 22.32402348 21.86821507 -3.91804937 8.59956303 21.67850613 8.37603245 -38.09137108 56.02301802 21.65233385 -0.00000176 55.88683635 -0.00000591 24.04031956 1.04215164 20.51558834 -26.91939887 13.58727557 15.56693184 36.03394433 -8.64438327 0.76442252 -0.79753305 -6.32687372 -19.1308133 0.00000145 -0.00000596 0.00000424 -30.72609548 -1.8277807 -28.74343401 67.66742427 1.5006088 -9.99580048 -28.15891664 -2.18652984 8.65596919 -0.9354485 0.00001381 0.00001147
-0.09847488 1.00825012 -0.03880594 -6.71274169 -18.70406049 11.35414735 2.62731751 1.19307764 7.74701507 2.43893694 0.96024366 4.47313826 2.42908284 0.95598006 4.48061247 -12.28614346 2.70111554 4.19635447 -22.58942425 20.79133968 -6.83427407 4.75520264 -14.21458859 -10.66026103 -33.08551314 -9.52724409 -36.12114451 -0.000021 -58.51556444 -0.00002337 22.36596254 23.10210487 -2.70454324 8.46822065 21.59506769 8.42854216 -38.99590869 54.65304998 22.22485204 0.00001749 61.74429816 -0.00001851 25.25124872 -2.06243042 16.98639497 -28.41345511 12.90025596 15.16058517 35.33497114 -8.56440513 0.88177647 -0.02201443 -5.55028731 -19.58022497 8.2e-7 -7.4e-7 -4e-7 -32.75859271 -0.82806435 -27.85768164 68.06812593 0.5096682 -10.01486252 -27.45929629 -2.15648754 8.48705019 -0.92045847 3.6e-7 -0.00000142
-0.09573261 1.00858063 -0.04758526 -5.62421591 -18.50708158 11.51994863 3.51100333 1.00491063 8.02674839 3.1261472 0.7472756 4.68301903 3.12007058 0.75619559 4.68644131 -12.21290852 2.77473295 4.27893359 -23.13538257 21.30160937 -6.90274608 4.64507321 -13.95341939 -10.67901687 -31.50831848 -8.02914965 -36.37020767 0.00001482 -63.55425531 0.0000147 21.79350321 24.32628122 -0.73597168 8.34489013 21.52918438 8.47589242 -39.84409689 53.13322387 22.78889446 -0.00000703 66.90039008 -0.00000903 27.59720147 -5.50583288 13.70017644 -29.49334241 12.31752254 14.78334208 34.54457508 -8.43590136 1.13615785 0.68057735 -4.87693963 -19.80946917 0.00000426 0.00000326 -0.00000234 -34.2004156 -0.21593944 -26.99637645 67.94543502 -0.28585745 -10.02862111 -26.63827105 -2.1018803 8.32513506 -0.83383935 0.00000434 -0.00000331
-0.09144357 1.01042496 -0.05473094 -4.6994291 -18.64680795 11.41056469 4.41850779 1.06208546 8.23653332 3.82714156 0.73097277 4.88621728 3.82080783 0.75792593 4.88671572 -12.35096422 2.74594192 4.3974331 -23.01659209 21.38326768 -7.18304008 4.53413287 -13.80875408 -10.66423857 -30.11115167 -6.90048671 -36.92994371 -0.0000289 -67.97872056 -0.00002614 20.70625005 25.41932068 1.36593544 8.21026807 21.45313064 8.52786565 -40.58668731 51.83758 23.21774332 -0.0000828 71.02645439 0.00008245 30.29210021 -9.10947942 10.83202729 -30.35439816 11.87060637 14.58299356 33.92735802 -8.3307051 1.42873925 1.2934295 -4.06753385 -19.63328987 -0.00000442 -0.00000624 -0.00000522 -35.24001186 0.2879614 -26.03096831 67.35917436 -0.78551393 -10.0291255 -25.68442561 -2.02340949 8.21132883 -0.66025343 -0.00000489 0.00000578
-0.08650222 1.01344048 -0.06085626 -3.43165109 -19.40145625 11.28026095 5.23015165 1.37557623 8.35256134 4.44278932 0.91182272 5.06256126 4.43278578 0.95725018 5.06148976 -12.54378913 2.69083854 4.44252349 -22.33660013 21.24020121 -7.61879758 4.4738052 -13.82747104 -10.6297537 -28.77791054 -5.98710832 -37.61910357 0.00004777 -71.88930596 0.00005419 19.50918682 26.3618859 3.02096718 8.03816054 21.37556378 8.59130085 -41.03989745 50.9340699 23.43428635 0.00003667 74.05749456 -0.00001558 32.78856726 -12.6493879 8.38431759 -31.30892117 11.5996725 14.73159534 33.33460604 -8.28900343 1.56401154 1.9011015 -2.92028854 -19.20132955 -0.00000387 -0.00000479 0.000001 -36.45405671 1.04256584 -24.73827558 66.43626314 -1.00737279 -10.0245545 -24.58979164 -1.9158447 8.09727653 -0.4072026 -0.0000181 -0.00000992
-0.08211399 1.01718918 -0.0662328 -1.52683398 -20.63580953 11.34806597 5.85060403 1.82548859 8.36739411 4.89674348 1.19392419 5.18271617 4.88195876 1.25314496 5.18107898 -12.62019435 2.67595359 4.36584428 -21.3839157 21.09632392 -8.00578511 4.47871558 -13.97553214 -10.59277431 -27.45470945 -5.07985702 -38.37017484 -0.00001556 -75.36479704 -0.00001649 18.73478188 27.1929703 3.70701905 7.8645934 21.32731512 8.61369945 -41.03151144 50.33687944 23.38707252 -0.0000091 76.23460193 -0.00000106 34.79460829 -15.96388359 6.32581966 -32.52938754 11.38205822 15.18272929 32.5613655 -8.32684181 1.51990848 2.57791848 -1.42384147 -18.8240937 0.0000037 -0.00000286 0.00000568 -38.19390959 2.0246907 -23.14393683 65.30937989 -0.97723852 -10.01967118 -23.4088753 -1.80593623 7.95831007 -0.15178965 -0.00000924 -0.00001132
-0.07814717 1.02109101 -0.07048307 0.7260604 -21.78562015 11.53122836 6.27751696 2.22811318 8.29947924 5.19233745 1.44052341 5.2287868 5.17412754 1.50719552 5.22672658 -12.49358189 2.71451462 4.23767225 -20.48483504 21.09268412 -8.1445559 4.50190901 -14.12847369 -10.56400028 -26.12091782 -4.15441817 -39.1896437 -0.00003124 -78.31951513 -0.00002644 18.47391559 28.1499037 3.84837834 7.7632058 21.33648158 8.55801406 -40.64359127 49.81170505 23.11907383 -0.00002819 77.9507385 0.00000506 36.19735452 -18.95010346 4.6904379 -33.95812116 10.93554949 15.64151602 31.7446551 -8.45623349 1.54087502 3.27349607 0.2154466 -18.75681725 -0.00001662 -0.00000634 0.00000335 -40.18426472 2.7468005 -21.634232 64.06733174 -0.66608985 -10.01637817 -22.26542216 -1.77941599 7.97734009 -0.0018352 0.00000265 0.00000932
-0.07367907 1.02438117 -0.07307241 2.79853273 -22.45638935 11.58369184 6.59869556 2.45148873 8.181279 5.40686683 1.55630423 5.20121974 5.38765987 1.62722468 5.1980324 -12.19823042 2.77176916 4.18239417 -19.86716774 21.24285073 -7.97338888 4.45843247 -14.13445135 -10.54195884 -24.77993886 -3.41427102 -40.08858796 0.00001478 -80.56202427 0.00002156 18.743784 29.26324431 3.75858821 7.75552467 21.41610502 8.51732751 -40.22221673 49.16443025 22.78958834 -0.00001983 79.52649982 0.00001372 36.98902537 -21.51149085 3.55495965 -35.488708 10.17810218 15.9963829 31.2505119 -7.40852144 1.77777934 3.81367963 0.39287002 -18.95325098 -0.00000717 -0.00000267 8.9e-7 -41.94095785 2.86362438 -20.5873611 62.84310948 -0.06768088 -10.00510542 -21.30235259 -1.89110643 8.3608227 0.0000118 0.000016 -1.7e-7
-0.06847976 1.02684143 -0.07388845 4.36368442 -22.74217594 11.40808093 6.9144151 2.48142537 8.02805629 5.62282936 1.53331759 5.10842512 5.60438803 1.61049133 5.10301563 -11.84419522 2.80626116 4.26502976 -19.60102982 21.45936925 -7.57936929 4.28604647 -13.91028635 -10.51466118 -23.48978871 -3.09835659 -41.03163841 -0.00006638 -81.99662435 -0.00006114 19.37422648 30.47335931 3.86399669 7.84223206 21.54983346 8.49876372 -40.34915674 48.2722749 22.81066364 0.00000792 81.0712825 -0.00001126 37.23256134 -23.53512632 2.94623345 -36.93908005 9.39921868 16.30690287 31.2669201 -6.57806295 2.04693731 4.06743598 0.34244779 -19.13186803 0.00000826 2.3e-7 0.00000436 -43.17724263 2.56958239 -20.17478315 61.75295701 0.76444101 -9.73129224 -20.5756156 -2.02100656 8.93495366 -0.02126616 0.00001258 -0.00000116
-0.06299158 1.0287291 -0.07310826 5.53569087 -22.94435741 11.10542691 7.26044145 2.39350704 7.82807545 5.86434235 1.42826643 4.95592036 5.84707255 1.51665004 4.94726994 -11.53815608 2.80796968 4.43593067 -19.62244172 21.63733329 -7.09713647 3.99046024 -13.48632761 -10.46875709 -22.37248433 -3.25695845 -41.94697762 -4.5e-7 -82.75189187 0.00000183 20.41317664 31.50534502 4.00185012 7.98234339 21.72842078 8.4847837 -41.26199651 47.13702067 23.40506361 0.00001525 82.51542416 -0.00002588 37.05120331 -24.9142388 2.76915095 -38.23431156 8.78271284 16.69148441 31.67314773 -6.04402078 2.18596749 4.00187823 0.34632615 -19.16185544 0.00000147 0.00000161 0.00000209 -43.98717329 2.18548258 -20.04636355 60.76295743 1.58928735 -9.32285466 -19.98455652 -2.10773796 9.48639848 -0.03571686 0.00000431 5.1e-7
-0.05752088 1.03025978 -0.07101172 6.67195099 -23.19618799 10.81248772 7.60221048 2.27121297 7.55964522 6.09708175 1.30328938 4.74763243 6.08062299 1.40652543 4.73534284 -11.33183427 2.80217952 4.57363248 -19.80863483 21.72873895 -6.60606732 3.63670694 -12.9651628 -10.40240587 -21.55067647 -3.72155268 -42.77068517 0.000021 -83.09208746 0.00002122 21.90222827 32.11919819 4.02107812 8.12596422 21.94895252 8.45086947 -42.65620762 45.83593039 24.38850998 -0.00003621 83.75518182 0.00004235 36.61315499 -25.58631918 2.80703707 -39.51349028 8.18779389 17.12279033 32.30761558 -5.46970236 2.25348606 3.6882765 0.39518375 -19.19855659 -0.0000038 0.00000409 -0.0000058 -44.68502989 1.87805496 -19.80792241 59.80057078 2.2082191 -9.0272065 -19.39737607 -2.17104192 9.96895818 -0.02985656 -0.0000049 -0.00000223
-0.05199697 1.03138214 -0.06790818 7.92550219 -23.36999023 10.56447171 7.89465023 2.15122823 7.21270096 6.28310119 1.18744711 4.49248096 6.26715294 1.30558887 4.47688205 -11.21785227 2.82257738 4.57359526 -20.05423807 21.745878 -6.11663985 3.30255353 -12.44302989 -10.3293377 -21.07703925 -4.27621591 -43.46642718 -0.00014067 -83.20977028 -0.00014723 23.58830953 32.36254159 4.32181426 8.23647083 22.18784927 8.39025791 -43.97578643 44.47146796 25.36819215 -0.00001101 84.75225364 0.00000315 36.09858616 -25.56345204 2.78909398 -40.92529836 7.45067132 17.4808885 33.10741399 -4.80504767 2.34743199 3.24803549 0.46865282 -19.36650791 -0.00001367 -0.0000015 0.00000936 -45.41994639 1.65222881 -19.52433022 58.87350479 2.6406035 -8.75853871 -18.81078979 -2.22228674 10.42353451 -0.0335985 -0.00002357 0.0000069
-0.04642579 1.03214241 -0.06399665 9.11681916 -23.28792443 10.29755705 8.13771398 2.03167042 6.80056049 6.42798831 1.08243551 4.20586671 6.4126775 1.21282531 4.18766148 -11.15448781 2.88316668 4.4025437 -20.30877071 21.70907034 -5.62067699 3.037634 -11.96457708 -10.26957062 -20.92596364 -4.83548501 -44.01052793 0.00010243 -83.13813101 0.00010612 25.47182957 32.24380869 4.77012867 8.29031839 22.39477121 8.31688103 -44.84798363 43.11385889 26.12106392 -0.00010665 85.51205976 0.00010356 35.65764508 -24.95965169 2.48248874 -42.38754214 6.65779859 17.70750958 33.99725895 -4.30883623 2.4443039 2.760296 0.55174945 -19.58313977 -0.00000283 -0.00000452 9.7e-7 -46.02834122 1.39403058 -19.39372558 58.00251232 2.91991856 -8.46388319 -18.30101233 -2.28984151 10.94096928 -0.05806338 -0.00001589 0.00000552
-0.0409521 1.03284615 -0.05925853 9.98596993 -22.97974744 9.9321764 8.37342593 1.91188356 6.35766321 6.57466479 0.98790806 3.90564483 6.56016573 1.12750864 3.88558358 -11.09904619 2.97247675 4.08765519 -20.57060518 21.6049334 -5.12394868 2.85235664 -11.52914817 -10.2362789 -21.02343426 -5.46218114 -44.38134468 0.00012654 -82.87390651 0.00014517 27.51971421 31.83995069 5.18655103 8.27079787 22.52758718 8.24525031 -45.25351553 41.75455487 26.74700861 -0.00009884 86.02241967 0.00009113 35.36988071 -24.00701884 1.76348148 -43.65568425 6.01087255 17.84873058 34.90579527 -4.1755876 2.48731028 2.22619992 0.64188935 -19.69234779 0.00000791 -0.0000053 -6.7e-7 -46.26782082 1.02273056 -19.45854034 57.17401726 3.07140219 -8.18805414 -17.89082349 -2.36840198 11.48779249 -0.10809431 0.00001887 0.00000101
-0.03537057 1.03386978 -0.05372149 10.47331364 -22.65442653 9.46430104 8.63715452 1.81131055 5.9228893 6.75696851 0.91405821 3.60708412 6.74312545 1.06093112 3.58556268 -11.03738397 3.06640696 3.68019638 -20.8587303 21.39272798 -4.63482268 2.73080548 -11.12130752 -10.23176226 -21.27553035 -6.23934612 -44.57582209 -0.00006599 -82.5399664 -0.00006333 29.60881251 31.26052928 5.43413252 8.17164065 22.58550855 8.17411381 -45.38429459 40.33589165 27.50298716 -0.00007758 86.26810003 0.00006905 35.21123365 -23.03111482 0.63757771 -44.59800894 5.59619637 17.98071006 35.82825673 -4.3308381 2.45882339 1.65323326 0.73414587 -19.58361012 0.00000515 -0.00000474 0.00000453 -46.10933431 0.51244617 -19.65208632 56.31848546 3.25190842 -7.97674441 -17.49806058 -2.4251065 11.94442366 -0.18760381 0.00000878 -0.00000233
-0.02936652 1.03540245 -0.04770121 10.75641191 -22.44903192 8.94989385 8.91940835 1.75444789 5.51463594 6.96409926 0.87482173 3.31735545 6.95045025 1.02761679 3.29450512 -10.99251772 3.14052951 3.24484409 -21.17919795 21.0477327 -4.15426286 2.64998871 -10.73640469 -10.24872374 -21.59580082 -7.14031119 -44.62715948 -0.00000167 -82.38061355 -0.0000024 31.53541182 30.61203198 5.47405757 8.00912944 22.59499277 8.09788306 -45.42044408 38.84018086 28.53559786 -0.00014332 86.31460445 0.00014223 35.04448695 -22.36400584 -0.79658937 -45.31424103 5.34136571 18.13824898 36.74782922 -4.575277 2.37815144 1.1051073 0.81370127 -19.24642919 -0.00000355 -0.00000739 0.00000338 -45.72942223 -0.11601675 -19.91229536 55.33639784 3.628385 -7.80604509 -17.04073588 -2.45906648 12.34003148 -0.25022838 -0.00002184 0.00000258
-0.02348532 1.03706413 -0.04153433 11.10552551 -22.29391326 8.4298418 9.17596847 1.74635912 5.11321453 7.15058325 0.87460204 3.02991816 7.13661434 1.03149159 3.00565781 -10.99938971 3.17472151 2.87000571 -21.5073574 20.59981434 -3.69206204 2.58820151 -10.38263382 -10.27295737 -21.92771565 -8.02107822 -44.59288035 -0.00007368 -82.59783479 -0.0000592 33.07931269 29.97547546 5.37548091 7.82906009 22.5683058 8.02997783 -45.44433452 37.35325982 29.77351285 -0.00002863 86.34146218 0.00000302 34.66049438 -22.2233867 -2.4247174 -46.06853041 5.07216282 18.33173087 37.66327265 -4.79347567 2.2946219 0.60598934 0.876703 -18.78644962 -0.00000697 -0.00000605 -0.0000017 -45.32045718 -0.73473848 -20.10002145 54.23583668 4.03872276 -7.64857208 -16.58333143 -2.53268784 12.94693181 -0.19479664 -0.0000171 -8.6e-7
-0.01873328 1.03821259 -0.0352771 11.66800349 -22.07463472 7.8991921 9.37058143 1.76441372 4.67137467 7.27749809 0.9018166 2.7256897 7.26289146 1.0604304 2.69986525 -11.06165336 3.15807879 2.64619104 -21.80299519 20.1245038 -3.26486382 2.52206763 -10.06079667 -10.28599322 -22.24312858 -8.72901235 -44.53055742 -0.00011525 -83.2036438 -0.00011095 34.07850954 29.39506599 5.28473687 7.6908681 22.49168214 8.00216957 -45.49620429 36.03556461 31.04653359 -0.00003705 86.53750126 0.00003285 33.87101927 -22.62053574 -4.19815745 -47.04513021 4.66013046 18.59577583 38.62120553 -4.99341524 2.24466911 0.09594484 0.93886479 -18.36687291 -2.2e-7 -0.00000302 -0.00001019 -44.96896006 -1.18968581 -20.0320911 53.15201645 4.13116505 -7.52351497 -16.24366053 -2.68732288 13.91831812 -0.00636569 -0.00001549 0.00000561
-0.01504193 1.03879311 -0.02889545 12.34429729 -21.83144645 7.36123175 9.50277516 1.77291148 4.15144369 7.34092673 0.93376197 2.38628989 7.32569768 1.09206962 2.35868042 -11.13004542 3.09723668 2.59647678 -22.0471315 19.67806201 -2.84884962 2.42834268 -9.7523066 -10.27003635 -22.52322705 -9.21748194 -44.48829193 0.00007689 -84.01337 0.00009245 34.47703748 28.87231849 5.36734573 7.62887525 22.3572424 8.03352566 -45.62489699 35.00155125 32.27042185 -0.00033464 86.92893527 0.0003426 32.61408601 -23.34588589 -6.16015683 -48.10879877 4.15697189 18.91376211 39.59789225 -5.15942619 2.24462229 -0.48644915 1.02034294 -18.15585447 0.00001725 -0.00000256 -0.00000431 -44.67360215 -1.49403273 -19.74189324 52.18344986 3.91260591 -7.43885447 -15.97789603 -2.85890678 14.96127561 0.00000221 -0.00000101 0.00000568
-0.0113864 1.03924271 -0.02256741 12.95828148 -21.66511645 6.8907117 9.5960696 1.74759685 3.55998204 7.36408821 0.94942881 2.01066427 7.34844979 1.10639063 1.98114486 -11.12657705 3.0182864 2.62452649 -22.25888992 19.22659403 -2.34238595 2.29735885 -9.43680205 -10.21840262 -22.75469315 -9.56503348 -44.50586303 -0.00006958 -84.75966131 -0.00006213 34.332189 28.36969553 5.74158217 7.62334803 22.19179591 8.10405583 -45.8573613 34.20227456 33.51446366 -0.00004998 87.31569781 0.00003508 31.01254783 -24.04092309 -8.39034654 -48.99989359 3.71380536 19.17322104 40.48243023 -5.21627856 2.28221054 -1.12053855 1.12510985 -18.20968818 0.00000494 9.2e-7 0.00000451 -44.43450088 -1.77442951 -19.49554199 51.32461565 3.73126476 -7.36095395 -15.65986343 -2.95954204 15.70236658 0.00000874 0.00001098 -0.00000305
-0.00716676 1.03973198 -0.01651574 13.51555786 -21.53175013 6.55661042 9.66919697 1.68818908 2.94192211 7.37057235 0.94140586 1.61798475 7.35482266 1.09650121 1.58667273 -10.99681043 2.95550984 2.55121576 -22.46668279 18.65310293 -1.61319605 2.14433947 -9.11405306 -10.14232688 -22.9544191 -9.89516194 -44.60953874 0.00004701 -85.237933 0.00005819 33.78467863 27.8335797 6.42877565 7.6109043 22.03913503 8.16559712 -46.13688544 33.44302299 34.90583014 0.00021646 87.40459982 -0.00024837 29.34632404 -24.33424772 -10.91422786 -49.75177704 3.35617564 19.28349903 41.25610342 -5.16927378 2.29431725 -1.70898339 1.22828405 -18.33159534 0.0000072 -0.00000188 0.00000212 -44.31225864 -2.10623093 -19.50057959 50.54340259 3.77831335 -7.22433521 -15.27218895 -2.9823489 16.10559719 2.1e-7 -0.0000198 -0.0000065
-0.00266853 1.0401722 -0.0108386 14.08641578 -21.33332149 6.32315819 9.72510119 1.6132157 2.34886946 7.37024308 0.91691279 1.23340178 7.35461125 1.06895148 1.20076634 -10.74917666 2.93611896 2.22021025 -22.67034915 17.86323497 -0.61744112 2.00231476 -8.7945996 -10.07039576 -23.19530567 -10.27071074 -44.79985152 0.0001092 -85.40764426 0.00011688 33.00466358 27.23001418 7.34519619 7.5261098 21.91152819 8.18020806 -46.30355569 32.56559728 36.46871126 -0.0007286 87.02682706 0.00073212 27.93150783 -23.99025965 -13.66681643 -50.53210624 3.0031848 19.25990844 41.98830795 -5.12284574 2.24378213 -2.17242932 1.29709411 -18.2449707 0.00000467 -0.00000218 9e-8 -44.29525382 -2.47366825 -19.70305985 49.80928636 3.93130702 -7.01896642 -14.88000684 -2.97518369 16.36277329 0.0000027 0.00000306 0.00000151
0.00151775 1.04057037 -0.00572424 14.60819714 -21.12702649 6.11469145 9.76309388 1.54047866 1.80870351 7.36545534 0.88665756 0.87170307 7.35013863 1.03302148 0.83850709 -10.4505255 2.97123906 1.59017293 -22.83603266 16.89393131 0.51231947 1.90107167 -8.47625613 -10.03114738 -23.58847145 -10.64281077 -45.04473862 0.00024927 -85.40040714 0.00025695 32.13448184 26.57127486 8.34126049 7.33948918 21.76342964 8.15069772 -46.15676744 31.64250507 38.046101 0.00047777 86.24381496 -0.00049067 26.96192156 -22.99805055 -16.5348275 -51.29201886 2.6393596 19.18294815 42.70177257 -5.13644452 2.17873547 -2.50630307 1.32359743 -17.88765178 -0.00000667 -0.00000509 0.00000599 -44.25286763 -2.79545615 -19.87561431 49.10596938 4.01352833 -6.85137779 -14.52709586 -2.97160244 16.62174019 0.00000679 -0.0000012 0.00001175
0.00506873 1.04100594 -0.00138749 15.02720595 -21.04094279 5.92268961 9.7905737 1.47124766 1.31702857 7.36060183 0.85352963 0.53311477 7.34598729 0.9908628 0.50025209 -10.17997559 3.05109453 0.76062312 -22.91287832 15.90935863 1.50307712 1.84752493 -8.15237349 -10.03471345 -24.20107126 -10.88810873 -45.28742159 -0.00013957 -85.42295035 -0.0001411 31.25996828 25.9116753 9.26465622 7.07454966 21.52059525 8.11779259 -45.57902419 30.96490525 39.36873683 -0.00026383 85.27308856 0.00025886 26.42205797 -21.55767872 -19.4029505 -51.91172828 2.30890101 19.12838351 43.35130992 -5.17277477 2.14239117 -2.74094347 1.32240932 -17.40191291 0.00000759 0.00000204 -0.0000017 -44.14006709 -3.0070384 -19.87586766 48.43842183 3.99941188 -6.80531867 -14.21272985 -2.97146382 16.88286064 -0.04670194 -0.00000116 -0.00000453
0.00790455 1.04153999 0.00217134 15.39368572 -21.08251354 5.75625221 9.81833003 1.3946507 0.84960928 7.3618808 0.81466831 0.20993238 7.34824728 0.94101724 0.17807795 -9.97488572 3.14351711 -0.06944315 -22.84886475 15.08568478 2.10049439 1.8235584 -7.84793583 -10.06109254 -24.96589341 -10.90339097 -45.47131197 0.00001752 -85.61491654 0.00002006 30.42848359 25.31520355 10.01074497 6.80253068 21.14474886 8.13153314 -44.60544412 30.78451374 40.20564986 0.00009066 84.34827648 -0.00009926 26.14020448 -19.98258079 -22.13808232 -52.39488789 2.01956375 19.13160815 43.87644179 -5.16227473 2.13766376 -2.89950649 1.31315509 -16.9850196 -0.05420603 -0.00000107 0.00000253 -44.02466845 -3.1410485 -19.73500647 47.81035641 3.95654921 -6.82419433 -13.92276968 -2.96036166 17.07022344 -0.08941382 0.00002855 -0.00000954
0.00999871 1.0421891 0.0050208 15.72119541 -21.15718002 5.58048836 9.85104185 1.30774276 0.38198307 7.37247964 0.7733777 -0.1050792 7.3596477 0.89024469 -0.13594511 -9.81344431 3.20420994 -0.69358252 -22.61688641 14.49707238 2.23603965 1.80129327 -7.62550365 -10.07388912 -25.68492096 -10.67954629 -45.58041438 0.00008367 -85.97416368 0.00009767 29.69711759 24.81691173 10.53854108 6.60949854 20.67786502 8.21995274 -43.36485375 31.04992628 40.49073268 0.00002977 83.6478456 -0.00005091 25.93313986 -18.58076179 -24.55083128 -52.76919342 1.74405783 19.16880286 44.2498757 -5.07220044 2.18419599 -2.99103992 1.30704281 -16.74761487 -0.24452218 0.00000231 0.00000176 -43.92833876 -3.28727448 -19.55549559 47.23602521 3.93915776 -6.80113663 -13.65058573 -2.93137207 17.14168769 -0.12877796 1.5e-7 0.00001468
0.01141282 1.04276215 0.00719642 15.94269462 -21.19760124 5.35403281 9.88798681 1.22671455 -0.0931066 7.39171887 0.74327694 -0.41394016 7.37895106 0.85555958 -0.4446483 -9.64753447 3.20224686 -1.00619876 -22.25023192 14.09483076 2.06541899 1.76403212 -7.53742334 -10.04799245 -26.14182078 -10.29728141 -45.66786447 0.00029295 -86.40601419 0.00028336 29.15991689 24.40331436 10.85610157 6.54433928 20.22086736 8.37205494 -41.97540625 31.40938294 40.36289091 -0.00002274 83.30143321 0.00002914 25.72788456 -17.56495612 -26.41285317 -53.05845766 1.46238063 19.2090541 44.56098918 -4.94856098 2.29127018 -2.9928064 1.29665584 -16.623934 -0.40161746 0.00001368 -0.00000484 -43.82121236 -3.49962478 -19.41707862 46.78212735 3.98060704 -6.69470166 -13.42134531 -2.89199506 17.11393613 -0.16795805 0.00002987 9.7e-7
0.0122395 1.04300301 0.00875261 16.03663034 -21.22020759 5.08155219 9.92880708 1.17271234 -0.55850587 7.41669546 0.73579589 -0.71138007 7.40298458 0.8491589 -0.74322495 -9.44744864 3.14209957 -1.06257034 -21.84405479 13.76795559 1.84557297 1.71510154 -7.57727016 -9.98851969 -26.22409066 -9.86029906 -45.83183825 0.0001217 -86.82858483 0.0001479 28.91866629 24.02403195 10.99694455 6.5878747 19.86455035 8.54565295 -40.49308501 31.47229782 40.08952536 0.00005195 83.39215333 -0.00005056 25.58048615 -17.01270675 -27.54776445 -53.30689409 1.18543715 19.28213472 44.91569096 -4.87167893 2.41528374 -2.91317922 1.27494013 -16.49818253 -0.6145981 -2e-8 -0.00000177 -43.71028254 -3.75981398 -19.32469175 46.50311361 4.08884776 -6.53115203 -13.2780791 -2.85486802 17.02200951 -0.19896341 0.00003901 -0.0000045
0.01245907 1.04298286 0.00969826 16.05750283 -21.26556795 4.80824563 9.97388921 1.14658276 -0.97879755 7.44203307 0.74429549 -0.98440326 7.42670759 0.86173767 -1.018268 -9.21707459 3.05999688 -1.03753283 -21.49040894 13.41738915 1.7543837 1.66972795 -7.68662941 -9.92069718 -25.96148799 -9.43500314 -46.14998637 0.00020701 -87.22741533 0.00021665 29.02841921 23.58389087 11.03052701 6.6755509 19.63714497 8.6947266 -38.9148877 31.06230528 39.91286648 -0.00010556 83.92850091 0.00008493 25.5989023 -16.87314071 -27.92475926 -53.49267523 0.9542183 19.42464021 45.24041482 -4.87511749 2.51477763 -2.85741024 1.25714337 -16.37016422 -0.90527574 -0.00000559 -0.00000223 -43.6151445 -4.00934024 -19.22112877 46.35667761 4.21319938 -6.36401173 -13.23830771 -2.82804459 16.8998698 -0.20182814 0.00000704 -0.00000618
0.01179018 1.0431958 0.00978557 15.99045804 -21.31609211 4.54116074 10.02062373 1.12466195 -1.31279256 7.45993626 0.74395147 -1.21532798 7.44334899 0.864312 -1.251025 -8.98303126 2.99569098 -1.10272743 -21.19465801 13.00314747 1.79524705 1.64014722 -7.80230308 -9.86804491 -25.46954272 -9.03792121 -46.63571486 -0.00009711 -87.63460029 -0.00009094 29.48043392 22.90194718 11.09851795 6.74836577 19.50872767 8.79591428 -37.21284095 30.25472867 39.93598598 -0.00010073 84.83417655 0.00008479 25.8490363 -17.0141501 -27.6686036 -53.4915209 0.80107192 19.61057631 45.33279242 -4.93299121 2.62263405 -2.80072911 1.24518719 -16.33722205 -1.08903689 -0.00001826 0.00000274 -43.44309869 -4.23361236 -19.04034473 46.22832986 4.26280464 -6.24221933 -13.29602847 -2.81523894 16.77382836 -0.16363148 0.00002641 0.00000838
0.01032252 1.04392303 0.00913548 15.77799168 -21.2876845 4.20843426 10.06464648 1.07660472 -1.53535063 7.46466047 0.7100978 -1.38867564 7.4478922 0.82951664 -1.42505702 -8.78366731 2.96615854 -1.31477062 -20.86608505 12.5569501 1.84031489 1.62901996 -7.89266724 -9.83918602 -24.85952008 -8.65772461 -47.24930041 0.00017345 -88.08501434 0.00017598 30.15808633 22.0670141 11.19678913 6.78371199 19.43230454 8.85339216 -35.3797294 29.23822318 40.1285936 -0.00016332 85.98727875 0.00015618 26.32016825 -17.28978779 -26.97679236 -53.26011526 0.71183921 19.80625005 45.14702607 -5.08672902 2.77154238 -2.70716149 1.22819644 -16.39419546 -1.19398162 -0.00000514 -0.00000233 -43.08442203 -4.52385656 -18.81756519 46.04029404 4.23154909 -6.11957568 -13.41652189 -2.80760967 16.62105963 -0.11034183 -0.00002303 -0.00000138
0.00821113 1.04515167 0.00785161 15.39784682 -21.17460805 3.79415779 10.10390704 0.99106622 -1.6485339 7.45624944 0.63831206 -1.49733316 7.44053691 0.75299662 -1.53305418 -8.65982707 2.96217607 -1.59896212 -20.39804766 12.15912127 1.75052085 1.63259028 -7.9596851 -9.8297836 -24.18709437 -8.28241909 -47.93704204 0.00046759 -88.59301003 0.0004787 30.93038861 21.2485675 11.26549816 6.79155249 19.37745952 8.8844321 -33.44718858 28.1664384 40.41047286 0.00014215 87.27633966 -0.00015073 26.95642741 -17.59025491 -26.02051649 -52.79767322 0.70847476 20.02847423 44.70554107 -5.37313292 2.94416918 -2.59710027 1.20685014 -16.50623567 -1.21116526 -0.00001263 -3.1e-7 -42.51695906 -4.89176919 -18.56892783 45.78723227 4.13150649 -5.98193689 -13.57768897 -2.79996442 16.43234487 -0.05960826 -0.00002329 -0.00000428
0.00579814 1.04675835 0.0061703 14.86690003 -21.03336021 3.32009852 10.1404906 0.88319285 -1.67912206 7.44065803 0.54757908 -1.54617783 7.42670879 0.65572379 -1.58043572 -8.63821541 2.9638733 -1.82636322 -19.76229971 11.89190849 1.47205565 1.6455645 -8.01979018 -9.83127956 -23.46149399 -7.9126049 -48.65865918 -0.0006031 -89.15321201 -0.00059158 31.71951075 20.52071618 11.28478747 6.79272664 19.33596053 8.90497848 -31.46512813 27.10730734 40.72073374 -0.0002091 88.62780448 0.0001995 27.70088223 -17.85328983 -24.90641409 -52.13920035 0.81647816 20.30385686 44.08733673 -5.78339254 3.10918883 -2.51256115 1.18969629 -16.62884051 -1.13576372 -0.00000905 -0.0000019 -41.7707251 -5.2979775 -18.29407342 45.47335888 3.99293994 -5.84136165 -13.73997215 -2.78785119 16.21823671 -0.02606045 0.00000561 -0.00000772
0.00358768 1.04845574 0.00450904 14.275392 -20.96389827 2.8458024 10.17868739 0.78058727 -1.66516549 7.42582282 0.46527615 -1.55082922 7.41364803 0.56713638 -1.58361828 -8.71599062 2.95717918 -1.90949465 -19.02921817 11.79611717 1.05086972 1.6636547 -8.08577395 -9.8373971 -22.6826694 -7.55911866 -49.39169915 0.00123893 -89.74988904 0.00125491 32.48842733 19.91202693 11.24818495 6.80164459 19.30872147 8.92368683 -29.47258821 26.07464484 41.03407191 0.00000217 89.99625123 0 28.51148337 -18.05204635 -23.70001101 -51.40168287 1.01987405 20.64338395 43.45181341 -6.23519977 3.23661191 -2.49096763 1.18776071 -16.71714206 -1.00089782 0.00000456 0.00000398 -40.96215031 -5.66505687 -17.98896441 45.12216492 3.86701604 -5.72517829 -13.85796898 -2.76922816 16.00850382 -0.01286222 -0.00002085 0.0000041
0.00178819 1.0500621 0.00309333 13.69635683 -21.00392018 2.4043343 10.22104675 0.70221212 -1.63928214 7.41655665 0.4082937 -1.5312606 7.40569458 0.5051774 -1.56311083 -8.86220519 2.93957556 -1.8456279 -18.3045068 11.85319208 0.57668793 1.68398399 -8.16059574 -9.84413512 -21.86419823 -7.23296429 -50.12460575 179.99490834 -89.6353056 179.99490522 33.22866983 19.39987117 11.17274424 6.82139295 19.29372242 8.9437552 -27.48521294 25.07219827 41.34493557 -179.9999557 88.62928656 179.99994107 29.35568635 -18.18389499 -22.45606173 -50.67754505 1.27482078 21.03117673 42.89399718 -6.66086638 3.32505986 -2.53019367 1.20267126 -16.76151194 -0.84789645 0.0000067 0.00000313 -40.17877705 -5.96103368 -17.65851893 44.75524087 3.7801567 -5.64218499 -13.92157626 -2.74565002 15.82016122 -0.01201235 -0.00001299 0.00000262
0.00033841 1.05156456 0.00192561 13.14099679 -21.11870929 1.98961977 10.26856015 0.65900422 -1.62307955 7.41510943 0.38540847 -1.50342614 7.40484718 0.47888957 -1.53512976 -9.04437271 2.91361189 -1.66328681 -17.68210969 12.02916327 0.13049332 1.70459162 -8.24248765 -9.85022396 -21.02322118 -6.94185133 -50.85136139 179.99939531 -89.0175553 179.99939127 33.94204989 18.9502636 11.08074506 6.85002371 19.28747422 8.96557989 -25.50608282 24.10258519 41.65401794 179.99998535 87.27498562 179.99998869 30.21010779 -18.25417725 -21.2160778 -49.98627938 1.54727992 21.43826972 42.41457963 -7.04855806 3.39055073 -2.60483666 1.22708237 -16.77724904 -0.69676536 -0.00001097 0.0000043 -39.43023399 -6.21038028 -17.3216386 44.3799504 3.731027 -5.58118445 -13.94499798 -2.71980879 15.65435325 -0.01485373 0.00001692 -0.00000482
