HIERARCHY
ROOT Hips
{
  OFFSET 0 1.1673769999999999 0
  CHANNELS 6 Xposition Yposition Zposition Xrotation Yrotation Zrotation
  JOINT Spine
  {
    OFFSET 0.000003812944337411511 0.10717500000681812 -0.009311
    CHANNELS 3 Xrotation Yrotation Zrotation
    JOINT Spine1
    {
      OFFSET 0 0.1058532983696241 -0.004285186608692496
      CHANNELS 3 Xrotation Yrotation Zrotation
      JOINT Spine2
      {
        OFFSET -8.470329472543003e-22 0.10599345671141647 -0.007812688101110094
        CHANNELS 3 Xrotation Yrotation Zrotation
        JOINT Neck
        {
          OFFSET -8.470329472543003e-22 0.26240299999999994 -0.04488100000000002
          CHANNELS 3 Xrotation Yrotation Zrotation
          JOINT Head
          {
            OFFSET -4.235164736271502e-22 0.17466899999999996 0.05625600000000003
            CHANNELS 3 Xrotation Yrotation Zrotation
            End Site
            {
              OFFSET -4.235164736271502e-22 0.10756799999999966 0.021070000000000005
            }
          }
        }
        JOINT LeftShoulder
        {
          OFFSET 0.10574399999999999 0.23009199999999996 -0.07323000000000002
          CHANNELS 3 Xrotation Yrotation Zrotation
          JOINT LeftArm
          {
            OFFSET 0.14878212914559852 -0.04653266654569688 -0.030693304075147546
            CHANNELS 3 Xrotation Yrotation Zrotation
            JOINT LeftForeArm
            {
              OFFSET 0.24109000000000003 2.220446049250313e-16 -5.551115123125783e-17
              CHANNELS 3 Xrotation Yrotation Zrotation
              JOINT LeftHand
              {
                OFFSET 0.316792 0 -1.1102230246251565e-16
                CHANNELS 3 Xrotation Yrotation Zrotation
                End Site
                {
                  OFFSET 0.06265729429771016 -0.10569948639925819 0.03859412819617963
                }
              }
            }
          }
        }
        JOINT RightShoulder
        {
          OFFSET -0.10574399999999999 0.23009099999999982 -0.07323000000000002
          CHANNELS 3 Xrotation Yrotation Zrotation
          JOINT RightArm
          {
            OFFSET -0.14878040829228295 -0.04653159475972379 -0.030692917709113934
            CHANNELS 3 Xrotation Yrotation Zrotation
            JOINT RightForeArm
            {
              OFFSET -0.24109000000000003 -6.661338147750939e-16 -2.7755575615628914e-17
              CHANNELS 3 Xrotation Yrotation Zrotation
              JOINT RightHand
              {
                OFFSET -0.31679300000631333 -8.881784197001252e-16 -5.551115123125783e-17
                CHANNELS 3 Xrotation Yrotation Zrotation
                End Site
                {
                  OFFSET -0.06265795211397429 -0.10570764472283312 0.03859362014678265
                }
              }
            }
          }
        }
      }
    }
  }
  JOINT LeftUpLeg
  {
    OFFSET 0.12297511767165623 -0.06742078536803264 -0.010003
    CHANNELS 3 Xrotation Yrotation Zrotation
    JOINT LeftLeg
    {
      OFFSET 0 -0.457033849483632 0.010304509991859542
      CHANNELS 3 Xrotation Yrotation Zrotation
      JOINT LeftFoot
      {
        OFFSET 0 -0.500280623664138 -0.036905110570505176
        CHANNELS 3 Xrotation Yrotation Zrotation
        JOINT LeftToeBase
        {
          OFFSET 0.025950805788189563 -0.14255151365608373 0.19507593811975638
          CHANNELS 3 Xrotation Yrotation Zrotation
          End Site
          {
            OFFSET 0.010732117804750613 -0.000035441498015504746 0.11362327680684622
          }
        }
      }
    }
  }
  JOINT RightUpLeg
  {
    OFFSET -0.12297488233495055 -0.0674172146317622 -0.010003
    CHANNELS 3 Xrotation Yrotation Zrotation
    JOINT RightLeg
    {
      OFFSET 0.00000159348816348992 -0.45703784846455486 0.01030460015485039
      CHANNELS 3 Xrotation Yrotation Zrotation
      JOINT RightFoot
      {
        OFFSET -0.0000015934881634621645 -0.5002806236608007 -0.03690511058134042
        CHANNELS 3 Xrotation Yrotation Zrotation
        JOINT RightToeBase
        {
          OFFSET -0.0259497668227143 -0.14255297441554501 0.19507500887383716
          CHANNELS 3 Xrotation Yrotation Zrotation
          End Site
          {
            OFFSET -0.010733201844058626 -0.000035030229497263656 0.11362417898958707
          }
        }
      }
    }
  }
}
MOTION
Frames: 101
Frame Time: 0.03333333333333333
0.00407433 1.05273903 -0.00946438 11.29045898 -18.24797935 0.17657927 2.6047655 -0.54493693 1.83519573 7.29758384 -1.13365993 1.43335422 7.30784471 -1.02091594 1.46140786 -5.37031903 3.25443749 -2.33527495 -22.22212147 14.07475851 -1.01412452 0.71366829 4.10286459 -11.93135262 -5.83761563 -20.33268643 -54.74198669 15.4388188 -83.84203052 15.44066343 20.55547235 -0.09027849 25.55696893 2.07822175 -6.50972137 8.30453343 -17.35831231 21.60537274 70.49003127 -77.05124559 79.26915294 82.07987194 18.83561977 4.6646664 6.76466669 -46.20810928 7.31300309 24.74370451 43.10233476 7.30885354 1.597525 -5.35585511 1.93046599 -18.45352733 -0.43201881 0.03933328 0.25765338 -38.45833958 -10.13610332 -16.68669943 42.93370347 -9.9868915 -1.52007961 -9.56388034 -2.42083694 17.50153235 -0.74884392 0.03732559 0.01807821
0.00175754 1.05445663 -0.00723826 10.07335282 -16.41708727 -0.05535555 3.1111593 -0.52686758 1.6221887 6.84846967 -1.05019334 1.29174591 6.8579605 -0.94813526 1.31821044 -3.98223881 3.01422513 -2.16259042 -21.01655463 12.93372391 -0.41061304 0.96985437 1.55824359 -13.24192368 -5.57542668 -16.88782263 -54.71214178 42.99651664 -81.40424187 43.01653741 18.45565148 -2.46037385 21.53704529 2.44160801 -4.57236154 9.09403616 -16.12929041 18.51756618 69.55052433 -72.13112663 82.81920831 76.62381635 16.09927617 4.14809691 9.52691062 -45.25655707 7.83200162 24.00537389 42.36752099 5.6539028 1.75028598 -4.96096195 1.82095378 -17.63705552 -0.32656646 0.08580506 0.99183672 -36.7326968 -10.10004513 -16.69275902 42.99969738 -11.96720791 -2.18446216 -9.5900084 -2.46593699 17.96194875 -0.92841037 0.0145047 0.19356724
-0.00063095 1.05694183 -0.00487117 8.63221415 -14.36729063 -0.20007296 3.62358883 -0.44612296 1.34029599 6.33917843 -0.93607821 1.11066079 6.34790382 -0.8475273 1.13382545 -2.20097008 2.72924314 -1.95644672 -19.23457557 11.55948066 0.31783097 1.12975866 -1.25924998 -14.67717499 -5.37428149 -13.26144321 -54.6001292 56.75374676 -77.66670616 56.76695629 15.8811936 -4.66901242 16.89098652 2.66295309 -2.10690898 10.50370085 -14.45378872 14.79470665 67.76913736 -59.72950274 86.66173056 63.76319515 13.26675246 2.7496403 12.4528957 -44.08017667 8.45672638 23.13157613 41.53404097 3.78111537 1.89089601 -4.24434396 1.66150598 -16.68399699 -0.28238063 0.12840331 1.99268587 -34.71825834 -10.17305324 -16.90015585 43.04488583 -14.02279467 -2.74360768 -9.61493937 -2.50350202 18.2946764 -1.11741947 0.08930077 1.02785948
-0.00314059 1.06004593 -0.00275835 7.04353734 -12.15080288 -0.30270027 4.25054289 -0.4324615 1.05968059 5.83383601 -0.84214732 0.93605401 5.84160469 -0.76633176 0.95755496 -0.2277971 2.48539496 -1.85595288 -16.66557855 10.17197791 1.41763995 1.19578279 -4.12721671 -16.27515916 -5.28666256 -9.55308062 -54.22116196 64.58486119 -73.56966768 64.6094959 12.89672309 -6.40494508 11.88587656 2.66908563 1.08597733 13.22423177 -12.51541738 10.49646308 64.36045275 71.44879149 88.51932636 -67.71176162 10.40006084 1.00402081 15.51011652 -42.70480084 9.08053689 22.18046043 40.56893285 1.83011484 2.05194366 -3.29316892 1.48137365 -15.74822607 -0.3438985 0.25058713 3.12658273 -32.52109522 -10.38738769 -17.16824262 43.13497384 -16.14955118 -3.20048912 -9.81166431 -2.55713043 18.48978837 -1.37540812 0.09634575 2.10891878
-0.00573308 1.06349983 -0.00147836 5.5334734 -9.80743922 -0.42545805 5.041745 -0.13698999 0.70765267 5.32116737 -0.58992933 0.81375468 5.32677486 -0.51276136 0.81902718 3.7529349 2.65289738 -1.75089457 -16.19585784 14.7754509 2.35838754 1.07640553 -5.73233885 -16.19315335 -5.94311049 -7.44702338 -55.72110201 67.45378828 -68.77945526 66.77549369 9.66743615 -8.06258893 7.26355699 3.46828526 3.77815153 16.91741611 -11.37501381 6.83499042 59.96966858 100.55276415 84.6073353 -97.58794113 7.51356113 -0.22065131 17.44182498 -41.42018204 9.67403178 21.35710568 39.48992525 -0.28424824 2.14887317 -2.18034985 1.29468964 -14.82254977 -1.05377934 0.23747764 3.28948748 -30.24414307 -10.65705069 -17.33610143 43.07968341 -18.41953933 -3.42287735 -9.84827475 -2.57864828 18.60181187 -1.70541273 0.02256536 2.92488147
-0.00795401 1.06694664 -0.00110155 4.44500368 -7.27893106 -0.63709749 5.70791711 -0.21348039 0.49232884 4.8013168 -0.56666735 0.5559424 4.80716537 -0.52219354 0.56849858 6.57224625 3.23993178 -2.11767294 -13.48018536 17.93609163 6.07916776 1.11377108 -7.64008112 -18.33622291 -6.28104925 -4.1462177 -55.17519255 72.75562931 -64.35443483 72.42091247 6.23604972 -8.95107092 2.16563388 2.87415808 8.7412011 18.52370766 -9.15417416 1.40566868 57.4899908 102.63540902 81.6328816 -100.74466212 4.13480704 -0.60480863 17.07022766 -40.56588142 10.05643927 20.56721367 38.29804304 -2.49217855 2.28895617 -1.00450183 1.12246782 -13.8653266 -1.54746818 0.13210849 3.06172105 -28.15678434 -11.20344677 -17.49119836 42.78062902 -20.6446065 -3.2496642 -9.72369693 -2.58056118 18.74264256 -1.97585783 0.08677472 3.26075084
-0.00900182 1.07089066 0.00013323 3.80702531 -4.32653163 -0.91561969 6.71574931 0.15302559 0.27467576 4.39547303 -0.29984238 0.42911044 4.39980097 -0.26247942 0.42509936 4.42439806 2.58611282 -1.93676947 -3.23680946 13.97750692 8.1599159 0.89161773 -9.25218085 -18.62352991 -6.62963597 -1.70631449 -56.40371878 75.14673016 -60.62000173 74.75454372 2.70401485 -10.93467296 -2.26795805 2.18202123 9.37412715 18.36185106 -7.4256277 -2.75198817 57.78220297 100.65178338 79.68690723 -98.00512405 0.9026686 -1.01063178 16.7329347 -39.9170387 10.17174931 19.39730008 36.80915792 -4.76855904 2.64356938 0.11829119 0.99878274 -12.805526 -1.87259729 0.18905315 2.60010175 -25.87045926 -12.00697085 -17.6984821 41.85392685 -23.08835443 -2.71867417 -9.26929763 -2.57962897 19.44072123 -2.40883592 0.16498193 3.34228666
-0.00840786 1.0768367 0.00591351 2.97598386 -0.82053194 -1.08117575 6.28485194 0.41623892 0.24659268 3.59052957 -0.06755485 0.43831089 3.59218856 -0.0212807 0.42130314 3.76932743 1.50914459 -1.8298194 4.22464324 8.10653082 9.44283333 0.53798239 -11.70836086 -20.68653568 -6.01278461 1.80637232 -54.91370996 74.23566314 -59.01876551 73.0359275 -1.13014268 -12.80091061 -8.43864212 1.88920743 13.79583621 15.67812634 -3.45346876 -9.63342456 61.23062672 95.4144577 76.26962061 -94.85841009 -1.43355083 -3.2400083 19.97544724 -38.28143645 10.20287167 17.65101346 34.69131227 -7.13119981 3.06218164 0.92437811 0.93119248 -11.80806523 -2.01024571 0.78086536 2.27103876 -22.40179016 -13.91977794 -18.64525916 39.83916084 -24.75068961 -1.49034192 -8.58535183 -2.57990411 20.58714154 -2.98201345 1.00733177 2.84665773
-0.00634765 1.08560745 0.01917489 1.14718673 2.85650569 -0.89287936 5.44303847 1.59014827 0.60735128 2.60109793 0.51153402 0.44245136 2.60239972 0.54807736 0.38853352 4.88462053 0.31233379 -1.63255051 13.92952416 1.35218885 8.88385735 0.01753279 -13.88036119 -23.74528842 -5.61574048 5.13113484 -51.96138127 71.58087015 -57.49500606 68.75603117 -5.45654302 -14.05471348 -18.03300641 1.89668637 13.30567963 14.64999701 0.52977393 -14.16084533 64.12383514 91.96564635 70.39532113 -92.89965466 -2.49278501 -7.07838674 27.58741763 -34.79379158 11.05072121 15.80627941 32.03762059 -10.17267648 3.56071382 1.13391498 0.9284259 -11.21976808 -1.19774307 0.68242456 1.93684626 -16.57787916 -16.74300237 -19.417013 35.83275146 -26.03128431 -0.55236068 -7.54643353 -2.53577753 22.14968591 -2.93930207 1.59765025 1.37172039
-0.0032568 1.09490287 0.03919106 -1.5965291 5.92858169 -0.23228992 4.20931988 2.25388605 0.87229824 1.58117494 0.86073812 0.4519256 1.58369139 0.89298922 0.38144525 7.03636055 0.07098364 -1.96343087 20.999837 -1.60569451 7.5363542 -0.38316031 -14.61450478 -25.28153215 -4.28679733 9.66306955 -49.26105341 70.72138122 -56.38594608 66.8813469 -8.91576069 -13.1335183 -27.93310743 1.69591971 12.88927899 15.66490523 3.70812435 -17.93219542 64.89745591 91.01004871 64.75887135 -93.2761126 -2.67948047 -10.48823614 36.02701255 -29.96559298 12.37564349 14.29847125 29.75438833 -13.30956993 4.01527556 0.60787795 0.98905388 -11.21255282 -0.34732089 0.63740417 2.1982503 -8.97046256 -19.72904567 -19.23527603 30.16184356 -27.29576602 -0.42557337 -6.52611589 -2.42672321 23.16746947 -2.21988439 1.64903449 0.54561964
0.00049238 1.10047081 0.06260693 -4.33229099 7.86740736 0.80325669 2.20593451 2.40419735 1.38239369 0.41593207 0.99817644 0.67217649 0.4148699 1.04065864 0.60559383 7.85627658 0.54937859 -3.07241288 22.31979642 -0.64914388 4.75426219 -0.41586301 -13.82673496 -24.37997767 -2.12285191 14.68749764 -47.13878076 70.59860752 -56.19663553 66.01412044 -11.10293081 -11.22671992 -34.89233449 1.15169259 16.81078702 16.22879433 7.92287126 -23.54446653 66.04186314 92.60090017 62.74027393 -97.08622569 -2.92269021 -13.32423749 40.1949489 -25.49054545 13.32527187 13.11836981 29.0857572 -15.46222935 4.43567092 -0.83639492 1.12003484 -11.56794931 -0.77765081 1.04211876 0.8752654 -1.65825937 -21.83588151 -18.49652776 24.7896197 -28.84484317 -0.7742511 -6.39767429 -2.38480677 23.1283974 -0.28314769 1.03647705 1.12552063
0.0044114 1.09944206 0.08669498 -6.38853033 8.9110746 2.04166548 0.52868935 3.10162767 1.72302026 -0.46676517 1.3492473 0.804658 -0.47137641 1.38778105 0.734193 6.49564043 0.99051199 -4.34865533 18.92263708 2.23451595 2.85480552 -0.06304658 -11.13727218 -21.56461879 -1.76779433 17.60810095 -44.77418149 71.75613223 -55.05504204 66.59468811 -12.4695646 -9.68152347 -39.15198432 0.76852061 18.13237257 17.5297314 10.37340991 -28.03693111 64.69286489 99.68452065 65.44283923 -104.42426186 -3.87430145 -15.04224983 39.69397694 -22.72606634 14.03413704 12.24736061 30.71579287 -16.94817708 4.89223312 -3.29870503 1.38035311 -11.84054859 -0.74421663 1.09745578 -0.91329547 3.57806993 -22.90913246 -18.19226458 21.78872256 -30.62992209 -1.36176552 -7.7340066 -2.62902156 23.14902245 0.127566 -0.02786739 0.45561669
0.00815059 1.0916301 0.11043591 -7.83103937 9.96544815 3.27913216 -1.07974515 4.30996982 1.95089301 -1.08251369 1.88703597 0.72042634 -1.07661039 1.91544874 0.65191133 4.71014077 1.34859954 -5.47686981 12.82236391 5.07368574 1.38684399 0.14918902 -8.80758275 -19.88027481 -4.9257225 18.63222998 -38.72255919 71.612042 -53.06959071 66.08764827 -12.97040475 -8.6753936 -39.95139116 0.47094806 17.95599422 18.26486812 11.87033973 -32.03971161 62.67956675 112.16701453 70.60528641 -116.51295711 -5.42147152 -14.66839295 37.34729528 -21.85310651 14.71310729 11.7813128 34.5650187 -18.46183825 5.19199042 -7.15113021 1.58184856 -10.40150949 -0.97831751 1.00833665 -0.89574307 6.86074397 -24.2729625 -18.95194459 21.05726243 -31.33351596 -1.72761631 -8.65388963 -3.00190433 25.07971591 -0.31347155 -0.68953847 0.9899547
0.0112949 1.0785202 0.13338669 -9.05734702 11.88956782 4.34181912 -2.29349249 5.02876174 2.14755605 -1.49968069 2.20872238 0.72396301 -1.48655709 2.23560743 0.66372182 3.38494674 1.62614871 -6.29294339 4.60903333 8.18738074 -1.81135072 0.3324034 -6.89326451 -18.16089306 -10.23222043 16.9922621 -31.50874375 66.83402532 -51.06948806 59.9883031 -12.847618 -9.71819215 -34.81055975 0.37474747 18.37279715 17.230927 12.91443588 -35.61965891 61.91938555 129.55659374 75.36248289 -134.18791149 -6.92464826 -12.57511425 34.86354682 -22.38585993 14.96202225 11.8492739 39.64543342 -20.61831777 5.52722688 -10.53566893 1.65395614 -8.93389764 -1.35245878 0.78986255 -0.72460154 9.47426912 -25.83855879 -19.60208604 21.82110697 -32.06380919 -1.91086059 -9.38553476 -3.3834321 27.57804653 -0.75608233 -1.11235137 1.31603058
0.01343455 1.06170242 0.15546544 -10.31013822 14.81460869 5.21680495 -3.0441109 5.44166191 2.3570447 -1.7483244 2.38686799 0.82734106 -1.73553747 2.41406743 0.77106529 2.73433815 1.67505443 -6.98369832 -6.88952502 11.66700489 -4.63571147 0.43881832 -5.97380147 -16.45202729 -16.23536746 12.86248944 -24.88198621 56.31049616 -49.19346507 47.35175497 -12.10502106 -13.03281606 -24.8108126 0.63286118 19.63034719 15.09363691 13.84023316 -39.15549106 62.50840063 147.46084304 77.8326895 -153.4951248 -8.05201565 -11.01680153 30.85062939 -23.84684897 14.88543208 12.33591379 45.34115066 -23.61648034 6.26189844 -12.86199666 1.66934694 -7.89675701 -1.86270683 0.37183294 -0.39000755 12.09484816 -27.04999048 -19.42102472 23.90049258 -33.68871216 -1.87397396 -10.35429313 -3.86184722 29.81298389 -1.10476093 -1.3245419 1.46889181
0.01433276 1.04285362 0.17732517 -11.56920513 18.10775741 6.11045211 -3.48883461 6.33450925 1.82406324 -1.95103137 2.75439568 0.69701362 -1.94843018 2.77039958 0.6341049 1.66951379 1.22555838 -6.67841716 -19.01001918 14.34870424 -7.31984863 0.48158655 -6.02849681 -14.41622791 -22.17121589 6.54126043 -19.84532083 42.22324157 -45.82999229 31.9304104 -10.66770135 -17.18781076 -13.61028794 0.85349206 20.49417306 13.77306397 14.79929348 -42.58273733 62.46745548 152.52806188 78.69694419 -160.220857 -8.94191616 -12.24334272 23.78287883 -25.65287353 14.46591002 12.6614191 51.4415205 -26.25019865 7.35338301 -15.09255186 1.46896961 -5.87930037 -1.33905576 0.00691181 -0.03206795 14.23902427 -28.44646403 -19.01989141 27.36571218 -35.44348775 -1.56038024 -12.40592532 -4.68015439 31.57636951 -1.29925663 -1.32405965 1.45501134
0.01403206 1.02410242 0.19997427 -12.75777179 20.85981448 7.15815606 -4.14320507 7.85910623 0.59154079 -2.2562462 3.37984221 0.25625513 -2.26923917 3.37447925 0.18284718 -0.86663204 0.85203074 -6.48734417 -27.17102369 14.41815938 -6.89246677 0.48181276 -7.27198168 -12.86375749 -27.88336922 -0.59902876 -15.67733336 28.39533081 -39.10756146 18.38280841 -9.06449543 -21.47263389 -4.9243605 0.87907686 22.58591881 12.78985871 17.99837736 -45.90869311 64.35573028 131.36165317 77.41749744 -141.91800268 -9.92256719 -15.52422517 16.07278776 -27.14111835 13.60780914 12.58162703 57.22260101 -27.62972097 8.43603969 -16.99060751 1.1907982 -3.87498055 -1.53553611 -0.28478566 1.14066449 15.88060704 -30.06333524 -18.96705758 31.08392801 -36.54889772 -1.05470527 -14.57377987 -5.48234299 32.44460084 -1.72414602 -1.28969995 1.39749779
0.01230981 1.00695938 0.22383101 -13.87829389 22.47197998 8.2127357 -5.06574623 9.6097707 -0.82485346 -2.65600865 4.09690557 -0.30909665 -2.68588596 4.06884899 -0.38711535 -3.42253735 0.53872287 -6.22825779 -34.69267232 13.99178787 -5.99727945 0.53195053 -7.74149407 -11.18094716 -33.2884138 -8.47927011 -13.54937579 17.27468829 -28.67413856 8.78623033 -7.92344775 -26.32423702 -0.20750436 0.99245264 26.61063045 11.28953792 23.18676491 -48.03406449 69.512308 105.41175615 71.81171454 -120.08804907 -10.27751029 -18.53879556 12.79685222 -28.01210172 12.94554359 12.76062251 62.11745532 -28.2693823 9.17014666 -18.50958811 0.90732552 -2.2936858 -3.36226767 -0.44295003 1.14764149 17.27043515 -30.98599831 -18.90700988 34.41804761 -37.62495782 -0.95757173 -16.62807594 -6.10330959 32.49115083 -2.47811384 -1.55195331 1.55848728
0.00902442 0.99145852 0.24823807 -14.87498644 23.00793171 8.96897399 -5.49886843 11.36657999 -2.17472436 -2.80108906 4.8244101 -0.91092544 -2.83592173 4.78793379 -0.98292918 -5.9089663 0.01867876 -5.84915729 -41.54618439 11.38700688 -4.74291469 0.58286001 -7.72259333 -9.82684359 -37.61571359 -14.13477937 -11.35971821 6.2772443 -20.99455205 3.13293521 -7.85959237 -30.03049772 -0.01371904 1.26738456 27.58365634 10.00547548 23.59096902 -47.15316493 71.03233322 95.37008018 66.52679088 -111.56178462 -9.37655688 -21.39985394 14.92482075 -28.66957429 12.49374232 13.62904667 66.58842968 -28.63678041 9.83492093 -19.70804156 0.80148996 -1.79104205 -5.40938358 -0.60425914 1.32380999 18.38487974 -31.11204146 -18.53344204 37.32595219 -38.93070239 -1.48542182 -18.54773096 -6.49094112 31.75415826 -3.53408429 -1.88374602 1.74718464
0.00471687 0.97667801 0.27203175 -15.56581479 23.00501952 9.28599273 -5.93040885 12.84531731 -2.93335238 -2.90909553 5.4477822 -1.26592243 -2.94456374 5.41430707 -1.31969823 -8.5184917 -0.72389624 -5.23421552 -46.79843318 7.24885187 -4.95616569 0.61837299 -7.21737714 -8.77001512 -40.35380049 -17.03847176 -9.484681 -5.96646916 -15.86847875 -0.13119245 -8.96013169 -32.59504759 -3.23858436 1.75248237 27.7234959 8.46129504 21.92869629 -44.60507818 71.29315229 96.27980576 66.64541002 -111.89104716 -8.25067208 -23.06558729 17.95605828 -29.51999122 11.72804619 14.82075177 70.8650959 -28.47125317 10.43503871 -20.35473782 0.79886659 -1.93430695 -8.19555265 -0.81825572 1.92910304 19.22488297 -30.14093585 -17.81819046 40.35404459 -40.4079363 -2.17751439 -19.59643765 -6.73771144 31.50220857 -4.91254758 -2.26503523 1.94001358
0.00012822 0.96140511 0.29450623 -15.91580734 22.92183715 9.34394984 -6.39942349 13.48556642 -3.43143414 -3.06002325 5.71164006 -1.51986279 -3.08966517 5.6836205 -1.55972985 -10.60300275 -1.32834176 -4.71518564 -51.24321341 3.06973702 -4.99825288 0.62721766 -6.30397029 -8.12437648 -40.82416983 -14.85258426 -6.43563468 -18.40993709 -17.07313944 -3.12721157 -10.1010536 -32.07760812 -6.58923261 1.8639753 27.83137475 8.14615348 18.08237328 -40.75779883 69.41914287 104.11943736 70.93023791 -117.35897488 -8.66103372 -22.0298506 17.10159023 -30.7310256 10.16094542 15.67728906 75.14057612 -27.51677595 10.86024877 -20.25044252 0.92305969 -2.60874576 -11.31876668 -1.07123046 2.12536223 19.30377948 -29.14096565 -17.437807 43.99328135 -41.2698847 -2.73889056 -20.07197029 -6.89204695 31.40089587 -6.78741832 -3.0459513 2.37836161
-0.00439738 0.94437331 0.31567712 -16.15763006 22.79315958 9.40969817 -6.8288437 13.67808315 -3.64911849 -3.19912713 5.78726469 -1.69362641 -3.21019143 5.77041059 -1.72659417 -12.03509268 -1.87060672 -3.84202734 -54.30412225 0.03583277 -5.79962037 0.62124056 -5.4877119 -7.83694644 -39.84375963 -10.36065501 -2.7318001 -28.89355288 -18.07125704 -6.30228107 -10.74812699 -31.8279644 -8.56282807 1.6982632 27.96615891 8.64951354 13.644166 -35.8874222 67.00327835 116.8131365 75.1159563 -126.95248871 -9.85270395 -19.81859246 13.3223187 -32.25287462 8.16379909 16.29387465 79.60719199 -26.46964425 11.02073033 -19.33985543 1.11275438 -3.44258241 -14.02363479 -1.1433767 1.25937486 18.67465639 -28.24058804 -17.605414 48.47928592 -41.92787591 -3.1542957 -20.16671066 -6.88580757 31.01839885 -9.61814705 -4.17940215 3.66719053
-0.00890369 0.92406457 0.3354861 -16.43950402 22.37524217 9.57552137 -6.6999138 13.69673192 -3.51284181 -3.12197594 5.79805662 -1.72992776 -3.10695588 5.79380077 -1.76836187 -12.71556535 -2.0689097 -3.49723211 -55.81186429 -1.42931808 -5.29456186 0.59682467 -4.03187185 -8.02947738 -38.22315723 -5.5471942 0.41133225 -36.14453247 -16.24565657 -7.4889955 -11.21546903 -32.46224261 -9.76062901 1.64248651 27.42091764 8.90850762 8.88359117 -29.53852694 64.75597456 129.95710963 76.85075206 -136.74796314 -10.68270525 -18.32984604 10.22117321 -33.83748857 5.8471567 16.56663109 84.30825498 -25.3690794 10.98734602 -17.97416775 1.33738719 -4.46073487 -16.92444513 -0.49651623 0.07828954 17.21432629 -27.24984904 -18.54704461 53.98825058 -42.07619572 -3.70691978 -19.85910679 -6.75605184 30.52975669 -12.81815666 -5.06597913 4.1490893
-0.01368762 0.89871992 0.35384385 -16.53783576 21.51731757 9.74549752 -6.24955719 13.81608473 -3.2796415 -2.93225048 5.858453 -1.70195001 -2.89693359 5.86052295 -1.75190072 -12.63983589 -2.06228426 -3.21239131 -55.56006967 -0.78103101 -4.52683096 0.56812965 -2.07522161 -7.98523178 -35.82639528 0.27796807 1.83512024 -39.56484687 -13.89735274 -6.91582471 -11.01621623 -32.0948747 -9.26415883 1.53442029 27.34443981 9.35603097 4.49868607 -22.84631582 63.51168074 135.76249727 76.57831674 -140.29214501 -10.79226674 -17.54065728 9.94473668 -35.66609962 3.15117902 16.52652646 89.24402286 -24.10176937 10.64032811 -16.42538867 1.59561931 -5.83493103 -21.43673678 0.70562646 0.00981539 14.51433032 -25.42212309 -20.1201275 60.98633004 -41.67980389 -4.46704813 -19.37253488 -6.55545816 29.85195579 -15.41526857 -6.48263127 3.84409245
-0.01913782 0.86675035 0.37081268 -16.14876418 20.31178847 9.80935689 -5.66588632 14.27935203 -3.18836891 -2.73324627 6.06953401 -1.76282761 -2.67177396 6.0729791 -1.84041546 -11.9183359 -1.97977874 -2.98036358 -54.02555867 1.29033438 -4.31077985 0.53020003 0.16020013 -7.82800661 -32.28510269 7.61220412 1.39224572 -38.31988384 -13.42760525 -6.59363173 -9.90639721 -29.50895307 -6.42391816 1.24311269 27.94692086 10.22385739 0.75282033 -16.85123201 62.83430978 139.26530969 75.79288046 -142.12821754 -10.4691056 -16.72587939 11.57749674 -38.01842071 -0.16117731 16.36706193 94.45050301 -22.65324928 9.75209878 -14.87936129 1.91673239 -7.80187403 -25.98710899 2.13710234 -0.15290951 10.31966136 -22.36111852 -21.96910384 69.78647349 -40.91142858 -5.18441494 -18.82256752 -6.26101334 28.70313825 -18.61142459 -8.18211981 4.44580786
-0.02527425 0.82779058 0.38630593 -15.2872528 18.98726538 9.78946692 -4.81959973 15.0953 -3.19631295 -2.46956113 6.4358696 -1.83877824 -2.38830763 6.43014916 -1.95831426 -10.93976334 -1.91506491 -2.60405004 -51.3179033 4.42784704 -4.58369934 0.45343974 2.44196393 -7.05054791 -27.4187824 15.18969175 -2.32692001 -30.14656279 -12.71885789 -4.83205477 -9.14389805 -25.5327641 -4.44409544 1.17697628 28.70314489 10.3479297 -2.47507601 -11.34444153 62.99005761 145.61500527 75.0336483 -146.8403598 -10.07594843 -16.08915447 13.40512143 -40.62209298 -3.85657687 16.26597971 100.1837768 -21.05154312 8.48767306 -14.38950054 2.13747658 -9.04558058 -28.71686203 3.3190738 -1.55886857 5.08348997 -18.00944169 -23.4266582 80.03387568 -40.56290062 -5.51295462 -17.61389104 -5.74905511 27.17018717 -21.33071081 -9.46709761 4.74251705
-0.03146856 0.78248849 0.39979683 -14.15347576 17.71367037 9.77833089 -3.61203673 15.85877309 -3.39983129 -2.15411202 6.77254327 -2.03720639 -2.04165853 6.74297159 -2.23686182 -9.78330065 -1.86809795 -2.00598836 -47.95653321 7.63340002 -5.23466494 0.44272437 3.89286459 -7.40115966 -20.65826838 23.87021496 -7.17421898 -16.45435025 -14.47307692 -3.62916646 -8.97143495 -18.49431764 -4.86418135 1.09163379 28.92593217 10.48712244 -5.51413418 -5.57362588 63.42930951 154.24396978 74.46586779 -153.56613255 -9.69818786 -15.93434438 14.86971959 -42.32653681 -9.5504657 14.25895212 106.04865041 -18.2590363 6.73316131 -15.1112329 3.02548662 -11.84122524 -30.57443495 4.7437555 -3.80505678 -0.84749184 -13.42353533 -24.94453695 90.92358876 -40.1033544 -5.25442352 -15.86469079 -4.96535345 24.87852988 -24.27967906 -10.44204316 6.572098
-0.03704155 0.73185985 0.41109017 -12.78383728 16.45545352 9.75968565 -2.25398949 16.29645007 -3.49087891 -1.78108827 6.97374757 -2.11117946 -1.65945678 6.91331003 -2.38648644 -8.45070723 -1.77385623 -1.39814124 -44.01277883 10.79456825 -5.96752875 0.46917409 4.98124564 -8.05395865 -11.51917322 31.15780931 -14.92544911 -0.79119553 -16.63373112 -3.00714986 -9.1507246 -10.10394102 -8.46505987 1.24741066 28.64537479 10.01096681 -8.19349742 1.00232654 64.29367229 160.79260852 73.94946014 -158.13850579 -9.41898451 -16.1639853 16.07309482 -43.93402221 -15.81845573 11.80173281 112.27537377 -15.73438127 4.78508171 -15.88823758 4.1185737 -15.25066554 -32.07624057 7.3667102 -7.86197887 -6.66408776 -8.82368573 -26.1739663 101.42121183 -39.62387136 -4.59337476 -14.4127918 -4.14739178 21.99577936 -27.09925552 -11.16513561 10.09142258
-0.04167117 0.67565995 0.42083748 -11.1246123 14.93780858 9.57209224 -0.70098008 16.06447873 -3.07084395 -1.27358792 6.90202964 -1.92839089 -1.15421442 6.82191521 -2.25719159 -6.7839957 -1.55658266 -0.92177138 -40.42688652 13.95621241 -6.59150532 1.48709104 7.40847471 -8.30922875 4.50349536 30.65189121 -28.73154798 6.57566613 -18.83930588 -6.13408078 -8.69980331 -1.07060569 -12.31726165 1.64431776 28.04056536 8.63547071 -11.27643722 7.74472244 65.76165511 164.22412235 73.49633249 -159.05574787 -8.83931245 -16.39073083 18.25571634 -45.50207615 -22.80440561 8.85009859 118.93510041 -13.18046855 2.71304812 -16.50399072 5.43294416 -19.17253095 -34.97460641 10.28423241 -12.97962102 -11.72626295 -4.6004054 -26.77111722 110.79442856 -39.71148434 -3.99212567 -14.54006776 -3.58266027 18.69189506 -29.14234434 -12.08668463 14.06418088
-0.04555466 0.61300642 0.42955285 -9.45717129 12.55661168 9.16965896 0.88600331 16.12072241 -2.22667425 -0.63107441 6.96019749 -1.58643598 -0.49863522 6.8797258 -1.94593775 -5.20497486 -1.42573345 -1.13230642 -37.43116221 15.11896054 -6.66092643 2.81802636 8.62717178 -10.00583291 17.97577357 27.0760247 -38.35006895 8.2953023 -28.6322747 -14.78733592 -7.02102045 12.25753017 -15.11208281 1.66637956 27.06014914 8.62928489 -14.17583339 13.41654646 65.7808634 169.38868109 72.85577115 -161.92723632 -8.21710607 -15.51897651 21.57033312 -46.20726129 -29.8536989 6.96778366 126.08889872 -11.01833805 0.60076895 -16.58873499 6.57930452 -21.84719183 -37.77764156 13.41986451 -19.68202087 -16.13196093 -0.7993074 -26.76061955 118.94608386 -42.42315633 -3.68780585 -15.11600572 -2.8327529 14.22685241 -31.04033068 -13.71946604 17.01136611
-0.04779806 0.54698944 0.43579845 -8.33846134 8.68143241 8.77234358 2.62410884 16.29926902 -1.53911585 0.09369438 7.0779121 -1.31215561 0.23879662 6.99439643 -1.69835933 -4.02017423 -1.44690128 -0.84462021 -35.00766709 15.98279087 -6.66680841 4.04326663 11.12308518 -10.34986998 23.54907236 20.24482855 -42.53323108 3.59943811 -36.63365382 -33.06822424 -4.34608152 24.70887643 -15.75561793 0.16674089 29.43099383 13.31029255 -15.28820241 15.34323323 61.05758596 -178.70025142 71.91482845 -172.30266211 -8.25605281 -12.04226611 25.65606621 -44.81272452 -35.2238795 6.67172737 133.36308398 -7.09870987 -1.22569244 -14.27428933 6.56500639 -21.57828901 -39.12061015 17.28770449 -30.15601151 -21.07655731 3.61359049 -25.63131101 125.89994809 -49.11693611 -3.70277832 -12.42253212 -1.3132346 7.41006428 -31.77174362 -15.59972406 18.07943832
-0.04674009 0.48777786 0.43609321 -7.46199305 3.56921248 8.83119912 7.08048691 16.22874961 -0.96831629 1.94546486 7.11842177 -0.87105164 2.051574 7.03549314 -1.27281665 -2.59733713 -1.11324832 -1.74616854 -37.58863476 18.84754979 -5.33939732 4.87533529 14.40756042 -9.1153264 19.14186689 6.79514132 -51.69763741 3.49228054 -32.27837925 -43.16071767 -3.58896055 23.98915074 -18.60205247 -0.62130005 26.30336848 17.45717057 -19.33174536 22.97264486 56.50289014 -159.55125223 74.50822552 173.3890214 -9.42118054 -5.89952503 27.93705245 -44.52070672 -35.07994242 2.61368682 139.60429384 3.86252434 -2.26960135 -5.23577024 4.83750918 -17.4366751 -41.89329504 20.62788444 -31.15701298 -28.9196434 7.76555395 -28.94839514 132.0162876 -54.23599495 -3.55196414 -11.72103668 0.62120732 -4.37640047 -38.74338521 -15.21464302 6.01139955
-0.04152232 0.44970523 0.43156335 -5.41913882 -1.00334858 9.53168047 10.62177485 16.66904515 -0.31406598 3.61454047 7.40656503 -1.23024522 3.85286915 7.3082832 -1.53592339 -2.75573922 -1.44906234 -1.69906209 -40.71235553 17.43438871 -8.92750984 5.22718595 15.75462324 -7.70442395 9.8872648 -4.28410622 -56.6994152 7.40742282 -28.47757769 -54.24909308 -6.45746949 11.76388994 -17.81738318 -0.73865175 21.03146709 23.00459064 -20.30636449 29.16424035 49.3852844 -118.27389058 78.51327078 137.91942539 -11.46712213 2.65084885 27.05806149 -46.74649474 -25.37617995 8.70684126 142.48545365 13.60143831 -2.92122186 3.16212948 3.28822131 1.20087828 -43.52986491 22.01451312 -27.11841974 -37.96947544 13.40131658 -27.19054965 136.19917837 -60.53661394 -3.77452931 -9.83120853 1.6971336 -11.87541426 -32.96169893 -12.45145605 -2.73408586
-0.03401529 0.43956063 0.42847969 -1.82269721 -3.48739245 10.37305694 10.9216694 14.2866219 -0.25950243 3.27006771 6.46409331 0.06293605 3.21210655 6.47253405 -0.34391392 -0.41852772 -1.46687388 -3.05889011 -39.71807415 15.53059191 -10.4195281 6.21453464 10.58039858 -12.30906483 16.41455797 -12.10251598 -52.70020081 -2.69818873 -35.17239293 -64.15029885 -9.2542046 -3.60123355 -14.8826822 -0.18607376 19.6300412 21.03507103 -17.93754901 27.35733918 49.32206325 -42.72142085 76.46249336 65.14877933 -14.18635069 12.98599528 25.19994633 -49.57828763 -14.90992618 11.20884174 142.90680847 28.14594869 -2.62041395 4.06848746 1.39728331 9.86432856 -49.74597334 22.60909123 -20.48214629 -45.08665765 17.24096419 -26.85764472 138.13622216 -62.31239957 -3.3068597 -11.05529479 2.23796506 -14.69584089 -27.14447354 -10.23246657 -3.39543713
-0.02617006 0.45270585 0.43209542 1.60532818 -4.45949918 10.34048133 8.66611728 11.75098367 3.5430473 1.85680716 5.35439135 1.4063756 1.80632261 5.48757881 0.89803203 4.1222483 -1.37321578 -3.55750571 -30.62300512 8.71097124 -8.83172911 5.89773027 8.22684374 -12.22892126 20.81099108 -16.23269366 -51.58470901 1.20418988 -39.6138321 -65.1679734 -12.92040369 -13.97174109 -18.97437796 -1.28115131 20.6185588 23.77331658 -11.44696479 19.88374743 43.02946842 -16.32713805 62.2304887 40.60655962 -14.86817752 18.20073414 19.30637384 -48.26747666 -8.82370265 11.10081211 141.03097624 38.08831345 -2.40836358 0.59398583 -0.13935711 7.21840293 -43.22705781 20.95187195 -22.16325505 -47.95628805 17.75252007 -24.76030571 135.98406395 -63.65612292 -4.184635 -12.08165628 1.80701241 -11.5849534 -23.79054167 -8.73109593 -0.25274037
-0.02101629 0.47604956 0.44146536 2.73455542 -5.57251673 9.52542336 4.70582931 7.70485835 6.13443873 0.35234212 3.57964551 2.26674953 0.35512326 3.76541772 1.94317371 8.42898602 -0.02518135 -3.48653168 -13.69686854 2.92643225 -3.94823553 5.37472593 8.32869199 -11.26773544 27.03263537 -14.14835595 -52.18799159 4.52609877 -41.70542522 -63.57486477 -11.02095775 -7.15452722 -27.66271015 -2.75175861 28.38422547 24.34471283 -6.00330194 5.09924311 42.31372931 -11.6408352 48.9814136 29.4647657 -14.70317091 19.28570802 17.63354685 -41.35277952 -6.19684724 11.9179947 137.22903757 39.70169563 -2.34521458 -4.48578243 -0.52692423 1.25551317 -40.05470208 19.40441689 -23.58167632 -46.80224503 15.66657853 -23.11203067 131.38821154 -66.18291687 -5.89286355 -14.698696 1.19629857 -6.62499068 -21.9336682 -8.35505811 8.74336827
-0.0199436 0.49892468 0.45452028 1.08046163 -7.1354035 8.80250823 5.21936846 3.57995837 6.44684076 0.79836457 1.72870716 2.3148549 0.8100839 1.86758645 2.18207777 8.52012591 2.04145421 -2.96993189 6.84623417 -1.99582023 5.60298476 5.16654423 8.47770262 -12.1420257 30.82826984 -14.13415081 -52.86987701 8.87794959 -42.38080282 -55.70748665 -5.94302594 3.49045746 -31.97383596 -1.06766183 20.79418147 25.09755446 -10.03266361 4.83927554 43.52618073 -4.25637473 40.85136386 17.91617466 -14.14323501 13.55322773 18.73501 -31.96706511 -4.36489422 11.48332236 132.34673768 39.6389597 -2.27279295 -7.76752503 -0.89808791 -2.45284737 -40.12052911 18.81317215 -23.61421984 -42.36157748 13.1541483 -22.39455155 126.05158823 -69.01954865 -7.94250481 -17.51162186 0.3918817 -2.12175209 -19.43063012 -9.72621813 16.39951912
-0.02099873 0.51501044 0.47103011 -1.34123459 -8.14845556 8.19598457 6.87008366 -0.20024074 5.91442786 1.24060473 0.08362664 2.15894979 1.23697617 0.23806718 2.14869337 8.91481656 3.35299159 -1.30818114 14.20760915 -5.60802247 14.79373345 4.91888883 8.27634462 -13.09201508 34.78589027 -13.86647729 -52.12705503 11.11833072 -42.29594779 -49.42323889 -4.51277815 11.89935196 -28.63941322 0.8178376 11.09712068 24.59707188 -15.49122513 6.17159604 47.9843438 3.13970927 37.48713827 6.10630208 -13.0626355 6.28381123 17.75923408 -24.40819186 -2.2707861 10.75017331 127.74344079 41.92318722 -2.05082282 -8.32924383 -1.85668691 -2.22766091 -41.4033888 19.50348114 -22.31378831 -36.86024895 10.76004462 -22.5242718 121.03983139 -70.82865283 -9.96931986 -19.13809374 -0.33522752 0.9789133 -14.58651934 -9.83052334 17.32303782
-0.02206972 0.52230473 0.49123399 -2.27639228 -8.26162357 7.24509569 6.8887675 -3.53671634 5.86744818 0.92593155 -1.32414384 2.27120145 0.91532381 -1.09165787 2.3892715 8.30428303 4.07596265 0.94139697 14.74128577 -8.48154555 20.94341767 4.8819175 7.99133441 -14.66128617 41.01903087 -9.53713879 -50.40625239 12.74117687 -44.51921523 -42.82250669 -5.85911699 13.98855959 -26.12813693 1.73826806 4.16997359 22.72105701 -17.97169964 3.28209829 50.44510021 8.15129496 37.80856124 0.46407187 -12.44185248 4.50234581 9.81675367 -20.64064813 -0.23821803 11.25076422 124.36990917 45.85069067 -1.70687517 -7.41526855 -2.59718846 -0.14015904 -43.25434368 20.07237102 -20.02797103 -33.0234601 8.26780262 -22.85738166 117.17969711 -71.43351554 -11.28033542 -19.54769816 -0.53290667 1.93040577 -15.75321269 -9.25047887 16.15081916
-0.02272816 0.52267204 0.51428466 -1.88928212 -8.42363379 5.86989315 5.66799762 -6.85939761 6.09586789 0.09463711 -2.68587538 2.75099035 0.11503381 -2.35877829 3.03119614 6.53682532 4.06501993 2.49103781 15.12227447 -11.1382543 25.04973047 4.83637782 7.721199 -15.95409754 46.10462926 -2.38869849 -51.28251844 22.59976961 -48.23411279 -30.75179738 -8.98287267 8.91631435 -27.47465102 2.26461879 1.23408676 20.13733488 -15.95622069 -1.36283021 49.93848269 11.55365777 41.14097264 -4.41172586 -13.11806437 10.4126642 1.09232383 -19.01242761 1.77106017 12.71596994 121.96584439 50.55649906 -1.30953144 -6.41476306 -3.23613573 1.53297068 -44.81990818 19.96403171 -16.30905642 -30.95929199 6.17037433 -22.6798508 114.32765459 -71.60572393 -11.95283199 -19.28865506 -0.39009 1.37932471 -16.57010859 -8.54072081 14.26409347
-0.02322581 0.5204657 0.53826417 -1.86510664 -9.61630616 4.21814936 5.10037345 -9.2439216 6.44068585 -0.17087329 -3.69714392 3.1032631 -0.11599355 -3.33352673 3.49472469 2.95721079 3.57053157 4.12976665 14.6642388 -13.12031946 26.49556845 4.81663527 6.5916882 -17.3411862 47.62774094 2.90840168 -52.5211983 34.42643967 -48.70321842 -19.25069667 -13.91887253 2.23615026 -29.17063619 2.65275649 -1.93700052 19.10747127 -14.81679314 -2.77467611 45.85050432 14.13094572 41.76712746 -6.73337651 -12.52895968 18.91242102 -4.98125167 -16.65647673 4.71649657 15.31050022 119.5345262 54.44465996 -0.79564118 -6.66590807 -3.74635378 2.21935493 -45.08973604 19.14497237 -12.21111799 -28.87692387 5.01744559 -21.64479095 111.33500692 -71.98206925 -13.02056585 -18.87382254 -0.27790793 0.80748344 -14.4566858 -8.02941671 12.05775432
-0.02356411 0.5202438 0.56179386 -2.76690297 -11.78819357 2.51968525 5.23198496 -10.74170856 6.84220345 0.10197806 -4.37866129 3.19409375 0.15297692 -4.04516277 3.60737698 -0.22695996 2.75170443 5.97227744 12.76831769 -15.04768184 26.54413342 4.64224655 6.14105841 -17.8979528 46.79270265 6.30504575 -53.94161507 34.26278746 -45.73461073 -16.00127897 -14.6181128 1.83489054 -30.21948836 2.92456371 -3.54741569 19.16974651 -16.67470002 -1.11993705 40.08727599 17.30510862 36.29851604 -6.70185407 -11.44576303 22.59229229 -10.82652347 -12.78972494 8.62445506 18.11414792 116.48433399 56.84057306 -0.17174204 -8.05532846 -3.6830103 1.32116693 -43.27218258 17.70087907 -11.1805732 -25.97001563 4.92378072 -20.19458671 108.05569679 -72.18698288 -14.40605245 -18.73518386 -0.28314609 0.89141612 -11.9913844 -7.49035921 9.89819729
-0.02335105 0.52408627 0.58501463 -3.59523423 -14.06775679 1.13433859 4.60244546 -11.45052629 7.1144786 -0.00824862 -4.72011665 3.08623888 -0.00117131 -4.43664473 3.48182376 -1.66856236 1.93075937 7.36478298 9.97116848 -16.37217871 26.44817308 4.43999973 5.71131585 -18.27742888 44.39542763 9.04158453 -53.7368599 23.46677892 -40.32867183 -20.41352239 -11.84701296 7.2477664 -26.17987045 2.9717343 -2.58126781 18.85785712 -18.03957056 -0.03324465 38.34800912 18.28210158 27.08353575 -9.62279205 -11.67368819 21.1015838 -12.19146716 -8.73451601 12.50823415 20.05632501 113.13372721 58.00951492 0.22948056 -9.88272658 -3.03274913 -1.04824737 -38.74174674 15.91573354 -14.33496698 -23.03389117 5.31309416 -19.06036956 104.82355787 -71.69330611 -15.5627578 -18.9150887 -0.40698835 1.44854973 -11.41205958 -7.2383108 9.6934762
-0.0220941 0.53092805 0.60884575 -3.40445896 -15.45396382 0.31816692 2.79902745 -11.36081279 7.36204982 -0.6973588 -4.66564099 3.01147166 -0.73566002 -4.40535992 3.36989386 -2.04037162 1.13720373 7.87994316 6.71867489 -17.06123273 27.6668231 3.86243823 4.8402463 -17.7640999 39.99290572 13.90532448 -53.22173416 23.04262704 -36.20557003 -16.26134359 -11.5722398 11.73740371 -18.18900163 3.21392244 -2.8087652 18.55085405 -17.85917949 -1.64298676 36.39392169 14.42466772 23.4583723 -8.82855054 -12.24052018 17.4366707 -11.32104295 -5.88140964 15.41194513 21.16546687 110.03518151 58.15849191 0.25965979 -11.87424128 -1.96433879 -3.88668736 -35.14905459 14.44470378 -16.61925096 -20.77033674 5.16933128 -18.42082925 100.84726861 -71.19672712 -16.9971194 -18.98023726 -0.58834763 2.18270158 -10.57477264 -7.0219907 9.74230632
-0.01965887 0.53809428 0.6340703 -2.34730248 -15.33666829 -0.01644135 0.42939136 -11.09994628 7.60165673 -1.57730872 -4.51087311 3.02009434 -1.64220711 -4.26060398 3.32810084 -2.38234628 0.66317789 7.84480606 4.12636674 -16.90271226 30.12179251 3.00088409 1.90103946 -17.07620231 34.37097966 20.49894079 -53.81386046 35.99937069 -32.47759123 -2.07736181 -13.17496374 8.48881086 -11.82707407 3.59046402 -5.35291217 18.93847983 -15.20685044 -5.53818038 33.06799204 8.00001402 27.70049277 -5.39265955 -12.87224979 12.21221693 -9.03803924 -4.32416696 16.74973752 21.56194335 107.23682037 58.07626968 0.34423736 -13.6526761 -0.76642586 -6.76624166 -32.77126894 13.47776145 -17.27944094 -18.86929531 3.63902548 -18.76694922 96.56707144 -70.54578071 -18.24790921 -19.09552602 -0.71132632 2.77416869 -8.31116639 -6.33544974 8.25742048
-0.01644345 0.5431702 0.66104385 -1.24776424 -13.75027844 -0.22228355 -2.16247809 -11.1876884 7.8799011 -2.49763391 -4.50245576 3.13309894 -2.57357209 -4.26118691 3.39287518 -2.66501754 0.52419388 7.20358259 2.41426604 -16.51775136 32.48427674 2.0984496 -1.98867624 -16.38793985 28.65224984 25.08634878 -54.24850326 49.3202655 -24.26509658 9.19240072 -13.77670088 -1.88344408 -9.72725976 4.02538644 -7.79424189 18.85614989 -11.04144426 -11.5597809 30.55840977 3.46920803 34.30990266 -2.75810313 -13.4141624 5.76413523 -5.99843863 -3.19943733 16.80308027 21.75671819 104.45440531 57.96813267 0.88738514 -15.2625987 0.57592179 -9.78667087 -30.98209648 12.21568908 -17.43061308 -16.42300354 0.84061938 -19.75935727 92.64611266 -69.70815351 -18.73948518 -19.13321697 -0.84796351 3.32389309 -7.16776882 -5.9951982 7.5813302
-0.01309146 0.54483024 0.68962825 -0.6985661 -11.27954546 -0.56667453 -4.26919289 -11.18003597 7.9446543 -3.21037134 -4.4746654 3.18715706 -3.28928962 -4.24930183 3.40298017 -2.78980615 0.48597506 6.36734006 0.9061988 -16.89909378 33.72988214 1.27043397 -6.42732323 -15.66583089 21.27892668 26.64727076 -51.22999008 55.02530258 -18.03724923 7.60632636 -11.87361725 -13.19189366 -8.18967305 4.45350826 -10.57960675 18.82605168 -7.31334028 -16.91489966 30.0194946 4.7506992 37.51671632 -4.56910435 -13.59683106 0.49804233 -2.37166328 -1.73913167 16.51836425 22.4007371 101.26527637 57.66944616 2.08119872 -16.89673429 1.92280499 -12.7581365 -28.94608896 10.85978576 -17.22778224 -12.99802827 -2.74578944 -20.82593559 89.01004739 -68.77584134 -18.70033023 -19.02405518 -0.9794164 3.92663306 -6.90289031 -5.76134623 7.36771514
-0.00983149 0.54283909 0.7191846 -0.66785002 -8.58878729 -1.04950782 -5.95039213 -10.69148267 7.58251502 -3.76848411 -4.26282542 3.03303088 -3.85036143 -4.05397791 3.20768114 -2.46580875 0.1960205 5.84918602 -0.48713738 -18.78470445 33.73782422 0.59460065 -11.12434149 -15.63224179 15.72784297 27.21044757 -47.7958658 53.73226015 -19.28606237 6.17535274 -11.12423944 -19.56996572 -11.93345683 4.77328301 -12.53402402 19.08146106 -3.10173037 -22.02964775 30.27040272 9.41766102 36.77438587 -7.51011081 -13.53368038 -2.29895518 0.13959314 0.20208633 16.39772812 23.41618386 97.58862203 57.27673041 3.70336168 -18.14963061 3.07106431 -14.94417008 -26.90529691 9.32159926 -16.78802225 -8.90757541 -6.65752484 -21.82488483 85.79420888 -67.57054306 -18.13460888 -18.97424829 -1.09467216 4.43278256 -6.57403559 -5.59023484 7.05870138
-0.0063836 0.53786049 0.74915151 -0.76121504 -6.00622578 -1.54546436 -7.34122929 -9.72103637 7.04651651 -4.15828587 -3.86438823 2.77254071 -4.24075912 -3.67770242 2.89679543 -1.92961573 -0.27642864 5.59057622 -1.58781805 -21.93609482 32.39282977 0.07408259 -14.45157506 -16.177811 10.69543104 25.44897572 -45.01989635 42.94208624 -26.37135343 5.25144983 -12.85745505 -19.40075118 -19.36375464 5.10244944 -14.43412486 19.80857784 1.21778272 -26.76091804 30.64672087 15.432157 34.44464593 -9.09566189 -13.41009741 -3.98943558 1.92539104 2.16205262 16.67395018 24.89633674 93.74276539 56.91841091 5.32344316 -19.02957013 3.63178922 -15.89514259 -24.37408201 8.18905584 -14.507272 -4.60097452 -10.43599417 -22.43042081 82.66038415 -66.30560714 -17.43311823 -18.80667843 -1.18718782 4.9047634 -5.97932627 -5.32956615 6.51000234
-0.00255303 0.5307695 0.77938363 -0.59550334 -3.62199723 -1.95616715 -8.48635457 -9.18019643 6.40283774 -4.46317214 -3.66762577 2.54363424 -4.53534324 -3.51025 2.63527373 -1.20293701 -0.77145257 5.41134671 -1.13461116 -25.73879194 30.80769802 -0.11905431 -15.23363194 -16.47181675 4.98088466 20.13514529 -42.93313969 22.30820471 -34.05926945 -4.7754364 -12.61811703 -15.9680567 -19.82556292 5.42624329 -14.60674373 20.80927486 5.91302908 -31.4148424 31.49393699 21.01308687 32.56064225 -9.27171919 -12.8402241 -6.09393854 4.47446179 3.73850497 17.28378088 26.33691698 89.59635567 56.66490068 7.2066996 -19.46910759 4.02828386 -16.24541004 -21.83542747 6.65739529 -12.76985282 -0.50418988 -13.97842945 -22.86584784 79.90192641 -64.83791505 -16.25292313 -18.68137708 -1.27236401 5.29102882 -5.08131616 -5.05389127 5.85249828
0.00152077 0.52202109 0.80991779 0.1110587 -1.58191081 -2.23811498 -9.54633401 -8.71649365 5.85917368 -4.75117775 -3.50157756 2.33536133 -4.81730416 -3.36565309 2.39871029 -0.60502981 -1.30604018 5.10296339 1.51591164 -29.80547908 30.21268035 -0.1503228 -14.65430928 -17.1422134 1.40996304 13.60923767 -42.72671901 1.04755139 -39.88544407 -17.57375705 -10.6144328 -15.9827572 -13.71673882 5.84759469 -15.72717586 21.85580464 10.25638018 -34.7879132 31.81930122 27.49149714 32.62463878 -8.66327177 -12.00307733 -9.5449795 7.8440108 4.79548497 18.25397012 27.84804741 85.5996915 56.41437703 8.74748937 -19.83471949 4.19471637 -16.4519637 -18.12685543 5.2076769 -9.82558189 3.08480394 -17.03858783 -22.96219536 77.1163754 -63.44352329 -15.0721294 -18.34484546 -1.34808835 5.74610132 -4.08901062 -4.64988507 5.06307495
0.0053585 0.51150575 0.84043651 1.56304643 -0.07811788 -2.34439355 -10.55482696 -8.21318041 5.21461403 -5.03694416 -3.31960928 2.08321456 -5.09616993 -3.20194913 2.12363714 -0.22999596 -1.94038455 4.91572177 4.75579079 -34.27960288 30.0454921 -0.11474257 -13.27563479 -17.79001462 0.72532591 7.35950685 -42.8142672 -14.01268497 -47.15077387 -29.9931338 -6.79743656 -18.91843083 -3.09608847 6.24250556 -17.39540772 22.76280417 11.5110623 -36.70832323 27.57207593 33.89717359 34.6728 -1.45262876 -11.01521634 -13.24005517 8.59438619 5.39603597 19.51818623 28.97633411 81.6785896 56.42661911 9.82596353 -19.86667416 4.19587205 -16.52934888 -12.339993 3.79103728 -4.92869639 5.68208456 -19.65596354 -23.19736109 74.55699213 -61.87229486 -13.85470919 -17.93977449 -1.4500204 6.34786141 -3.27443393 -4.36710877 4.37910937
0.00837892 0.49901322 0.87039618 3.80371905 0.88752453 -2.23269139 -11.85293811 -7.65632594 4.64421728 -5.40343232 -3.10662091 1.83460373 -5.45914611 -3.00241214 1.84563693 0.03705581 -2.54517463 4.75847374 7.24956432 -38.49482659 30.33448522 -0.09932427 -12.1900247 -18.60493526 1.04877294 2.36639303 -41.83720822 -23.75422421 -55.23222682 -42.226416 -1.89332582 -19.3645369 9.58205442 6.75479912 -18.41639016 22.81661375 10.93918423 -36.66759363 22.2716028 38.67142966 36.07624268 9.94512093 -10.45976943 -15.36472119 6.26216651 5.52538167 21.13315927 29.8507193 78.00589746 56.47907878 10.13019802 -19.69059063 3.97519411 -16.08204264 -9.62267199 2.70940822 -2.78575286 7.34503579 -21.45659782 -23.43473805 72.52537935 -60.44662252 -12.41779076 -17.16942432 -1.64417715 7.49219487 -3.0605763 -4.18832866 4.17108053
0.01005661 0.48452529 0.89978296 6.67974522 1.52458843 -1.96569433 -13.04158016 -7.20475088 3.93303637 -5.70706908 -2.95086841 1.51036553 -5.76221659 -2.85386067 1.49230436 0.03986611 -3.01701067 4.72348984 7.86085607 -41.58289382 30.48353858 -0.10042959 -11.35032653 -19.57365329 1.56188365 -0.93165582 -40.37469784 -33.46292761 -64.81591637 -56.02750203 1.27176855 -16.83016984 19.56405201 6.7684343 -18.15959277 22.61276357 12.53900482 -35.19844078 21.91570489 39.94403162 33.31354573 19.46308965 -9.2475266 -14.20630641 3.08485997 5.67447339 22.54462345 30.11160062 74.69538089 56.09060709 9.75075438 -19.14871929 3.63975215 -15.46461755 -8.30538234 1.75006018 -1.98690361 8.21962104 -23.06309801 -23.95872687 70.85879595 -58.59938636 -10.83576022 -16.26117786 -2.10316594 9.30835934 -2.12879114 -3.97907187 4.63740069
0.01012754 0.46815805 0.92896031 10.04418131 2.14415389 -1.83679222 -13.94642473 -6.77702592 3.37075807 -5.94282696 -2.83425295 1.36188181 -5.98434807 -2.76500591 1.32803559 -0.78273718 -3.34933294 4.4246201 6.12401236 -43.19105275 29.7715164 0.09292218 -9.29322324 -19.32270398 1.59037217 -4.9179742 -41.11071585 -45.99704076 -73.9830774 -72.6457221 2.47472877 -15.07162616 24.84024288 7.22949674 -17.64320005 22.37103075 16.63467762 -32.95895617 26.27041298 37.80506032 28.98737864 25.12837064 -8.26583512 -11.03891407 0.12469255 5.68006763 23.80948538 30.4638006 71.58123153 54.79213981 8.88945382 -18.53115495 3.24202248 -14.52816092 -6.88759734 0.89126699 -1.22686557 9.05725635 -24.43210747 -23.88538882 68.99521455 -56.91430373 -9.32595953 -14.98588742 -2.65460121 12.17402743 -3.88414133 -4.10670958 6.84485805
0.00870063 0.44997149 0.9584776 13.90581599 2.9670052 -2.12285092 -14.56109427 -5.81995192 2.96236467 -6.13794112 -2.46755136 1.1438217 -6.17910499 -2.38434813 1.10573908 -2.31029727 -3.56115582 3.65455872 0.90204617 -44.33934234 27.42012596 -0.00982341 -9.13601161 -21.63118657 2.77141176 -7.5853173 -38.80399828 -88.497521 -81.18518394 -117.79449188 1.26625809 -13.11197052 22.20585675 7.43060681 -18.59959875 22.81982553 21.19494871 -29.40697 31.75253535 33.4059066 23.2428175 29.52381414 -7.12389306 -6.00983829 -1.65417469 5.32748921 24.6702617 30.84780932 67.9371123 53.73636742 8.20614217 -17.42232633 2.79528076 -13.27091397 -5.620545 0.20948649 -0.58797804 10.1309213 -25.84006216 -22.85857772 66.51181635 -55.42810254 -7.87707858 -13.46976571 -3.12105527 15.35526858 -7.827039 -4.69227724 11.9911236
0.00625882 0.42901177 0.98877013 18.30815609 3.95326716 -2.58267928 -15.41306655 -5.31549503 3.31645492 -6.49025121 -2.27712441 1.30656681 -6.52995568 -2.18760053 1.26887937 -4.17876508 -3.25853656 2.00396737 -8.07872385 -43.09424375 22.58219886 -0.03724596 -8.71601055 -23.16782202 4.95115046 -9.66565948 -35.05657045 -131.72647145 -79.21772413 -162.9685064 -2.60609651 -12.86316764 11.95013997 7.5639533 -17.65216693 21.61205661 27.18638596 -27.11481896 37.71193422 29.41565633 24.20484537 33.23726953 -9.10414864 -2.84672367 -3.04157523 4.1096524 25.82532425 31.84851435 64.09199971 51.95378222 7.5654259 -16.26552203 2.33326238 -11.63966018 -4.39686365 -0.44886918 0.05216359 12.10693177 -25.63733317 -20.65536246 64.778255 -52.46002324 -5.48436367 -11.76304618 -3.47672722 19.28980003 -12.10054504 -6.41482957 18.20783865
0.00310077 0.40358572 1.01974222 23.19649179 4.96036211 -2.61322877 -15.58336187 -4.60317352 3.0421925 -6.60862882 -2.03706998 1.31156921 -6.63359422 -1.97476596 1.28586267 -8.02907255 -2.3302301 -0.16924608 -22.44279632 -37.19571498 14.68543869 0.13353721 -6.97842787 -24.32799774 6.65283439 -9.3507373 -31.22409596 -152.13547179 -74.90767393 176.89004851 -7.60722867 -10.71775305 -2.72037515 8.31991201 -17.72571602 21.8943317 30.20652485 -20.65531949 41.1576142 26.73786564 24.47220286 36.83278114 -12.59882958 1.81443055 -3.19026908 2.84484266 26.67459929 32.23700949 60.68469562 50.09241546 6.41019026 -14.93911112 1.93931476 -10.36650776 -3.09404197 -1.61543035 1.2221486 13.66046985 -25.72901702 -19.33444408 62.03350382 -46.78542858 -3.97899261 -10.53753014 -3.73697047 22.71436818 -15.74962158 -8.48791597 24.25509724
-0.00107635 0.37312036 1.05057622 28.48465933 6.07821505 -2.16170053 -15.97226587 -3.08863817 1.46105704 -6.63702168 -1.52338427 0.88202085 -6.6349494 -1.54605479 0.85896705 -11.7059352 -1.46304631 -1.62325072 -35.59737326 -28.87421937 7.1323841 0.42416327 -4.80588883 -23.50008004 6.81033222 -7.52245672 -30.80429912 -168.23354348 -72.82121621 163.3112721 -9.22800342 -10.75415822 -10.65322618 9.3432748 -18.42252921 23.40390445 31.08171896 -12.450482 42.75003748 23.08220182 22.04322623 41.3688094 -14.71854322 5.90163445 -1.56851699 1.67964892 26.93897811 31.98685189 58.11177647 48.31492857 4.50925033 -13.77457875 1.70501851 -9.71076612 -2.22563482 -1.99941756 1.68553362 14.7257652 -26.33614127 -18.96585427 58.23352655 -39.13394353 -3.04290836 -9.44748471 -3.72336868 24.66112989 -18.30696272 -10.61838164 28.87170334
-0.00688075 0.33835697 1.08018064 34.09747299 7.53538561 -1.86581351 -16.14349822 -1.66310288 -0.15735165 -6.56159953 -1.00864029 0.30446252 -6.55277884 -1.07025841 0.28423682 -14.95446001 -0.60152566 -3.00182892 -45.2873324 -20.75616298 2.3982558 0.43649311 -4.68645226 -23.69945017 5.89886097 -2.36211934 -31.21487824 178.59563293 -71.91715002 154.49629381 -9.12366428 -10.70667537 -7.56367611 10.88026495 -20.53003999 25.90553912 30.46904228 -4.42258658 40.87878939 18.58319809 20.45624163 46.10961011 -15.75437829 3.8489248 0.97624142 -0.52145543 27.26832675 32.32527094 55.64575272 46.06643959 3.11842262 -13.06325589 1.52256467 -9.13225038 -1.47740543 -2.03277143 1.80441117 16.33999652 -26.03876962 -17.68146494 53.4382084 -31.30068212 -1.92410331 -7.75823051 -3.37795994 25.55448015 -20.34436119 -12.36303741 33.0722877
-0.01452311 0.29964783 1.10817764 40.02118703 9.3573985 -2.14242119 -15.44189275 -0.21202481 -1.77428937 -6.05449657 -0.4569023 -0.28334664 -6.04762178 -0.53711787 -0.29471695 -17.49218238 -0.05482192 -3.92183604 -54.34744866 -13.96214951 -2.27664478 0.37613484 -5.04738192 -24.81662565 0.06577446 1.11851233 -28.07742018 -154.82879999 -76.29744037 179.42201923 -6.05279844 -6.50201494 4.36764536 13.71749735 -25.17504344 31.08303333 29.35760308 6.4838361 34.41277299 14.09196303 18.39040661 51.49097416 -16.00935746 -1.64394438 -0.35012528 -3.64538412 27.42658569 33.66898355 53.43648232 47.74542779 2.87628421 -12.27233659 1.63050602 -10.12562593 -1.01897574 -1.84040531 1.58553633 18.51064523 -25.11665969 -15.07192612 47.08608754 -23.30883081 -1.01165111 -5.78462362 -2.82625828 25.65246757 -23.49686135 -15.13567067 36.83309791
-0.02373682 0.25600951 1.13486369 46.25300345 11.34269574 -2.69355781 -14.19268529 1.25803635 -3.90722605 -5.41817494 0.10903998 -0.985177 -5.42203992 0.005928 -0.97474798 -19.19588951 0.17579364 -4.01351079 -59.87318436 -8.04255159 -4.508554 0.43724427 -4.50827844 -25.96207541 -9.5069418 -0.11865954 -26.05968626 -106.84327064 -81.49770997 -135.24508431 -3.87465755 -9.38022513 15.24949399 16.9356389 -28.22341061 35.68977024 28.58757444 16.88075627 28.75042648 10.12466174 15.84834032 56.81988287 -15.30229819 -6.10625441 -7.42960831 -6.61580577 26.82424282 35.52246776 52.07830379 46.52001032 2.47963275 -11.82376744 1.72778858 -11.01881244 -0.42996675 -2.14996946 1.93056574 20.48541325 -23.91684025 -12.01435914 39.63690216 -15.01444625 -0.60590677 -4.43131155 -2.33138562 25.22375876 -30.01176888 -23.14445326 43.9226641
-0.03431997 0.20719187 1.16010594 52.6234561 13.2892117 -3.02512906 -12.60263641 2.20286332 -5.84657802 -4.82527178 0.46635916 -1.45179692 -4.84831602 0.30558168 -1.42441593 -20.25803565 0.43750395 -4.14259893 -60.16811492 -3.83151044 -4.0506465 0.61557746 -3.27454402 -26.83636377 -21.82487036 -6.20917389 -24.95393729 -27.56430164 -78.49598017 -61.2325704 0.92019648 -12.80720593 35.01405049 19.42874534 -28.28270736 35.68796014 26.45212426 26.25661592 25.57028619 6.36398962 13.04700831 63.70842611 -14.61238141 -7.51497462 -15.38379829 -9.01421819 26.21157229 37.11066781 50.81146539 44.83414902 2.38133625 -11.33065018 1.82372455 -12.15009808 0.36314621 -2.00033464 1.88119003 21.59012573 -21.77193634 -9.5047527 32.72069881 -8.06880407 -0.52981677 -4.45280497 -2.25369313 24.98579037 -28.6123297 -27.96972498 58.43607511
-0.04614351 0.15873469 1.18292829 59.12793824 15.27078749 -3.42659766 -9.78141102 3.72805823 -8.01917275 -3.79851406 1.16133358 -1.91782562 -3.88257729 0.96344538 -1.86506548 -20.42243201 0.72651806 -4.61405226 -58.95449508 1.23149077 -1.70181387 0.7451254 -2.42871064 -27.02838482 -36.2365096 -15.27400428 -25.48347602 -5.39044015 -72.92381602 -47.53032829 7.04137214 -9.25299285 62.38967853 18.40866202 -24.33429312 34.0898058 25.69315901 32.47187725 23.86324456 3.58047216 9.63775359 69.50683011 -13.14254097 -0.33896866 -15.7973082 -11.25869744 25.09662026 38.47227613 50.24018044 42.16476997 2.95675023 -10.6694502 1.96797534 -13.47674531 1.02319134 -1.60492784 1.58450063 23.54559196 -20.03312269 -7.44118112 26.56127622 -9.87478034 -0.97976421 -3.10767715 -2.02012904 25.87928612 6.92726524 -6.61395531 -7.1485009
-0.05838568 0.12272571 1.2020926 66.62556838 17.9950697 -5.38810325 -5.20093311 6.42023727 -9.25555462 -2.04793255 2.56658874 -2.22924397 -2.25663686 2.46598116 -2.13874951 -20.87611094 0.73804194 -5.66758753 -54.72057286 5.36340508 -1.14193324 0.63608347 -3.15551233 -27.77574513 -42.93181668 -22.75220123 -30.50245635 25.10519506 -82.59246701 -11.90745486 1.56179278 6.25005064 63.55952671 10.67040077 -17.86883256 33.07748597 25.34609864 23.79253509 25.46502353 5.77485509 17.3177264 71.23488565 -13.44909524 13.4161509 -11.85545182 -15.83043518 21.3769777 40.44379252 52.31697215 37.64314634 4.66522394 -10.28439476 1.99156194 -14.06596145 1.77202551 -1.3525954 1.42450018 25.01110845 -17.93660917 -4.00381744 20.44284051 -16.58633011 -1.14017693 -0.01269694 -1.30651344 26.54128889 2.34107609 -4.25645225 -2.14725007
-0.06996933 0.10745118 1.21792683 76.57841165 22.45334746 -10.16250442 -1.12292253 11.99402542 -8.66430607 -0.84346559 5.21335997 -1.60606064 -1.30558529 5.15066744 -1.47857668 -19.1596995 0.67744502 -8.99416051 -51.12005677 9.92050627 -5.75914216 1.01241692 -1.14298145 -30.45276505 -50.98211105 -29.51153997 -45.33981504 114.24478784 -79.16830908 80.55664231 -2.19115651 9.68775309 49.73211323 6.27325008 -18.68471608 28.41198801 23.67995069 16.4248771 32.09562592 7.9465363 18.68321168 66.45439806 -13.60198725 27.79512742 -1.65107781 -23.19170329 11.60570304 41.09812177 58.38715878 32.72980869 7.21157103 -10.35982507 1.86255474 -13.40160731 2.57789113 -0.11185695 0.31283731 24.91149684 -15.47670391 1.59060653 14.86574085 -26.65920247 0.26656945 4.83217864 -0.29808324 25.56843326 -2.57165673 -3.80376622 3.42489588
-0.08171802 0.10896301 1.2345413 89.07831756 28.35278711 -16.34014327 2.35632053 13.71158168 -3.45010378 -0.23405516 5.90650373 -0.03133576 -0.61234814 5.8556053 0.01661325 -16.51530739 1.54519135 -11.18830753 -38.79088366 15.80385413 -7.85591231 -0.12079047 -6.33055131 -37.28401979 -47.38042374 -27.74185315 -37.30777191 -174.20479732 -76.92801065 161.52979694 1.05404539 1.93425396 46.32294505 -1.68678367 -46.74278379 6.73682838 21.19692302 15.66391094 36.00894319 11.05364146 33.71741692 57.10140921 -12.20575049 10.23188331 14.53168919 -32.7889542 -0.33668385 36.80484677 64.0572333 28.48300071 12.72958635 -9.94445711 1.47724697 -11.64028193 4.11121043 -1.85090924 2.16122883 21.18744789 -8.68402146 7.38418586 12.71661124 -40.28136344 3.57785164 9.70421901 0.56290027 22.61033056 -0.97804564 -1.2211861 1.41618457
-0.09704637 0.11926965 1.25786681 100.1987375 33.9781584 -19.69628778 -0.48164989 10.18873934 -5.18715041 -1.07928283 4.93445309 -1.29759692 -1.345602 4.75170589 -1.32504374 -10.10607992 0.32963171 -2.71851649 -31.28544758 24.64700432 9.9407564 0.72020138 -2.63267349 -27.87621242 -45.02666655 -25.87965236 -46.10583436 -157.87856298 -79.73813319 -179.7162299 6.00536009 -6.85827639 49.851891 -10.26472986 -40.57779322 -6.01946105 28.69259039 3.13492728 45.7590996 10.18407857 42.29333509 45.77187073 -11.22428982 3.79343396 25.35562478 -40.13111366 -9.96447969 29.46488968 68.77838835 25.45687763 14.03613222 -9.04271114 0.95632652 -7.70105435 3.86799266 0.19120345 0.12243302 14.32801715 -6.69989146 9.69294198 16.7610569 -43.99855414 5.16962533 12.50285082 1.20870656 20.98228848 -1.14298421 -3.31370619 3.20731092
-0.11848235 0.1345903 1.28971437 104.83403842 37.87567547 -17.4399016 1.70740219 8.16243471 -11.10433402 -1.21110482 3.46015447 -3.35580524 -1.42213652 3.16109154 -3.57970138 -2.42497457 -1.31377267 11.30134076 -22.92990693 27.90982006 14.78611463 0.25498006 -11.71248624 -18.11081764 -41.09639369 -15.54069448 -47.89541643 -178.55082774 -77.72958286 167.69664299 7.10229302 -11.13213117 47.76536016 -8.92629581 -43.5339647 0.96669066 22.22686946 7.5583398 39.97937379 15.16014439 32.82381021 49.05793813 -15.26250076 18.90468293 20.07770148 -43.22390943 -13.40537482 22.9463104 70.13631584 24.9709084 13.20163555 -7.27586873 0.39242897 -3.90998047 3.41521275 3.87346269 -3.52594482 9.95438124 -9.87558207 7.65418839 23.41346186 -35.21571083 4.56665172 13.60293435 1.46137093 21.61149096 -0.59631637 -1.37619906 1.59238559
-0.14367921 0.15197958 1.3238065 103.88494505 39.41981988 -12.1671535 5.25796447 7.43527786 -15.16026238 0.67972282 3.24441021 -5.48744336 0.54781686 2.95521379 -5.65816254 0.66070692 -2.53977219 15.57346051 -17.17241547 17.57043513 12.39453623 1.03934008 -15.71706127 -11.46851767 -41.90293881 -11.08258036 -52.93110799 174.63856166 -81.00870262 167.89964355 9.18470155 -19.97546132 43.07849794 -8.42140864 -43.20883145 6.04903281 20.73357114 8.85287126 41.38663839 16.55355122 27.16679189 50.86461764 -14.36571539 27.17188964 5.18775696 -44.19592189 -11.74783696 20.94261984 70.22286431 25.86171978 11.32696706 -6.1397685 0.14221978 -1.58550744 3.01931398 2.07406833 -1.77688252 9.03016291 -13.20934967 3.02740008 29.38610357 -21.34891509 5.05266726 15.35248747 0.82789552 21.6479655 1.24180536 -0.91869984 1.38349052
-0.16714387 0.16522002 1.35343496 102.61079677 39.83919505 -8.27714216 9.24791579 8.65186546 -18.23262688 2.49973386 3.99850492 -6.87193599 2.37224424 3.74791775 -7.05329305 -3.19601291 -2.65537479 9.88066329 -16.42725051 6.65530711 16.23929509 2.24311589 -13.29286637 -5.59707804 -47.85887423 -14.92929606 -63.48068937 33.93278432 -87.95863788 31.25618787 11.38585459 -33.10653646 39.75403608 -6.76841232 -43.94452589 11.7513494 26.22689422 11.34637032 41.51967572 8.22417072 24.16739727 54.08286244 -9.68854547 26.32420445 -15.90813749 -47.46375443 -7.56028204 23.43543888 71.24014306 25.88569758 8.68682774 -6.3383554 0.11742118 -0.53011318 3.57954313 2.01607871 -1.69351108 8.87286388 -16.26356098 -1.21570542 32.36914604 -8.41803324 5.00790353 20.87422709 0.28441398 21.01203433 2.49071883 2.74936091 -1.87850514
-0.18559821 0.16995101 1.37731742 104.17922763 40.94192649 -7.11336317 9.45668405 5.28801599 -21.65033895 2.6793313 2.73132403 -7.96409416 2.49508543 2.49336651 -8.09205537 -4.41322145 -1.90356181 6.82915084 -14.25015044 3.2514382 14.52656056 2.97183774 -12.96653283 -0.305791 -49.65281975 -12.74483674 -67.9987096 53.19617531 -81.63543987 58.97903784 9.84907258 -40.48684286 32.96721066 -3.92979931 -30.55532939 22.63939815 32.05065839 7.77779844 39.61578792 -3.50839914 21.3160593 59.02549909 -1.90162001 30.44346536 -35.6484812 -53.43144179 -5.44367218 25.1331336 72.40802305 27.79266407 6.19021132 -5.13486216 0.25407794 -1.82017999 5.17174787 3.0445491 -2.65694765 7.20824095 -21.29460268 -6.51874081 33.25971541 2.21984904 6.34601171 28.62145344 0.78647062 18.15699967 0.11437914 -1.63100623 1.89599127
-0.19971645 0.16830414 1.39707819 108.30436088 42.55219547 -7.92570302 7.12773212 2.14252647 -24.14470039 1.97990947 1.41503242 -8.59737023 1.79307911 1.22600984 -8.66191051 -4.13646624 -1.13031459 5.11075029 -15.91629249 3.08384357 9.24630806 2.4556678 -16.494971 1.6179511 -49.27630663 -8.57578078 -67.75278916 50.72517848 -75.69838625 64.46902609 6.659468 -44.51755414 25.94388441 -4.13512565 -25.2491245 27.89143357 34.26030859 5.40517459 36.0362839 -4.98670595 19.17560851 64.23241039 8.20990044 39.99117447 -49.15255502 -61.38886834 -3.9956712 25.72442028 72.99622619 30.59910032 3.56480711 -1.53130926 0.18511685 -3.46829402 3.79183435 2.65428703 -2.3137262 2.10122836 -25.25531223 -12.83230728 35.52800193 7.71078801 7.72877208 33.74904808 1.57170562 13.24994834 0.03117944 -0.28068856 0.69278586
-0.2116295 0.16442357 1.41345532 112.70690462 43.08923144 -9.57954345 5.96044014 0.81930583 -25.19012535 1.77373365 0.8320111 -9.08311653 1.62383421 0.69294433 -9.11966831 -5.13924947 -0.95423449 4.52238438 -19.44082713 2.93135813 1.88356658 0.9447201 -23.61403306 2.22641625 -49.09373518 -3.60991591 -66.21565646 50.87804111 -72.78017567 71.8324154 2.79447385 -43.21113203 19.33451969 -4.07158756 -33.49800722 29.21375416 35.00732561 9.00725228 29.56919548 -1.52358076 18.33156647 66.7794374 10.20255965 42.99571819 -48.81366976 -69.14871377 -2.42928607 26.33298391 72.69495681 34.22643699 0.7083372 4.40381577 0.06844154 -5.44531053 5.22473126 3.78369974 -3.40517345 -6.14148135 -27.29951687 -20.44785849 40.66431858 11.64267458 7.88251918 34.42042668 -0.07461718 7.95242728 2.04306765 -0.03970645 0.63864643
-0.2215441 0.15978987 1.4250389 115.18064317 41.78903537 -11.10323703 3.99194711 -0.83653718 -25.25543012 1.37059338 0.00390065 -9.31872558 1.29238067 -0.05768004 -9.32899719 -5.80040967 -0.3767953 5.20023541 -23.27981539 8.15935057 -1.02723455 -1.88321375 -27.23590822 -0.39589876 -48.37006618 1.27086579 -62.72285511 60.73390274 -69.92614291 86.68388224 -0.85909093 -36.60632943 14.34506906 -2.86684108 -31.45265978 30.17869358 33.23823051 8.5524077 26.55652184 -1.43076315 17.83635205 67.65910677 7.25913811 41.05000865 -41.3357638 -76.10117935 -0.84066641 27.51368981 71.90818788 37.8786652 -1.8341454 11.22081396 -0.38783057 -7.65536247 5.63785778 2.93892173 -2.53433274 -14.1606821 -26.61305284 -27.57904985 45.86716961 11.90723018 6.46820014 33.65444605 -0.75402174 3.30865645 2.31576906 0.73436589 -0.11364318
-0.22759109 0.15358263 1.43057816 115.09122139 39.13825062 -12.17220325 2.72678153 -3.44384462 -24.62495128 1.41786734 -1.19235655 -9.44898202 1.42630567 -1.11786797 -9.45762674 -5.92896005 0.34406872 7.08479093 -29.57354782 14.42877614 2.06917253 -3.40932763 -28.67095046 -0.87390118 -48.30659377 6.94347837 -58.25831907 77.044141 -63.81802874 108.15458392 -3.07996482 -28.6457263 12.36087318 -2.90721014 -25.58939175 31.24662861 31.01502415 8.55556279 23.38909632 -1.82638169 17.06510355 66.62606236 3.18761 39.66690126 -30.84863997 -81.95518017 -0.32250673 28.34173154 70.59954758 39.34163672 -3.84477029 16.98954446 -0.94099481 -9.38115067 6.16352321 2.97143785 -2.55017915 -18.87473036 -25.09043344 -31.8703932 46.02105293 12.44746761 3.69142046 34.20294156 -0.14557728 1.24774212 3.7558878 1.96532893 -1.25228126
-0.22977011 0.14560544 1.42954696 113.1545137 35.90372601 -12.96228214 2.07625529 -5.40667114 -23.30847663 1.57257835 -2.09282239 -9.34200034 1.61876267 -1.90641405 -9.37557027 -5.16094727 1.10229715 8.90212778 -34.91510656 19.22885251 9.51578369 -4.11418157 -27.93416085 -0.97039121 -47.75332989 11.94644499 -51.41271315 89.05564852 -60.20520433 120.4546708 -0.43446526 -23.19656978 17.08696312 -2.90003819 -18.43809677 32.20200838 28.99374542 8.4685387 20.20570555 -4.00455031 15.97605438 65.3299984 -0.99310373 37.45064289 -19.45413982 -85.87758406 -1.18545207 29.39162841 68.57127082 36.41645402 -5.16310522 19.88619715 -1.0448769 -9.38527404 6.42063363 4.01013039 -3.61779427 -17.39388664 -21.89539047 -29.58346211 39.5094159 15.09077381 -1.22804927 34.64052571 2.17678858 4.2704735 3.17406445 3.36249884 -2.70359154
-0.23126032 0.13783744 1.42275038 110.60842332 32.97148928 -13.57729242 1.8211179 -5.68336975 -20.9743295 1.46211823 -2.27879293 -8.71667354 1.49935522 -2.09937143 -8.7566892 -4.0118175 1.93497008 9.55961389 -34.61354211 23.97771787 18.49433519 -4.4248332 -25.57734127 -0.78688468 -47.06341771 16.33057374 -47.74726074 94.24943277 -60.44953049 122.40554 2.60216571 -22.15128268 23.8628489 -1.8599804 -13.05660028 30.70347383 27.61539732 10.86588191 17.1805398 -7.44206865 12.3628344 66.52144132 -4.68532894 33.49735173 -10.27026564 -86.49334147 -3.23552746 36.1185093 68.33867641 23.13186134 -6.9362325 18.84686283 -1.51216534 -13.01589689 4.82303888 5.38168529 -5.02510519 -13.20350945 -20.11322499 -26.1567207 29.73246058 25.11624884 -5.85966782 31.75093946 3.80472802 9.41739604 5.03687596 2.95056773 -2.31904117
-0.23376003 0.13310428 1.41351942 108.96593968 31.33199307 -14.08461003 2.68371132 -6.55272819 -19.91885693 1.0741156 -2.41581636 -8.91048619 1.08907572 -2.30456308 -8.93863179 -6.27092655 2.86057196 10.17443442 -29.41316224 32.16269853 31.28799917 -4.46848922 -23.58379036 -0.58664814 -47.60564568 16.11327989 -44.91067804 100.97376226 -60.41855782 126.77076731 2.38754676 -19.71399211 25.21268161 -1.2847703 -9.74125142 30.91420208 26.71276884 10.84621585 15.8171785 -11.35222602 10.71190756 65.1926242 -8.73698364 26.23145754 1.65640639 -88.47946612 -5.04601849 36.10822854 70.06428328 23.27750046 -4.16546899 18.74315896 -0.47044991 -4.63742613 5.6959663 4.40342717 -4.03105949 -9.9797384 -18.05592489 -22.5928211 25.5178243 37.43094432 -13.33886391 25.03908545 2.15625909 14.07205524 4.14250457 3.96345405 -3.40246884
-0.23341877 0.13212248 1.40489215 109.56101702 31.13641922 -15.00865089 1.37978793 -8.16116277 -19.70363564 1.01808063 -3.14577926 -8.36026798 1.05461492 -2.94024039 -8.42947774 -6.9943878 3.55663131 10.21367704 -30.09823619 36.89477962 34.64817821 -4.40349748 -21.40965879 -0.80346974 -48.41903344 17.94930113 -42.06912028 115.17796498 -62.57841655 138.93501796 1.45338094 -17.18969082 23.54490405 -1.8168103 -6.13984746 30.03598438 25.79977553 8.4441045 15.61288644 -15.63377018 11.19462641 64.78093838 -10.60838192 17.90966588 10.54298673 -87.72460967 -8.03887936 36.54238494 72.45812929 22.88936264 -2.81330018 18.3412684 -0.26180876 -2.42226811 5.07956603 4.06683486 -3.69452921 -9.09960092 -13.78768778 -19.05901472 29.91661357 44.17656725 -24.36618284 20.57059363 0.58148183 15.73715755 16.79506643 4.78265496 4.65226213
-0.22787259 0.13455896 1.39789339 112.60407502 31.40905858 -16.92773257 -1.22652425 -9.41307798 -18.61254159 0.55973202 -3.86095571 -7.3725682 0.63775777 -3.5801202 -7.50130051 -6.73496511 3.92399622 8.81588751 -26.73137934 33.93949099 35.45457004 -4.19894985 -19.29962163 -1.93120715 -47.97007756 19.74196486 -42.41175288 125.55895867 -63.89315276 148.43857548 0.98451462 -16.36842449 22.49081395 -1.77252153 -6.50566398 27.79992921 25.29080757 6.66371944 15.3191548 -19.47330168 12.40319977 66.19518186 -10.7222489 10.81286779 14.73891417 -88.38949564 -9.53313483 35.38320736 73.12981505 20.28238208 -2.54070444 18.17689197 -0.26549722 -1.29610923 4.8681711 3.89724337 -3.5261756 -10.09943096 -9.88731211 -16.46482633 41.87503881 53.30436104 -38.4632302 23.30760929 3.30360873 25.7952046 7.52364921 4.5081607 5.66853887
-0.22110904 0.13901986 1.39135407 116.51902808 30.98248518 -19.42159717 -4.02978888 -10.86534477 -17.43875964 -0.38863778 -4.60831673 -6.60853249 -0.26686121 -4.31858935 -6.7941627 -6.63749077 4.29210162 7.79503038 -25.56159929 31.89447807 35.96965205 -3.75738273 -17.19959911 -2.62483401 -47.06793917 20.41854997 -44.4561755 126.12550953 -61.92870441 150.52698325 0.47425901 -15.1863699 21.75940458 -1.8780704 -5.33745432 25.35657592 25.99915651 6.91132759 15.94055602 -21.70145903 10.15618906 66.89081535 -11.05172986 8.97885149 16.71643199 -90.66659791 -9.94881917 33.60304054 72.7185706 16.38076197 -2.91574601 18.03467511 -0.25705153 -1.88789744 4.80088249 3.91610498 -3.54628925 -10.77639549 -8.50591864 -13.61887814 45.70916546 51.84661191 -42.5397776 19.10396551 1.11280783 16.06327036 7.42300662 6.4853196 -4.63533513
-0.21537264 0.14162346 1.38770416 118.74550956 29.67902125 -21.47214635 -5.87406417 -11.4384261 -16.2051122 -1.17665046 -4.9197572 -6.00819044 -1.03603302 -4.64818343 -6.22625586 -7.03766885 4.39179785 7.57994905 -24.616528 31.94263123 36.26591345 -3.2409974 -15.35960906 -2.89571902 -45.89728464 20.01005178 -46.95587468 121.3879532 -59.41431322 148.39728731 0.27517543 -14.45069373 21.52914936 -1.85458819 -2.84658533 22.72269392 26.34074984 6.02943422 18.64496365 -23.80519798 8.02909755 66.61647097 -11.69024391 7.76889455 17.89608148 -92.28303403 -9.47253732 33.03900537 71.82435505 13.35841163 -3.78541664 17.44867839 -0.38055882 -3.26257706 4.80251784 3.69889632 -3.32739498 -13.5813488 -8.36503598 -12.17785262 49.2103796 50.37526731 -43.76131112 16.49459042 0.1708786 9.65567154 10.42340926 8.05394534 1.65286702
-0.2119136 0.13780644 1.38677887 117.95448404 28.37809984 -22.49385791 -5.48110987 -10.97882756 -15.17449495 -1.22846992 -4.71926939 -5.72696646 -1.10798661 -4.48641157 -5.91800395 -7.40674782 4.18079212 7.97828314 -25.02355477 32.17179073 37.23469571 -2.7308857 -13.77797168 -2.58773101 -45.12098026 18.61171506 -49.20981421 118.47672526 -57.40495904 147.20312178 0.36189677 -13.90993966 21.62914403 -1.08507036 -3.10810538 22.47846025 26.39877903 7.30152506 18.74738819 -25.01923379 4.83768665 65.30663372 -11.88341558 7.3448156 19.78361607 -91.63242684 -8.05983269 33.99712424 70.78615946 13.78324076 -4.89510635 16.65141776 -0.53395636 -4.44528726 4.73097541 3.57312427 -3.22721295 -13.71080681 -8.96358738 -11.42514003 45.13202264 46.1541182 -39.31045436 13.04365005 -0.46768167 9.42963969 16.70048829 13.07966729 21.55940802
-0.20988411 0.12839871 1.38665436 115.16464092 27.89999602 -22.76559755 -3.46999117 -10.08014988 -14.24259627 -0.88733731 -4.24717348 -5.42650876 -0.7909783 -4.08865334 -5.5476423 -7.57198707 3.78859461 8.61738341 -25.75350456 32.48703144 37.66857964 -2.43785181 -13.1309752 -1.54509201 -43.98455331 19.05825857 -51.09436783 120.023053 -56.90550952 148.82185263 0.35406246 -14.08310255 21.97397019 -0.04891867 -5.73112987 23.28382189 26.64688751 9.17891989 16.82748776 -25.51275849 3.53094934 64.38811025 -11.8411002 6.42663513 20.7809935 -88.86468847 -5.76557295 36.86008355 71.14753282 20.94853639 -6.51069381 15.1250023 -0.52080553 -4.7248421 4.72138267 2.69399294 -2.31868261 -12.25021996 -8.9199757 -11.98418629 36.94617152 38.39212985 -31.26106539 12.69811776 0.576247 17.52326394 21.07839753 16.59010777 29.32895801
-0.20866211 0.11949946 1.38471831 112.41139407 28.13748633 -22.72458069 -1.75553089 -9.44337664 -13.61029852 -0.6686015 -3.86231663 -5.09167844 -0.56886417 -3.7612466 -5.16334786 -7.69631763 3.40197151 8.92483243 -24.92887031 32.51714278 37.07684925 -2.41312573 -13.79400059 -0.27199697 -42.4532236 21.59327804 -52.09885851 124.20527025 -57.44879304 151.82792899 0.66286935 -14.6045019 22.44435254 0.00467314 -6.83533654 22.3999799 27.51218526 10.01145952 16.91190139 -25.48034622 3.8489779 64.01363836 -11.77474409 5.48215596 20.28730016 -85.10080952 -3.97989496 41.16324107 71.17254508 19.24318328 -8.58487832 13.03341505 -0.44742267 -8.55140982 3.47311423 10.16575729 -9.74965704 -11.60301652 -8.53159701 -15.66821884 30.02032364 29.02138416 -20.72329124 15.58426415 2.24831549 24.38506664 23.31390611 18.65914134 34.63465769
-0.2072137 0.1158259 1.3810829 110.76134019 28.2452113 -22.55079068 -0.78162061 -9.08170592 -13.33396864 -0.4746215 -3.63633543 -4.91194594 -0.36373488 -3.54965771 -4.96645952 -7.93084042 3.09741845 8.92064811 -24.0613502 31.97446666 35.83977554 -2.49803742 -15.15168427 0.06614368 -42.00136371 23.54758978 -51.26663241 127.8744608 -57.42154058 154.51883526 0.8982846 -14.23108738 22.9220524 0.36471048 -7.04634297 19.89822723 27.0999731 11.59277837 19.62609138 -25.35230498 4.60631303 62.42676447 -11.81667399 4.90013126 20.19685358 -83.06990238 -3.75041105 41.1428329 71.32159153 19.37581362 -7.7096815 14.249397 -0.61150006 -9.4974095 4.76405242 2.41254685 -2.03421131 -11.72190541 -8.70403901 -19.6349907 26.95030831 19.29724005 -13.04712898 18.35969063 2.93935536 24.06225098 26.2009705 19.81274512 35.6460306
-0.2047556 0.11651298 1.37675996 110.01687724 27.57204302 -22.25569822 -0.52322811 -8.50503604 -13.00899641 -0.41966743 -3.39952458 -4.76062339 -0.30799304 -3.32847686 -4.80204801 -8.11168669 2.8008127 8.9635835 -23.34637897 31.7658151 33.71193183 -2.6039876 -16.37484925 -0.36394963 -42.07411297 24.87885618 -49.79041546 130.12957541 -57.42073238 156.1851453 1.22360673 -13.82717099 23.71973588 1.18931724 -7.43429441 17.95882915 25.9726856 12.95016611 21.19532556 -25.43572299 4.38040078 61.49035049 -11.9227188 5.37978661 20.6502457 -83.04838931 -3.24653501 41.5606701 72.49453861 19.41425364 -7.81879896 17.09172907 -0.6814688 -6.05787617 4.57148749 1.95960469 -1.58882942 -12.06220265 -7.11288712 -21.46501555 26.71024535 9.90553102 -10.01655259 19.63864733 2.37330115 21.59534998 31.26110587 18.11052588 33.12228124
-0.20212986 0.11808263 1.37311799 109.78139614 26.33778762 -21.85692961 -0.68185064 -7.76638003 -12.9273243 -0.53951099 -3.12293186 -4.67585615 -0.43021103 -3.08152168 -4.69956186 -8.23869379 2.58131719 8.92670783 -22.90390867 31.90806225 32.01318862 -2.68496616 -16.86631545 -0.16581428 -42.02911205 26.24092999 -49.36687931 131.58048807 -57.25151029 156.95724867 1.43692379 -13.55188547 24.45220906 2.17632902 -8.14776534 16.51898992 24.70798322 14.28724303 22.24080829 -25.74217066 3.20042857 60.74220583 -12.06278483 6.4162394 22.06778767 -83.19256892 -2.50487317 43.35434839 73.69067099 18.55673981 -8.5955059 19.03524567 -0.75156295 -6.72029581 4.28312203 2.93374758 -2.5740244 -13.35378199 -6.40749039 -22.18011009 27.06545081 3.60230011 -10.08986803 19.76823724 1.94519826 19.79229418 39.34980931 15.30158965 23.1907526
-0.20068771 0.11835037 1.37094605 109.9440562 25.30725878 -21.4643954 -1.0919587 -6.9867644 -13.24934751 -0.7683243 -2.83130677 -4.81402047 -0.66832395 -2.82103024 -4.82303478 -8.33741728 2.32684648 9.06436366 -22.75368302 31.5262761 30.97823223 -2.69290682 -16.93932893 0.16696356 -41.89208687 25.89807386 -49.8864628 131.03081266 -56.96331754 156.33466783 1.3815407 -13.17773837 24.40788202 2.74295238 -9.13143832 15.91251851 23.9725084 14.92292564 23.10328323 -25.6678859 2.28577837 60.3289507 -12.22128338 7.20602074 23.34477265 -82.86935159 -2.05572742 44.73557874 74.24480248 18.28614057 -9.00219045 19.54695853 -1.2395745 -11.36519838 4.40809989 1.86696917 -1.50452861 -15.16661268 -7.11369832 -23.24329008 27.1675273 0.11970183 -10.20250553 19.08079188 1.82154652 18.72266455 43.22372013 16.05871102 15.84894157
-0.20035292 0.11719155 1.3700444 110.3264976 24.9914583 -21.22015161 -1.44780928 -6.75805486 -13.51151713 -0.95145751 -2.76803616 -4.95480827 -0.85195877 -2.77980504 -4.95543891 -8.47962826 2.2133587 9.11083868 -22.55050146 31.08244569 30.69619885 -2.68275933 -16.62745081 0.52099221 -41.62771765 25.42395968 -50.55365817 130.65593815 -56.86066823 156.2593961 1.18713015 -12.93493607 24.01071849 3.02406285 -10.23647765 15.62591675 23.03041504 15.3705834 23.36537509 -24.58626001 2.03693189 60.64801361 -12.24867144 7.78324288 23.26132357 -82.65613465 -2.01954851 44.94833039 74.35087833 18.50633755 -9.34503887 19.76611715 -1.52175944 -13.3553579 4.24191143 1.77527313 -1.42181387 -16.00508792 -7.65445604 -23.96112872 26.71982318 -3.04545239 -10.13597193 18.24645288 1.83119436 18.49609035 48.51912226 16.9099769 11.4449581
-0.20025108 0.11547245 1.36932617 110.54893475 25.30567978 -21.16491558 -1.43362653 -6.64485032 -13.68595022 -0.94382075 -2.73602836 -5.11473252 -0.84559298 -2.75262013 -5.1128126 -8.70012909 2.12657929 9.10994927 -22.41855163 30.49320144 31.06663317 -2.57195665 -16.26035551 1.52152341 -41.09955707 24.85872337 -52.20864612 129.84208783 -56.70625864 155.76443511 1.05220178 -12.88681906 23.74855259 3.14367131 -11.28076746 16.15089682 23.42865246 15.66063476 22.85474886 -24.81831849 1.70369517 60.93447268 -12.17045643 7.89909565 23.04333901 -83.08097957 -2.07600739 44.41700547 74.39417262 18.52529682 -9.42794993 20.20450064 -1.28252737 -10.60026369 4.03062582 1.46269258 -1.12318602 -16.46992191 -9.11573459 -24.48660918 26.36753224 -4.44360978 -10.21867291 17.58186256 1.77129577 18.23933182 51.88822075 17.40648211 8.57572629
-0.19985227 0.11405896 1.36892166 110.36732917 25.85130371 -21.23022197 -1.04692623 -6.71878113 -13.49755088 -0.79808449 -2.77846114 -5.13205248 -0.69789095 -2.80096824 -5.12426211 -8.96374192 2.071763 9.09591422 -22.19489912 30.23917989 31.03368602 -2.50387863 -15.82466121 2.26573519 -40.56821531 24.61724052 -53.64403153 129.20793973 -56.59745872 155.51451679 1.06587444 -13.01295878 23.77310195 3.22859875 -11.91844105 16.83034302 23.45485047 15.5921893 21.78681138 -24.56226824 1.91391651 61.3866862 -12.15838309 8.16380098 22.55903187 -83.30244778 -2.23911771 43.77438133 74.41707161 18.43542709 -9.21338987 20.57822007 -0.97698402 -7.83719439 3.90743105 1.23249804 -0.90278732 -15.65590183 -9.4613527 -24.12347208 25.85610557 -5.79393517 -10.51735512 17.44186379 1.72210358 18.16517921 53.15999116 17.45354339 7.50473053
-0.19938234 0.11340938 1.36881531 109.90341104 26.30984339 -21.29454349 -0.59100956 -6.85210641 -13.17853407 -0.58228181 -2.84540773 -5.11741587 -0.48194606 -2.86631876 -5.10634327 -9.15875863 2.1126026 9.01081314 -22.14496128 30.49612657 31.04269953 -2.45762247 -15.45154621 2.81122163 -40.1952043 24.60002789 -54.66451521 128.49291419 -56.40739058 155.15944705 1.14999701 -13.14953928 23.9559581 3.03697953 -11.59083195 17.46302281 23.33095707 14.85935159 20.8957659 -24.05690917 2.52334275 61.76260165 -12.08195887 8.37364787 22.19120164 -83.09234656 -2.36947913 43.58554477 74.45680077 18.2161589 -8.99295621 20.60677738 -0.88493218 -7.14417371 3.88870322 1.15505582 -0.82747006 -14.69568922 -9.68007582 -23.60795655 25.48981984 -6.18628804 -10.83994379 17.55642894 1.70228599 18.13027669 53.16357389 17.59618469 7.49154528
-0.19909014 0.11316652 1.36881439 109.48321406 26.57995274 -21.27959823 -0.27171098 -6.92948143 -12.94403042 -0.36547163 -2.89337578 -5.11335222 -0.26584362 -2.90760474 -5.10251146 -9.30008312 2.14581474 8.95184577 -22.21963235 30.77593945 30.78175966 -2.4238724 -15.16946198 3.21354011 -39.95670107 24.67598371 -55.26039694 128.21161049 -56.3142745 155.03625954 1.29542069 -13.26157866 24.25124799 2.79703868 -10.97757308 17.9458609 23.25657282 13.99362745 20.22009167 -23.59624201 3.31032058 62.08292039 -12.03935611 8.54080238 21.91224263 -82.69657694 -2.42977803 43.64432841 74.49939991 18.05394062 -8.89552597 20.4673968 -0.94062889 -7.67594359 3.92958287 1.13919868 -0.8091898 -14.21103298 -10.07349156 -23.36546914 25.37966109 -5.95791422 -11.07623313 17.62933377 1.6728902 18.06890097 53.00211068 17.76989104 7.60399435
-0.19860619 0.11263001 1.36877838 109.31330116 26.68513263 -21.19561838 -0.1740911 -6.95058283 -12.86646033 -0.19611389 -2.92271606 -5.14484024 -0.09712978 -2.92640641 -5.13797699 -9.36690301 2.19552822 8.86349186 -22.39602033 31.04549622 30.4628319 -2.40529092 -15.11725073 3.18963169 -40.04022179 24.68083823 -55.12900047 128.48566854 -56.21324811 155.36173558 1.34539118 -13.18998735 24.37610232 2.58734529 -10.65483091 18.21757686 23.20818071 13.40698927 19.86041026 -23.08815774 4.01937093 62.21589478 -12.05317089 8.82842708 21.73768806 -82.38420655 -2.40563512 43.67367096 74.54600129 18.02229135 -8.90902038 20.34512046 -1.01659284 -8.27236155 3.72441247 1.16871324 -0.85124432 -14.10534121 -10.37330296 -23.39801406 25.36183588 -5.86855644 -11.14300816 17.60326176 1.64131483 17.81316775 53.05646675 17.97960116 7.56353157
-0.19792782 0.11191507 1.36870193 109.31689291 26.65887578 -21.06886702 -0.35634453 -6.86108832 -12.92902834 -0.14692771 -2.91500372 -5.21098763 -0.04906078 -2.91241937 -5.20815371 -9.33679441 2.22387891 8.78740087 -22.52756878 31.12494196 30.24491149 -2.40843017 -15.14290769 3.03765927 -40.05669731 24.5552546 -55.01733796 128.49062963 -56.24536424 155.36305101 1.34880772 -13.2475452 24.33129549 2.52498963 -10.21078369 18.02192012 23.13143352 12.9450155 20.27506705 -22.71198866 4.5337808 62.13391154 -12.1120067 9.06841826 21.62170066 -82.22794205 -2.29055044 43.73524058 74.60564406 17.98785565 -9.0161285 20.24838865 -1.04278279 -8.57317418 3.574613 1.14658689 -0.8389148 -14.09574272 -10.28965825 -23.45017942 25.34588952 -6.10455349 -11.19941501 17.58832078 1.5720524 17.56357838 53.17540811 18.20719426 7.4760742
-0.19722733 0.11126256 1.36867371 109.26653736 26.52563432 -20.85656429 -0.52017275 -6.62989524 -13.04549681 -0.10600997 -2.84393959 -5.31465965 -0.01301293 -2.83508688 -5.31589415 -9.26849152 2.19916267 8.77186428 -22.73824933 30.93152347 30.19137796 -2.41070157 -15.16566612 2.85201834 -40.09301747 24.21399714 -54.92662491 128.41051889 -56.40448755 155.22003431 1.34499562 -13.3897625 24.30202536 2.66579428 -10.28721339 17.54729909 22.99606936 13.17549192 21.13604567 -22.61496548 4.71117311 61.67382589 -12.14821336 9.0607898 21.79595001 -82.10161932 -2.09438362 43.92379056 74.68800532 17.91425547 -9.12067317 20.12662847 -1.05158324 -8.76605723 3.61399072 1.08721444 -0.77805522 -14.05916549 -9.91267537 -23.51500873 25.36050418 -6.5125831 -11.23192961 17.61604394 1.56998515 17.3129775 53.22187169 18.44942821 7.43332765
-0.19675106 0.11078375 1.36874954 109.04762905 26.30732496 -20.48709634 -0.59395631 -6.34340968 -13.21060286 -0.06132925 -2.73872238 -5.45702781 0.02506799 -2.72304187 -5.46183394 -9.19060544 2.16611956 8.76528365 -22.98209299 30.71600948 30.33185535 -2.4168125 -15.14066728 2.56975973 -40.24090878 23.67617682 -54.68822523 128.18330375 -56.68549951 154.96229983 1.33049153 -13.56850942 24.25475154 2.84900767 -10.49443413 16.85774237 23.11707726 13.67938104 22.35628278 -22.72453806 4.65310114 61.10194087 -12.25484457 9.11430531 22.15500802 -81.86853122 -1.81009524 44.24883306 74.78749589 17.8337887 -9.22642205 19.97301957 -1.07032201 -8.96240425 3.59249225 1.14023251 -0.83154141 -13.93044397 -9.18165548 -23.69778213 25.50577446 -7.13265134 -11.07988327 17.62668192 1.6536387 17.01095603 53.2204783 18.72737479 7.41609191
-0.19666666 0.11044058 1.36890518 108.72524113 26.01313628 -19.95992743 -0.67557245 -6.02111708 -13.49956771 -0.06530825 -2.61230975 -5.63416686 0.01495775 -2.5944642 -5.64017313 -9.05488854 2.11171732 8.77770468 -23.20059189 30.32781529 30.53642482 -2.40454197 -15.05358042 2.50291714 -40.32373878 23.17423664 -54.66215131 127.6434988 -57.08589979 154.40155375 1.35008036 -13.84969919 24.17078149 2.95818637 -10.24974237 16.19928762 23.48715462 13.89647572 23.56058238 -23.00326831 4.17479587 60.77968892 -12.39968145 9.28910496 22.56997322 -81.53121246 -1.41579142 44.66536132 74.86735736 17.74114951 -9.3765575 19.82547719 -1.06957472 -9.14053786 3.8148837 1.07300208 -0.75116563 -13.96507139 -8.55632122 -24.03902449 25.81310781 -7.39905738 -10.97503961 17.56529521 1.65891665 16.73816684 53.24622079 18.9475916 7.38001798
-0.19705376 0.11018723 1.36908585 108.4056827 25.64510497 -19.34357343 -0.75124214 -5.61966937 -13.78616041 -0.1016085 -2.44358164 -5.78381559 -0.02854865 -2.42561552 -5.79008374 -8.89843326 2.06809124 8.70885966 -23.22423427 30.04011969 30.59581498 -2.40239385 -15.12142376 2.28723286 -40.57344268 22.84259589 -54.32050536 127.36779287 -57.74220754 153.90559602 1.39822038 -14.17053474 24.14958002 3.02405789 -10.2364887 15.62593113 24.07505896 14.23593495 24.13244018 -23.36488589 3.26261361 61.00785886 -12.55041801 9.62372457 22.8473191 -81.17592483 -0.91673435 45.12621041 74.89442072 17.67249737 -9.57822919 19.74661879 -1.06516872 -9.17450968 3.75993913 1.11171248 -0.79283685 -14.305596 -8.20718111 -24.50719229 26.27326465 -7.18522647 -11.01773218 17.40818264 1.58545798 16.52577296 53.32157798 19.07724824 7.31708245
