HIERARCHY
ROOT Hips
{
  OFFSET 0 1.1673769999999999 0
  CHANNELS 6 Xposition Yposition Zposition Xrotation Yrotation Zrotation
  JOINT Spine
  {
    OFFSET 0.000003812944337411511 0.10717500000681812 -0.009311
    CHANNELS 3 Xrotation Yrotation Zrotation
    JOINT Spine1
    {
      OFFSET 0 0.1058532983696241 -0.004285186608692496
      CHANNELS 3 Xrotation Yrotation Zrotation
      JOINT Spine2
      {
        OFFSET -8.470329472543003e-22 0.10599345671141647 -0.007812688101110094
        CHANNELS 3 Xrotation Yrotation Zrotation
        JOINT Neck
        {
          OFFSET -8.470329472543003e-22 0.26240299999999994 -0.04488100000000002
          CHANNELS 3 Xrotation Yrotation Zrotation
          JOINT Head
          {
            OFFSET -4.235164736271502e-22 0.17466899999999996 0.05625600000000003
            CHANNELS 3 Xrotation Yrotation Zrotation
            End Site
            {
              OFFSET -4.235164736271502e-22 0.10756799999999966 0.021070000000000005
            }
          }
        }
        JOINT LeftShoulder
        {
          OFFSET 0.10574399999999999 0.23009199999999996 -0.07323000000000002
          CHANNELS 3 Xrotation Yrotation Zrotation
          JOINT LeftArm
          {
            OFFSET 0.14878212914559852 -0.04653266654569688 -0.030693304075147546
            CHANNELS 3 Xrotation Yrotation Zrotation
            JOINT LeftForeArm
            {
              OFFSET 0.24109000000000003 2.220446049250313e-16 -5.551115123125783e-17
              CHANNELS 3 Xrotation Yrotation Zrotation
              JOINT LeftHand
              {
                OFFSET 0.316792 0 -1.1102230246251565e-16
                CHANNELS 3 Xrotation Yrotation Zrotation
                End Site
                {
                  OFFSET 0.1995166749313234 -0.0432441138377333 0.06217329198086369
                }
              }
            }
          }
        }
        JOINT RightShoulder
        {
          OFFSET -0.10574399999999999 0.23009099999999982 -0.07323000000000002
          CHANNELS 3 Xrotation Yrotation Zrotation
          JOINT RightArm
          {
            OFFSET -0.14878040829228295 -0.04653159475972379 -0.030692917709113934
            CHANNELS 3 Xrotation Yrotation Zrotation
            JOINT RightForeArm
            {
              OFFSET -0.24109000000000003 -6.661338147750939e-16 -2.7755575615628914e-17
              CHANNELS 3 Xrotation Yrotation Zrotation
              JOINT RightHand
              {
                OFFSET -0.31679300000631333 -8.881784197001252e-16 -5.551115123125783e-17
                CHANNELS 3 Xrotation Yrotation Zrotation
                End Site
                {
                  OFFSET -0.1860088733733346 -0.01696332989209126 -0.06120760506959064
                }
              }
            }
          }
        }
      }
    }
  }
  JOINT LeftUpLeg
  {
    OFFSET 0.12297511767165623 -0.06742078536803264 -0.010003
    CHANNELS 3 Xrotation Yrotation Zrotation
    JOINT LeftLeg
    {
      OFFSET 0 -0.457033849483632 0.010304509991859542
      CHANNELS 3 Xrotation Yrotation Zrotation
      JOINT LeftFoot
      {
        OFFSET 0 -0.500280623664138 -0.036905110570505176
        CHANNELS 3 Xrotation Yrotation Zrotation
        JOINT LeftToeBase
        {
          OFFSET 0.025950805788189563 -0.14255151365608373 0.19507593811975638
          CHANNELS 3 Xrotation Yrotation Zrotation
          End Site
          {
            OFFSET 0.010732117804750613 -0.000035441498015504746 0.11362327680684622
          }
        }
      }
    }
  }
  JOINT RightUpLeg
  {
    OFFSET -0.12297488233495055 -0.0674172146317622 -0.010003
    CHANNELS 3 Xrotation Yrotation Zrotation
    JOINT RightLeg
    {
      OFFSET 0.00000159348816348992 -0.45703784846455486 0.01030460015485039
      CHANNELS 3 Xrotation Yrotation Zrotation
      JOINT RightFoot
      {
        OFFSET -0.0000015934881634621645 -0.5002806236608007 -0.03690511058134042
        CHANNELS 3 Xrotation Yrotation Zrotation
        JOINT RightToeBase
        {
          OFFSET -0.0259497668227143 -0.14255297441554501 0.19507500887383716
          CHANNELS 3 Xrotation Yrotation Zrotation
          End Site
          {
            OFFSET -0.010733201844058626 -0.000035030229497263656 0.11362417898958707
          }
        }
      }
    }
  }
}
MOTION
Frames: 19
Frame Time: 0.03333333333333333
-0.00649706 1.03000694 0.01771543 14.66181116 -29.07931405 2.93350529 0.44363749 6.70750566 2.47692352 -2.02994582 0.90197139 -5.42091724 -3.01427439 -6.30534996 3.55167344 12.11809302 6.82991366 -4.43333389 -0.73733774 20.02739669 8.22967158 3.54425366 4.75600997 -11.62300888 -52.65618816 -33.31435608 -50.6424039 0.00000203 -81.87203137 0.00001585 -66.28313078 23.46230584 41.88604088 -14.73370131 2.1159684 -4.46308534 -107.85946897 41.02008733 127.37554748 -0.00000566 28.75795462 0.00001063 -46.45437109 -14.44973775 -31.51356013 -65.63783458 9.95266135 17.04379077 60.80058652 -9.10307749 -4.02821661 -9.01553576 -1.1785119 -18.71283728 0.00000667 0.00000248 -0.00000211 -33.76040284 -12.81770245 -7.72947322 56.59178267 5.63296573 8.88331514 -27.35412024 -27.81163799 -0.06046205 -13.42598991 0.0000037 0.00001191
-0.01626315 1.03664703 0.01800211 14.98390162 -27.27315062 1.3986432 0.57523779 6.90907069 3.07861114 -1.9867599 0.78229764 -5.315938 -2.94807764 -6.45126577 3.65048652 12.09937608 6.80504213 -3.96779185 -1.77225551 19.50452576 8.75602944 3.37294035 4.3389059 -11.0845382 -52.47955361 -32.95505383 -48.71150526 -0.000025 -82.12317948 -0.00000255 -67.66254521 23.92533721 40.95440322 -14.93746706 3.70731509 -3.99962248 -107.11535975 41.511902 125.97993068 -0.00000649 29.70924328 -0.00000163 -47.07214042 -14.95235357 -33.84779095 -65.50986266 11.27593957 12.43750724 51.09591017 -9.54516292 -6.67631718 -10.48799758 -2.00461725 -16.70576202 0.00000458 6.4e-7 4.4e-7 -34.43023324 -15.91784703 -5.3288504 62.6973468 4.37251661 9.91436956 -13.48739799 -27.00237129 7.91441767 -27.3269255 0.00759447 -0.04325755
-0.02323757 1.0340992 0.02058147 15.31328341 -27.61537499 -0.11040026 0.63181393 7.71752144 3.67121134 -1.95238058 1.18715573 -5.21322959 -2.89356113 -6.07721005 3.75752318 12.23650018 6.70737626 -3.17633966 -2.53658359 19.26115494 9.7037485 3.19907723 3.83994907 -10.5182831 -52.45126197 -32.60119434 -47.19516415 0.00002365 -82.34776977 0.00003805 -68.58050626 24.49013142 40.30539272 -15.13225982 5.61017603 -3.1753735 -104.81999544 41.9596744 123.49626003 0.00001145 31.54602067 -0.00001293 -46.93976417 -15.84992945 -36.00364289 -65.92229558 8.84967581 8.17292362 46.48737078 -10.35727853 -6.46446922 -11.25391033 -3.99013576 -5.36996995 0.00029347 0.00000299 0.00000366 -37.21519794 -18.28219769 -5.93051701 69.26761293 3.81425217 9.84901589 5.47555538 -15.26678602 20.32513863 -45.92402819 4.18733787 -6.00716425
-0.02583259 1.01988648 0.0261501 15.49145678 -29.51830764 -1.01085925 0.47681512 8.67159452 4.19016434 -1.92336786 1.9794826 -5.12448771 -2.84682977 -5.30872001 3.86398397 12.63285431 6.54632307 -2.49027948 -2.96246296 19.40454311 10.20874618 3.08998112 3.90141085 -10.15264692 -52.63824443 -32.89845102 -46.57005444 -0.00007055 -81.30841416 -0.00006054 -69.09164282 24.50653424 38.3912171 -15.27724053 8.53694103 -2.551965 -101.39490482 42.41297736 119.84999843 -5.1e-7 33.14149575 -0.00000328 -46.39353959 -16.63704048 -38.46352704 -65.38838099 4.14858851 4.55981361 46.61963201 -9.03711716 -2.29401928 -8.2622503 -7.96120139 5.68491658 0.00027829 0.00000994 8e-7 -41.99733278 -18.84588057 -9.17592112 78.38081484 3.36448575 9.89609293 5.10743689 -6.40507763 21.10231938 -31.65633761 5.37317595 -11.78695993
-0.02337526 0.99351143 0.03469818 15.6911194 -31.88174782 -1.39327619 0.18049186 9.63909888 5.14474039 -1.91009595 2.7122013 -4.91240999 -2.80560897 -4.58939427 4.09748723 12.80366102 6.38316947 -2.32284608 -3.36579368 19.68532193 9.83747553 2.9701837 4.17464568 -9.75120877 -53.09284352 -32.77629816 -46.60224343 -0.00000345 -79.78110216 0.00000785 -69.68727025 24.12001064 36.35452697 -15.3347954 12.3579254 -2.45751057 -98.77240023 42.95125898 115.97559208 -0.00000506 33.37934319 -0.0000076 -46.14523696 -17.33397289 -40.28706382 -67.41985289 -3.08726296 4.14013922 54.290631 -9.46402871 2.21710457 -4.27576476 -6.03749141 1.92749639 0.00003221 -0.00000706 -8.5e-7 -48.42518234 -16.94489695 -14.61641382 84.7064482 3.6694905 9.93697221 -1.50650851 -6.29304523 20.78637391 -20.15766093 2.0205412 -9.52166638
-0.01808694 0.96592659 0.04230422 16.63056467 -34.328891 -1.11192422 -0.14901177 10.92940721 6.27846517 -1.93973348 3.22499924 -4.70916393 -2.81755798 -4.07921374 4.3121119 12.38955671 6.26472118 -2.29748204 -4.18929444 19.9309708 9.58354236 2.74345712 4.1231444 -8.9810348 -53.36861448 -31.43805524 -46.77656937 -0.00009316 -79.26901942 -0.0000915 -70.23239656 23.70195979 34.92147799 -15.38422443 15.73353335 -2.43631669 -96.75037484 43.38998166 112.70375343 0.00000113 33.82706081 -0.00000195 -45.59389083 -18.30535455 -41.83386071 -69.20288303 -8.57984156 7.39496376 63.42279107 -9.67807482 4.39012713 -8.50024172 -3.84499292 -3.96974982 -0.00000555 -0.00001615 0.00000626 -54.80155288 -13.44579514 -19.75365624 83.37689175 3.84791834 9.95907811 -6.89461301 -9.03783651 20.24886269 -15.99278966 0.73300514 -6.15299307
-0.01354308 0.94510491 0.0475536 18.19323457 -35.65587061 0.74924001 -0.3235537 11.52762566 6.07056198 -2.09150204 3.34749773 -4.7266787 -2.9792915 -3.95485529 4.2924824 11.76643483 6.30950784 -2.17565135 -4.7230977 20.39265302 9.78508267 2.55524831 4.22411879 -8.33715501 -53.00609703 -30.03887874 -46.87395159 -0.00004542 -79.76256055 -0.00006566 -70.49547621 23.47558511 34.36108393 -15.44735667 18.20191612 -2.61012681 -94.06342117 43.23719316 109.94445174 0.00000158 35.44281021 -4.4e-7 -44.8412175 -19.30921239 -43.20439591 -69.41451529 -10.26961269 12.92763949 69.01350974 -9.79331791 4.70913228 -15.08120939 -4.36792759 -8.2460335 0.01653365 -0.00001291 8.3e-7 -58.69463535 -9.27914436 -24.32015455 73.81352356 5.00222461 9.96546234 -10.48189563 -15.06810697 19.79076901 -10.36932507 -0.00001404 0.00000426
-0.0097717 0.93091576 0.05046525 19.52830136 -35.67005129 2.97973166 -0.37954831 11.23614705 5.48837541 -2.23860987 3.00428936 -4.75725917 -3.1320152 -4.29480227 4.25361544 11.44571055 6.52807703 -2.49201354 -4.74783439 21.13056881 9.3020878 2.67407385 4.52206851 -8.73414293 -52.3294395 -29.45048921 -46.50143147 0.00005686 -80.36405579 0.0000506 -71.06085162 23.1536851 34.63499383 -15.36425119 20.32318323 -3.39949152 -91.87626314 43.32139416 107.74837661 -0.0000036 36.73414399 -0.00001182 -44.96415896 -20.07477754 -43.91511912 -67.59669273 -10.97625083 17.97260426 70.82939962 -9.84403777 4.89027021 -20.32511134 -5.84871461 -12.11799793 -0.06263462 0.00000537 -0.00000252 -58.97326287 -5.07750158 -28.63468191 58.57582394 6.38370897 10.00904853 -11.7697705 -21.22326183 15.28168479 -11.20960629 -0.00002839 -0.00001145
-0.00794283 0.92283966 0.04930133 20.12345201 -35.17771091 4.7120386 -0.32051473 10.56576695 4.98828412 -2.26952874 2.59633155 -4.80437869 -3.163572 -4.69962378 4.20048429 11.48210748 6.73892544 -2.99749389 -4.67588414 21.65786349 8.55011836 3.01609043 4.3606209 -9.87059597 -51.69536202 -29.40525121 -45.49069165 -0.00003521 -80.90298517 -0.00002683 -72.11559561 22.79481164 35.42793452 -15.2160815 21.81183739 -4.21206332 -90.63346134 44.18314938 106.11499225 4e-8 37.57023293 0.00000242 -45.93805633 -20.88857452 -44.30429879 -63.89390564 -11.12886218 22.73391031 69.9967392 -9.80087914 5.48827755 -24.28850194 -7.00345262 -15.11766195 -0.48704449 -0.00001086 2.4e-7 -55.69271667 -0.25516145 -34.29269477 40.14172247 8.72670581 10.31420947 -1.33132315 -23.74113522 19.64696971 -11.24478974 0.00001794 0.00000844
-0.00968512 0.92069634 0.04537817 19.48658116 -34.533193 5.52689309 -0.17010356 9.56672679 4.30203002 -2.23864391 2.33680355 -4.93857921 -3.14723438 -4.95522661 4.06382731 11.81707853 6.84017444 -2.99841743 -4.09887141 21.8611992 8.38646566 3.26039046 3.89359119 -10.69784607 -50.87248645 -29.61801191 -44.63326398 0.00001677 -81.4295061 0.00001134 -73.10969771 22.53030692 36.49900662 -15.26004543 21.94705283 -4.27463259 -89.58297326 44.93023384 105.41699369 -0.00001959 38.43678395 0.0000126 -46.54851734 -21.85368206 -44.3862766 -58.01475987 -9.90466315 27.92313308 65.77321726 -9.6125259 6.56050192 -26.41634593 -8.64741123 -19.20112533 -1.5290753 -0.00001336 0.00000675 -48.55469025 -0.80542827 -36.03460619 22.70825496 8.51314583 4.9091013 2.99519807 -27.28242918 26.20208482 -11.77383655 0.00001398 0.00001517
-0.01556298 0.9204924 0.04096651 18.0213235 -34.65218696 4.5113184 -0.23729534 9.01805306 5.111779 -2.20756121 2.01912732 -4.94498806 -3.13073994 -5.25132334 4.05243672 12.52315372 6.9044279 -3.12793666 -2.90445067 22.17923089 7.75501619 3.42889746 3.89027514 -11.27912719 -50.21111601 -29.63268574 -44.64881947 -0.00002371 -82.00353516 -0.00000731 -73.77532976 22.37517521 37.84354905 -15.35838428 21.0644512 -4.2167639 -90.13678689 45.03424168 106.72984649 -0.00001635 37.97105685 0.00000726 -46.36711225 -22.58720655 -43.31540928 -49.8770095 -10.94586697 32.35791076 61.12271226 -9.10283817 8.6972909 -26.1318014 -7.79664282 -22.42989913 -6.62622808 0.00000222 -0.00000515 -46.2718382 -1.37651824 -35.46366781 21.49906761 8.22433293 3.2963944 6.07291612 -28.52833581 28.16890445 -12.48331985 0.00000283 -6.9e-7
-0.02323368 0.9202137 0.03474174 16.66255603 -35.51168769 3.64216371 -0.27575267 8.68177918 5.95933073 -2.20222233 1.77225327 -4.91496721 -3.13985159 -5.47009649 4.07440187 13.06402405 7.02413643 -3.59240677 -1.79694604 22.97347821 6.53970428 3.5777812 4.56714176 -11.77381957 -50.40809262 -29.28146722 -45.60896982 -0.00002959 -82.73652892 -0.00003569 -73.74664192 22.79780785 39.17916728 -15.34638768 19.88977468 -4.45995651 -92.42327547 44.69146255 109.34218586 0.00000372 36.53446911 0.0000015 -46.08865932 -22.79144978 -41.67561036 -40.86343866 -15.7236975 34.75513966 59.64945872 -7.53006695 10.24948244 -19.40056055 -3.76721469 -21.0813293 -15.30211887 0.00000223 0.00001025 -49.70784567 0.20479505 -33.31216423 33.93041355 9.70193102 4.86311102 8.40419749 -26.40690991 27.65589574 -12.19111523 -0.0000013 -4.4e-7
-0.03007034 0.9232135 0.02720251 16.02904563 -37.21152026 3.43769796 -0.26243092 8.62855773 6.08436643 -2.28616361 1.91061868 -4.87986518 -3.23969137 -5.31142871 4.10005212 13.14974405 7.10006991 -3.97098838 -0.69964671 23.75946675 6.00779423 3.6252323 5.22643312 -11.91105028 -51.10580154 -28.36546262 -47.035884 0.00008125 -83.96821392 0.00007094 -73.03304956 23.99073455 40.53612284 -15.30771222 18.49804282 -4.29533228 -94.63105493 44.23410339 111.84383328 0.00000852 35.88205573 -0.00000622 -45.76095815 -23.04713517 -40.44005902 -35.57268727 -21.55298919 35.65253859 61.64203802 -6.08577345 10.44914279 -1.56922975 0.06349092 -15.87606527 -23.73356299 0.81206969 -7.98800548 -52.68244411 1.91441042 -28.11421757 45.69515935 8.45444252 4.42636106 4.14633093 -22.54303397 24.84713541 -7.81810665 0.00000383 0.00000186
-0.03459517 0.92873978 0.01952582 15.49119876 -38.43029767 2.85132061 -0.18555959 8.59933884 6.23017977 -2.3127478 2.00467592 -4.81823953 -3.27513832 -5.19849183 4.15193901 13.09468274 7.11077873 -4.21252902 0.51352019 24.0287968 5.95259128 3.55797937 5.31588329 -11.6766212 -51.35534437 -27.3589894 -48.57529283 0.0000401 -85.36624375 0.00004827 -71.73604095 24.86651201 42.08002226 -15.24699575 16.59459438 -3.86107646 -95.70116939 44.1986575 113.65314153 0.00001629 36.47866907 -0.00001901 -45.46062781 -23.22659515 -39.26383884 -35.29478319 -24.38507143 34.3663416 65.18406707 -8.01422839 10.10779966 14.8046096 -0.59968072 -9.97403095 -23.83109859 7.82204083 -25.72966036 -53.82662442 2.63602939 -21.67891542 55.01434941 6.98064976 3.08198219 -4.10057826 -22.2428335 21.40606364 -3.28970243 0.00002322 0.00000837
-0.0320566 0.93890015 0.01325987 14.47884735 -37.47034208 2.41473783 0.23096887 7.86689758 5.96592438 -2.10187294 1.54871073 -4.85005976 -3.06011825 -5.6347331 4.11464838 12.97110093 7.21236882 -4.55962075 0.95831425 24.05935816 5.36914873 3.45455163 5.0888195 -11.32271885 -51.29536121 -26.95236684 -50.35245943 0.00015277 -86.03301219 0.00016827 -69.69956154 24.64785073 43.42125281 -15.13533284 14.16152067 -4.01346131 -96.90922214 44.78631013 115.35368988 -0.00000227 36.82301468 -0.00000704 -45.7921759 -22.26611936 -37.34536485 -41.25590988 -25.01329234 29.3801884 73.16325354 -10.59544891 8.72969117 13.33127637 -1.82200718 -8.43282926 -16.95066734 10.25844905 -32.48565686 -52.15256852 0.75983068 -18.3028227 61.07488932 7.4216575 3.06134668 -12.75302875 -24.3331343 16.70492723 -3.19456366 -0.00002199 -0.00000127
-0.02399202 0.9557299 0.01042499 13.93060153 -35.5144162 2.67659344 0.6005133 7.16525935 5.36623651 -1.9249709 1.11305014 -4.90713147 -2.87532114 -6.06085752 4.05452689 12.65963571 7.27263304 -4.93198508 0.67194964 23.73499532 4.99988133 3.3800853 4.84200738 -11.06089906 -51.51943834 -27.26045091 -52.03586333 0.00002548 -85.62089482 0.00002438 -67.75857281 23.88670164 43.94227794 -15.05507722 11.26724921 -4.546907 -99.61567171 45.1601461 118.04463975 -0.00000111 35.54745635 0.00000381 -46.31517338 -20.47753548 -35.03970031 -51.05948525 -21.08289128 24.15437748 79.32487464 -10.29870677 5.44543863 4.68469083 -2.49934258 -10.09440271 -17.78034291 5.73810544 -19.01769035 -48.71320645 -2.65341917 -16.86135397 63.15706612 8.51662119 4.21302486 -20.68489629 -25.86713278 10.75477486 -3.46965954 -0.0000023 0.00000689
-0.01649009 0.97819258 0.01016542 14.13228883 -33.9417352 3.39236831 0.63899811 7.19157286 4.28051417 -1.95079656 1.16306692 -5.08543316 -2.91925259 -6.0183548 3.87753944 12.2624795 7.1703173 -4.88187126 0.35459522 22.89357382 5.85842411 3.35645429 4.85166135 -10.9682593 -51.95119058 -28.72666613 -52.71131589 -0.00012201 -84.36667471 -0.00012359 -66.7089698 23.42628255 43.39249378 -14.98852421 8.09893665 -4.7227961 -102.67425635 44.38498773 121.35738185 0.00000513 33.37366569 -0.00000256 -46.40944942 -18.54180731 -33.47417263 -59.79823255 -10.69927697 21.69868601 79.35632169 -9.7741719 2.68220288 -2.54517358 -1.41428193 -12.91137364 -13.3637237 0.74625016 -3.32947191 -44.01176071 -6.07248968 -14.20956873 61.75532261 9.48277057 5.24432028 -27.47754075 -27.06459139 4.51485091 -4.2540039 0.00000482 0.00000606
-0.011485 1.00465485 0.01202153 14.47847544 -32.00198482 3.58910063 0.51761238 7.19665402 3.1486937 -2.02045326 1.20744288 -5.35339469 -3.01419311 -5.98693081 3.61557664 12.09971956 7.0111165 -4.58210202 -0.14317355 21.67317971 7.28855159 3.40778198 4.97297098 -11.13825556 -52.23696651 -30.96761763 -51.96105954 -0.00005034 -83.11203768 -0.00003804 -66.41293972 23.4541118 42.50633254 -14.85714966 5.02246524 -4.55151623 -105.17096854 42.72829975 124.48771513 0.00000305 31.26992034 -0.00000536 -46.30292508 -16.56865825 -32.66068003 -64.9645628 1.13556135 20.47947887 72.94668042 -9.16326015 -0.24704781 -7.57636643 -1.00687609 -15.49182353 -3.974897 -0.22418847 3.42129689 -37.36640743 -9.60990918 -10.23804827 56.87430076 8.33288877 6.46725716 -32.18535923 -27.39694559 -0.69641254 -8.36601893 0.00000133 -0.00000685
-0.00649704 1.03000708 0.01771542 14.66181579 -29.07931963 2.93350902 0.44363417 6.70750341 2.47692597 -2.02994437 0.90197082 -5.42091792 -3.01427611 -6.30534592 3.55167355 12.11809328 6.829918 -4.43333491 -0.73734103 20.02740118 8.22967079 3.54424638 4.75600234 -11.62303543 -52.65620408 -33.31435759 -50.64240715 -0.00001871 -81.87203528 -0.0000088 -66.28316292 23.46227799 41.88604047 -14.73369685 2.11597285 -4.46309561 -107.85951644 41.02006973 127.37558315 0.00000154 28.75789275 -0.00000504 -46.45438481 -14.44972281 -31.51351229 -65.63776872 9.95265849 17.04378479 60.80048875 -9.10306429 -4.02821347 -9.01550937 -1.17852751 -18.71287149 0.00001117 -0.00000725 -0.00000547 -33.76040162 -12.8176808 -7.72945274 56.59173862 5.63292515 8.88329241 -27.35397503 -27.8116693 -0.0603948 -13.42601212 0.00004377 0.00000438
