HIERARCHY
ROOT Hips
{
  OFFSET 0 1.1673769999999999 0
  CHANNELS 6 Xposition Yposition Zposition Xrotation Yrotation Zrotation
  JOINT Spine
  {
    OFFSET 0.000003812944337411511 0.10717500000681812 -0.009311
    CHANNELS 3 Xrotation Yrotation Zrotation
    JOINT Spine1
    {
      OFFSET 0 0.1058532983696241 -0.004285186608692496
      CHANNELS 3 Xrotation Yrotation Zrotation
      JOINT Spine2
      {
        OFFSET -8.470329472543003e-22 0.10599345671141647 -0.007812688101110094
        CHANNELS 3 Xrotation Yrotation Zrotation
        JOINT Neck
        {
          OFFSET -8.470329472543003e-22 0.26240299999999994 -0.04488100000000002
          CHANNELS 3 Xrotation Yrotation Zrotation
          JOINT Head
          {
            OFFSET -4.235164736271502e-22 0.17466899999999996 0.05625600000000003
            CHANNELS 3 Xrotation Yrotation Zrotation
            End Site
            {
              OFFSET -4.235164736271502e-22 0.10756799999999966 0.021070000000000005
            }
          }
        }
        JOINT LeftShoulder
        {
          OFFSET 0.10574399999999999 0.23009199999999996 -0.07323000000000002
          CHANNELS 3 Xrotation Yrotation Zrotation
          JOINT LeftArm
          {
            OFFSET 0.14878212914559852 -0.04653266654569688 -0.030693304075147546
            CHANNELS 3 Xrotation Yrotation Zrotation
            JOINT LeftForeArm
            {
              OFFSET 0.24109000000000003 2.220446049250313e-16 -5.551115123125783e-17
              CHANNELS 3 Xrotation Yrotation Zrotation
              JOINT LeftHand
              {
                OFFSET 0.316792 0 -1.1102230246251565e-16
                CHANNELS 3 Xrotation Yrotation Zrotation
                End Site
                {
                  OFFSET 0.1489197794816154 -0.029785938528091638 -0.11888857063295749
                }
              }
            }
          }
        }
        JOINT RightShoulder
        {
          OFFSET -0.10574399999999999 0.23009099999999982 -0.07323000000000002
          CHANNELS 3 Xrotation Yrotation Zrotation
          JOINT RightArm
          {
            OFFSET -0.14878040829228295 -0.04653159475972379 -0.030692917709113934
            CHANNELS 3 Xrotation Yrotation Zrotation
            JOINT RightForeArm
            {
              OFFSET -0.24109000000000003 -6.661338147750939e-16 -2.7755575615628914e-17
              CHANNELS 3 Xrotation Yrotation Zrotation
              JOINT RightHand
              {
                OFFSET -0.31679300000631333 -8.881784197001252e-16 -5.551115123125783e-17
                CHANNELS 3 Xrotation Yrotation Zrotation
                End Site
                {
                  OFFSET -0.14891836631234012 -0.029784881437733945 -0.11888860228635811
                }
              }
            }
          }
        }
      }
    }
  }
  JOINT LeftUpLeg
  {
    OFFSET 0.12297511767165623 -0.06742078536803264 -0.010003
    CHANNELS 3 Xrotation Yrotation Zrotation
    JOINT LeftLeg
    {
      OFFSET 0 -0.457033849483632 0.010304509991859542
      CHANNELS 3 Xrotation Yrotation Zrotation
      JOINT LeftFoot
      {
        OFFSET 0 -0.500280623664138 -0.036905110570505176
        CHANNELS 3 Xrotation Yrotation Zrotation
        JOINT LeftToeBase
        {
          OFFSET 0.025950805788189563 -0.14255151365608373 0.19507593811975638
          CHANNELS 3 Xrotation Yrotation Zrotation
          End Site
          {
            OFFSET 0.010732117804750613 -0.000035441498015504746 0.11362327680684622
          }
        }
      }
    }
  }
  JOINT RightUpLeg
  {
    OFFSET -0.12297488233495055 -0.0674172146317622 -0.010003
    CHANNELS 3 Xrotation Yrotation Zrotation
    JOINT RightLeg
    {
      OFFSET 0.00000159348816348992 -0.45703784846455486 0.01030460015485039
      CHANNELS 3 Xrotation Yrotation Zrotation
      JOINT RightFoot
      {
        OFFSET -0.0000015934881634621645 -0.5002806236608007 -0.03690511058134042
        CHANNELS 3 Xrotation Yrotation Zrotation
        JOINT RightToeBase
        {
          OFFSET -0.0259497668227143 -0.14255297441554501 0.19507500887383716
          CHANNELS 3 Xrotation Yrotation Zrotation
          End Site
          {
            OFFSET -0.010733201844058626 -0.000035030229497263656 0.11362417898958707
          }
        }
      }
    }
  }
}
MOTION
Frames: 18
Frame Time: 0.03333333333333333
-0.01270773 1.00566299 0.01970398 20.18238004 -31.87770672 11.84383571 0.50420327 6.44005271 1.94402233 -2.02994338 0.90197754 -5.42091837 -3.01427394 -6.30535424 3.55167331 12.11809335 6.8299033 -4.43333363 -0.73734605 20.02740329 8.22967499 3.54423952 4.75600312 -11.62304198 -52.65617992 -33.31436389 -50.64239602 0.00005681 -81.87203073 0.00007077 -66.28315485 23.46228358 41.88602503 -14.73370172 2.11597894 -4.46309031 -107.85948756 41.02009378 127.37554265 -0.00000649 28.75791375 0.00000908 -46.45438917 -14.44970292 -31.51353935 -65.46981104 -2.34124859 7.35593967 31.64653205 -3.75345676 -0.69777588 15.8109347 -1.79818139 -19.3294463 0.00000718 0.00000111 0.00000256 -49.41095838 -4.9945757 -8.5244381 68.65164232 -8.97453788 1.06297136 -21.48686286 -13.89331156 10.5253871 -17.09310385 -0.0000245 0.00000105
-0.02415739 0.98676201 0.01209738 19.87225754 -32.20483692 12.50324475 0.91520505 6.15572482 1.49524834 -1.710731 0.90618842 -5.49325179 -2.7039304 -6.2907148 3.47641213 11.81678585 6.90923108 -4.4048456 -1.42542525 20.36830112 8.28537012 3.37552621 3.68034779 -11.27903894 -52.21063242 -29.50372999 -50.07608957 0.00004206 -84.24155762 0.00003517 -64.80404198 23.85570383 42.07075458 -14.80981982 2.87138783 -5.65384216 -108.99932476 39.80692172 128.10317384 0.00000747 27.69463611 -5.5e-7 -45.69610512 -13.147939 -30.85507896 -68.44125675 -4.03059493 10.18729902 47.03730754 3.19449213 1.06038288 7.14404016 -0.19608063 -11.82618417 0.00000448 0.00000511 3.8e-7 -51.31597273 -3.20221649 -12.42513858 67.47538745 -9.35459251 0.29102712 -25.23284218 -10.64631265 12.59720829 -6.16484672 0.00001111 -0.00000787
-0.03510236 0.96696129 0.01129061 19.22097433 -33.93646155 12.63476363 1.16970369 6.02202675 0.97035396 -1.54966245 1.06558232 -5.47157618 -2.54411007 -6.14132569 3.50247301 11.68378021 7.07843664 -4.58338378 -0.66867558 21.18949727 7.93538832 3.33957159 3.83790151 -11.14730598 -51.12662899 -26.90550477 -49.81313144 0.00015976 -87.13946646 0.00017182 -63.31334082 23.66755869 43.61536701 -14.8461712 3.48439219 -6.53316245 -109.19678697 39.92664647 128.49252515 -9.8e-7 28.9286939 -0.00000591 -45.7747441 -12.08063877 -29.95569479 -67.42551807 -6.11445544 16.1289986 58.33978406 5.04448421 2.65732483 2.78393081 0.18698493 -10.00962447 0.0000082 -0.00000173 0.00000293 -54.21763153 -1.96574048 -17.39806249 67.90681336 -9.64637702 0.70819254 -25.2398358 -4.81944565 14.79879323 -0.85146283 -0.00002367 0.00000347
-0.04676653 0.95545715 0.01655923 18.46840606 -35.50349106 11.85832917 1.10523517 5.67292867 0.67220347 -1.68873593 0.98454849 -5.40088229 -2.67293331 -6.2353573 3.57505729 11.55073114 7.44650538 -4.44724507 0.77881778 22.84114876 7.70906663 3.15030537 4.6202086 -10.39817508 -49.01324445 -25.07570909 -50.08539425 -179.99876604 -89.60753313 -179.99876946 -62.10250337 22.80547844 45.88888422 -14.88992893 3.14968915 -6.44960331 -108.33196652 41.11529418 128.98300099 0.00000534 32.44179419 -0.00001171 -45.72324867 -11.86331392 -29.45693382 -61.83778455 -9.68698381 21.93767874 62.90719105 6.07623945 5.25818183 0.60660565 0.37606828 -10.50364179 -0.59319653 0.00969455 -0.93613858 -56.773428 -0.68310728 -21.30694265 66.9942295 -5.8355822 0.98619571 -20.4806989 -4.09951003 15.84909006 -0.45298211 0.00001554 0.00000492
-0.05461898 0.95394295 0.02636475 17.52914201 -37.15956626 10.37549637 0.92879846 5.15505153 0.42105625 -1.88623497 0.74820925 -5.43986356 -2.86966656 -6.46711666 3.53273864 11.55652556 7.9430902 -3.82775888 2.03329089 25.15046383 8.06722186 2.71913207 5.16754588 -8.93421026 -46.88297001 -23.28358221 -50.63687085 179.99994073 -86.41621302 179.99995039 -61.31990991 24.04454888 47.38173966 -14.79556003 2.4690967 -5.14381447 -106.04706178 42.77192375 128.87405246 0.00000621 37.5339594 -0.00000321 -46.3395551 -12.99660696 -31.14959493 -53.30097695 -12.17640403 27.3585066 61.467477 8.47440103 8.43427215 1.17819273 0.28970336 -9.80591283 -0.00116266 0.00000214 0.00000444 -56.74686989 0.37708915 -23.05043683 61.9662141 -4.20089504 0.2014251 -13.77853671 -3.60259278 18.33233887 -0.45298211 2.5e-7 -0.00000167
-0.05405372 0.96487846 0.03756003 17.09231343 -38.95076861 9.57827906 0.79910684 4.30415804 -0.63979553 -1.98190323 0.61416244 -5.60239366 -2.98362311 -6.59952356 3.36261037 11.62595037 8.44108072 -2.9250509 2.62379079 27.56868123 8.47711618 2.32955608 5.45598087 -7.68585522 -45.15268919 -21.67501126 -50.52407434 -179.99995173 -82.80059807 -179.99994041 -61.10620516 28.41516185 48.70255322 -14.52010481 2.14776671 -3.10377139 -102.14927104 44.55752509 127.67618896 0.00002326 43.92717929 -0.0000303 -48.41002328 -14.84889866 -34.94486112 -45.01759414 -11.66890697 32.1010525 56.70086394 5.1608613 9.87221994 5.85835712 -0.03796697 -7.60352237 -0.92016817 0.0230393 -1.43573178 -54.239286 1.34126902 -23.50072955 51.29131827 -4.75101587 -1.7727408 -4.35477507 -2.33343166 21.95623082 -0.4529839 0.00001515 0.00001012
-0.04481934 0.98392349 0.04989602 17.84813073 -40.34703685 9.40605688 0.45283545 3.57362564 -1.42014884 -2.19979249 0.59811851 -5.78528085 -3.2278207 -6.63220725 3.1741645 11.62012691 8.76736291 -2.08056385 3.16480196 29.13525617 8.26076671 2.30645953 5.5670233 -7.64742436 -43.6268749 -21.23407359 -49.35870531 179.9999828 -79.43391716 179.99998624 -61.70471346 32.2222137 50.80664147 -14.24330819 1.66878658 -0.98025877 -98.61617084 46.36969496 126.6743954 -0.00001682 49.52264923 0.0000055 -50.21392647 -16.43725366 -37.98614209 -38.80427792 -10.14980306 34.20492232 51.91351294 -5.72981663 9.83056499 10.7096933 -0.14310116 -7.69420947 -10.14878334 2.79186347 -15.21679583 -48.76353116 -0.09191113 -24.19344638 31.86018334 -6.15975917 -3.87360191 9.52705122 0.74732967 24.72470913 -1.41863748 -0.0000211 0.00000292
-0.03408546 1.00160324 0.06325518 19.59859128 -40.07573742 11.37117865 -0.25384704 2.19446642 -3.35986676 -2.87759386 0.88321093 -6.07132521 -3.95609025 -6.40441834 2.89895126 11.99244741 8.90838125 -1.06029337 3.69344724 29.65016573 8.36038858 2.66905866 5.18408838 -8.86865101 -42.14268559 -22.37278072 -46.88551038 179.99993234 -77.90737224 179.99992804 -62.96365187 32.55462722 52.37727932 -14.08046321 0.76686592 0.6268641 -95.94854048 47.24131723 126.36086297 -0.00001758 52.51722755 0.00002361 -49.37559968 -17.73270707 -38.868022 -36.22294634 -8.0467947 31.41255932 48.16341566 -8.38420236 10.13916528 6.93924324 -1.9943771 -14.02342712 -16.49750206 2.71713551 -15.34384919 -46.86129995 -1.19730815 -27.99113332 18.58816367 -4.49053279 -4.26849443 24.44265729 6.14515906 30.99183737 -3.73769955 0.09939837 -2.28594647
-0.02488096 1.00731552 0.07544704 21.79933651 -40.17510543 14.14664096 -1.08950676 1.59047256 -5.46868544 -3.73828029 1.66743109 -6.30789705 -4.85325627 -5.66121261 2.68656397 12.65788897 8.79327383 -0.50113732 4.01100381 29.26705981 9.06566758 3.15102748 4.6114849 -10.49367588 -42.64138697 -24.51976233 -44.60657848 179.99992352 -78.77852204 179.99992457 -64.39252786 32.78916779 52.85001179 -14.11245916 0.20911684 0.78735276 -94.94270292 46.42478143 126.07309983 -0.00002517 52.41778612 0.0000326 -48.83288505 -18.26606205 -38.73204544 -37.86067881 -3.33705835 27.2026044 46.38256529 -5.86144537 10.51881047 -4.72282191 1.88186908 -19.41836851 -15.52836504 0.08542927 -2.70700445 -49.82788104 0.12274001 -30.7064145 21.3073156 -2.49048914 -3.89798683 18.10650413 4.90959417 30.49151121 0.00001079 0.00001769 -0.0000144
-0.00573969 1.00504494 0.08653316 23.81014489 -44.67097318 12.66703239 -1.25570091 5.40304105 -2.56970933 -3.66814682 2.53912397 -5.87738894 -4.72393009 -4.78509068 3.14355017 12.78464946 8.36950566 -1.055108 3.89310292 28.26361437 8.72766227 3.31654033 4.38113523 -11.06162768 -45.04578898 -25.73695428 -45.1386695 -179.99993337 -80.1522896 -179.99992168 -64.45839508 33.51560478 53.01167022 -14.33194949 0.63154836 -0.75210697 -95.72524896 45.38586747 124.97145401 -0.00000625 51.48015056 -7.1e-7 -49.96667659 -17.9203838 -38.32266263 -41.77661442 0.05312747 28.95269424 49.03353026 -1.19113414 8.50528863 -17.53405233 3.45513074 -16.43991338 -11.8125828 0.00000736 -0.00001348 -46.60492813 -2.17998041 -26.28734437 19.44060675 -3.94456364 -2.90571458 15.8487012 3.63513691 30.19071706 -8.7e-7 -0.0000196 -0.00000156
0.00460001 0.99115975 0.08830323 21.59496346 -45.1763477 12.64588481 -0.01057362 5.50351273 -4.81462355 -2.67169551 2.79964976 -5.77421771 -3.69235979 -4.49685683 3.26381325 12.58557262 8.08170351 -1.36841109 3.15790866 27.47155046 8.28191294 3.02091758 4.3396617 -10.12995254 -49.06716167 -26.55932146 -47.00680942 179.99994206 -82.12358685 179.99995289 -63.30084934 35.4876695 52.18174397 -14.48182079 1.54084848 -2.30929859 -96.97962157 44.06725896 122.92960917 -0.00000312 50.38148348 -0.00001173 -52.18186327 -16.41001064 -38.3697677 -46.62618206 0.56140422 24.77199144 55.74035663 -1.53510418 6.83200827 -22.45792852 3.3255128 -12.92955215 -4.3219345 -0.00002686 0.0000015 -50.30102615 1.30513202 -27.59853836 43.33730737 -6.77489972 -0.86587266 5.61101677 1.38074341 22.67367485 -0.45940624 -0.00585437 0.72873853
0.00512663 0.97710976 0.0891607 18.75781674 -45.16773933 12.1012444 0.99145653 6.24958527 -6.66321588 -2.0638548 2.73506337 -5.8591942 -3.07689395 -4.51915949 3.17852773 13.14315469 7.7939775 -1.72332532 2.8568152 26.35215493 8.07421285 2.82528831 4.20622004 -9.53235488 -52.26934628 -28.40630318 -48.19945798 179.99992583 -85.82119817 179.9999431 -63.67141374 36.56418751 50.14835485 -14.50238017 1.91384113 -2.72681847 -98.33403768 42.95269328 121.75547746 -0.00001403 47.7481753 0.00000734 -53.71734338 -16.16041452 -38.87430674 -50.49211454 -1.96485735 18.26522798 61.91693548 1.03441033 6.39399728 -22.0456139 3.15091059 -12.44279074 -3.27067662 0.00001391 -0.00000267 -51.12165098 2.75723301 -28.46891361 64.89282159 -7.98221877 1.47335609 -1.67391391 -0.28737165 16.12301858 -6.62402631 -0.64762323 7.65448433
-0.00046143 0.97416138 0.08668652 17.38786737 -45.09096961 12.97748392 1.54141971 7.5515676 -8.62364105 -2.00510467 2.89478398 -6.09683923 -3.0312279 -4.31571776 2.94409725 14.00533601 7.43315418 -2.15245124 2.9437549 24.91773452 8.18456226 3.05814979 4.52127648 -10.23278283 -54.5439466 -32.01217395 -49.15324785 0.00028824 -89.36378085 0.00028078 -63.61549102 35.16577171 47.26713084 -14.50895143 1.81694469 -2.68499661 -98.59765037 41.52711917 121.15465266 -7.9e-7 44.47284886 -0.00000173 -52.37368436 -16.14072252 -37.99080542 -53.88477799 -3.1838961 11.41669888 63.69535603 4.64925441 6.02517254 -18.62635886 2.70931804 -12.27161685 -3.30677415 8.5e-7 4.3e-7 -49.69556976 2.77294836 -27.57837799 79.30515042 -6.47773963 2.70778825 -5.79252054 0.3170879 14.80348075 -7.24457895 -1.54370007 11.96743585
-0.00683659 0.98136169 0.07473554 17.29494336 -44.51269316 14.9202628 2.07782665 8.50413235 -10.66262837 -1.86219355 3.06658872 -6.45860582 -2.92057579 -4.1159395 2.59006797 14.08007079 7.1596896 -2.44831617 2.55973319 23.65138652 8.7051576 3.36782611 5.32680014 -11.08277372 -56.43739539 -35.40363254 -50.33550753 0.00016621 -85.61315632 0.00018692 -62.28779458 32.87511848 45.11637529 -14.48826558 1.83347691 -2.55743322 -98.57091802 40.66084072 120.53970284 -0.0000125 42.14730809 0.0000127 -50.49928913 -14.9808 -36.0137883 -57.60430155 -2.34013144 6.10320889 61.67137828 6.84915132 5.20019489 -12.00009113 1.74026148 -10.88215837 -4.79577608 -0.00001535 0.00000482 -48.07300431 0.93330971 -23.42963301 86.44467002 1.36149419 1.59188291 -8.82825786 -0.34327847 16.59941029 -13.18815293 -0.59577325 2.54353527
-0.00978843 0.99540909 0.05807486 18.33059966 -40.91430195 14.65760662 1.67229883 7.61942356 -8.52833562 -1.82566575 2.80953623 -6.5394992 -2.9188872 -4.38039295 2.49939956 13.41767994 7.03307144 -2.61528157 1.24918368 22.50028218 9.46175624 3.52494174 5.62775504 -11.50650148 -55.62495574 -36.48510812 -49.9080263 -0.0000171 -84.12374526 -0.00002003 -62.47357794 30.44720447 43.74035066 -14.48155829 1.68311726 -2.39115661 -99.65119395 41.080146 121.55758746 -0.00000264 40.04440173 7.3e-7 -49.56599745 -14.07118332 -35.24292428 -62.9860136 -0.77876777 4.77676493 56.82402518 1.99852102 2.84969039 -0.30272038 0.56019278 -9.25824018 -8.10589887 0.00000368 4.7e-7 -48.60162312 -2.951248 -17.13290754 85.90769678 6.16640265 2.08103146 -4.92609737 -0.67665582 19.45495831 -25.09506224 4.77046147 -11.37621652
-0.00927892 1.00700172 0.04706017 19.8343735 -36.25201674 9.1573754 0.17899248 7.01767644 0.9526021 -2.19428734 2.08980307 -5.72993844 -3.23840571 -5.14824525 3.27650556 12.88942589 6.93162062 -3.24917149 0.13856433 21.19278135 9.52688021 3.6358865 5.10649048 -11.89249853 -52.06204165 -35.33722266 -48.47858669 0.00000336 -83.6081193 -0.00000185 -65.2919156 26.20892725 42.85311672 -14.58257035 1.22489553 -2.69468706 -102.84038258 41.67105957 125.1336479 -0.00000393 35.5272233 0.00000768 -47.49684737 -14.66389338 -34.20137939 -68.18487067 -0.17180548 8.55975567 48.13448837 -9.22897644 -1.20106521 8.34791951 -0.5517186 -7.38809406 -5.32821276 0.00003736 -0.00000487 -51.78637776 -8.20472243 -9.85844793 79.73235828 -1.32516851 5.29301169 1.89558943 -3.19430569 19.57430108 -39.51283415 3.99466173 -8.7741324
-0.01220397 1.00947983 0.03213356 20.31459105 -32.77123105 10.29642343 0.08196083 6.69812184 1.9855992 -2.33443658 1.19452128 -5.54531525 -3.34192265 -6.03319664 3.43568392 12.60914721 6.84342511 -4.00433856 -0.3082647 20.13278987 8.91347831 3.68307859 4.51177357 -12.09492314 -51.8062646 -34.398368 -48.8306831 0.00000376 -82.37969829 -0.00000785 -66.50360254 24.72786448 41.84046898 -14.7280006 1.05401378 -3.50383719 -106.39808478 41.09920633 127.56707577 -0.00000591 30.72051639 -0.00000125 -46.92583818 -14.60678816 -32.90799438 -67.15405854 0.33281386 8.394114 35.06059834 -8.49040157 -3.44393896 16.19351335 -4.68127307 -17.95596633 -1.29019519 -0.0266473 1.1827356 -49.19734252 -7.75971487 -7.31133604 73.45566915 -8.95030318 3.59047765 -12.76770908 -10.14603479 12.25311277 -25.59433193 0.02346672 -0.20689985
-0.0127077 1.00566284 0.01970397 20.18237573 -31.87771139 11.84383088 0.50419325 6.44006984 1.94402742 -2.02994339 0.9019737 -5.42091424 -3.01427648 -6.30535003 3.55167226 12.11809377 6.82991102 -4.43333408 -0.73734627 20.02739785 8.22967137 3.54424876 4.75600615 -11.62302279 -52.65616852 -33.31436572 -50.6423641 -0.00012198 -81.87203595 -0.00011186 -66.2831449 23.46228505 41.88604925 -14.73369941 2.115983 -4.46309924 -107.85948461 41.02007012 127.37554563 0.00000839 28.75790777 -0.00000543 -46.45438456 -14.44972211 -31.51350775 -65.4697715 -2.34124201 7.35594398 31.64648873 -3.75344978 -0.69777421 15.81096256 -1.7981716 -19.32944382 0.00000174 -0.00001896 0.00000334 -49.41093613 -4.99457122 -8.52442862 68.65163418 -8.97454681 1.06297485 -21.48691659 -13.89331603 10.52540279 -17.09309014 -0.00001176 -0.00000804
