HIERARCHY
ROOT Hips
{
  OFFSET 0 1.1673769999999999 0
  CHANNELS 6 Xposition Yposition Zposition Xrotation Yrotation Zrotation
  JOINT Spine
  {
    OFFSET 0.000003812944337411511 0.10717500000681812 -0.009311
    CHANNELS 3 Xrotation Yrotation Zrotation
    JOINT Spine1
    {
      OFFSET 0 0.1058532983696241 -0.004285186608692496
      CHANNELS 3 Xrotation Yrotation Zrotation
      JOINT Spine2
      {
        OFFSET -8.470329472543003e-22 0.10599345671141647 -0.007812688101110094
        CHANNELS 3 Xrotation Yrotation Zrotation
        JOINT Neck
        {
          OFFSET -8.470329472543003e-22 0.26240299999999994 -0.04488100000000002
          CHANNELS 3 Xrotation Yrotation Zrotation
          JOINT Head
          {
            OFFSET -4.235164736271502e-22 0.17466899999999996 0.05625600000000003
            CHANNELS 3 Xrotation Yrotation Zrotation
            End Site
            {
              OFFSET -4.235164736271502e-22 0.10756799999999966 0.021070000000000005
            }
          }
        }
        JOINT LeftShoulder
        {
          OFFSET 0.10574399999999999 0.23009199999999996 -0.07323000000000002
          CHANNELS 3 Xrotation Yrotation Zrotation
          JOINT LeftArm
          {
            OFFSET 0.14878212914559852 -0.04653266654569688 -0.030693304075147546
            CHANNELS 3 Xrotation Yrotation Zrotation
            JOINT LeftForeArm
            {
              OFFSET 0.24109000000000003 2.220446049250313e-16 -5.551115123125783e-17
              CHANNELS 3 Xrotation Yrotation Zrotation
              JOINT LeftHand
              {
                OFFSET 0.316792 0 -1.1102230246251565e-16
                CHANNELS 3 Xrotation Yrotation Zrotation
                End Site
                {
                  OFFSET 0.1995166749313234 -0.0432441138377333 0.06217329198086369
                }
              }
            }
          }
        }
        JOINT RightShoulder
        {
          OFFSET -0.10574399999999999 0.23009099999999982 -0.07323000000000002
          CHANNELS 3 Xrotation Yrotation Zrotation
          JOINT RightArm
          {
            OFFSET -0.14878040829228295 -0.04653159475972379 -0.030692917709113934
            CHANNELS 3 Xrotation Yrotation Zrotation
            JOINT RightForeArm
            {
              OFFSET -0.24109000000000003 -6.661338147750939e-16 -2.7755575615628914e-17
              CHANNELS 3 Xrotation Yrotation Zrotation
              JOINT RightHand
              {
                OFFSET -0.31679300000631333 -8.881784197001252e-16 -5.551115123125783e-17
                CHANNELS 3 Xrotation Yrotation Zrotation
                End Site
                {
                  OFFSET -0.06265795211397429 -0.10570764472283312 0.03859362014678265
                }
              }
            }
          }
        }
      }
    }
  }
  JOINT LeftUpLeg
  {
    OFFSET 0.12297511767165623 -0.06742078536803264 -0.010003
    CHANNELS 3 Xrotation Yrotation Zrotation
    JOINT LeftLeg
    {
      OFFSET 0 -0.457033849483632 0.010304509991859542
      CHANNELS 3 Xrotation Yrotation Zrotation
      JOINT LeftFoot
      {
        OFFSET 0 -0.500280623664138 -0.036905110570505176
        CHANNELS 3 Xrotation Yrotation Zrotation
        JOINT LeftToeBase
        {
          OFFSET 0.025950805788189563 -0.14255151365608373 0.19507593811975638
          CHANNELS 3 Xrotation Yrotation Zrotation
          End Site
          {
            OFFSET 0.010732117804750613 -0.000035441498015504746 0.11362327680684622
          }
        }
      }
    }
  }
  JOINT RightUpLeg
  {
    OFFSET -0.12297488233495055 -0.0674172146317622 -0.010003
    CHANNELS 3 Xrotation Yrotation Zrotation
    JOINT RightLeg
    {
      OFFSET 0.00000159348816348992 -0.45703784846455486 0.01030460015485039
      CHANNELS 3 Xrotation Yrotation Zrotation
      JOINT RightFoot
      {
        OFFSET -0.0000015934881634621645 -0.5002806236608007 -0.03690511058134042
        CHANNELS 3 Xrotation Yrotation Zrotation
        JOINT RightToeBase
        {
          OFFSET -0.0259497668227143 -0.14255297441554501 0.19507500887383716
          CHANNELS 3 Xrotation Yrotation Zrotation
          End Site
          {
            OFFSET -0.010733201844058626 -0.000035030229497263656 0.11362417898958707
          }
        }
      }
    }
  }
}
MOTION
Frames: 25
Frame Time: 0.03333333333333333
-0.00353007 1.13050049 0.01314314 9.35166629 -19.35634456 -0.6957687 2.74715621 1.95576169 2.6457606 2.72250793 -4.39925237 0.71148252 3.36062238 -8.8081275 4.63911305 12.11809629 6.82990829 -4.43333481 -0.73733679 20.02739678 8.22967229 3.54424183 4.75599168 -11.62305534 -54.03882544 -33.1164203 -50.38153639 -0.00006788 -81.88234294 -0.00005524 -58.76836985 25.99260848 38.87033922 -14.73369922 2.11596671 -4.46308679 -107.66245242 41.16597214 127.34648298 0.00001102 29.08067531 -0.00000793 -49.7524571 -7.37128851 -31.49873425 -45.28959993 7.12248521 5.50917834 66.61793524 2.54808812 0.06990297 -5.87270803 -0.10263199 1.72093043 0.00000293 -3e-8 -7e-7 -19.66815225 -2.10705177 4.61118028 21.78318582 0.73099052 -0.05034727 -10.80356952 1.00566467 -1.23891561 -0.00002533 7e-8 -8.2e-7
-0.00096561 1.13770546 0.00461257 10.76059532 -20.23527878 -0.039292 2.24584173 2.62768519 2.46598169 2.29626813 -4.05616821 0.57691316 2.92186522 -8.46319804 4.50060925 12.04964622 6.73368367 -4.61861105 -1.25977143 19.87021518 7.9335592 3.51115135 4.99804474 -11.55924996 -54.52831176 -33.4698342 -50.82424679 0.00000842 -81.72113165 0.00001844 -59.21075516 25.81614865 39.21977261 -14.77260425 2.19889616 -4.76857173 -107.74401332 41.43787151 126.87328849 0.00000571 29.62988931 -0.0000076 -50.07585783 -7.84691745 -31.65505223 -50.26825822 6.34138413 8.04455821 53.3034542 4.19461164 0.12468014 -6.29612832 0.13577312 0.05100994 -0.00000391 -0.00000174 0.00000103 -13.02358564 -3.92762041 2.15539987 16.22630088 4.16127317 0.73023494 -12.4934991 1.00057052 -1.48355133 -1.59682935 -0.00000595 0.0000021
0.00054487 1.13953201 -0.00447842 11.81982106 -21.80225788 1.46707994 1.85274761 3.61719487 1.02029549 1.93983446 -3.48682528 0.34979416 2.54092438 -7.89944836 4.26722767 11.71023835 6.63266276 -4.68472986 -1.7480882 19.79005037 8.00980872 3.12329656 5.47906975 -10.5118992 -55.32287166 -32.96280974 -51.7355605 -0.00001633 -82.05747917 -0.00002154 -58.38687737 25.26758925 39.44979034 -14.75875135 2.58444427 -5.12229289 -107.00672174 40.53702587 125.74469627 -0.00001084 30.47923621 -4e-7 -48.92179037 -7.36527482 -31.25452686 -50.9366191 5.71639424 10.05481929 34.94015842 7.59654055 0.25025502 -7.05703746 0.22753309 -0.43000435 0.00001055 0.00000253 -0.00000157 -8.0816748 -6.22892836 -1.36308743 13.15463787 8.17192624 1.66016324 -13.51601363 0.95086058 -1.91743395 -4.80396794 -0.00000558 0.00000239
0.00298686 1.13593887 -0.01193498 12.11167092 -24.42363092 2.14837536 1.54962155 5.12626825 0.25124012 1.66379037 -2.68165156 0.14883147 2.24845079 -7.09024205 4.06076921 11.44418336 6.48562827 -4.68818808 -1.6749781 19.74867541 8.17023688 2.58697906 6.30494073 -9.13648296 -55.94447659 -32.2343092 -52.92908401 0.00003762 -82.60795827 0.00002861 -57.89495292 25.48346561 40.00831305 -14.63289631 3.24943027 -5.146245 -105.68447367 39.44918126 124.34807514 0.00000227 31.68196285 -0.00000296 -47.75361107 -7.65486642 -31.0440283 -45.0531447 5.18252182 12.7392988 10.01685402 9.997498 0.52345437 -6.70142871 2.67681307 1.40452603 -0.00000723 7.4e-7 -0.00000214 -3.8627274 -8.64128515 -4.52791461 11.97536751 9.56364471 2.16872928 -13.98118658 3.05486391 -2.14657092 -9.70945258 -5.5e-7 0.00000264
0.00846045 1.12464516 -0.00679123 11.41329217 -29.77153729 -0.10678291 1.0075011 9.10828585 2.69743931 1.37235641 -1.87162598 0.12573119 1.95163514 -6.25243835 4.03131642 11.68362748 6.24172836 -4.92493854 -0.52547598 19.59333923 7.68852124 2.24206637 7.28986055 -8.37142797 -55.94354654 -31.54175323 -54.65883833 -0.00002386 -82.9749446 -0.00002697 -57.54642719 26.09584778 40.52594121 -14.46000578 3.90209745 -4.84914015 -104.27300863 39.29759179 123.42870014 0.00000162 32.74659014 -0.00000351 -47.2049878 -8.71328125 -31.00873212 -44.3137635 2.37348945 18.97671622 5.3464327 10.06392154 0.85306608 -13.40078053 8.09286153 3.12768547 0.00000772 -0.00000104 -0.00000153 -0.1099429 -10.85671872 -6.20967179 13.06128385 8.88881474 2.17199528 -12.88609626 7.27444044 -2.5401406 -15.73420314 0.00000216 0.00000451
0.01389033 1.11514191 0.00423648 10.15607988 -30.97808998 -0.5532517 0.6087141 8.95069022 3.214673 1.12304849 -1.3868225 -0.09894302 1.68919442 -5.76800069 3.80403285 12.1422971 6.23831271 -4.78448609 0.74267115 19.84862215 7.8043602 2.25917313 8.22730485 -8.59694994 -54.94697763 -31.79870584 -54.88031806 -0.00008151 -83.09022712 -0.00006756 -57.57423485 26.41378218 40.28109488 -14.35974723 4.27917119 -4.6588788 -102.97501321 39.1213754 123.47299488 0.00000574 33.12333949 0.00000189 -46.90013912 -9.01814952 -31.39148348 -41.72101019 0.95872529 18.78386836 5.68754756 10.10374423 0.99015038 -16.27464869 8.75894527 3.72904683 6.6e-7 0.00000302 -5.7e-7 1.77440417 -11.37677443 -10.10145194 18.08756323 7.49200847 1.89315112 -8.59625878 3.99929351 -4.28982324 -20.53456984 -0.01721568 1.20080648
0.01869352 1.10332283 0.01548339 8.53754635 -30.18894253 1.34954499 0.72172765 6.91251741 0.93842237 0.99592506 -1.38260037 -0.47150276 1.54290898 -5.78444844 3.43288389 12.48336999 6.44361711 -4.43396829 1.77413873 20.51327566 8.23748875 2.50058837 8.83402295 -9.34446576 -54.19064389 -32.44861467 -54.14526521 0.00001578 -83.00755768 0.00002369 -57.60937985 26.48870559 39.82095903 -14.37355765 4.36579833 -4.86312583 -103.05027578 38.85755241 124.27899894 0.00000199 32.35296139 0.00000897 -47.21703304 -8.30262132 -31.42555489 -39.29833159 1.42403542 13.71316881 11.09771989 10.36595827 0.84874145 -13.29909147 5.36412151 1.64624293 0.00000671 -2.7e-7 -0.00000209 -1.29310556 -7.7198562 -15.74855036 30.95831859 3.68324047 0.91935905 4.45960161 -0.49801018 -4.6043944 -27.70984002 -2.21260765 13.83070189
0.0240682 1.08482826 0.02452998 6.93594422 -29.22513309 2.71869601 0.9637179 5.15827792 -0.81560722 1.08403735 -1.85463969 -0.74513035 1.61641415 -6.27342045 3.1618656 12.39094076 6.737296 -4.06836151 1.8447361 21.24063542 9.02398736 2.68694963 8.7832857 -9.82852415 -54.38126455 -32.98472191 -52.76038705 -0.00000167 -83.25955277 0.00000504 -58.35347689 26.31600051 40.71160008 -14.43501455 4.30068486 -5.19964046 -104.59698877 38.43016999 124.95124843 -0.00000321 31.14873301 -0.00000214 -47.72749688 -7.65718956 -30.47401491 -42.29251542 1.75646596 9.62236091 24.82749857 10.27929749 0.54707785 -2.27292195 1.09720839 -4.30558376 -0.00000284 -0.00000151 0.00000303 -4.67449113 -0.25091712 -18.35287015 43.47192083 4.47786249 0.31513541 20.38282633 -2.18433006 -3.50289634 -21.01967883 -11.72179199 31.69145357
0.02881481 1.07332505 0.02426529 5.89827284 -27.74125625 3.20249937 1.46811544 3.92636912 -1.40350833 1.52243961 -2.71434577 -1.00311834 2.03265867 -7.13799899 2.90195866 11.86741795 7.01047151 -3.80137401 0.38070646 21.63629512 10.07884968 2.68129636 8.117823 -9.71321986 -55.12768013 -32.82315555 -50.98018301 0.00003418 -84.31531252 0.00004052 -58.96121167 26.2021985 42.47770877 -14.46310331 4.1383215 -5.17226005 -106.02317924 37.45200447 125.10410436 0.00000559 30.67082701 -0.00001122 -47.23524061 -7.18507476 -29.02828339 -41.62127292 3.10522279 5.64746323 31.32700016 7.71180263 0.35963644 3.38327963 -0.26590857 -2.80863323 -0.000011 0.00000434 -0.00000118 -11.71066714 8.06450447 -16.7446617 60.89729328 5.20183367 0.0016049 19.58661644 -1.87330981 -1.04100855 -5.67811721 -0.91221949 9.12105022
0.03295858 1.07695953 0.01859306 5.46184838 -25.33933279 3.11588928 2.15395837 2.69720501 -0.99253881 2.12694939 -3.54132071 -1.08836868 2.62880243 -7.956392 2.81205529 11.48308231 7.12256718 -3.8108002 -1.29796783 21.5485043 10.3068598 2.59432227 7.34809478 -9.3608874 -55.64202068 -32.04862215 -50.0582338 0.00008814 -85.55783156 0.00009042 -58.95865709 26.15665354 43.77140648 -14.46409012 3.82793904 -4.75629192 -106.26805162 36.70093644 125.01548893 0.00000402 31.32520756 0.00000436 -45.87387178 -7.30756622 -28.18595692 -39.41522415 3.92026157 2.15914556 36.51700788 6.03546297 0.28014022 -2.02181658 0.02912131 -0.82630458 -0.0000248 0.00000411 8e-8 -20.90831839 11.78022724 -11.07862664 72.31650316 3.85340031 -0.17469746 12.60194767 -0.65721422 -0.54048803 -1.86558314 -0.09698219 2.9785767
0.03724752 1.08989051 0.0136419 5.52481444 -23.94733248 2.87919944 2.67752184 2.23003402 -0.11887705 2.5860972 -3.83929249 -0.82179761 3.11245407 -8.24002231 3.07938296 11.60902755 7.02775177 -4.1613789 -1.57274813 21.25614269 9.02672691 2.683334 7.03972262 -9.55472862 -55.95744367 -31.83649866 -50.86176702 -0.00012447 -85.45324566 -0.00011453 -58.68461815 25.50368561 43.70128999 -14.48291072 3.53667355 -4.49716631 -106.33049511 37.34228055 125.00210208 0.000005 31.76414489 0.00001053 -45.17501147 -7.86513756 -28.14092503 -34.56027162 4.27601298 -0.76687728 37.88646766 6.07193701 0.25882696 -9.01219419 0.16919137 0.99459609 7.2e-7 0.00000258 3.6e-7 -31.05130687 12.35535042 -4.81851236 76.34561691 -0.67918584 -0.34760988 3.78537206 0.4840953 -0.38312221 -2.7914913 -0.21821858 4.47137379
0.04107636 1.10732071 0.01354538 5.97444204 -24.28553886 2.98680231 2.78015886 2.50119453 0.40938238 2.69782147 -3.72880362 -0.35487663 3.26256071 -8.12511727 3.55093283 11.99305853 6.92064037 -4.58200805 -0.5614655 21.21185674 7.42571884 3.03240784 7.20573765 -10.52259924 -55.50629658 -32.01362191 -52.41994264 -0.00005782 -84.46488223 -0.00003728 -58.45990597 24.05636068 42.36914987 -14.55372082 3.41075456 -4.8194862 -106.49620299 39.05941002 125.44138145 -0.00001334 31.71301784 8.7e-7 -45.20496759 -8.40026653 -28.87508825 -26.83241966 4.78119614 -3.6069116 34.5139633 7.05540982 0.27129111 -14.78142551 0.06740182 2.69378095 0.00001055 -0.00000183 -0.00000286 -39.14921078 11.92399236 0.39175759 72.29496933 -4.94622336 -0.53885837 -2.09073097 0.56943607 -2.13014712 -2.24728105 -0.14030307 3.57123644
0.04191779 1.12008743 0.01529103 6.65022994 -24.49798713 3.26465395 2.60670758 2.3753554 0.44295305 2.58463198 -3.87713481 0.08100208 3.18154328 -8.28550305 3.99226729 12.10777831 7.04191205 -4.72466577 0.21294764 21.67223435 7.02229021 3.39388194 7.21355657 -11.49427072 -54.45149998 -32.04883613 -52.84190274 -0.00009878 -83.90260475 -0.00008506 -59.46251837 22.54710979 41.16388565 -14.70052882 3.2070017 -5.56420201 -107.23314541 40.43934067 126.43896763 -0.0000027 31.48417872 0.00000301 -45.43622862 -9.208188 -30.10473936 -17.52034683 5.34190212 -6.34570721 27.31698282 7.0117503 0.26095787 -17.11074737 -0.14791785 4.03317902 0.00000754 0.00000108 -0.00000297 -44.01808961 10.56151383 3.97188247 62.03987219 -5.06660469 -0.51574967 -4.40196336 1.24093274 -4.96505732 0.00001 0.00000762 1.2e-7
0.03856269 1.12402176 0.01561973 7.28579951 -22.89891368 3.44026253 2.41392047 1.13458491 0.0716328 2.4539374 -4.66104409 0.40342788 3.06794545 -9.09130675 4.32113576 11.86476987 7.3892955 -4.50078142 0.01956937 22.47271923 7.76029457 3.49412261 6.6496478 -11.69878797 -53.38940162 -31.56445805 -51.68986907 -0.00002334 -84.34367096 -0.00000612 -61.35634488 21.49615732 41.01329654 -14.91742657 2.67819007 -6.32724229 -108.65133078 40.48341394 127.74354388 -0.00001154 30.94553029 -0.00000744 -45.39851189 -9.92544096 -30.89401187 -7.74228235 5.58529993 -8.91806038 18.47205017 5.13657345 0.1804735 -16.86719733 -0.63766686 6.55609411 -2.18353904 0.00000329 4.5e-7 -45.98374041 8.25396359 5.43415255 47.68163683 -0.5524468 -0.26918555 -5.40733473 1.66828244 -3.28869286 0.00001119 0.00000434 0.000003
0.03355619 1.12123291 0.01568374 7.68758441 -19.97419959 3.14445553 2.25728563 -0.74231723 -0.0609058 2.35014542 -5.78991286 0.67865521 2.97142875 -10.23627139 4.60665805 11.6181019 7.73942602 -4.14715124 -0.39351424 23.15241784 8.43572016 3.34187737 5.81464639 -11.18483473 -52.76105753 -30.49688922 -50.36089332 0.00024949 -85.43391695 0.00023767 -62.13510172 20.84235321 41.93912398 -15.15191925 1.91015225 -6.84484073 -110.28146692 39.62195289 129.00805942 -0.00000152 29.90586403 0.00000204 -45.16166455 -9.47403764 -30.11833241 -0.2442419 5.3366037 -10.47832405 13.78465659 2.90312995 0.0713092 -15.96726642 -1.06317592 8.266071 -7.91528102 -0.00000296 -0.00000313 -45.03156003 5.51370065 5.63015201 29.4205099 1.59899453 -0.06266495 -6.09620044 0.99286814 3.30541077 -0.00000393 -0.00000381 1.7e-7
0.02799967 1.1153138 0.01803844 7.77135864 -15.66395432 4.04070385 1.98339994 -3.79481463 -1.43880938 2.13700302 -6.8059678 0.75683805 2.74119322 -11.26977672 4.70520793 11.71110569 8.00390094 -3.75954481 -0.17356814 23.49419062 8.81246548 3.17099222 5.1303451 -10.62568128 -52.35370927 -29.41747572 -49.28871892 -0.00004179 -86.82834069 -0.00003661 -61.29917856 21.33461093 43.91967843 -15.34539035 1.14280807 -7.07544467 -111.43385239 38.4737068 130.08200593 0.00000784 28.48088315 -0.00001427 -45.70656271 -7.80992862 -27.78337858 8.02929011 4.05800317 -12.62985183 7.95609063 0.43087205 0.06831849 -11.98733794 -1.07879218 9.30546561 -11.83143128 -0.00000322 0.00000274 -40.39850027 3.38065734 3.7522469 7.66702658 -3.86945941 -0.35830914 -4.52274724 0.35585035 8.81359683 0.0000145 -0.00000197 -0.00000412
0.02188624 1.10243333 0.02585113 7.18670559 -8.5632825 6.98700349 1.34487277 -9.48333307 -4.76157645 1.78177489 -7.51771529 0.55918384 2.33618473 -11.9968499 4.5293845 12.06603841 8.12522912 -3.55069811 0.6776003 23.30700873 8.95776923 3.13394904 4.64039879 -10.45831693 -52.06579861 -28.89598313 -48.55260911 -0.00024895 -87.86898035 -0.00024217 -60.14795042 23.52614731 46.17484457 -15.48575193 0.50712385 -7.14225736 -112.04201157 37.69916339 130.92569821 0.00000396 26.93345904 -0.00000645 -47.89147285 -6.33353078 -25.2952913 15.21658743 2.81680691 -15.16031638 5.6498884 -4.53575801 0.06556539 -5.95709265 -0.79103128 9.99647599 -20.71221861 -0.01115918 0.09240905 -40.86500498 1.44264705 -0.96578967 1.83025785 -10.14755132 -1.64857354 -7.32212542 -3.5357568 9.5042028 0.00000844 -0.00000103 -0.00000264
0.01831622 1.08885345 0.03504471 6.56911393 -5.68179918 8.04806211 0.96614697 -10.68355025 -5.47226253 1.59328779 -7.84392759 0.42634773 2.12207322 -12.3115896 4.39401982 12.17914863 7.93151863 -3.93887563 1.32983847 22.33868702 8.20658269 3.15171934 4.22452786 -10.45436332 -52.11644864 -28.81241118 -49.12678691 -0.00001156 -87.71948035 0.00000183 -59.3249816 25.82066385 46.95397825 -15.56454306 0.11444839 -7.14832118 -112.21595926 38.25528794 131.22653037 0.00000934 26.22712883 -0.00000272 -50.64129021 -6.12391002 -24.50014978 22.61798438 2.62180412 -15.92708096 2.57637481 -6.88090783 -0.03094231 3.45236368 -0.24294159 9.94072722 -33.03874398 -0.17312809 0.69532249 -40.43021303 0.46737206 -2.07827051 1.44316457 -10.14567575 -2.47001739 -7.17331113 -6.40958851 3.26726878 0.00002613 -0.0000043 -0.00000481
0.0188574 1.06782365 0.04096696 6.18871195 -8.34200546 4.39449109 1.48332802 -6.48998009 -0.64531827 1.76518421 -7.61490348 0.77853747 2.36624444 -12.04248929 4.72179345 11.99891651 7.48628179 -4.70358773 1.49413758 20.95761283 6.76525882 3.11999581 3.93649781 -10.32924823 -52.87591718 -29.48195743 -50.6436237 -0.0000613 -86.33107597 -0.00004482 -60.31105201 26.73221704 46.41255682 -15.52643255 0.21091199 -7.07381079 -111.69147563 40.11314726 130.08109785 -0.00001641 27.56255383 0.00000697 -52.39898722 -8.21198849 -26.34659178 16.35880842 6.68623279 -12.13646536 22.36027573 -5.98092995 -0.28634913 9.20544214 -0.32530844 2.42701645 -47.31533116 -4.32482176 8.36279756 -42.87577706 0.11428164 3.78840444 11.04647472 -10.71026621 -2.50199985 -2.53305827 -2.42599824 -10.37601826 0.00000117 -0.00000678 -0.00000777
0.01887362 1.04482017 0.0433867 5.65164297 -11.11554724 -0.18504127 2.0765818 -3.02912874 4.58860994 2.22299145 -6.86695928 1.3789765 2.92863478 -11.26747871 5.30215339 11.72548888 7.1643976 -5.03755513 1.19537759 20.15023932 6.18535193 3.08904856 3.91141858 -10.24357486 -54.09929319 -30.99019193 -51.00536928 0.00001249 -84.73815479 0.00001044 -63.54204055 27.01393483 45.61699395 -15.35564789 0.84854095 -6.87760976 -110.41547192 41.06903458 127.81446461 -0.00000402 29.67843569 0.00000191 -52.58370832 -11.67077209 -29.62349625 7.73533326 8.66093113 -5.93077598 40.47783696 -7.52389373 -0.49652416 17.90672878 -2.01704119 -10.53039962 -39.51641507 -24.21456269 28.13054282 -45.32176652 -0.45747732 8.0207278 21.8508098 -10.51023986 -2.75370825 10.4164972 -3.52965619 -6.1275591 -0.00000817 -3.2e-7 0.00000182
0.01398687 1.03752373 0.03864605 5.33015222 -13.10956538 -1.78505818 2.53121183 -1.55886967 5.60287362 2.68710085 -6.04357793 1.65690963 3.41654993 -10.43922042 5.57847516 11.56377214 6.98987684 -5.10804151 0.87953628 19.92384592 6.35682749 3.12311954 4.10233485 -10.3708182 -54.90355394 -31.7803946 -50.7479434 0.00001879 -84.13864126 0.00002701 -65.31473042 28.04241049 44.98775899 -15.13081597 1.63687321 -6.50944333 -108.87793405 40.82516856 126.14510037 0.00000806 31.12976817 -0.00001086 -52.22078467 -13.74115254 -31.89175231 -1.98134121 9.00558144 -2.56455435 56.96739554 -9.2956035 -0.58047819 16.49179075 -4.1802124 -11.18673424 -21.02140972 -7.01079404 16.95985497 -46.38201688 -0.82992671 9.89226339 33.57498415 -9.56676175 -2.75206521 6.69157241 -2.14387755 -3.4941858 0.00000382 -0.00000468 -1.8e-7
0.00776219 1.05110627 0.03125926 5.57751913 -15.49375749 -2.55178924 2.8330897 -0.06284441 5.38803834 2.9457151 -5.49624893 1.66481173 3.67202065 -9.89068085 5.59430213 11.68341095 6.94901421 -4.96059304 0.8528342 19.95441935 7.25700683 3.17431002 4.30540267 -10.54507287 -54.55121242 -31.57461009 -50.4555866 -0.00014182 -84.29834113 -0.00012153 -64.49417994 28.40534564 44.26591386 -14.92522183 2.13146068 -5.80900332 -107.56070568 40.15131383 125.91080669 -0.00000917 31.24603574 -0.00000105 -50.78715058 -13.43613726 -32.01971263 -13.88318927 8.38260265 -0.32814779 69.7211143 -8.87393935 -0.37099936 9.66411259 -1.47419671 -8.20923736 -11.78261942 -2.16384889 10.01304309 -43.19358727 -1.2399833 10.98226045 38.40545844 -9.20607817 -2.66850083 -1.276623 -0.18086879 -2.60123633 -0.00008256 0.00000783 0.00000222
0.00176094 1.07779044 0.02449694 6.36327804 -17.10036222 -2.34850809 2.98241107 0.84972766 4.32855937 3.00265551 -5.20082371 1.40244217 3.70455449 -9.5958852 5.33818081 11.92647099 6.94581329 -4.70288958 0.80445709 19.97467856 8.21123026 3.23641573 4.40374414 -10.73340585 -53.87054174 -31.38589299 -50.38614005 0.00003329 -84.05415208 0.00004117 -61.94867299 27.96816897 42.82471059 -14.77864456 2.22790277 -4.9127346 -107.09485495 40.07134254 126.58185176 -0.0000084 30.21813101 0.00000758 -49.71268194 -11.20602449 -31.08340134 -26.14439949 7.42071122 1.61840034 75.85192595 -2.39147812 -0.11660509 1.67056205 -1.32479897 -4.00731283 -8.09002845 -1.04134751 7.25745494 -36.72137093 -1.27189644 10.01610642 36.7462303 -7.78398028 -2.21155935 -6.56515799 0.84405049 -2.00961047 0.00000422 0.00000998 0.0000013
-0.00227233 1.10524698 0.01824368 7.63561403 -18.13866377 -1.51811702 2.98900833 1.33706783 3.15209596 2.94340925 -4.88372548 1.03358333 3.61125164 -9.2851221 4.96816947 12.07635412 6.91188986 -4.47500468 0.28860901 20.00624837 8.5249056 3.3820712 4.51165108 -11.15082384 -53.75489333 -32.13673321 -50.25102602 -0.00013692 -83.07525542 -0.00010917 -59.89408156 27.05252934 41.02368945 -14.72144718 2.1285018 -4.3735035 -107.51719626 40.65415302 127.22343033 -0.0000017 29.20330455 -0.00000525 -49.74889414 -8.83034726 -30.67603352 -37.0506293 6.99364481 3.48074716 74.66162333 2.9565513 0.02603455 -3.79820035 -1.7054508 -0.792754 -1.1320848 -0.02053462 1.03882205 -29.13404561 -1.38285766 7.51635143 31.96644937 -4.45637197 -1.35629676 -10.62813123 1.14544907 -1.48496275 0.00000417 -5e-8 -0.00000135
-0.0035301 1.1305004 0.01314314 9.35166551 -19.35633293 -0.69576338 2.74715922 1.95576875 2.64575485 2.72250948 -4.3992602 0.71148348 3.36062615 -8.80812648 4.63911682 12.11809648 6.82991079 -4.43333598 -0.73733384 20.02740242 8.22967822 3.54424288 4.7559997 -11.62306902 -54.03884356 -33.11641161 -50.38154322 0.00004634 -81.88232637 0.00004901 -58.76838274 25.99259008 38.87031878 -14.73369929 2.11597489 -4.46309302 -107.66251025 41.16592281 127.34651959 0.00000562 29.0806218 -0.00000283 -49.75244868 -7.37126526 -31.49871077 -45.2895778 7.12248878 5.50916293 66.61790311 2.54808883 0.06990704 -5.87266668 -0.10263301 1.7209312 -0.00001508 -2.8e-7 8.8e-7 -19.66821688 -2.10705542 4.61117579 21.78329993 0.73098551 -0.05034863 -10.80362055 1.00566967 -1.23891736 -0.00002517 -9.5e-7 -0.00000223
