HIERARCHY
ROOT Hips
{
  OFFSET 0 1.1673769999999999 0
  CHANNELS 6 Xposition Yposition Zposition Xrotation Yrotation Zrotation
  JOINT Spine
  {
    OFFSET 0.000003812944337411511 0.10717500000681812 -0.009311
    CHANNELS 3 Xrotation Yrotation Zrotation
    JOINT Spine1
    {
      OFFSET 0 0.1058532983696241 -0.004285186608692496
      CHANNELS 3 Xrotation Yrotation Zrotation
      JOINT Spine2
      {
        OFFSET -8.470329472543003e-22 0.10599345671141647 -0.007812688101110094
        CHANNELS 3 Xrotation Yrotation Zrotation
        JOINT Neck
        {
          OFFSET -8.470329472543003e-22 0.26240299999999994 -0.04488100000000002
          CHANNELS 3 Xrotation Yrotation Zrotation
          JOINT Head
          {
            OFFSET -4.235164736271502e-22 0.17466899999999996 0.05625600000000003
            CHANNELS 3 Xrotation Yrotation Zrotation
            End Site
            {
              OFFSET -4.235164736271502e-22 0.10756799999999966 0.021070000000000005
            }
          }
        }
        JOINT LeftShoulder
        {
          OFFSET 0.10574399999999999 0.23009199999999996 -0.07323000000000002
          CHANNELS 3 Xrotation Yrotation Zrotation
          JOINT LeftArm
          {
            OFFSET 0.14878212914559852 -0.04653266654569688 -0.030693304075147546
            CHANNELS 3 Xrotation Yrotation Zrotation
            JOINT LeftForeArm
            {
              OFFSET 0.24109000000000003 2.220446049250313e-16 -5.551115123125783e-17
              CHANNELS 3 Xrotation Yrotation Zrotation
              JOINT LeftHand
              {
                OFFSET 0.316792 0 -1.1102230246251565e-16
                CHANNELS 3 Xrotation Yrotation Zrotation
                End Site
                {
                  OFFSET 0.1860100809690719 -0.01695989067700676 -0.061207551691790735
                }
              }
            }
          }
        }
        JOINT RightShoulder
        {
          OFFSET -0.10574399999999999 0.23009099999999982 -0.07323000000000002
          CHANNELS 3 Xrotation Yrotation Zrotation
          JOINT RightArm
          {
            OFFSET -0.14878040829228295 -0.04653159475972379 -0.030692917709113934
            CHANNELS 3 Xrotation Yrotation Zrotation
            JOINT RightForeArm
            {
              OFFSET -0.24109000000000003 -6.661338147750939e-16 -2.7755575615628914e-17
              CHANNELS 3 Xrotation Yrotation Zrotation
              JOINT RightHand
              {
                OFFSET -0.31679300000631333 -8.881784197001252e-16 -5.551115123125783e-17
                CHANNELS 3 Xrotation Yrotation Zrotation
                End Site
                {
                  OFFSET -0.06265795211397429 -0.10570764472283312 0.03859362014678265
                }
              }
            }
          }
        }
      }
    }
  }
  JOINT LeftUpLeg
  {
    OFFSET 0.12297511767165623 -0.06742078536803264 -0.010003
    CHANNELS 3 Xrotation Yrotation Zrotation
    JOINT LeftLeg
    {
      OFFSET 0 -0.457033849483632 0.010304509991859542
      CHANNELS 3 Xrotation Yrotation Zrotation
      JOINT LeftFoot
      {
        OFFSET 0 -0.500280623664138 -0.036905110570505176
        CHANNELS 3 Xrotation Yrotation Zrotation
        JOINT LeftToeBase
        {
          OFFSET 0.025950805788189563 -0.14255151365608373 0.19507593811975638
          CHANNELS 3 Xrotation Yrotation Zrotation
          End Site
          {
            OFFSET 0.010732117804750613 -0.000035441498015504746 0.11362327680684622
          }
        }
      }
    }
  }
  JOINT RightUpLeg
  {
    OFFSET -0.12297488233495055 -0.0674172146317622 -0.010003
    CHANNELS 3 Xrotation Yrotation Zrotation
    JOINT RightLeg
    {
      OFFSET 0.00000159348816348992 -0.45703784846455486 0.01030460015485039
      CHANNELS 3 Xrotation Yrotation Zrotation
      JOINT RightFoot
      {
        OFFSET -0.0000015934881634621645 -0.5002806236608007 -0.03690511058134042
        CHANNELS 3 Xrotation Yrotation Zrotation
        JOINT RightToeBase
        {
          OFFSET -0.0259497668227143 -0.14255297441554501 0.19507500887383716
          CHANNELS 3 Xrotation Yrotation Zrotation
          End Site
          {
            OFFSET -0.010733201844058626 -0.000035030229497263656 0.11362417898958707
          }
        }
      }
    }
  }
}
MOTION
Frames: 34
Frame Time: 0.03333333333333333
-0.00522343 1.07999924 0.00509737 -6.08721148 -43.03506119 -4.04477585 5.83163003 4.64814309 -1.21625722 11.83654015 9.0376144 -3.08396856 11.83654302 9.03761623 -3.08396777 -4.30311107 -1.27294568 0.2063075 -6.27188239 20.43779327 -0.37716454 1.39245997 -0.69605774 -7.87784884 -14.2600794 2.39430535 -63.27718921 9.86510123 -47.52497444 5.92797185 16.17285017 0.91525449 18.79546408 1.41091159 9.46149714 9.79280774 1.2200463 -24.2707596 60.53289448 -6.66072846 41.85841192 8.04381385 6.22527398 12.3223476 11.67337103 -27.7695711 5.59103192 14.00670784 34.94381557 -14.02246822 -0.18772912 -4.25578438 0.71610666 -8.08015113 -2.65147763 -3.38399712 0.83430653 -4.34888084 -13.72091753 -15.56076858 32.75401079 -8.99718816 -0.41798803 -20.58704798 -4.06114378 17.08269705 -1.78497908 -0.35669196 0.33318029
0.00349487 1.05786186 -0.01302504 -3.6308147 -46.17368198 -1.99961114 5.67854045 3.74991473 -1.16661579 11.46006198 7.25532004 -2.6403248 11.46006996 7.25532495 -2.64032706 -6.09175079 -0.18911565 -1.65494722 -8.53488719 21.24007827 -0.41278308 1.07091549 0.8717952 -7.8384727 -11.06592668 3.39146238 -65.11374555 11.05859053 -58.07231348 8.49423009 13.73284303 4.00930626 13.93748447 1.32983942 7.66611253 10.57216469 0.00991453 -27.0384497 60.8096667 -8.50508277 43.83469427 9.00900193 7.87616294 14.50782631 11.60849295 -32.26748914 1.9044515 13.92003073 40.11877996 -8.68318703 -0.2621999 -5.85029052 0.94189123 -9.94839704 -2.64102039 -3.36142094 0.79574552 -14.26080204 -6.42657132 -15.56675523 46.4163083 -10.19338664 -0.70917764 -21.79686071 -4.52362397 16.86518963 -7.0782953 -0.58750581 1.71326744
0.00528116 1.03122795 -0.03285363 -1.80665963 -46.65964911 -0.72951656 5.65392607 2.80825163 -1.26735397 11.37191125 5.37117762 -2.60438579 11.37191531 5.37117116 -2.60438031 -6.7593958 0.9244867 -6.31833178 -10.9344659 20.47254949 1.62707402 0.99917817 2.69902527 -10.14002294 -9.43660551 3.08958334 -66.7969511 8.95366087 -64.67177654 7.08782028 9.39870599 3.59586438 17.03718679 0.55381532 5.59906667 13.70790951 3.28559278 -34.63727439 60.04860804 -11.7820938 48.87497238 12.49921311 7.81400899 15.12689782 11.72919659 -36.66103333 -3.38936329 13.37611423 45.68301809 -4.75969582 -0.22000594 -7.31075113 1.31613919 -12.41487362 -2.62442669 -3.35164526 0.76637017 -21.69572441 -3.10153423 -13.10266307 56.72688723 -9.99221054 -3.78750372 -22.51657217 -5.13828683 17.12661108 -11.99643708 -1.92628639 2.72825502
-0.00414703 1.00931908 -0.05204143 -1.1282203 -43.09914511 -0.60862301 5.64671519 1.95020377 -1.66885586 11.33991359 3.60835762 -3.2201041 11.33990659 3.60836632 -3.22010551 -9.22245605 0.89984388 -10.28796481 -11.71601497 17.8104452 4.92703844 0.78962759 5.20399713 -11.61274028 -7.69821938 2.08852343 -67.96576966 12.95324165 -71.75920558 10.01256265 8.50608118 2.42568988 20.82535607 0.84503552 2.78185415 12.55037436 8.98425374 -39.96124466 63.6297024 -15.65657928 43.01311445 16.02776934 5.81512821 17.84779673 9.7547197 -40.4911556 -8.96204535 12.22382884 49.68458354 -4.4019635 -0.31310207 -6.41067355 1.50466172 -15.16895192 -3.99831471 -3.68427225 1.64304413 -25.81438416 -3.11259571 -10.16135257 65.13900231 -10.91146578 -7.27027605 -21.34266865 -5.08838546 17.14303107 -19.65554328 -0.14111238 4.14168136
-0.02575874 0.99793854 -0.06703343 -1.21380384 -34.65092941 -1.38701346 5.6965211 1.30920903 -2.05499755 11.42856008 2.23094068 -3.97505853 11.42855802 2.23094197 -3.97505854 -9.93031787 -1.15887849 -12.60849596 -12.46554293 12.53414729 10.47486881 0.5663744 6.01198113 -10.76203358 -7.90637817 -0.56519001 -68.92664393 14.61229825 -74.57094534 10.11509137 7.74786418 -0.58359737 22.12422283 1.43970255 2.77530888 7.08425642 21.73618995 -42.04778937 75.37541621 -19.4910121 31.89101639 16.08149686 2.38288153 18.57029239 5.72691057 -45.59124475 -13.77104667 9.70024194 53.40136041 -7.82671041 -0.64489642 -1.72140553 0.8264766 -15.73726562 -11.11660674 -6.30144941 6.23068397 -23.7683395 -5.76069438 -7.65397893 67.99100299 -11.79712838 -8.64920755 -22.66457653 -4.65022903 15.96513746 -23.49345376 1.67714884 4.62934364
-0.0538009 0.9961235 -0.07556058 -0.97056834 -21.64877143 -2.09051701 6.05089306 1.0370687 -2.48042138 12.13344193 1.60946035 -4.83767428 12.13343244 1.60946716 -4.83767379 -6.40825898 -4.73747782 -10.30109391 -12.98773855 8.14812746 15.33967561 0.25370843 4.96940261 -6.98208455 -10.72295729 -4.92980685 -70.47406307 19.69767867 -72.47588112 13.45234307 9.54684925 -2.71380417 20.28579726 1.6196961 5.31128714 4.52041836 30.79642186 -44.09702874 83.47034888 -19.99886966 24.46051468 9.72939299 8.58176939 20.2758692 5.7468613 -50.62679753 -16.64164322 5.76756994 53.23272487 -14.7121091 -1.24400277 4.31213211 -0.0306421 -15.25149958 -16.58151846 -9.76254644 9.35116288 -18.36821481 -12.37266207 -5.01190176 66.46257382 -10.22460769 -10.39094487 -24.29944197 -3.57829559 14.49760065 -25.48040977 1.81169588 3.05380972
-0.07802288 0.99672554 -0.07816495 0.06333003 -6.29111569 -1.99793871 6.49888966 1.47301134 -2.69162303 13.05279223 2.52522948 -5.27249619 13.05279243 2.52522939 -5.27250061 3.42722707 -9.32687855 -10.49315373 -15.95390684 1.45254876 23.6226626 1.37092152 -1.82143647 -7.07950921 -12.64447262 -6.05745485 -68.35157975 32.85130543 -72.0582825 25.61744209 14.90149805 -3.26305501 17.55879966 1.15618161 5.43015355 0.26534871 34.48515644 -48.64497963 82.51865669 -19.89494321 29.77714429 7.84639933 12.78150023 21.88094631 5.33162847 -54.29058934 -16.99397459 0.19270914 48.71048832 -20.93885266 -1.98845961 8.47878964 -0.50565681 -14.17696011 -14.40736412 -10.34738034 10.24772642 -13.18328262 -18.47573129 -2.37674434 63.54008892 -7.77371124 -10.12744305 -23.51462287 -3.01034139 15.44641559 -27.61590089 2.30970558 -0.99072927
-0.09165216 0.99111328 -0.07951131 1.13917563 7.2150816 -1.00881577 6.90862446 2.50425399 -3.06200131 13.93836987 4.62293281 -6.09525889 13.93836502 4.62292997 -6.09525604 13.93361165 -13.70175485 -10.64909908 -20.02597792 -7.51148966 34.91594468 1.65382865 -3.83859057 -8.79979234 -12.56493054 -5.58481974 -64.38615324 49.91578179 -71.14957029 40.396065 21.91381221 -6.34340601 12.29271301 0.13573048 4.592003 -6.05541504 25.89289019 -52.30481841 68.16941514 -17.39156151 42.47055054 6.37948551 13.92459335 16.84980766 3.84309508 -57.6713454 -15.17886077 -6.45903087 45.08995789 -24.10196051 -2.78493574 13.11383434 -0.91333727 -12.44220729 -12.06579019 -10.9330536 9.94109446 -11.42280008 -21.65153943 -0.75892159 63.7642982 -9.29279709 -7.42253049 -24.20754859 -1.94515963 12.79087849 -32.55058119 1.90286139 -3.56532892
-0.09716635 0.97693986 -0.08375886 1.5773538 15.24630854 0.50580918 6.78250937 3.59336527 -3.27501809 13.76249804 6.82928876 -6.58483422 13.76249919 6.82927651 -6.58482444 20.21882849 -15.31101481 -13.87760576 -17.7805055 -13.43952985 45.30694564 1.54800936 -0.99010991 -13.76283463 -13.37225262 -5.27056384 -57.40612524 58.01911578 -69.20365034 45.70877022 26.62129295 -11.42507357 8.9319859 -1.15789287 4.83655964 -17.78862556 -1.99749948 -44.25346003 39.81936381 -15.78110669 46.32685514 5.37828618 15.29565049 9.35913166 3.05437061 -60.64392373 -12.97056653 -12.00494642 44.88447274 -23.57653633 -3.0750259 16.46780233 -0.98336053 -10.80795581 -10.85742029 -12.06312479 9.12444986 -13.67997289 -23.05882237 -1.49332003 67.90254156 -11.16908571 -6.25870258 -23.49196381 -1.58415794 12.71909035 -37.10423682 1.91039258 -4.95384585
-0.10173764 0.95900605 -0.08783205 2.17579498 18.76739419 1.88178733 6.42215593 3.31994172 -3.27949195 13.01516196 6.33410341 -6.44577875 13.01516433 6.33411046 -6.4457791 21.56037196 -15.22380655 -13.48140443 -16.84421351 -10.04178288 43.87513205 1.53735255 -1.23836366 -14.90841034 -13.70738511 -5.18783722 -49.20643588 60.54185305 -70.75161746 45.49138595 24.77096479 -4.77906304 15.23312009 -2.06898256 7.47461818 -25.16822888 -39.88094477 -8.24687494 22.87813339 -16.77297909 31.06282787 3.21717962 20.93248729 19.12186186 9.2482023 -63.03448739 -12.11754167 -14.96792937 45.43350126 -24.69079195 -3.40624054 15.45065045 -0.62457001 -10.43125377 -8.4765973 -10.78439415 7.83069243 -15.92994211 -23.79790341 -1.5978503 71.19182186 -11.91321377 -7.40549351 -25.77460504 -1.44309842 12.18992829 -38.41822089 1.78467602 -6.59207273
-0.10906854 0.9423568 -0.08204447 4.33221747 22.87213297 2.59264981 6.0304733 3.71239491 -3.31256209 12.25513992 7.17120127 -6.49715094 12.25515291 7.17121916 -6.49715602 21.5478985 -17.84599896 -0.94573827 -17.03008566 -5.90435433 30.45404075 1.35033132 -2.01416641 -11.99327834 -12.27157387 -5.60611866 -44.62158893 63.13443467 -72.85789614 46.62071149 21.3510699 1.0215371 22.01561654 -4.15266193 5.64345723 -31.25504155 -62.13172462 25.83759053 32.86536137 -18.65295258 18.61325314 6.01145351 25.02919672 26.20659747 -7.67870796 -65.61891558 -12.53186379 -18.33521453 45.10489644 -23.57118237 -3.30670801 11.8004697 0.03044261 -8.68568476 -6.12729116 -9.55437235 5.44817779 -18.47372138 -26.38431933 -1.91490446 72.86820565 -13.16177988 -8.6705736 -28.40361715 -1.43896904 12.39969302 -39.09594464 2.63747229 -8.09459256
-0.11824768 0.92974381 -0.06250357 8.10215106 30.55257779 2.43216046 5.50185586 4.75836602 -3.55102985 11.29290217 9.33395931 -7.11081788 11.29289571 9.33396468 -7.11081463 16.41498771 -23.66089299 13.75672376 -11.34323135 -5.56944026 17.37948989 1.11723503 -1.69343395 -7.88682522 -13.22179765 -7.94815162 -45.38565216 57.81370973 -72.03295562 41.82993579 20.45952926 1.39118054 23.8333747 -6.55053067 3.90818749 -34.35798624 -76.88929804 30.89727538 46.22546293 -18.58568846 29.7632948 18.32226808 32.64920217 13.23961836 -17.99491494 -68.83500165 -11.05470176 -22.05072825 43.91020063 -26.41804434 -4.40687202 9.7959581 0.51093082 -6.380987 -3.20427456 -9.29677303 3.39228377 -20.25890371 -31.79176101 -3.25279438 71.69847793 -14.89103997 -8.20213915 -32.15302069 -1.91588837 13.07514625 -38.11304671 3.95062046 -8.9146725
-0.12639049 0.91997582 -0.03695751 11.98100761 39.43553107 1.59189534 5.1741688 5.04541689 -3.68286801 10.68203755 10.00181083 -7.46671539 10.68203734 10.00182266 -7.46671472 8.45034869 -29.06007419 18.81082769 -3.75074222 -7.27632817 12.37275136 1.00814921 -0.54972673 -7.76513663 -14.39995496 -7.76473893 -45.17466716 40.25830838 -68.91852649 27.09497558 16.64253165 2.17357658 23.21711903 -4.52851321 5.71361293 -33.28409214 -83.3276816 38.17653096 53.35025793 -12.19587234 47.05985401 19.71529059 29.09469843 9.34335778 -24.1300177 -72.17061114 -8.47749949 -26.31572295 43.98128478 -32.23588292 -6.03089481 9.96746127 0.54905514 -4.71980369 -2.69721363 -8.99136222 2.93204018 -21.86431265 -37.49977481 -5.73331017 70.51188657 -16.20427046 -5.94422232 -34.37558646 -2.31295493 13.89853315 -38.03225204 4.75991963 -9.11262693
-0.13215111 0.91223007 -0.01544777 14.511215 45.7865502 0.59049918 5.1278053 5.02769973 -3.75938447 10.60585148 10.00701334 -7.69224734 10.60585763 10.00702598 -7.69225744 6.47774454 -29.96810794 18.08310589 -1.87701093 -8.69800182 14.12812752 1.06767302 -0.4934263 -9.18845306 -14.04823021 -4.83873284 -43.63429988 26.19397191 -60.94313813 15.35238324 14.01347002 0.66264666 20.19030384 -1.8453168 10.53527637 -32.51985682 -85.9971133 44.62553168 53.43631631 -12.17127083 54.09620053 26.0876496 25.9418441 18.34974039 -27.78764006 -74.05954879 -6.89118104 -29.72253958 45.15118424 -36.13066857 -6.50663879 9.40073261 0.55687707 -3.81535855 -2.69696691 -8.98977846 2.93295114 -22.60876079 -42.26222321 -7.87088835 69.94759969 -16.20413041 -4.0478992 -35.24491885 -2.41760711 14.310069 -38.83665379 4.98702156 -9.26834258
-0.13686686 0.9072036 -0.00212832 15.3993648 48.55250716 -0.10890337 5.22799518 5.11763291 -3.93777837 10.83538138 10.17072393 -8.10592256 10.83537784 10.17071914 -8.10591914 6.88900156 -29.75730846 15.91866698 -0.97575125 -9.00511432 15.98781683 1.09255836 -0.4983944 -9.87055822 -14.1058257 -2.12383563 -42.61807179 18.26190092 -50.35637158 9.54455158 13.15933834 -2.85177892 17.97723547 0.63989388 14.38109249 -30.68798366 -79.39845566 47.81892615 45.54008074 -12.6343666 59.70629281 30.5415833 23.29922848 24.30697119 -27.01728089 -74.76938149 -6.13737831 -30.33996969 46.06780699 -38.51878644 -7.57248013 8.90980939 0.58483429 -2.85596216 -2.69632552 -8.98882041 2.93521344 -22.11749756 -45.90927315 -8.96027836 69.45186098 -14.16236436 -3.21393353 -35.73639555 -1.93477877 12.83226193 -39.46702187 3.12554945 -9.15313902
-0.1419233 0.90613785 0.00415454 14.99784974 48.70183659 -0.41925951 5.44274704 5.06520346 -4.13122091 11.28101359 10.0231614 -8.52847513 11.28102894 10.02317709 -8.52848863 6.31125752 -29.65781556 14.21395176 -0.97822343 -9.26223283 17.24804916 1.10623465 -0.26996373 -10.57359975 -15.02560587 -1.07603406 -40.89635077 13.6445463 -40.88440957 5.99500735 12.14588968 -7.46296095 15.80164521 1.55831422 15.46387317 -30.26917277 -69.1539583 43.5298643 36.52595488 -13.76454086 61.33141006 32.18491083 24.8931369 24.62045729 -22.33911594 -74.41203659 -5.89583322 -28.86912921 46.34498578 -40.03226684 -8.72935564 8.7082767 0.59641772 -2.0659906 -2.69580076 -8.98839099 2.93777594 -20.60345659 -47.74027078 -9.06703667 69.05171018 -11.79521628 -2.20325036 -35.61987806 -1.40349517 10.96514763 -39.84931215 1.0549178 -8.82461114
-0.14621867 0.90917709 0.00544284 13.56848421 47.24869828 -0.48223066 5.7931722 4.82443334 -4.2739592 11.97646663 9.47853951 -8.84707571 11.97647189 9.47853736 -8.84708232 5.43046647 -29.49096837 14.02156461 -1.95079482 -9.18903429 17.72763526 1.11952422 -0.82469228 -10.37616422 -13.05427103 1.43629542 -40.20300309 12.63058002 -40.1208726 4.98198628 11.21667716 -9.05485556 14.56399485 1.93016365 15.5015832 -28.50637274 -61.98679021 35.04917603 30.85690605 -12.94456354 57.47068916 28.49131582 31.49517429 21.84365327 -24.78262529 -73.47831066 -6.72149012 -27.21685474 47.10792802 -39.95911022 -8.37567191 8.11185841 0.62131487 -2.10193109 -2.69590141 -8.98837944 2.9394268 -17.9615551 -47.45474987 -8.29017318 68.6457002 -10.57435977 -0.17483729 -34.79041847 -1.11303186 10.11216168 -39.89034842 -0.16925517 -8.12913753
-0.14701837 0.91558006 0.00311822 11.49730925 44.6103561 -0.62832372 6.21495714 4.80962741 -4.19412493 12.81842845 9.38724844 -8.75667588 12.8184348 9.38724176 -8.75666882 4.01735387 -29.25998636 14.35937317 -3.47610233 -8.69429763 17.46959908 1.12493859 -2.08707888 -8.14528309 -7.9723978 4.55763068 -43.50427932 15.44692115 -45.8826866 6.65547225 12.39680837 -8.87899585 16.2559621 1.79448466 14.81219371 -24.71575986 -57.73692846 27.31863291 26.48747873 -17.60359016 51.98266346 28.96033342 31.67949785 19.86004299 -20.84789248 -71.82996904 -8.06616422 -25.11931153 48.01620662 -39.02044592 -7.38714039 7.43609515 0.64229548 -2.29866697 -2.69579862 -8.98870431 2.9414362 -14.7002546 -45.91116666 -6.85124059 68.12421315 -9.88792926 1.69623365 -33.13463385 -0.93907399 9.79852665 -39.93312818 -1.67746428 -7.14793132
-0.14264028 0.92487411 -0.00162198 9.40285972 40.83180445 -1.1656881 6.51694898 4.82427257 -3.95219616 13.41124626 9.37119892 -8.34694029 13.41126631 9.37122127 -8.3469592 2.33769079 -28.73173429 15.50680158 -4.89747746 -7.42502433 16.7696658 1.14021919 -2.61722645 -6.40551139 -1.25235067 6.57583368 -47.18587987 23.57459928 -56.57329395 11.40579518 14.47304994 -7.49389777 19.78815284 2.07965557 14.83213897 -19.91647948 -53.49911925 17.32213123 21.31316985 -25.46496148 50.84424325 32.36448178 28.52671857 21.48437495 -15.25996574 -69.6083784 -9.4037622 -22.36319904 48.85618729 -37.5370289 -6.16753873 6.80600065 0.66175028 -2.34145721 -2.69558643 -8.98922623 2.94340791 -11.27953102 -43.07624958 -5.29709014 67.248048 -9.7478565 3.7335621 -31.32999622 -1.02676476 10.12315047 -39.18808576 -3.14192346 -5.73778279
-0.13315508 0.93645783 -0.00785482 7.60798257 35.82452685 -1.9326611 6.63992799 4.79698976 -3.68668957 13.63915296 9.28937311 -7.8700263 13.63915905 9.28936227 -7.87002769 0.94490449 -27.64649329 16.98699472 -6.85074988 -5.34909374 15.50429771 1.16969616 -2.97836414 -4.87401311 5.2983813 6.82982016 -50.34394527 37.06845548 -68.24430998 20.8415831 16.33678098 -4.7246807 24.61256369 2.46707733 15.19413255 -14.67879678 -49.25968311 7.29914747 16.68071879 -30.49827867 54.25201964 35.52567865 26.08581149 20.43786163 -13.38122754 -67.01197567 -10.35680816 -18.83388155 49.27990682 -35.49439754 -5.15120585 6.26440346 0.66684762 -2.14524768 -2.69547308 -8.98989846 2.94468239 -8.96646916 -38.12109446 -4.71266418 66.84208442 -10.63171219 6.59273617 -28.79811489 -1.50699369 11.65530409 -38.21268387 -3.86487874 -3.83449403
-0.11932044 0.94988738 -0.01463933 5.87739836 29.35518627 -2.44980883 6.82989934 4.59417283 -3.54851764 13.99511942 8.83275072 -7.6288683 13.99512196 8.83276292 -7.62887283 -0.50277575 -25.33129079 17.37245677 -8.60101364 -2.28920799 13.9743295 1.24553519 -3.62477798 -3.25453262 9.44471215 5.10665226 -52.9423339 60.68738789 -77.50687509 40.65189663 17.72552411 -2.22724276 28.92142611 1.73683621 12.9309611 -7.51150058 -45.91889835 1.58653989 14.09229007 -32.4440627 57.38703313 37.68504441 23.76231237 21.1544821 -11.22075346 -63.98544396 -10.93688335 -14.86726595 49.40912662 -32.27734912 -4.16568226 5.51724583 0.63694729 -2.00227097 -2.69474632 -8.99053893 2.94629003 -6.9626913 -26.31366683 -5.12115333 67.6924256 -13.93856854 14.7035909 -26.278907 -2.07393274 13.78157998 -36.24633144 -4.68694885 -1.61321242
-0.10167113 0.96459145 -0.02092679 3.95183693 21.24102536 -2.57122383 6.98629214 4.02004497 -3.43798656 14.25312411 7.63115034 -7.38616072 14.25312377 7.63115818 -7.38616072 -2.76059716 -21.58498805 15.00683921 -9.03327058 1.02187462 13.41050428 1.25662399 -3.36262803 -1.24515257 10.30370305 2.00095269 -56.98858438 94.25102483 -80.94390581 72.82227168 19.05567931 -1.21170302 30.24940638 1.37964741 11.3103593 -2.50697499 -44.97778892 -2.61276104 18.13526785 -31.51512038 60.99921376 36.97978198 24.57293339 19.01420803 -5.84660378 -60.28071276 -10.99750057 -10.51688527 49.36630977 -27.7221221 -3.23514293 4.41054911 0.58128683 -2.01475012 -2.69371508 -8.99110938 2.94747854 -5.19023941 -15.82775314 -6.11240297 68.55815737 -17.35214565 20.79128962 -26.26410477 -2.39131739 13.9879039 -32.67987331 -4.97212866 0.72420372
-0.08103913 0.98002799 -0.02579729 2.04503379 11.87165091 -2.71882077 7.00029723 3.44555292 -3.25911034 14.22512738 6.43564712 -7.0009974 14.22513106 6.43565854 -7.00099786 -2.85213219 -16.93069472 12.98362998 -10.84631154 5.03546779 11.9833379 1.29614551 -3.37096888 -0.57372183 8.29358478 -0.54558368 -60.4217903 115.82143207 -81.04622241 95.4881208 19.29021915 -0.60161774 28.75754817 1.26233405 11.11588738 1.00944703 -41.62624631 -5.69423052 23.01817712 -26.38130593 66.30701093 33.67307149 24.69128018 17.87854587 -1.20813934 -56.11480012 -10.70738842 -6.35601359 49.32519033 -21.72689239 -1.88224303 2.912774 0.50312415 -2.61889821 -2.6921398 -8.99145272 2.94839914 -5.34276185 -16.72683713 -7.56164399 66.45169671 -17.60695423 15.34013004 -27.17891313 -2.47207003 12.66362987 -29.65669762 -3.40122988 4.07928358
-0.05946751 0.99665879 -0.02799308 0.5614127 2.27243972 -3.34026941 7.00413822 2.99781622 -2.99670127 14.19029479 5.49780753 -6.50907187 14.19029674 5.49780789 -6.50906775 -2.38651682 -12.67674588 13.17121989 -12.20479872 10.18169513 7.79595285 1.17421907 -1.93275455 1.89461519 2.69764162 -4.29876456 -64.4965343 98.83192277 -80.15093907 80.57251646 19.08579679 -0.54578829 27.70972517 1.19778614 11.379268 4.75323167 -36.16725094 -8.7797104 27.46665911 -22.02613209 69.86461962 29.9008397 22.68255595 18.77564937 6.20830635 -51.86901971 -9.94087463 -2.49387965 48.7741631 -15.37717226 -0.19325525 1.52463019 0.47032929 -3.74597242 -2.69009777 -8.99152497 2.9486854 -6.08917171 -16.27978301 -8.60912379 63.58743031 -18.23480706 10.83758979 -27.12526852 -2.77467735 12.19204066 -26.2879444 -0.54549435 6.27427707
-0.04001127 1.01493339 -0.02667169 -0.37583072 -6.67136257 -4.21084789 6.69949337 2.77065847 -2.25431929 13.53945889 5.0990317 -5.09215699 13.53946329 5.0990334 -5.09216047 -0.72144718 -7.36869323 6.87131731 -13.57783011 12.85863005 7.84678982 1.24165858 -2.1834532 -2.00493628 -2.52773229 -4.0966721 -62.96054342 73.5600991 -78.72316968 58.11236774 18.14947991 -1.52879883 23.27503068 1.23850105 12.68649812 5.00271391 -28.88978082 -14.23239237 32.93451079 -18.7219331 70.68017417 27.17857696 19.25183721 17.85700329 13.57970263 -47.76355594 -9.02187 0.87192396 47.17891827 -9.69690682 1.43784452 0.5723651 0.4969907 -5.29458449 -2.65936131 -8.91083135 2.99606876 -6.3203027 -14.53161146 -8.58078111 59.10000763 -20.13672059 7.93589529 -26.73377256 -3.12353016 12.54731962 -21.78814261 0.44317808 7.41414268
-0.02539985 1.03375939 -0.02191799 -0.88525486 -14.80400446 -4.59827487 6.40129948 2.66762036 -1.70045847 12.91876789 4.9449796 -4.04339012 12.91877079 4.94497494 -4.04339065 -0.07625194 -2.72339768 1.09652506 -13.57801764 15.3349935 7.68496707 1.14376753 -0.39963462 -4.52710636 -7.60635018 -4.53709637 -62.16943576 43.70966781 -72.63566114 29.92494652 16.98617156 -2.21351793 21.50892664 1.24827492 14.17336865 6.29817101 -21.01173453 -19.73231583 38.32998746 -10.51624542 71.03421404 18.91533915 18.65896925 14.07273204 16.10201996 -44.19947382 -7.39246611 4.1905205 45.16601523 -8.0144551 2.17487369 0.37989152 0.46544919 -6.88006915 -2.62725697 -8.33611928 3.00139157 -5.83236734 -11.93770739 -8.13943966 52.99751814 -22.21419182 5.96690184 -26.03536587 -3.59949201 13.33194538 -16.29731967 0.76764115 7.34756129
-0.01658535 1.05020698 -0.01506567 -1.14958072 -22.35050594 -4.13425125 6.19045467 2.8840919 -1.58648116 12.50628421 5.3909347 -3.87452785 12.50627955 5.39093432 -3.87452733 -2.3691222 0.40243868 -1.83687918 -10.87452771 17.68396716 6.53012897 1.14501455 0.51116555 -6.24084714 -11.27100792 -4.04177426 -60.82125805 28.85204869 -65.28405551 16.62908197 16.13821791 -2.75231881 21.70605778 1.10174529 14.22098638 8.69463381 -12.3661795 -24.64695305 44.65088953 -6.40550236 69.78974365 14.42503151 16.71989059 16.8541485 15.21813372 -41.23634676 -5.36339753 7.16666752 43.42783109 -8.96596161 1.99730635 0.40216854 0.35339785 -8.55404212 -2.48853312 -7.36521998 3.00888776 -4.82520126 -9.02012849 -8.02336648 45.95673682 -24.11493433 4.10630833 -25.04046449 -4.01005643 15.21943814 -10.25127755 0.31626194 5.78418364
-0.01217656 1.06171402 -0.00852754 -1.49581449 -29.19552908 -3.21400469 5.94390102 3.09629362 -1.78011112 12.03310602 5.81355966 -4.26650961 12.03311402 5.81355497 -4.26650908 -4.60347131 2.21600059 -1.61687925 -7.63612517 20.1342182 4.09737574 1.07722208 2.78447605 -6.60522138 -12.8979445 -3.16539518 -59.89400536 21.1222347 -60.44062364 10.60081953 15.03381746 -2.60403962 19.59562832 0.81168446 14.41634734 12.23118065 -3.91897488 -27.94598457 50.10825881 -6.00518016 66.90785812 13.59245601 13.95796933 17.52229185 10.60308531 -38.40863621 -2.82620087 10.06461483 41.70842228 -11.56266621 0.83382701 -0.24978838 0.37903061 -9.63893701 -2.10684188 -6.17964308 3.2302159 -3.86876618 -5.41615225 -8.63012036 40.32233325 -25.89686182 3.13050541 -23.21369926 -4.75430181 18.30810458 -5.38202097 -0.43678071 2.94152776
-0.00960742 1.06868469 -0.00373588 -2.21192624 -34.67979742 -2.52264156 5.82574146 3.4148195 -1.83800518 11.81374623 6.47227483 -4.35378697 11.81374589 6.47228082 -4.35378855 -4.6109986 2.82086983 -2.62674218 -7.2250339 20.6964376 2.99245768 1.123486 2.57444955 -6.71124384 -13.22500875 -0.60749446 -59.84856199 16.05605121 -57.22594794 8.52510687 15.01138884 -2.67795772 18.45809525 0.67854577 13.7357645 13.86621347 1.25715089 -29.65804369 55.24237978 -0.91081493 62.0319191 6.75187668 15.75503803 18.3631577 8.97774893 -35.02497418 -0.16224623 12.43468809 38.85306786 -14.79348585 -0.68996263 -1.68100399 0.59886967 -9.56866826 -2.35332584 -5.01186586 2.33873783 -3.49254098 -5.58530629 -9.66495972 35.96887287 -24.74340457 0.9966662 -22.10312322 -5.81388974 21.22741823 -1.37628864 -1.48702456 -1.08329932
-0.00700513 1.07258988 -0.00057412 -3.06826071 -38.33473928 -2.34953688 5.68414127 3.54224207 -1.76772861 11.52184724 6.76306835 -4.0848481 11.52184505 6.76306835 -4.08484837 -3.73689425 2.59958297 -2.41673582 -6.96911395 21.26671002 1.03779534 1.11586794 3.2131658 -6.33905487 -13.66618317 1.8169931 -62.09479567 13.1626607 -53.99147831 8.89514047 16.58431697 -2.55026913 19.51910708 0.6949549 12.08418712 13.76013936 3.72820486 -28.91914598 58.69348189 -2.30144414 55.7190208 6.36814449 13.50417953 19.202613 7.16294818 -31.61601966 1.38041272 12.44820791 36.24975293 -14.37202657 0.03305893 -3.20105605 0.71909178 -9.33467175 -3.24431395 -4.16869961 1.11697877 -4.44171418 -6.86885818 -11.09767226 35.02211006 -21.2674162 -0.86039889 -20.56153948 -5.88291178 20.97312732 -2.06534461 0.31783645 -0.20370346
-0.0045902 1.07544495 0.00212703 -3.68876242 -40.47913721 -2.68481093 5.49185302 3.67035588 -1.46883787 11.12078599 7.06558279 -3.43671446 11.12078467 7.06560563 -3.43671948 -2.68561879 1.88891915 -1.08505884 -6.6677741 21.95311445 -1.22978692 1.23015256 1.69503902 -7.12826281 -13.68425591 4.92788548 -63.79686886 9.9194773 -53.11802544 9.41081713 17.24447961 -1.34936615 18.88955761 0.74087179 11.04238065 12.79929835 4.63723114 -28.03588582 60.57676012 -4.21866255 51.14408405 6.43904309 10.30685257 18.41274103 7.1788146 -29.91217606 2.72319062 12.2242983 35.21253905 -13.46869588 1.22043372 -3.87488723 0.81425567 -9.35402025 -2.54384584 -3.38273223 0.71386208 -5.30043784 -7.60155869 -12.26373864 35.59250961 -18.17377515 -1.0215511 -20.16362036 -5.02997591 19.40199896 -3.31275878 -0.0262832 1.12071855
-0.00334929 1.07779785 0.00412005 -4.26988837 -41.78931431 -3.30971874 5.51935295 3.79240297 -1.14933996 11.16353167 7.3418139 -2.82786786 11.16352532 7.34184262 -2.82787314 -3.49113715 1.50929856 -0.70978096 -6.36405209 22.11309823 -1.76553815 1.27401931 1.41447322 -7.53792509 -13.94925703 4.75439403 -64.4433445 8.50119978 -51.70343908 8.08609142 16.423303 -0.16750244 17.84888036 0.85305415 11.3903878 12.54785217 4.56481407 -27.54423438 60.43021053 -4.76166951 49.53190155 5.88570635 8.33656456 15.5075772 9.61332065 -29.09413628 3.78868557 12.74694171 34.97875895 -13.26331194 1.41654632 -4.30648062 0.83139761 -9.0174683 -2.31910686 -3.21698755 0.80296719 -5.30711313 -9.55498818 -13.13854666 34.74319726 -14.8461014 -0.97987269 -20.0685211 -4.40187871 18.28043343 -3.3513826 -0.27728477 1.21709346
-0.00372127 1.07939262 0.00497419 -5.11620551 -42.63366226 -3.86467778 5.64689371 4.071117 -1.07160112 11.42726098 7.90509648 -2.71577308 11.42725721 7.90510138 -2.71577339 -3.97823359 0.77604922 -1.22267241 -6.81919255 21.33012255 -0.34417099 1.29423276 1.5346241 -7.49700967 -13.87673297 2.94478249 -63.78783599 9.94831859 -49.26696485 6.60659616 16.24796879 0.2153614 17.66368618 1.0820268 11.2839729 11.98680646 4.03092598 -26.47236652 60.07438264 -5.82664491 47.40343888 7.21118138 6.20443734 12.83165943 10.66943176 -28.208362 4.76768218 13.51580025 34.56412942 -13.55239018 0.79229322 -4.33497269 0.77981629 -8.64587744 -2.32353302 -3.21709901 0.80502017 -4.80187262 -11.24081265 -14.18231577 33.76945174 -11.98653045 -0.49131237 -20.0404609 -4.14736431 17.71452555 -2.87564663 -0.34127278 0.68415164
-0.00524392 1.08012184 0.00502696 -6.0872563 -43.03559142 -4.03246112 5.83263153 4.64744239 -1.22863465 11.83653821 9.03760006 -3.08396552 11.83654288 9.0376142 -3.08397006 -4.30310406 -1.27293497 0.20630266 -6.27189278 20.43779206 -0.37715974 1.39245151 -0.69606172 -7.87789413 -14.26007117 2.39431729 -63.27716851 9.86511912 -47.52499396 5.92798759 16.17285785 0.9152664 18.79547428 1.41090748 9.46151678 9.79289427 1.22003376 -24.27077548 60.53288578 -6.66073761 41.85840384 8.04380391 6.22527619 12.32235061 11.67338834 -27.16650552 5.74328187 13.94016546 33.90317469 -14.12602554 -0.20515684 -4.19916938 0.71094682 -8.11944065 -2.3235326 -3.21710368 0.80502352 -4.33941127 -13.72121365 -15.56453948 32.72650497 -9.00339556 -0.41860989 -20.57287306 -4.05738754 17.07712566 -1.78496311 -0.35671643 0.33317902
