HIERARCHY
ROOT Hips
{
  OFFSET 0 1.1673769999999999 0
  CHANNELS 6 Xposition Yposition Zposition Xrotation Yrotation Zrotation
  JOINT Spine
  {
    OFFSET 0.000003812944337411511 0.10717500000681812 -0.009311
    CHANNELS 3 Xrotation Yrotation Zrotation
    JOINT Spine1
    {
      OFFSET 0 0.1058532983696241 -0.004285186608692496
      CHANNELS 3 Xrotation Yrotation Zrotation
      JOINT Spine2
      {
        OFFSET -8.470329472543003e-22 0.10599345671141647 -0.007812688101110094
        CHANNELS 3 Xrotation Yrotation Zrotation
        JOINT Neck
        {
          OFFSET -8.470329472543003e-22 0.26240299999999994 -0.04488100000000002
          CHANNELS 3 Xrotation Yrotation Zrotation
          JOINT Head
          {
            OFFSET -4.235164736271502e-22 0.17466899999999996 0.05625600000000003
            CHANNELS 3 Xrotation Yrotation Zrotation
            End Site
            {
              OFFSET -4.235164736271502e-22 0.10756799999999966 0.021070000000000005
            }
          }
        }
        JOINT LeftShoulder
        {
          OFFSET 0.10574399999999999 0.23009199999999996 -0.07323000000000002
          CHANNELS 3 Xrotation Yrotation Zrotation
          JOINT LeftArm
          {
            OFFSET 0.14878212914559852 -0.04653266654569688 -0.030693304075147546
            CHANNELS 3 Xrotation Yrotation Zrotation
            JOINT LeftForeArm
            {
              OFFSET 0.24109000000000003 2.220446049250313e-16 -5.551115123125783e-17
              CHANNELS 3 Xrotation Yrotation Zrotation
              JOINT LeftHand
              {
                OFFSET 0.316792 0 -1.1102230246251565e-16
                CHANNELS 3 Xrotation Yrotation Zrotation
                End Site
                {
                  OFFSET 0.06265729429771016 -0.10569948639925819 0.03859412819617963
                }
              }
            }
          }
        }
        JOINT RightShoulder
        {
          OFFSET -0.10574399999999999 0.23009099999999982 -0.07323000000000002
          CHANNELS 3 Xrotation Yrotation Zrotation
          JOINT RightArm
          {
            OFFSET -0.14878040829228295 -0.04653159475972379 -0.030692917709113934
            CHANNELS 3 Xrotation Yrotation Zrotation
            JOINT RightForeArm
            {
              OFFSET -0.24109000000000003 -6.661338147750939e-16 -2.7755575615628914e-17
              CHANNELS 3 Xrotation Yrotation Zrotation
              JOINT RightHand
              {
                OFFSET -0.31679300000631333 -8.881784197001252e-16 -5.551115123125783e-17
                CHANNELS 3 Xrotation Yrotation Zrotation
                End Site
                {
                  OFFSET -0.06265795211397429 -0.10570764472283312 0.03859362014678265
                }
              }
            }
          }
        }
      }
    }
  }
  JOINT LeftUpLeg
  {
    OFFSET 0.12297511767165623 -0.06742078536803264 -0.010003
    CHANNELS 3 Xrotation Yrotation Zrotation
    JOINT LeftLeg
    {
      OFFSET 0 -0.457033849483632 0.010304509991859542
      CHANNELS 3 Xrotation Yrotation Zrotation
      JOINT LeftFoot
      {
        OFFSET 0 -0.500280623664138 -0.036905110570505176
        CHANNELS 3 Xrotation Yrotation Zrotation
        JOINT LeftToeBase
        {
          OFFSET 0.025950805788189563 -0.14255151365608373 0.19507593811975638
          CHANNELS 3 Xrotation Yrotation Zrotation
          End Site
          {
            OFFSET 0.010732117804750613 -0.000035441498015504746 0.11362327680684622
          }
        }
      }
    }
  }
  JOINT RightUpLeg
  {
    OFFSET -0.12297488233495055 -0.0674172146317622 -0.010003
    CHANNELS 3 Xrotation Yrotation Zrotation
    JOINT RightLeg
    {
      OFFSET 0.00000159348816348992 -0.45703784846455486 0.01030460015485039
      CHANNELS 3 Xrotation Yrotation Zrotation
      JOINT RightFoot
      {
        OFFSET -0.0000015934881634621645 -0.5002806236608007 -0.03690511058134042
        CHANNELS 3 Xrotation Yrotation Zrotation
        JOINT RightToeBase
        {
          OFFSET -0.0259497668227143 -0.14255297441554501 0.19507500887383716
          CHANNELS 3 Xrotation Yrotation Zrotation
          End Site
          {
            OFFSET -0.010733201844058626 -0.000035030229497263656 0.11362417898958707
          }
        }
      }
    }
  }
}
MOTION
Frames: 80
Frame Time: 0.03333333333333333
0.15171687 0.9901178 -0.0465126 14.49302127 -17.54082054 3.67466786 12.43276542 0.88208307 -3.20365049 9.87411688 0.98146344 -1.89367435 9.84321966 1.2899629 -1.94937815 -1.77666002 -1.2330003 -6.32322429 -47.06213363 -12.89820636 2.89327279 0.76596917 2.06700682 -9.13778638 -20.51177191 -23.66153607 -35.52383831 179.99975337 -86.42030863 179.99975427 35.70639549 -6.21533752 27.39171936 2.0116256 4.33603771 2.85850621 -19.98861945 25.4144132 63.48735214 179.99973275 82.40228439 -179.99975147 0.58840474 3.70473337 -6.31297965 -60.07996932 2.39602682 25.15185815 56.58003584 -8.09856541 0.64672533 -9.90154649 2.75509994 -20.96003059 -0.14319714 -0.0000061 0.00000596 -48.04257126 3.44864028 -23.11246481 56.08338944 2.55639663 -1.28986492 -21.44948615 -5.5832926 24.17493104 -0.01071229 -0.00000878 0.00000287
0.14866178 0.99561981 -0.04792982 14.71257708 -17.15700711 3.50040542 12.29484996 1.13085043 -3.36345982 9.74532772 1.17955066 -2.00581645 9.71531092 1.46137175 -2.05812347 -1.84218777 -1.30944541 -6.25904775 -47.15293041 -13.10140455 2.58418098 0.77873884 1.9414083 -8.88419086 -19.36442409 -25.06247248 -35.36862359 179.99990612 -87.10105506 179.99992005 35.88686525 -6.15892781 26.60440541 2.10746424 4.50873062 2.9432645 -20.0691664 25.42980782 64.4668175 -179.99996078 84.00004815 179.99995852 3.24038496 3.44386949 -6.54851462 -59.67150294 2.67392411 25.47585641 54.86483243 -8.36011145 0.24906648 -9.03666905 2.59350854 -20.90219579 -0.10767228 -5.6e-7 6.3e-7 -47.78461559 2.51100445 -23.24727938 55.06888856 2.48229138 -1.00363069 -20.98698295 -5.61845702 24.7703891 -0.10345227 0.00002589 1.8e-7
0.14537086 1.00059883 -0.04956678 14.91346018 -16.81230749 3.46510834 12.09165971 1.53590832 -3.51709424 9.54705085 1.4908868 -2.12149305 9.51683829 1.74459325 -2.17276348 -1.68501789 -1.45008586 -6.45498927 -47.02764536 -13.79281753 2.21751367 0.78293218 1.79882455 -8.51603838 -18.10127272 -26.97475732 -34.77183336 -179.99982998 -87.37331804 -179.9998184 37.11730713 -6.55507375 25.26293489 2.26310543 4.9675932 2.7323826 -20.2598565 25.28881955 65.00922614 -179.99997941 86.4528119 179.99996465 6.52889771 3.13769661 -6.82443927 -59.31608946 3.28021951 25.79121635 53.12005412 -8.49086616 -0.00421259 -8.03800922 2.24641566 -21.12493487 -0.19827119 -6.1e-7 -0.00000396 -47.62176672 1.61901672 -23.58858007 54.1722368 2.73041516 -0.70549002 -20.65001719 -5.69425934 25.48431125 -0.170567 0.00001306 0.00000306
0.14063387 1.00538284 -0.05256713 14.8797167 -16.68932075 3.52895137 11.80766398 2.10221143 -3.56975962 9.27649638 1.89589767 -2.21080386 9.2437407 2.12458232 -2.26437048 -1.32682604 -1.60916652 -6.69440744 -46.63185152 -14.57578147 1.83043854 0.7747642 1.58294269 -7.87899922 -17.35412135 -29.6177041 -33.9804413 -179.99994959 -87.28709727 -179.99994648 39.22665084 -7.21046257 22.59505577 2.52242937 6.3156727 1.97555573 -21.19139045 24.941056 65.0127915 -0.00036861 88.61944882 0.00035406 10.67988689 2.77524647 -7.06097037 -58.62732983 3.94596973 26.19398063 51.26549407 -8.52142304 -0.3446474 -6.86398117 2.04337671 -21.41094012 -0.31967202 0.00000183 -0.00000551 -47.37902695 1.04384631 -23.84026508 53.47745654 3.05849391 -0.32628472 -20.56119074 -5.76826084 25.92763122 -0.11112828 -0.00000258 -3.1e-7
0.13443804 1.00928947 -0.05585003 14.34960636 -17.14932018 3.73930091 11.34315739 2.53000902 -3.3100442 8.88291416 2.16235893 -2.12448547 8.85142678 2.36064867 -2.1777271 -0.91663788 -1.52839508 -7.63748323 -45.61559097 -14.62600384 1.62252897 0.77801128 1.58256251 -7.6934751 -15.98210935 -32.42766382 -31.93152591 -179.99995363 -86.32721943 -179.99994937 39.92336694 -6.50444015 19.29043206 2.9395522 8.75559542 0.60305021 -23.69550765 24.68872026 64.79484496 0.00003022 79.28244143 -0.00002113 15.8120961 2.4030247 -7.11813762 -57.30033637 4.61086597 26.75692064 49.74052629 -8.32263738 -0.76788031 -5.93151327 2.08806599 -21.62952498 -0.44874445 0.00000199 -0.00000237 -46.93736022 0.78538891 -24.12751922 53.08206992 3.84474591 0.23668406 -20.76977049 -5.82460523 26.00083902 -0.05077537 -0.00000405 -0.00000173
0.1270035 1.01108841 -0.05800333 13.18577045 -18.52569742 4.32872136 10.5417179 2.55623307 -2.65947583 8.27222894 2.11198653 -1.75869715 8.25130305 2.2680868 -1.80008186 -0.31092642 -1.01871484 -9.71581109 -43.76057146 -13.10841477 1.5148337 0.79776036 2.03066482 -8.82301039 -12.47316311 -35.34920708 -27.02564737 -179.99992232 -85.15952323 -179.99992326 38.69565004 -4.58040064 19.03758751 3.43071596 11.40569413 -1.11672059 -27.49901377 25.29028631 64.8482729 0.00000784 66.16047856 -0.00002041 21.82428392 2.01215064 -6.89498865 -55.25303162 5.60989698 27.26834874 49.10183253 -7.29412384 -0.82906589 -5.71341083 2.09004681 -21.92277111 -0.59053624 -0.0000015 0.000002 -46.5441269 0.93117657 -24.60343964 53.45169188 5.59821683 0.7067681 -21.49711535 -5.8519078 25.50713561 -0.03741699 -0.00001574 -0.00001006
0.11928178 1.0100238 -0.05746753 11.4991912 -20.95470511 5.33104542 9.36526253 2.55162 -2.1241037 7.37845665 2.07488934 -1.39902276 7.36185811 2.20272984 -1.42765426 0.86222364 -0.36494321 -10.34135485 -41.66548484 -9.29009926 0.94118399 0.83181607 1.76697782 -8.49660452 -8.47504252 -37.94474539 -22.69481694 -179.99992912 -86.19150902 -179.99991593 38.24883438 -5.8570104 23.55575218 3.71786969 13.28904796 -3.04168944 -29.8170523 27.30476414 64.67824244 0.00002719 54.74197137 -0.00004007 28.6156274 1.42799743 -6.43395842 -52.55254524 7.00776121 27.62853085 49.59479399 -5.4864858 -0.57826536 -6.43669302 2.2900471 -22.11773548 -0.72960681 0.00000126 -0.00000335 -46.47840162 1.59413068 -24.7803222 55.03013312 6.35090316 0.06439151 -22.68820738 -4.51733409 25.18984415 -0.04780565 0.00001162 7e-7
0.11263845 1.00618164 -0.05298178 9.27175311 -24.16913925 6.42636453 8.16507164 2.3160051 -1.69423956 6.50709042 1.89779587 -1.04550416 6.48420142 2.02508863 -1.06216759 2.32735521 0.30995139 -8.0871834 -39.36002096 -2.74962771 -0.64002119 0.92832143 -0.00931969 -5.53896098 -5.41762534 -38.5111076 -20.35478115 -179.99979075 -87.6182306 -179.99977756 39.56089552 -9.71628226 27.98524673 3.77831062 14.9730059 -5.5652755 -26.52783637 30.16230018 61.9569892 -0.00000436 51.82663053 -0.00000515 35.77577571 0.53914993 -5.89020213 -48.9164483 8.24310404 27.66175169 50.99535924 -2.97127274 -0.5357772 -8.07574775 2.68063158 -22.1930954 -0.8466263 -9.5e-7 -2.7e-7 -46.34051692 2.33077786 -25.04824969 57.15692144 6.75679528 -1.39259643 -24.16670667 -2.3904558 25.58661924 -0.06180824 0.00000196 0.00000365
0.10751317 1.00046196 -0.04375388 7.11302438 -28.20725377 7.53611407 6.92737283 1.08515259 -0.87393295 5.72421396 0.97061978 -0.35645205 5.70721915 1.09046816 -0.36394727 3.5927766 1.26950792 -4.15466104 -36.03579557 7.08525707 -3.79549883 1.07749738 -2.27930361 -2.61890528 -1.04387329 -34.61851283 -16.63159044 179.9999962 -86.72144216 179.99999013 41.33243277 -11.7616079 30.0620632 4.03638605 17.30790678 -8.63331998 -17.44453376 31.14913752 54.8960251 -0.00000918 58.39217579 -0.00000673 39.97452549 -0.27763444 -5.31578974 -44.92243259 9.66899521 27.70887267 52.97410363 -0.36879769 -0.86414878 -10.54836672 3.2166894 -22.1919532 -0.9318101 0.00000246 -7.9e-7 -46.51061113 3.15132941 -25.96487389 59.24109354 7.67571119 -2.41923325 -25.58495406 0.61194817 26.17575532 -0.08154978 -0.00000215 0.00000358
0.10026305 0.99412926 -0.03140521 5.6080269 -34.61941186 8.63320673 5.43955145 -0.62641497 0.20707349 4.77130268 -0.32660101 0.62074609 4.77269667 -0.2671461 0.60368788 4.33798813 2.6002282 0.4290788 -31.2676083 19.38180581 -8.01284654 1.23191825 -4.11809648 -0.19383737 5.27822661 -26.23613222 -12.30389047 -179.99988461 -86.0522162 -179.99988843 42.72572221 -12.50139142 28.33057275 4.50094237 18.94689559 -10.86140875 -10.3683708 27.2946826 47.06616264 0.00005086 69.19807334 -0.00005917 32.01818642 -0.39337375 -4.52573194 -41.40727593 13.69874429 29.95930766 55.05955893 1.02206387 -1.41768718 -13.54317536 3.74412757 -21.7672594 -0.89688657 -7e-7 0.00000837 -47.18667068 5.38888714 -24.93015626 61.11397004 8.3515819 -3.63310496 -26.61469013 3.73892951 26.86446384 -0.10423602 0.00000159 -0.00000563
0.09175098 0.99020081 -0.01410769 5.11905565 -41.70609767 10.21933413 3.87349325 -2.60836356 1.74773855 3.64403376 -1.85996814 1.81881564 3.65718483 -1.87780406 1.77648067 3.88343418 3.97806903 5.14383387 -27.26720335 31.05494458 -10.91311605 1.34030398 -5.59558738 2.6606256 12.38590522 -16.45254121 -9.67584897 -179.99990745 -87.76940682 -179.99991096 43.3888612 -12.89386871 23.69898217 4.39485609 17.76417512 -10.797587 -12.43144167 18.96787001 42.90272506 -0.00002337 79.04392339 0.00002607 4.62592782 -0.33252088 -3.6619207 -38.41097746 19.4264809 32.50897304 56.56170973 1.90788842 -1.92571715 -16.4327799 4.1031258 -20.78772698 -0.62572532 -0.00000191 -0.00000221 -47.75945758 8.80897303 -23.11399982 62.2164881 8.70494762 -4.557003 -27.66031756 6.40928269 27.6496167 -0.10464243 0.00000785 0.00000409
0.08991627 0.98974358 0.00564824 6.75198494 -44.97683114 13.23460669 2.95329716 -4.36870609 3.12977644 2.82554804 -3.23415492 2.71236217 2.84385696 -3.27483804 2.65206333 2.07350937 4.53819008 8.45073881 -27.83424636 35.80141943 -10.00882121 1.28508552 -6.37971623 4.54524782 16.53563314 -10.5709381 -8.59927702 -0.00021407 -88.1041703 -0.00021366 40.69718744 -17.8718857 19.32426575 3.59571661 13.91881092 -8.66630358 -20.87517953 7.56140006 41.18946355 -0.00015236 85.3330225 0.00014308 -31.89588015 -0.36587979 -4.22997416 -36.97769968 22.81907592 31.45047778 57.07046806 3.2913336 -2.12589256 -17.80772166 4.12630498 -19.66694778 -0.49340462 -0.0000037 0.00000577 -48.21772167 12.13874844 -23.69954153 61.95817326 8.70471378 -4.12304453 -28.1911783 8.01389021 28.06663556 -0.135418 0.00000172 0.00000805
0.08943332 0.99068687 0.0244142 8.36666141 -47.0598673 16.48020294 2.42055443 -5.46730527 4.15798074 2.27054655 -4.10167092 3.28203277 2.28654019 -4.14668747 3.22219985 0.12717995 4.46984456 11.29548868 -29.83159347 37.22570519 -8.44868756 1.28898642 -7.48150815 6.09641105 19.84479285 -7.14379584 -6.3625238 8.3e-7 -82.11661192 -9e-8 32.51577396 -29.99017245 9.45835767 2.80981128 9.76029788 -5.95745713 -29.55119621 -4.59092902 39.18397673 0.00003254 86.37336058 -0.00003499 -54.20155164 0.45759975 -5.28243574 -34.81622138 25.18941937 28.83574619 56.87590272 5.16414199 -2.53906735 -18.92252981 4.20730749 -19.01435962 -0.36624144 -0.000004 -1.1e-7 -48.22828468 14.95638383 -25.16033447 61.36958564 8.77377102 -3.74241596 -28.45474116 8.93053499 28.46932498 -0.10293013 -8e-8 -0.000004
0.08891658 0.98942276 0.04044723 9.40679576 -49.14843512 19.09375194 2.36416193 -6.40994466 4.85087265 2.15612195 -4.8229171 3.67337637 2.16017707 -4.87565222 3.61075469 -1.1827296 4.09716758 13.56122996 -30.36729698 37.54135662 -8.49530696 1.37655043 -8.73541795 6.99277224 24.75097911 -3.90453735 -3.57469114 -0.0000224 -75.54481983 -0.00002915 26.11129277 -36.3675576 2.22703294 2.43937092 7.43381971 -3.92710325 -35.51138521 -14.51448791 36.36744103 -0.00001502 82.53589923 0.00001356 -50.72296046 0.641947 -5.38627936 -32.54155136 27.49659632 26.65788475 56.77433781 6.43621922 -2.77599055 -20.07941554 4.38632779 -18.84859127 -0.26488974 0.00001144 -0.00000595 -48.55985908 16.61962106 -26.27533082 61.23663706 8.8651163 -4.3376853 -28.68825127 10.20045731 29.42958479 -0.03263761 -0.00000389 0.00000493
0.08870546 0.98691566 0.05433589 10.45532528 -50.81082572 21.4887945 2.64858996 -7.45963619 5.6426687 2.2998947 -5.61892448 4.17422739 2.2895924 -5.67655416 4.11224094 -1.60816394 4.2001423 13.90851988 -31.46532009 38.72181393 -9.46235431 1.46021072 -9.0261689 6.66693419 30.59815779 -0.16212311 -0.83886713 -0.00002546 -69.39229817 -0.00001474 26.5491959 -36.94104992 2.91455517 2.41296721 7.06535221 -2.95885512 -37.9204148 -22.14798581 33.78699677 -0.00002406 78.08360463 0.0000305 -37.04811941 0.96186198 -4.98696449 -30.9567388 29.67330022 24.78071786 56.9241727 7.1032253 -2.59429181 -21.04177931 4.50303259 -18.66224066 -0.2173392 0.00000201 -0.00000321 -49.07326203 18.00250156 -27.36035277 61.24094839 8.93504705 -4.86515384 -28.88789799 11.67155193 30.31540613 0.0534613 0.00000751 -0.00000766
0.08963471 0.98538109 0.06565925 11.54928337 -51.64492422 23.67023647 3.15079815 -8.35061421 6.64208821 2.54057558 -6.32570311 4.73979456 2.52054011 -6.37332376 4.69434314 -1.92644993 4.90933203 12.3715621 -33.66186238 40.95342815 -9.6294335 1.49423702 -8.47180398 5.66498361 34.89765227 3.18261581 1.06419032 -0.00002761 -63.08338728 -0.00002771 27.94848887 -38.29926227 4.20555654 2.3912173 6.88284482 -2.40974543 -37.67882144 -29.11541474 32.35559151 -0.00006978 77.34793176 0.00006624 -26.07979474 1.77986497 -4.63141717 -29.78290939 30.93708247 22.80252389 56.98943296 7.62492964 -2.58192669 -21.67546315 4.54982026 -18.44585377 -0.25457695 -0.00000661 0.00000117 -49.05283178 19.80154929 -28.58067183 60.97166464 9.00676682 -4.59291058 -28.72552426 12.19993133 30.64725805 0.15725731 0.00000653 0.00000402
0.09126654 0.98359619 0.07345528 12.66223777 -51.97794348 25.4386784 3.56424549 -9.2383383 7.21752184 2.71711624 -7.03227069 5.01162336 2.69054358 -7.06352752 4.98660298 -1.95159522 5.38158341 11.87324508 -34.42094474 42.81440138 -9.42382438 1.55394507 -8.60182334 5.33960192 37.48671807 6.20932631 0.31498508 -0.00000286 -55.45911783 -0.00002308 30.76362429 -40.3597822 5.82915116 1.96254646 5.05499794 -1.13617426 -37.38867514 -35.22067348 32.14680199 3.3e-7 80.44637533 -0.00000865 -17.93818269 2.49626523 -4.05689209 -29.21269411 31.56069387 21.41586988 57.02238745 7.64874508 -2.71970928 -22.16214707 4.6744946 -18.685069 -0.3556124 -0.00000753 0.00000234 -49.28350586 21.11596026 -29.47733776 60.7815328 8.99864835 -4.394033 -28.2724519 12.3474963 31.20047259 0.20933476 -0.00000516 -0.00000542
0.093542 0.98148277 0.0786741 13.8703311 -52.22115735 26.64410491 3.81962632 -10.07087507 7.29704353 2.84978738 -7.66756865 5.06757631 2.81993445 -7.68827602 5.05598483 -1.44886855 5.30058459 13.19214475 -33.2918937 43.76898747 -10.25110665 1.67738711 -9.76592889 5.83997689 37.0401472 9.18331387 -3.30100747 0.00000204 -45.97951232 0.00001088 34.89656244 -41.67278025 4.19712975 1.17050349 1.42444856 1.12714666 -39.17936147 -39.49384043 32.13149259 -0.0001924 84.95108911 0.00019292 -10.16166794 3.12991268 -3.13948307 -29.76903022 32.29565808 21.33219484 57.29287049 6.97541106 -2.53645295 -22.55929854 4.82436265 -19.13811074 -0.43825459 0.00000244 -0.00000184 -50.17992793 21.38051415 -29.74895365 60.65221849 8.99624191 -4.49863851 -27.91101361 12.79884253 31.54123955 0.26610882 0.00002265 6.2e-7
0.09712073 0.98102242 0.08309401 14.91718954 -52.15331975 27.24366691 4.00448913 -10.4679179 7.393823 2.98679512 -7.96175722 5.24605442 2.95453086 -7.97812578 5.24207159 -1.3455451 5.06985707 13.87114857 -31.63996108 43.64101285 -11.50879268 1.76486856 -10.38076403 5.92098098 31.37190128 11.79800865 -6.61857624 -0.00000587 -35.49390645 0.00000252 37.84044564 -42.50087077 -4.87895797 0.41791936 -2.56772943 3.4832281 -43.73065302 -42.45374331 30.65145239 -0.00060102 89.24763958 0.00059648 -3.17310241 3.77820076 -2.359737 -30.88548738 32.60268672 21.6818907 57.76983601 6.51800884 -2.36532585 -22.73449647 4.8293824 -19.12750338 -0.48882921 -0.00000136 -0.00000112 -50.87545267 21.05717693 -30.08407933 60.05316686 9.00659209 -4.25673118 -27.48584405 13.30107457 31.52820702 0.25064365 0.00001204 0.00000523
0.10237399 0.98203987 0.0871025 15.59386281 -51.50505321 27.22953675 4.07414032 -10.48053534 7.4939032 3.05600905 -7.97210699 5.44441648 3.01728778 -7.98924581 5.44372397 -1.76478581 4.88999501 13.94372903 -30.58955597 43.11194263 -12.13352016 1.77804311 -10.10993125 5.48353308 24.25110981 15.11406496 -8.21547704 0.00000922 -27.31621027 0.00000151 37.99111938 -40.69166855 -14.94604564 -0.11595384 -5.44150623 5.22211953 -51.25303366 -45.03603836 26.18925101 -179.999864 87.14738599 179.99986676 0.10926874 4.14850059 -2.18989213 -32.07529255 31.85952411 21.80084938 58.3499084 6.58042214 -2.52946527 -22.63304951 4.71939249 -18.78076703 -0.50322557 -0.0000016 1.3e-7 -50.97472911 20.55448557 -30.76274181 58.96338767 9.01443571 -3.58823978 -26.53227365 13.40109632 31.69910886 0.10252152 -0.00000403 -0.00000749
0.10867015 0.98296524 0.090611 15.60623185 -49.94640623 26.21619489 3.96854387 -10.41084253 7.42179072 2.99449517 -7.92275004 5.5200848 2.9465128 -7.9424723 5.52086237 -1.97776335 4.8287692 13.98273667 -31.32417358 42.59957808 -11.2989593 1.71977969 -9.45491221 5.10693019 22.80889256 20.92248322 -10.12820617 -6.3e-7 -26.98592523 -9.8e-7 30.50164418 -34.30770604 -17.03705911 -0.40796219 -6.68015892 6.27868858 -60.73815438 -47.23454584 18.46032636 -179.99980018 84.13081 179.9998057 -1.5315925 3.94719994 -2.61162389 -33.7587567 30.15690534 22.07357965 59.23277404 6.24346463 -2.58787538 -22.30515966 4.56191277 -18.43166481 -0.47871966 1.1e-7 0.0000035 -50.53123343 19.49128442 -31.6552839 57.80192044 9.01678037 -2.9417082 -25.30765375 12.92246826 32.12155661 0.00054533 3.7e-7 1.9e-7
0.11426289 0.98500542 0.09350552 14.28500226 -46.67699312 23.50759663 3.6487699 -10.29446875 7.25145632 2.76890567 -7.8505911 5.5244318 2.70792358 -7.87504701 5.52385125 -1.61705704 4.88485493 13.43876879 -33.21527553 41.62394987 -9.34733247 1.61025604 -8.53981491 4.78165215 30.30892717 28.08218815 -15.12377712 -8.6e-7 -37.66352757 -0.00000591 16.17982595 -22.69690852 -8.59386525 -0.4507233 -6.34849839 6.15668072 -67.93072722 -49.7922393 10.85830964 -179.99991353 80.66674258 179.999928 -8.6562881 2.92120665 -2.94234904 -35.90875001 27.33525951 22.49645428 60.25772565 5.30849383 -2.39309407 -21.53554309 4.2539141 -17.82561049 -0.54547455 -0.00000469 0.00000299 -48.67767743 17.33756451 -32.88432568 56.7083805 9.01659909 -2.55862121 -24.41923996 10.87325362 32.71742392 -0.05621554 0.00002796 -0.00000953
0.11775603 0.99054878 0.09540189 11.64476443 -41.03256965 19.40213831 3.04835859 -10.19130081 6.72277968 2.33583525 -7.80152119 5.27813797 2.25623636 -7.83224773 5.27226555 -0.49592277 4.79271413 12.76571612 -35.13849413 39.86157603 -8.13628424 1.53367661 -7.84664472 4.46706957 41.68146453 34.3138927 -23.56965579 0.00000853 -55.90547775 0.00000878 7.64325596 -12.74348939 11.49897206 -0.23180984 -5.07110453 4.06064647 -70.2848706 -55.52476219 4.67044562 -179.99998805 75.64616848 -179.99999986 -18.92479336 0.41429826 -2.68999529 -37.71779662 23.58947833 22.50407964 60.48475047 3.87048086 -2.19830385 -20.21399049 3.82330836 -17.06416748 -0.82565845 -0.00000334 0 -44.4358626 14.38212605 -34.42911228 55.57874694 9.01962601 -2.09015065 -24.1792592 6.53913547 32.89547048 0.0143762 -0.00001358 -0.00000217
0.12076874 0.99859986 0.09728299 8.7873242 -32.887594 14.92900083 2.38085955 -9.92244198 5.77258833 1.85352686 -7.64092203 4.58949748 1.76447042 -7.67564725 4.5730042 -0.57950352 4.07608002 13.05300066 -36.16672389 36.87421296 -9.40359052 1.32785885 -6.8114887 4.80833343 49.96376375 37.14371614 -33.09530521 -0.00002184 -76.57884542 -0.00002703 14.75118922 -12.3937724 32.98433251 -0.01583182 -4.62753511 1.13615637 -75.69856036 -63.3543485 -5.81822816 179.99996129 70.49716255 -179.99996003 -29.21230478 -3.44518374 -2.53689067 -39.52242906 19.78280046 21.93369872 59.68614924 0.59538044 -1.23470818 -18.73988111 3.42196544 -16.5946367 -1.08490147 0.00000145 -1.2e-7 -38.76602776 10.33682096 -35.35573963 54.78092859 9.08828536 -1.69936692 -24.27570259 0.06944714 30.61586547 0.10207222 -0.00001217 0.0000036
0.12359807 1.00666481 0.0989653 6.85008715 -22.49266769 10.89295525 1.82868122 -8.51346829 4.26656873 1.5271897 -6.60390629 3.38372427 1.45925762 -6.642729 3.34674211 -3.19633163 2.97776074 12.89813195 -38.59207099 31.29265095 -8.89506433 0.87244336 -3.9849972 4.8128824 53.64146893 34.10048906 -40.43050231 -179.99991103 -82.44138688 -179.9999035 28.66103802 -10.87451817 42.47026717 -0.69837927 -6.74214277 0.79587593 -82.80808728 -64.83182993 -12.81687009 179.99998691 69.58864284 -179.99997583 -37.044539 -6.31743958 -3.64184066 -42.41505452 16.71697206 20.81856406 58.52775901 -5.29888295 1.12235224 -16.88069355 3.02696098 -16.46714658 -1.24718887 -0.00000489 0.00000626 -32.78952454 4.93404894 -35.0171735 53.7511841 7.60239607 -1.60244675 -24.4001909 -6.87721086 28.28492342 -0.03881197 -2.9e-7 -0.00000329
0.12400206 1.01686722 0.09620591 6.39383062 -10.62050176 7.83653754 1.38123007 -5.85195858 1.76297363 1.43702995 -4.57536571 1.63303661 1.40173119 -4.61464194 1.57028809 -4.46528733 1.84574122 10.2207311 -44.5993298 20.90752091 -4.55185631 0.74029843 -1.96174055 2.59203921 55.48601557 27.53325622 -48.25155489 -179.99998739 -67.28318595 -179.99997914 32.85547703 -0.00833933 40.31492508 -2.27019589 -11.38258636 5.04937274 -81.83340187 -54.94811122 -8.44941395 179.99997566 75.68215561 -179.99998559 -42.99128023 -5.32694635 -5.61959899 -45.64793619 12.90551688 18.3782151 56.17681833 -7.66648013 2.69391867 -13.46081563 -1.29735821 -17.34776482 -1.37211187 6.8e-7 -0.00000117 -27.03301417 -0.63094061 -33.32537147 51.59605504 -1.05956195 -1.4407595 -24.11460059 -8.10421464 28.83469169 -0.24723778 8e-7 -0.00000577
0.12405002 1.02711731 0.08558317 6.81947251 0.98150614 5.65518832 1.78907699 -2.45729055 -1.11476823 2.07825707 -1.94005985 -0.16642402 2.07488091 -1.94365839 -0.21523192 -1.85370874 -0.27342103 8.05447203 -51.2107057 5.71736926 -3.34024033 0.91256226 -1.61311868 -0.18977415 54.98579452 18.25797826 -50.64609181 179.99997837 -62.52992248 -179.99999517 33.21711813 9.53584534 39.71515514 -3.65352793 -16.85796061 9.96567664 -76.33108583 -38.52931216 -6.52707804 -179.99989274 85.93117401 179.99990539 -48.79234771 -0.94291807 -5.88018242 -48.49054774 8.00056894 14.29769653 52.84649523 -8.89866395 2.52218718 -8.76849688 -5.62748753 -17.08317879 -1.51314784 -8e-7 0.00000155 -21.80522899 -4.21450111 -30.6446897 49.19460809 -8.4242314 -0.79690628 -23.53578299 -9.26287149 28.73094558 -0.34621907 0.00002153 -0.00000349
0.12813567 1.03165382 0.06920865 7.71839249 10.43791165 3.58341603 3.29247676 1.47039021 -2.93006561 3.41227897 1.14672777 -1.18697772 3.39793426 1.21664255 -1.14689087 3.42781706 -3.15942297 6.35422269 -57.93246906 -12.31288743 -5.45011631 0.95161202 -0.59049401 -3.10564897 51.3700293 12.20929418 -51.26421187 179.99999163 -64.93820287 179.99996684 44.8579629 3.07774181 39.95492908 -4.60531356 -19.97828712 9.99390203 -66.80654338 -22.90357668 -8.76853666 -0.00008817 83.37995972 0.00007476 -51.68508147 1.89964457 -3.40345683 -51.3504156 3.42666882 10.27279411 50.04010401 -9.41777882 1.63478778 -4.91439715 -9.18021517 -16.2108277 -1.60119521 7.7e-7 0.00000243 -18.28574431 -5.4186681 -27.81307863 48.08026648 -10.23380456 0.2255469 -23.14799257 -12.65577322 26.70885001 -0.24754651 0.00000384 0.00000204
0.13428006 1.0289003 0.04980665 9.55034958 17.01063234 0.69109593 4.63952311 5.22532587 -2.87738579 4.39337886 4.06368101 -0.95439412 4.31569225 4.16847103 -0.81180864 9.30678113 -5.65232151 3.52070492 -62.85650466 -28.29587296 -8.22721631 0.92486283 0.14467202 -4.64965634 46.63664386 12.78905931 -60.33355923 -179.99998791 -68.6943579 -179.99997367 48.2686508 -5.02084465 37.64422617 -3.10151953 -17.13484297 10.32982624 -67.56619399 -2.85254583 -12.7049935 -0.0000345 70.12739705 0.00001906 -48.87918922 0.83039938 -1.44439411 -54.94325255 0.39658442 8.19541574 48.22047017 -9.36179844 0.81068442 -2.88980871 -12.35548068 -16.21446828 -1.57470191 -3e-7 -0.00000191 -18.13022466 -6.48351297 -25.61240148 48.58332794 -10.22205667 1.23628804 -23.07261125 -14.53126144 25.04598128 -0.17769815 -0.00000356 -0.00000765
0.13782893 1.02149505 0.03120319 12.16633258 20.92411736 -2.58140744 5.14663167 8.43698209 -1.32802951 4.52736768 6.44160312 0.07762877 4.37636454 6.53796818 0.24050179 13.44040088 -7.12563232 1.64492076 -64.09695753 -36.81289924 -11.33767083 0.90125006 0.35907667 -4.91606114 47.32593015 11.10468699 -65.76225399 179.99998369 -72.20400108 179.99998265 39.1181767 -4.34594554 37.04085002 -2.41870446 -5.20526851 0.60614331 -77.15339805 12.42878998 -10.38705477 -0.00001471 53.18299125 0.00000537 -39.91931944 -1.10330806 -1.1556669 -59.24255138 -0.98549006 7.65395809 47.4968654 -9.31455904 0.63064569 -1.6131585 -15.33370229 -17.23793743 -1.45415702 -0.00000194 0.00000309 -21.37439983 -9.29719398 -24.61692233 50.20838431 -10.18568183 1.44898508 -23.08815224 -14.59983144 24.11271608 -0.41047474 -0.00000345 -0.00000214
0.13514145 1.01557327 0.02014403 15.59653321 22.6745643 -4.34840775 5.76689138 11.01218456 -0.16581814 4.7070759 8.2731121 0.55254918 4.48476405 8.40084819 0.63547265 14.51289167 -7.83137387 1.14479927 -65.10992608 -40.69108781 -13.01066931 0.87298602 0.54675637 -5.05046009 51.37911129 6.92681846 -64.80656331 179.99998284 -75.47085871 179.99996938 36.51265054 -4.28718108 40.39448751 1.85471632 11.61560633 -11.35402598 -82.78627643 21.77573138 -5.11679831 0.0000041 39.73352987 0.00001185 -26.94881791 -0.41847034 -1.34889162 -63.27207019 -1.86847572 6.95577768 46.37733829 -9.28700046 0.15584714 0.2416623 -17.0857955 -18.25503323 -1.31534875 0.00000157 4.4e-7 -26.91850803 -11.5092245 -25.15679838 52.52403876 -10.09651375 0.81348439 -23.01207523 -15.23848599 22.74825881 -0.6420055 0.00000169 -0.00000432
0.12762193 1.01025779 0.01680077 19.44972094 23.62845929 -4.84167999 6.93488417 12.64629706 -0.54486757 5.49010072 9.37087669 -0.18537771 5.26701898 9.51807535 -0.18412761 12.46946688 -8.40168953 0.59892432 -65.65335196 -44.36261838 -12.53745969 0.79590783 0.9715793 -5.17956906 54.88016234 5.99062381 -64.06715408 179.99998337 -76.60987654 179.9999916 39.22185948 -5.89795702 42.69862452 6.99801937 24.39668754 -16.77485738 -76.85503904 27.74777032 -0.84121991 0.00001048 32.5763423 -0.00000762 -12.07883434 2.93258622 -2.47433889 -66.84514239 -3.26178144 5.55310136 44.95536943 -9.26902067 -0.87031377 2.00751265 -16.97282854 -18.4094441 -1.25318487 -0.00000101 -0.00000527 -32.60885866 -10.84482225 -26.47936697 55.79046793 -10.05592811 1.00212156 -22.84409084 -16.74330204 21.7272161 -0.72183913 0.00000637 -0.00000267
0.11930998 0.99834673 0.0167738 22.57595128 25.28698907 -5.74112617 8.1260309 14.09510814 -0.87446805 6.57326244 10.30881907 -0.71037317 6.36918128 10.45564061 -0.69152958 9.73059389 -9.3025436 -0.13331102 -64.6421361 -48.55804398 -13.31246586 0.70704763 1.37824818 -5.08050713 56.08261348 5.17998753 -62.75700279 179.99998605 -77.80135978 179.9999966 39.02239793 -8.11589687 43.41161211 7.22624886 27.803882 -12.80558709 -78.09845891 36.69620088 19.48066481 0.00000568 23.00901925 0.00000159 2.48815761 5.33389796 -4.70238959 -70.73228349 -4.53407631 3.76965817 45.64015151 -9.25923132 -1.13793324 2.27370331 -16.59448851 -17.92037879 -1.26114037 0.00000127 -0.00000209 -37.05003173 -9.90445465 -28.33504219 60.50474582 -10.09792293 2.38607414 -23.06126841 -17.35952068 22.92378498 -0.87961708 0.00002501 -0.00000733
0.11143547 0.9786033 0.01836259 24.46543222 28.02111567 -7.38438424 9.27419656 16.74498122 -0.67260531 7.81726999 12.14836463 -0.67695255 7.59574145 12.30075573 -0.5381935 9.81896306 -10.33992648 1.19462284 -67.03599829 -52.20202087 -17.8965768 0.75961449 0.56638706 -3.54801563 54.09075162 1.6896968 -59.81249451 179.99994266 -80.33350965 179.9999528 39.49549605 -9.6916409 43.58778492 6.12732778 24.38911001 -5.07191283 -99.51173774 38.12378579 54.92040455 0.00000456 9.11651066 0.00000777 14.13829789 4.72334252 -6.28582946 -74.97232538 -4.57826997 2.03319059 48.89144609 -9.27071848 -0.35315901 1.56809012 -18.09983285 -16.85472565 -1.21610509 -0.00000636 -0.00000211 -40.70086491 -11.77637655 -30.77486188 65.84076473 -10.16349249 2.66221499 -23.54617999 -16.60696929 26.27205981 -1.17472336 0.00000666 5.3e-7
0.10345153 0.9559806 0.02252686 26.04871267 30.51030179 -9.31460703 10.98772554 18.41339582 -0.60574244 9.42876739 13.27641631 -0.63275136 9.21705545 13.42006847 -0.38273098 12.60981787 -10.1686096 2.12704913 -70.42879323 -53.43648204 -18.13662557 0.8296525 -0.00441337 -2.96575043 50.85093447 0.88851619 -59.31828426 179.99990677 -81.70520378 179.99990609 39.16970445 -12.26949479 42.9155611 7.15273152 23.28844525 -0.69542668 -101.19877807 32.5483104 71.96513368 0.00000119 5.92185661 -0.00000311 20.41122783 3.20221106 -6.68321138 -79.29786558 -4.30524652 0.77813417 53.04714986 -9.30167696 0.61889447 0.629673 -20.13970939 -15.62224787 -1.09905304 0.00000322 -5.8e-7 -44.14642132 -14.42959643 -32.93556116 70.79920307 -10.24449078 1.6158678 -23.93102845 -15.55331897 30.29902091 -1.32550111 -0.00000564 -5.7e-7
0.0963769 0.934978 0.02763478 28.25995624 31.47950341 -11.84981566 13.54910801 16.74406065 -1.05425083 11.3848084 11.95167122 -1.01735072 11.26451193 12.05997569 -0.81980509 14.55427473 -8.83974553 -0.90591354 -66.46432183 -52.94840181 -9.0048521 0.63789069 1.97013458 -6.01497336 50.09814898 5.79179358 -61.1475954 179.9999372 -79.28574535 179.99995059 32.42562211 -16.95434016 41.2930227 8.98413325 28.69111096 -2.23697319 -75.92910908 31.8312807 66.40332599 0.00000488 25.00235467 -0.00000146 27.37333218 2.22779861 -7.36489782 -83.87460573 -5.60256162 0.55069328 56.72362101 -9.28126586 0.7135129 -0.48909326 -20.89121507 -15.51495682 -1.06640103 0.00000164 0.00000539 -47.52013855 -15.35195743 -33.51689773 75.38143177 -10.26391586 1.13522598 -24.65165606 -14.3205538 31.18290519 -1.18972762 0.00000322 0.0000013
0.09018592 0.91577731 0.03060756 30.84121686 31.27949207 -14.47592495 16.08846818 13.83449503 -1.89741892 13.12241302 9.77339496 -1.69786313 13.08479708 9.82495242 -1.61076887 14.94168256 -8.00503868 -6.27403319 -58.06499144 -52.49144856 -0.72027876 0.637599 3.33160206 -10.78102303 49.9966365 11.26190585 -61.49324494 -179.9999958 -76.26374732 -179.99999601 22.290503 -21.33960244 39.54375788 11.0325521 36.35078053 -7.77612709 -43.97624965 28.51855029 53.33674016 0.00000269 55.45430864 -0.00000112 30.77781475 2.1757049 -8.41600088 -88.52010893 -7.19121886 1.1817756 59.55745791 -9.23332818 0.25126489 -1.12878548 -21.67401714 -15.84211489 -1.05892633 7.5e-7 -0.00000334 -50.80389068 -14.8164397 -32.89799547 79.42895814 -10.26045645 1.03072999 -25.56889698 -13.28846817 31.18102935 -1.07198137 0.00000589 -0.00000357
0.08499314 0.90077012 0.03116154 32.66199933 30.4954958 -16.05743519 18.2636423 10.86096297 -2.89540557 14.5958182 7.60773578 -2.50852846 14.59392936 7.61016058 -2.485662 14.90409654 -7.54143803 -11.31572383 -50.25116225 -50.58873883 2.12233604 0.72724033 3.23213978 -11.78365035 48.60151614 11.63286936 -61.64529339 -179.99997759 -74.71586347 -179.99995321 15.419669 -23.60695315 39.38101212 12.02013995 41.44798344 -13.21802907 -20.91539283 28.29078427 46.29256264 0.00002319 79.03286312 -0.00001797 26.3511249 2.80894918 -8.97704834 -91.92177764 -7.26118972 2.49821988 61.37004935 -9.25951803 0.09197645 -1.12428807 -23.77596348 -15.07974805 -0.89863265 8e-7 -2.1e-7 -53.66714163 -14.06223628 -31.94434085 82.4237925 -10.26870398 0.52234477 -26.39887085 -13.29788078 31.14460024 -1.02808858 -0.0000038 0.00000273
0.08211166 0.89271042 0.02980967 32.80629247 29.30509068 -16.10907399 20.19085362 7.26693189 -3.95135248 16.02213591 5.02537991 -3.40889865 16.02572163 5.01702442 -3.39360756 14.52827905 -6.72808759 -15.77863871 -44.08206808 -46.39473531 2.97855563 0.99756662 2.55962096 -11.78454898 44.54633903 12.65651057 -60.41712959 179.99995496 -73.57605443 179.99995491 12.15495582 -21.30405205 40.16445659 11.44191418 43.47887596 -16.20027283 -7.15676291 32.54746473 42.18397243 179.99992981 87.84122942 -179.99992159 16.19765559 3.65803022 -8.74363879 -93.00569784 -6.58557704 4.15815737 62.26245648 -9.26629024 0.42429051 -1.62405037 -25.13438927 -15.35095685 -0.91353923 0.00000296 0.00000323 -55.14689098 -13.53391724 -31.25795989 83.94186034 -10.27800674 -0.0588307 -27.20935451 -13.84845786 31.11499163 -1.13288517 -0.00000194 -0.00000857
0.08165131 0.89363221 0.02597597 31.65714986 27.740088 -14.72361405 21.33677878 4.02491495 -5.00012042 17.02018817 2.78710447 -4.26596349 17.02169638 2.8221526 -4.24009712 14.65758908 -5.92729766 -18.79452732 -39.50303408 -42.44627757 3.13418633 1.22942398 2.19413463 -11.78556722 35.26570224 16.03762375 -54.86529562 179.99990679 -75.57466994 179.99991093 11.19019985 -13.41420586 37.78936763 10.69547559 43.50923405 -16.87760509 -0.63003372 34.39432341 38.48481674 -179.9999507 79.2248039 179.99994955 3.33277954 4.50292291 -8.13852052 -91.97523821 -5.87019441 5.42107896 62.27727982 -9.25585863 1.08670225 -2.88744677 -24.28302722 -16.84827045 -0.6811576 0.00000166 -0.00000902 -55.25076767 -12.11725093 -30.79931387 84.07206819 -10.30037132 -0.11982704 -27.51663228 -13.66473504 31.12853291 -1.44486178 -0.00000132 1.3e-7
0.08255644 0.90028167 0.01925418 30.28240218 25.72044621 -12.66673873 21.26171252 2.19532215 -5.7571927 17.14589318 1.59895179 -4.82596657 17.14803875 1.69735738 -4.80132499 15.35147774 -5.50950377 -19.74767176 -36.98646438 -39.08629453 1.5731472 0.85444437 3.02854077 -11.785697 21.48397092 15.77942181 -46.4466344 -179.99999903 -83.28339984 -179.99999901 10.94693481 -9.70364218 34.28755204 10.35345441 41.7834698 -15.99122078 -0.09316236 33.1487264 36.74022928 -179.99999469 73.09288249 -179.99999216 -9.39977395 5.38859551 -7.48171578 -90.13343961 -5.57364355 6.0636613 61.46551552 -9.25569662 1.61155123 -3.1079332 -22.13096245 -17.82236973 -0.67979604 0.00000336 -0.00001007 -54.97019389 -9.14610242 -29.89806933 83.53735839 -10.33468645 0.0964965 -26.94697931 -12.87868097 31.1492742 -1.80528602 -0.00000958 0.0000052
0.08323269 0.90715156 0.00908857 28.3558273 22.99669037 -10.4294964 20.31339088 1.44477688 -6.15291622 16.567888 1.17264122 -5.01029189 16.5684108 1.34696683 -4.9950048 15.79045346 -5.26326954 -19.12777674 -36.45022475 -36.03889862 -0.03176028 0.1702186 4.29034789 -11.76851363 10.2548642 10.96012559 -41.28600806 -0.00356738 -89.89031323 -0.00355711 8.69186692 -10.07368868 34.70234998 10.11752129 38.93276834 -14.43592164 -2.20320991 32.31565426 37.60604645 179.99999483 70.69255961 -179.99999215 -17.37277702 6.05021575 -6.96565661 -87.95564372 -6.30782446 6.60292292 60.81872636 -9.25743128 1.89019397 -2.32358085 -19.16669936 -18.04374234 -1.26129644 0.00000319 0.00000112 -54.23223921 -5.66249204 -28.26912596 82.88687314 -10.31910878 0.17540337 -26.88507747 -12.65953069 31.19536225 -1.79684145 0.00000565 0.00000268
0.08140325 0.91266533 -0.00422625 25.85245753 19.56107888 -8.65719174 18.89461451 1.04568346 -6.06617372 15.58647143 0.92620935 -4.81154127 15.58285088 1.17904906 -4.81107364 15.73784684 -4.96954356 -17.81394268 -36.80088776 -33.94884813 0.27235583 -0.13288983 4.95162369 -11.75533584 3.74295806 5.94975978 -38.43556254 0.00077549 -88.73734878 0.00079113 8.58071526 -8.85868833 33.973943 9.83959412 36.30284044 -12.87860266 -3.11164077 32.60670766 39.57820205 -179.9999763 70.78443348 179.99997256 -18.34848798 6.18707456 -6.81314029 -85.28298862 -8.2652539 7.94059081 60.31076447 -9.2354964 1.66396945 -1.61350573 -16.11831466 -18.5280001 -1.95934605 0.00000542 -0.00000374 -53.34333308 -3.45635607 -26.75154746 81.93059252 -9.31767742 0.36041636 -27.44541577 -12.81478266 31.38273359 -1.5501614 -0.00000953 -0.00000543
0.07751828 0.91948763 -0.01839866 23.15182156 15.8369179 -7.27788604 17.45897551 0.97160724 -5.62445731 14.56462002 0.83822566 -4.37347697 14.55458583 1.16612894 -4.38600412 15.61731877 -4.76625212 -15.71699185 -37.290422 -33.00609677 1.30305187 -0.08291434 5.09706218 -11.75827414 -1.67163733 0.48255303 -37.23233533 -179.99686557 -89.77206883 -179.99688361 11.00120246 -7.37444841 29.41342518 9.17522312 33.51324651 -11.16997355 -1.90224386 33.5918893 41.41811957 -179.9999787 70.95887853 179.99999496 -15.05054871 5.85243142 -6.93286222 -81.89013228 -10.22903343 9.92465627 59.45711324 -9.21174803 1.38165896 -1.02242851 -13.28944269 -19.3737382 -2.34641832 -0.00000193 5e-8 -52.28089447 -2.96470218 -25.78961009 80.10275374 -8.3596582 0.63080647 -28.35765179 -12.25181223 31.55376425 -1.32149145 0.0000031 -0.0000058
0.0770419 0.92958693 -0.03083685 20.40051524 11.68618566 -5.53311181 16.38118763 1.77069408 -5.30277584 13.72357854 1.40819603 -4.00634882 13.68853996 1.85121699 -4.02304219 15.65096871 -4.90443461 -11.93596298 -39.1910691 -32.73585454 0.71664902 0.30319017 4.48654091 -11.7757308 -5.72518241 -8.05958715 -37.88077763 179.99874718 -88.54232707 179.99875567 9.12763847 -5.88431031 28.66710585 7.63834897 28.38119105 -9.1041818 -0.19754927 36.79811625 43.00750007 -179.99999015 71.20868078 179.99998709 -11.71173744 5.34708403 -6.97267682 -77.72940465 -11.0731497 11.201892 58.87000753 -9.21122652 2.26015332 -1.19199556 -9.25978071 -19.89160373 -1.12395998 0.00000113 -0.0000063 -50.66712986 -3.44432824 -25.35744136 76.79275411 -7.10810936 0.28351506 -29.95168125 -11.97610725 31.71124159 -1.16162041 -0.00000351 -0.00000731
0.07762459 0.94184166 -0.04204818 18.12470906 6.9660998 -3.8276787 15.31440893 2.79902214 -5.03993481 12.75012727 2.17411259 -3.70785732 12.66844773 2.72213638 -3.73609099 15.30259817 -4.92834304 -7.2884704 -42.03816871 -30.86272365 -1.16002081 0.82076727 2.55874046 -10.97420646 -7.72474532 -16.24346774 -38.39705256 179.99874624 -89.25164594 179.9987581 6.54661978 -5.17507497 32.04797381 5.66727845 21.03689916 -7.46818907 0.80151403 42.86581867 44.20499437 -179.99998839 72.53009119 179.99999064 -9.92207083 4.92147894 -6.80664888 -73.03802653 -11.3147876 12.81883766 57.8150949 -9.21256927 3.09872743 -2.28311247 -4.7866551 -20.5800627 -0.66336756 0.00000223 6.2e-7 -48.9415302 -4.4506768 -25.4940262 72.29223171 -4.20141942 0.12787592 -32.32495797 -11.91504979 31.99896543 -1.06437798 0.00000769 -0.00000632
0.07281709 0.95501855 -0.054183 16.50007699 2.09527026 -2.3523991 14.28341367 2.67873271 -4.81525564 11.8739644 2.16692774 -3.36257394 11.77501958 2.75305344 -3.40434115 14.52443384 -4.37414012 -4.3086917 -43.62373029 -26.20198532 -2.14159606 0.97072678 1.13952338 -8.26498581 -10.07130328 -19.70128199 -39.27608642 -0.0008293 -89.26144832 -0.00082451 10.09493604 -5.46672596 32.55129873 4.18999577 15.20420409 -7.02554657 1.73588112 48.98041163 44.11065225 -179.99991982 74.13795874 179.99992737 -7.5108338 4.56654022 -6.61974125 -68.21916652 -10.74470576 15.66763783 55.45496685 -9.22968081 3.15228135 -3.30133181 -1.49171069 -21.51464083 -0.59568467 -0.00000131 0.00000539 -47.5658049 -4.62390206 -25.39533859 67.99966479 -0.2761402 0.89332455 -34.59550789 -11.78008864 31.79477662 -0.89168676 -0.00000906 6e-7
0.06625308 0.96851049 -0.06534229 15.07904926 -2.66886884 -1.1418631 13.45748222 1.68986358 -4.18475528 11.25069288 1.44341906 -2.85048262 11.17711246 2.01214996 -2.90358085 14.01947477 -3.51166194 -3.78579687 -44.84980298 -20.24723306 -2.38154469 0.97220249 1.06504317 -8.04171931 -12.13185265 -19.96311837 -37.5236567 -0.00012865 -88.41482186 -0.0001224 15.6926731 -6.81433757 30.98682818 3.65409145 13.47686826 -7.48673426 3.40718016 51.98333731 42.14412206 -179.99997643 74.56087411 179.9999826 -1.50801633 4.16066881 -6.57040747 -63.5220159 -9.73883102 18.66612918 52.81149565 -9.1544765 2.91593591 -3.49859505 1.073571 -21.96943354 -0.55698856 -5.8e-7 -0.00000205 -47.45262368 -3.90353899 -24.50637784 65.92768028 2.78101383 1.5752823 -35.57417733 -10.50841271 28.12793711 -0.7387899 2.1e-7 0.00001344
0.06048117 0.98063171 -0.07477767 13.52277443 -7.10289399 -0.19413062 12.81510313 0.6449731 -3.21918723 10.71708885 0.5839941 -2.24024816 10.67840929 1.11072126 -2.30791558 13.91612908 -2.64231543 -4.20590137 -46.30876177 -14.196201 -2.60629898 0.96482234 1.28945268 -8.65609262 -14.37972093 -18.98301403 -35.84928006 0.00008018 -87.57413935 0.00007121 19.89106302 -7.88852142 28.98280134 3.79573119 14.32162191 -8.10170443 4.76463589 51.86124479 39.83627081 -179.99994638 73.76228254 179.99995035 7.55350883 3.73944031 -6.61936875 -59.32282923 -7.95973219 21.5077399 50.52853698 -7.95856662 2.76890061 -2.85816104 1.50790615 -21.96949768 -0.5494056 -0.00000126 -0.00000308 -47.39730932 -3.54428935 -23.53055212 64.22846899 5.52538958 1.6633639 -34.67249286 -9.18635609 25.50538884 -0.57762137 -0.0000025 -0.00000556
0.05424716 0.99148178 -0.08299689 12.05556994 -11.14301793 0.74809981 12.41348781 -0.35057293 -2.58346798 10.36229525 -0.17832999 -1.80587998 10.35374278 0.31964443 -1.8857144 13.96216534 -1.83985134 -4.43174129 -47.23574171 -8.74235486 -2.63339249 1.01428881 1.01252349 -8.49646415 -17.46035455 -16.74827307 -35.88287786 -0.00006963 -86.52546737 -0.0000665 23.62889084 -8.52735597 27.25579051 3.98600195 15.08141127 -8.42887859 4.91387425 50.5765078 38.59731752 -179.99997044 72.49030496 179.99998147 15.41479938 3.4977907 -6.66154651 -55.39614957 -5.55432877 24.22660915 48.02073927 -6.78567916 2.28932666 -1.92962259 1.34090659 -22.08642292 -0.55900016 0.00000385 -0.00000224 -47.25579532 -3.26807684 -22.39180469 62.81786562 7.6177804 1.2339332 -33.36233579 -8.03740941 23.40250221 -0.47155252 -0.00000385 0.00000696
0.04727519 1.00184899 -0.09021624 10.8651429 -14.61805822 1.92281699 12.11718429 -1.31083542 -2.48679086 10.11723614 -0.80880251 -1.58229272 10.13305889 -0.33578795 -1.66946522 13.99373684 -1.18613762 -4.49974872 -47.55295014 -4.39357029 -2.58719169 1.07928706 0.52319544 -7.89968807 -20.25355983 -14.34240638 -36.47133479 0.00009962 -85.21293395 0.00010572 25.08491951 -9.10944471 26.81520399 3.95918529 14.95391865 -8.45250982 4.53732015 49.17366279 38.02409632 179.99994726 70.90971754 -179.99995573 18.53414156 3.51949532 -6.62316078 -50.71856963 -4.57298841 26.35148929 44.83895755 -4.19421496 0.25028012 -0.91348903 1.20715515 -22.60814592 -0.56864426 8.6e-7 0.00000171 -46.80843246 -2.1064125 -21.24624966 61.6018363 8.27841843 0.99760436 -32.19725769 -6.85275654 21.95715433 -0.39477911 -0.00000196 -3.7e-7
0.04216011 1.00972808 -0.09474484 9.94297158 -17.50535296 3.14129402 11.81333659 -2.02093896 -2.32070572 9.85253637 -1.27443155 -1.3082295 9.88700952 -0.81560519 -1.40023916 13.66132069 -0.6934624 -4.64446968 -47.38132837 -0.97687141 -2.80208556 1.09997052 0.2696027 -7.42337002 -22.00777862 -12.71471935 -37.13879607 -0.00003764 -83.89500773 -0.00003392 24.33202393 -9.39560883 26.18576737 3.82193649 14.40061815 -8.31422747 4.3698475 47.48382646 37.4320872 179.99996852 68.86347741 -179.9999764 17.6237287 3.66683546 -6.4918242 -46.27824683 -4.32851624 27.476775 42.30073153 -1.22524113 -1.74222982 -0.32009347 1.16387105 -23.24722121 -0.5553216 -0.00000154 0.00000132 -46.38721315 -0.80066071 -20.53331428 60.74532976 8.31296492 0.73915465 -31.37761241 -5.58398347 21.17526589 -0.33828781 0.00000614 6.5e-7
0.04015022 1.01397384 -0.096053 9.26370707 -20.00114722 4.26982223 11.50390863 -2.39229086 -1.80699606 9.54616849 -1.57015025 -0.9444933 9.59601759 -1.10437522 -1.03960832 12.97888961 -0.32776509 -4.60661461 -46.98384925 1.8984561 -3.48532735 1.10559946 0.04040845 -6.82891888 -22.8652136 -11.26371596 -38.1460745 0.0000277 -82.93699719 0.00003951 24.01544522 -9.33911939 25.0565129 3.67590465 13.79510078 -8.14871009 4.32114796 45.37011998 36.75590331 179.9999804 66.6403818 -179.99999517 16.3945308 3.74885326 -6.33108084 -43.5033664 -2.94679809 27.82411315 41.02397113 -0.59425924 -2.15121627 -0.64676758 1.25918575 -23.63417415 -0.44682491 0.00000368 -0.00000446 -46.38290173 -0.07177241 -20.34841471 60.42326899 8.30915348 0.10876982 -30.97283138 -4.0863761 20.8571916 -0.28966377 -0.00001278 0.00000511
0.03954183 1.01614136 -0.09556078 8.78975698 -22.28822616 5.35809139 11.16770127 -2.60356195 -1.24623507 9.21241668 -1.76347256 -0.59581095 9.27480746 -1.2943644 -0.69000503 12.23986478 0.01164793 -4.25619171 -46.4212107 4.81562781 -4.5002905 1.10655712 -0.12526002 -6.36588652 -22.90544684 -10.01034954 -38.67792317 -0.00002339 -82.31743444 -0.00002569 24.05591736 -9.47534179 24.39007895 3.54883663 13.27818106 -8.07291625 3.92443892 43.16104618 36.27313059 179.99998415 64.8674938 -179.99998746 17.36359476 3.72657802 -6.19839515 -41.41077695 -1.36086332 27.97262149 40.30252635 -1.08869062 -2.34330983 -1.66603731 1.47957341 -23.89381572 -0.25003964 0.00000251 -0.00000614 -46.55095582 0.72266263 -20.4082388 60.37068683 8.28584261 -0.36074512 -30.83323656 -2.62836041 20.65781345 -0.2414078 -0.00000634 0.00000121
0.0393947 1.01752831 -0.09372535 8.42464162 -24.39986196 6.3070461 10.83579752 -2.85995414 -0.66502268 8.89981844 -1.98818139 -0.22446273 8.97452513 -1.53470319 -0.31473841 11.45054081 0.43430555 -4.08105397 -45.47685727 7.97246053 -5.4087619 1.07001521 0.10937056 -6.53923623 -22.24364019 -9.26519162 -38.15695797 -2.2e-7 -82.09903773 0.00000879 23.30344516 -9.43100604 24.12021572 3.47938036 13.00889276 -8.09432463 2.94955103 41.24141596 36.22879741 179.99999065 63.86044325 -179.9999838 19.06554151 3.70843313 -6.09203908 -39.73973015 0.13865446 28.09422742 40.06657315 -0.92156398 -2.54362958 -2.45738206 1.67008811 -24.20774407 -0.30935314 -4.7e-7 -0.00000102 -46.58285071 1.75775587 -20.41543565 60.34185955 8.27304278 -0.57112136 -30.84456151 -1.55612469 20.47409487 -0.18407726 0.00000471 -0.00000428
0.0394078 1.01845695 -0.09124784 8.2179576 -26.21144581 7.14444942 10.51841099 -3.19957329 -0.12820299 8.61808118 -2.2713553 0.13501442 8.70485886 -1.84695117 0.05006915 10.67140552 0.92219096 -4.1592621 -44.53369086 10.82775302 -5.73617692 1.02008055 0.47048533 -6.89959158 -21.09332514 -8.32297768 -37.33849351 0.00008438 -82.54211703 0.000086 22.30055471 -8.96218509 24.04268888 3.48936642 12.99065714 -8.02291175 1.44647994 39.70538202 36.79021693 -179.99999728 63.36313627 -179.99998854 17.92603551 3.76883806 -5.96472327 -38.73956918 1.86158245 28.07774234 40.18048851 -0.31658078 -2.39731639 -3.05563996 1.79853889 -24.13460525 -0.33470093 -0.00000505 -0.00000549 -46.59603194 2.81307842 -20.30273746 60.33188752 8.27619033 -0.79860504 -30.86800636 -0.93006561 20.37889304 -0.122279 -0.00001273 0.00000457
0.04005309 1.01818573 -0.08899402 8.20986432 -27.74250601 7.93156756 10.22566764 -3.41294294 0.26629488 8.37374601 -2.45056636 0.41282124 8.46541091 -2.05976665 0.33355875 10.01859695 1.34119075 -4.10973456 -44.37188075 12.81427225 -5.45397414 0.99584298 0.62104568 -7.00643759 -19.90221295 -7.01895926 -36.96068941 0.00005491 -83.56369096 0.00006504 22.47508123 -8.51273883 24.23596605 3.48202824 12.79486076 -7.57140653 -0.53933613 38.46798738 38.07077036 179.99999908 62.96709011 -179.99999289 13.11781399 3.87657144 -5.82082572 -38.36771891 3.50963071 27.94593075 40.69702234 0.11628152 -2.12447068 -3.98708688 1.92836688 -23.31822949 -0.37777144 0.0000032 -0.00000256 -46.7663024 4.05756546 -20.09849884 60.4485235 8.28409454 -0.95331468 -30.74937271 -0.57760661 20.35598677 -0.08185589 -0.0000022 -3e-7
0.04234453 1.01685226 -0.08687348 8.20440077 -29.10327141 8.61126973 10.05986528 -3.4204613 0.48430496 8.25096025 -2.45673259 0.58633116 8.33954452 -2.09186602 0.51019315 9.17586939 1.67062697 -3.59985372 -44.18339107 14.21172883 -5.16411409 0.98308965 0.68837546 -7.02725077 -19.02735601 -5.87198487 -36.74445147 -0.00016184 -84.96988955 -0.00015376 24.41243688 -7.93186937 25.3933617 3.3017009 11.8352271 -6.55874696 -3.10347358 37.48971445 40.10520442 179.99999569 62.59785568 179.99998216 7.84195423 3.96771482 -5.7341123 -38.2253236 4.96681517 27.58413458 41.45883603 0.52400944 -1.49926594 -5.10474917 2.11196597 -22.79331683 -0.43606308 0.00000383 8.4e-7 -46.9962242 5.29154943 -19.90524272 60.64807464 8.30785913 -1.14214146 -30.53450131 -0.37923818 20.40684657 -0.04207255 0.00001231 7e-7
0.04613021 1.01518356 -0.08460932 8.31693374 -30.14212206 9.14654944 10.02133459 -3.36638459 0.56238249 8.23558067 -2.40120149 0.6922811 8.32046176 -2.04727951 0.61671944 7.79780803 1.92920559 -2.39974035 -43.40516542 15.45336791 -5.31060242 0.96854368 0.7009457 -6.85738529 -18.49909995 -4.61011971 -36.6541567 -0.00017925 -86.87083818 -0.00017815 26.65891758 -7.33312308 27.19555163 2.96336445 10.10848749 -5.10188571 -6.21029238 36.6361984 42.69041261 -179.99998788 62.43681297 179.99997206 5.13710813 3.99224134 -5.70253162 -38.25070659 5.55833819 27.02653809 42.44067754 1.35633017 -0.87025516 -5.77669828 2.26948335 -22.8677882 -0.43567641 -0.00000311 -0.00000982 -47.34131676 6.14456129 -19.79495895 60.81427994 8.3222647 -1.41949507 -30.42429337 -0.21467769 20.38577218 0.0047284 0.00000902 0.00000644
0.05074751 1.01272454 -0.082229 8.75672865 -30.80131609 9.57861237 10.03899754 -3.2713093 0.67200175 8.24779022 -2.3279882 0.79115412 8.32994152 -1.97600018 0.71627291 6.24097926 2.06255022 -1.11069296 -43.50004754 16.16992873 -5.39747781 0.95264707 0.67065186 -6.53905521 -18.25516431 -3.19798654 -36.83619949 0.00006441 -89.05557834 0.00007052 27.51155782 -7.29105241 28.40216606 2.65021381 8.35389243 -3.61082377 -9.41610373 35.54636442 45.25288873 179.99999028 62.54609698 -179.99999608 4.60479843 3.96378641 -5.67179551 -38.78639458 5.355415 26.83343546 43.77530162 1.99416987 -0.9467203 -6.2924298 2.38036246 -22.8273849 -0.41613002 -0.00000336 -0.00000115 -47.90786987 6.90639181 -19.66616382 60.96360146 8.30972282 -1.55333253 -30.35881811 -0.09101379 20.30469697 0.02416898 -0.00000546 -0.00000682
0.05617547 1.00963615 -0.07971447 9.41008233 -31.10123981 9.94684382 10.0729179 -3.14841862 0.8465381 8.26209699 -2.2560806 0.88299737 8.34169163 -1.90494984 0.80926166 4.851607 2.09844731 -0.28663111 -44.52752898 16.14641948 -5.06649142 0.93564708 0.6915226 -6.3586287 -18.12097456 -2.05729222 -37.03673717 -179.99996056 -88.77949384 -179.99996742 27.44952039 -7.6855878 29.09793887 2.46382304 7.21600644 -2.43518264 -12.133244 33.9669801 47.21529746 179.99998754 62.78665949 -179.99998746 4.24585652 3.94121708 -5.62980768 -39.97567017 5.58680286 27.13539008 45.09370705 1.59949671 -1.2237981 -7.05682233 2.51690672 -22.73445947 -0.38731843 -0.00000404 -0.00001284 -48.60936871 7.62319506 -19.58331144 61.07593936 8.34706654 -1.55994826 -29.99803758 -0.22953754 20.23979685 0.05663456 -0.00000632 -0.00000328
0.06244241 1.00665054 -0.07724009 10.10393941 -30.90550856 10.19383113 10.10490097 -2.99231622 0.9628124 8.28154585 -2.15207243 0.96019433 8.35734152 -1.80175011 0.88733228 3.5967766 2.06371398 0.42021732 -45.32596646 15.75318941 -4.70470867 0.93583499 0.62745097 -6.1724254 -17.95925078 -1.59186177 -37.32719332 -179.99993895 -86.74765363 -179.99993249 27.82723999 -7.69480288 29.8999221 2.3701247 6.6463693 -1.61927965 -14.08903028 32.02412304 48.44687227 179.99997251 63.02426285 -179.99999487 3.32260728 3.94508661 -5.6083518 -41.67359643 6.3018658 27.5069548 46.20709725 0.54767091 -1.18023207 -7.88700455 2.66620938 -22.73720407 -0.32955227 0.00000391 -0.0000071 -49.33863635 7.90631175 -19.78463681 61.09182248 8.47037001 -1.5572874 -29.29252398 -0.53939895 20.26710832 0.15441774 0.00000107 -0.00000375
0.0694936 1.00369171 -0.07476944 10.74673355 -30.20850671 10.25976997 10.15007092 -2.75907965 1.03097601 8.31837114 -1.98210519 1.02536054 8.38813732 -1.63063147 0.95290855 2.65415451 1.93977402 1.0931752 -46.0602133 15.0739551 -4.47801595 0.96400487 0.35851329 -5.78713146 -17.78588039 -1.86025253 -38.01409262 179.99987841 -84.98337462 179.9998784 29.07555831 -7.14704142 30.74757926 2.31479977 6.30961893 -1.07332962 -15.42963874 30.03666892 49.1478092 -179.99999775 63.25504553 179.99999304 2.24740449 3.96084515 -5.62460651 -43.61669056 6.64936054 27.681396 47.42391411 -0.4447598 -1.07131843 -8.57488468 2.7938072 -22.77717774 -0.27038879 5.4e-7 -0.00000349 -49.93210837 7.937089 -20.27194854 61.01770235 8.60531405 -1.49264243 -28.53027723 -0.92905664 20.588802 0.24061994 -0.0000124 0.00000425
0.07707109 1.00068252 -0.07225622 11.41314248 -29.27528903 10.19313717 10.2322433 -2.47937789 1.11046685 8.37643443 -1.78907153 1.07063367 8.43901068 -1.4366886 0.99925968 1.82952077 1.79032604 1.35708083 -46.86504573 13.99442817 -4.07723842 0.97326603 0.22324397 -5.53001505 -17.75309786 -2.56179434 -38.76398006 179.99993984 -83.50902837 179.99994839 30.57412972 -7.22894515 31.00319645 2.27973819 6.06803582 -0.73637929 -16.52005451 28.26285873 49.61359194 179.99995788 63.55446773 -179.99997437 1.27715733 3.98214917 -5.6529328 -45.67668668 6.32755985 27.67759232 48.89086659 -1.11876624 -1.11147816 -8.91965104 2.83723563 -22.65552045 -0.33123935 -0.0000084 0.00000171 -50.39096844 8.04711698 -20.58489576 60.85744539 8.75576159 -1.58272953 -27.51696116 -1.8810509 21.2744861 0.14240668 0.00000977 0.00000359
0.08456354 0.99776719 -0.07018 12.27754429 -28.24509255 10.07912846 10.26730892 -2.24912235 1.12858446 8.39193101 -1.62582569 1.10138748 8.44698506 -1.2843849 1.03349794 0.75404526 1.63888323 1.13692456 -47.28148041 12.5205208 -3.53176349 0.9295063 0.51380273 -5.75178639 -17.8319262 -3.62793875 -39.06645545 -179.99995393 -82.55017843 -179.99993685 31.89381285 -8.57342182 31.15207046 2.27555603 5.98077144 -0.55342372 -17.63562319 26.80770038 50.09260493 -179.99999909 63.99327189 -179.99999033 0.26203469 4.0217985 -5.66084534 -47.71720353 5.36167067 27.50280554 50.3046412 -1.3247537 -1.36144729 -9.08180498 2.82759379 -22.34614522 -0.41045812 -0.00000346 0.00000146 -50.93162353 8.19846155 -20.65061773 60.59701207 8.97550763 -1.75654464 -26.18266003 -3.29398903 22.13511407 -0.02939771 -0.00000355 -0.00000109
0.09189573 0.99467423 -0.06822253 13.16725748 -27.0707856 9.92330816 10.23115925 -2.09022001 0.99356135 8.35832428 -1.49234666 1.06586081 8.40592007 -1.17219674 1.00290445 -0.34465213 1.41322476 0.8447887 -47.5863376 10.84810502 -3.33518278 0.87553455 0.93413967 -6.22140534 -17.83260623 -5.13200983 -39.1379822 -179.99994062 -82.29738845 -179.99994585 32.91694512 -9.58133395 31.59770571 2.32905093 6.19410205 -0.54313205 -18.76407851 25.60009689 50.53995146 179.9999654 64.60106768 -179.99997584 -0.95725399 4.09183994 -5.6440972 -49.65592943 4.23734597 27.0986904 51.52421586 -1.38864534 -1.53447978 -9.32002726 2.85929487 -22.21419603 -0.45594658 0.00000169 -0.00000403 -51.47641943 8.37204429 -21.04443757 60.34633847 9.11499412 -1.53524069 -24.95724142 -4.33477639 23.0627191 -0.18630571 0.00000611 -0.0000064
0.09997053 0.99153794 -0.06558012 13.84175509 -25.8886379 9.62283395 10.29355938 -2.00716786 0.91921675 8.40263253 -1.44143824 1.0009175 8.44583574 -1.13865217 0.94133559 -1.33918696 1.24704654 0.2795107 -48.28770134 9.24455026 -2.9548852 0.81788573 1.44281716 -6.94131938 -17.92291798 -6.69215142 -39.08869115 -179.99992583 -82.34924573 -179.99992554 33.16889932 -9.5271897 31.44582739 2.44731103 6.74249487 -0.75957358 -19.74976508 24.49908549 50.74240716 -179.99997162 65.37394509 179.99996368 -2.34438372 4.18388034 -5.62343062 -51.66256605 3.64952548 26.64997297 52.77175451 -1.8772937 -1.24545256 -9.6038342 2.9095777 -22.23580692 -0.49389138 0.00000253 -0.00001033 -51.90140477 8.17288733 -21.68016462 60.13875798 9.09746624 -1.38507791 -23.97335587 -4.92351918 23.94560779 -0.3285803 0.00001185 0.00000308
0.10875329 0.98872803 -0.0624361 14.28474674 -24.79491081 9.09394575 10.47625393 -1.87783064 0.93751741 8.54610942 -1.38315345 0.94021919 8.58539055 -1.09004615 0.88222193 -2.30937041 1.15998639 -0.47904489 -48.81946398 7.59694979 -2.09061628 0.7651962 1.93540834 -7.73571288 -18.21375768 -8.14654688 -39.02710528 -179.99998311 -82.58972928 -179.9999638 33.48369599 -9.34348817 31.24224969 2.57076707 7.30181689 -1.02932094 -20.56977605 23.46374432 50.84830469 179.99999329 66.30997661 179.99998588 -3.70836457 4.27302866 -5.62745162 -53.62887841 3.35824411 26.38003797 54.08883878 -2.65335996 -0.84369784 -9.79786764 2.92701644 -22.20001159 -0.57392848 0.00000169 -0.00000105 -52.14329052 7.83131193 -22.19716717 60.05371245 9.10373453 -1.23520931 -23.30123231 -5.56005149 23.99368888 -0.4356408 0.00001132 0.0000034
0.1171297 0.98541717 -0.05899926 14.47365269 -23.72177948 8.43159495 10.70355032 -1.55484101 0.76006555 8.72238339 -1.13649474 0.80663976 8.75245241 -0.85043197 0.75150424 -3.24615776 0.94215103 -1.01779347 -48.78911478 5.39832902 -1.32261499 0.74785429 2.13189205 -8.12796643 -18.57121768 -9.86243705 -39.46561111 -179.99997315 -83.03163416 -179.99997888 34.24772545 -9.54482306 31.60915959 2.60789946 7.43040071 -1.0107628 -21.31064546 22.5547029 51.31758115 -179.99999056 67.40938588 179.99999262 -4.74662016 4.3418823 -5.67504834 -55.24964102 3.00938721 26.25853095 55.37593111 -3.58028728 -0.69624886 -10.16289813 2.99035258 -22.23838536 -0.61905808 -0.00000551 0.00000236 -52.12130025 7.4665372 -22.8161084 60.06207398 8.95164054 -1.02099162 -23.00195006 -5.81384202 24.13934815 -0.48123712 -0.00000778 0.00000165
0.12498252 0.98192627 -0.05520432 14.49244529 -22.70687553 7.81446291 10.93192523 -1.14647096 0.39110746 8.90112408 -0.79101866 0.58641798 8.9197664 -0.51183209 0.53505492 -3.9907963 0.56240231 -1.71001885 -48.58222612 2.29765147 -0.68036484 0.75050141 2.14773187 -8.22509832 -18.78147402 -11.66638759 -40.28463777 179.9999882 -83.20481606 179.99999125 34.59576295 -9.54250546 31.91727705 2.5440544 7.06084789 -0.58635138 -21.94838055 21.80953344 52.30844077 179.99997014 68.63180827 -179.99997601 -5.1285594 4.39134475 -5.76084976 -56.58227256 2.70107665 26.14964843 56.63265125 -4.58728633 -0.73385298 -10.56826272 3.04042665 -22.11589875 -0.63481723 -0.0000021 -0.00000214 -52.10300998 6.7996608 -23.51906977 60.23156727 8.85624993 -1.14873442 -22.84252755 -5.81650661 24.34865583 -0.49918848 0.00000225 3e-8
0.13318009 0.98000084 -0.05102947 14.42115505 -21.77765947 7.28534067 11.19666809 -0.69615851 0.1069406 9.11574435 -0.43836463 0.37855699 9.12398573 -0.1559507 0.32918313 -4.43087226 0.11972462 -2.78215107 -48.4788215 -1.25558796 -0.25639519 0.74357418 2.37392619 -8.91158921 -19.02066883 -14.02964627 -40.10408069 179.99997937 -83.16399897 179.99998802 35.61404759 -8.73675834 31.97478132 2.43192444 6.43559016 0.0885205 -22.40052926 21.23916674 53.59589644 179.99999945 69.93380897 179.99999154 -4.82961434 4.42303583 -5.85865563 -57.76961008 2.6843001 25.90816407 57.76950359 -5.58860308 -0.70851889 -10.7387378 2.95456715 -21.38925355 -0.73109963 -0.00000308 0.00001211 -51.75698015 6.37529186 -24.20506595 60.14872362 8.48599506 -1.14331537 -22.66448524 -5.74611817 24.24795593 -0.48342882 0.00000493 0.00000274
0.14099766 0.97895019 -0.04678895 14.30034124 -20.94345691 6.78858765 11.48689057 -0.23753131 -0.08294399 9.34173435 -0.09644301 0.20763061 9.34014196 0.19704116 0.15907763 -4.55504164 -0.26387937 -3.97198207 -48.42578684 -4.44817288 0.01370485 0.73100126 2.77709712 -10.19335044 -19.47787424 -16.71811547 -38.70604814 -179.99996841 -83.19641137 -179.99997164 38.16212436 -7.9150907 31.23786694 2.30946145 5.75616101 0.81891822 -22.66106902 20.89255618 54.94915537 179.99999226 71.30724748 -179.99997304 -4.27739327 4.42850763 -5.94350749 -58.79391049 2.92014069 25.71984832 58.7331644 -6.66663633 -0.62340719 -10.92041669 2.84318164 -20.5074567 -0.84049641 0.00000137 0.00000756 -50.86529158 6.55615539 -24.7976362 59.67550736 7.93716188 -0.69718976 -22.62384266 -5.75594749 24.29006884 -0.43560424 -0.00000283 9e-8
0.14701506 0.97750565 -0.0431052 14.10415893 -20.2182882 6.33965722 11.77343398 0.15101153 -0.40985662 9.54851558 0.21243203 -0.03507368 9.53778223 0.51535283 -0.08304072 -4.36315898 -0.58187321 -4.94938888 -48.37082866 -7.09579944 0.31644038 0.72651139 2.95934107 -10.82496993 -19.91572516 -18.75237631 -37.70886564 -179.99992717 -83.20953625 -179.99992944 39.76601554 -7.94254308 29.50158155 2.21424441 5.22596655 1.36045079 -22.6812719 20.78804737 56.12432774 179.99995859 72.68040845 -179.99997444 -3.91908655 4.41278478 -6.00856931 -59.53155329 3.17237182 25.59540622 59.52411498 -7.61857862 -0.46817652 -11.14039481 2.81818944 -20.14719906 -0.87265214 6.6e-7 1.9e-7 -50.08589074 6.68363294 -25.04107041 59.51433085 7.15995513 -0.68563304 -22.64309564 -5.82649564 24.48590779 -0.4261183 0.00001269 4.3e-7
0.15166622 0.9763823 -0.0404841 13.9767279 -19.52244001 6.03041852 12.04821284 0.3321333 -0.82168995 9.73822381 0.37551475 -0.32304792 9.72248543 0.68345958 -0.37150796 -4.13578857 -0.77645961 -5.75539213 -48.25477003 -8.90253335 0.57877087 0.72000285 2.97656729 -10.78019105 -20.2645824 -19.88496999 -37.27531083 -179.99998627 -83.08878766 -179.99997666 39.609328 -8.21092891 28.45118324 2.19397049 5.12648536 1.43026543 -22.38091303 20.8734839 56.78660582 179.99998297 73.94147599 -179.9999949 -3.86715949 4.43273334 -6.05771519 -60.08739159 3.22907107 24.97221095 60.14081207 -7.93966885 0.09339996 -11.17654406 2.82815698 -20.15197791 -0.90917581 -0.00000631 0.00000485 -49.65747384 6.65086313 -25.10290842 59.62748715 6.15747007 -1.00201726 -22.57510555 -5.83670737 24.47777612 -0.43899227 0.00000709 0.00000201
0.15502823 0.9752227 -0.03929595 13.9331715 -18.90576412 5.80428268 12.29807727 0.32023252 -1.23370114 9.90637095 0.40110318 -0.59063955 9.88993408 0.70593743 -0.63952417 -3.94205672 -0.80846231 -6.52993224 -48.03603708 -9.86408458 0.94335699 0.71291986 2.97517882 -10.6514734 -20.90716977 -20.29241737 -36.97451124 -179.9999944 -82.96535908 -179.99999756 39.65104235 -8.09149304 28.45126494 2.26410581 5.52011543 1.02455571 -21.83605258 21.11236274 56.88820183 -179.99997304 75.12677796 179.99996096 -3.99171355 4.5682858 -6.09630952 -60.57557064 3.14995101 24.26669642 60.60770018 -7.93644118 0.70914483 -11.15094736 2.85680028 -20.33402589 -0.95057469 -0.00000536 -0.00000493 -49.3574735 6.64963771 -25.15235529 59.68330875 5.56518784 -1.21015762 -22.64333107 -5.82948987 24.33199113 -0.38463665 -0.00000836 -1.9e-7
0.15736439 0.97524513 -0.03941133 13.88523094 -18.50104785 5.54075154 12.51843882 0.31331485 -1.56684813 10.05058841 0.41817053 -0.82091768 10.0337293 0.71987638 -0.87048826 -3.64584192 -0.81253291 -7.22877488 -47.72820565 -10.76746131 1.58445553 0.71141804 2.98462556 -10.66291723 -21.79374222 -20.6455479 -36.68672984 -179.99990391 -83.24616812 -179.99991598 39.89486876 -8.0257393 28.48627052 2.3813017 6.10646489 0.53715163 -21.1661924 21.49490733 56.87947854 179.99993399 76.35811523 -179.99994578 -4.01028863 4.7764174 -6.14269696 -60.7720095 3.22004145 24.14059246 60.57063059 -8.23109562 0.87937811 -11.34560065 2.9249127 -20.57164288 -0.75729312 0.00000346 0.00000332 -48.99761692 6.49374192 -25.04407035 59.40469985 5.06207167 -1.35410932 -22.81490932 -5.84896568 24.1967462 -0.13055379 0.00001052 0.00000487
0.1579888 0.97715676 -0.04079954 14.04904261 -18.29450867 5.32402699 12.59545063 0.42063828 -1.85713766 10.09118178 0.50914148 -1.03968881 10.0711158 0.81768206 -1.09115691 -3.20931221 -0.8668489 -7.6370934 -47.19593338 -11.65347164 2.13219071 0.71472806 2.9768569 -10.69931037 -22.25090858 -21.19116804 -36.24047309 179.99997283 -84.06016597 179.9999916 39.48962181 -8.34702425 28.79882375 2.45279231 6.45955598 0.43079398 -20.39985656 22.04013308 57.37586386 179.99997214 77.65743436 -179.99998649 -3.57237567 4.8232287 -6.21812025 -60.91175166 3.32413004 24.25127641 60.07009843 -8.43863956 0.92049864 -11.30485338 2.92299719 -20.61688193 -0.63904879 0.00000161 0.00000203 -49.14305679 6.27495156 -24.71671617 59.21076795 4.21221832 -1.37548613 -22.16036693 -5.64935613 23.88912183 -0.46566512 0.0000052 5.9e-7
0.15702391 0.98009667 -0.04258979 14.3751156 -17.95183277 4.77983952 12.49496096 0.64749888 -2.40130463 9.98486392 0.73029066 -1.38291124 9.95953299 1.03886512 -1.43530714 -2.67662479 -0.99579594 -7.2496843 -46.73938095 -12.19718504 2.4703857 0.72470558 2.68196109 -10.18071986 -22.05054705 -22.2324404 -35.87634113 -179.99998831 -84.7279912 -179.99997274 37.86278047 -7.51185224 27.99330256 2.40081434 6.27698282 0.88422401 -19.72427869 22.87305122 58.72111975 -179.99990594 79.05373162 179.99990989 -2.55391976 4.547404 -6.29978616 -61.0461029 2.98664475 24.56514223 59.21066605 -8.47921681 0.80848317 -11.05968675 2.89208073 -20.63074503 -0.41697188 6.8e-7 -0.00000271 -48.95781495 5.35347178 -24.28882661 58.23067591 3.73400597 -1.27338285 -22.13097469 -5.63958005 23.8725874 -0.14120806 -0.00000338 8e-7
0.15455835 0.98453249 -0.044711 14.47027199 -17.71984515 4.21176265 12.46451942 0.77529728 -2.87441156 9.93098084 0.87802737 -1.66844385 9.90206086 1.18891955 -1.72283582 -2.17359908 -1.10409886 -6.80887639 -46.74599791 -12.54890591 2.76945785 0.74178212 2.36816727 -9.6102665 -21.49309255 -22.98083433 -35.70132893 179.99995866 -85.66437173 179.99995346 36.71973741 -6.8739377 27.66851191 2.23160279 5.51419124 1.76344199 -19.52086101 24.06312246 60.84471533 179.99995757 80.63944474 -179.9999457 -1.12210005 4.09170629 -6.33632036 -60.66679967 2.63017207 24.90827969 57.9795544 -8.37449673 0.66865582 -10.56246405 2.84319314 -20.8311634 -0.2741244 0.00000141 0.00000674 -48.57813737 4.34896327 -23.74139216 57.19023057 3.33427509 -1.28346378 -21.87828926 -5.60553297 23.96660279 -0.02856938 0.00000827 -0.00000621
0.15171691 0.99011763 -0.04651286 14.49302819 -17.54082991 3.67467096 12.43278465 0.88207512 -3.20365452 9.87410676 0.98146395 -1.89367316 9.84323466 1.28995969 -1.94937887 -1.77667484 -1.23299862 -6.32322434 -47.06212543 -12.89820118 2.89327686 0.76595048 2.06701194 -9.13780675 -20.51178335 -23.6615494 -35.52384869 -179.99984578 -86.42032716 -179.99984205 35.70639735 -6.21533387 27.39172607 2.01162287 4.33605081 2.85849146 -19.98861949 25.41439244 63.48735073 179.99982418 82.40224701 -179.99983813 0.5884017 3.70476794 -6.31296411 -60.08005073 2.39598787 25.15186418 56.58009534 -8.09856312 0.64673284 -9.90152392 2.75509766 -20.96003771 -0.14319814 -8.1e-7 0.00000204 -48.04365904 3.44886058 -23.11192866 56.08326426 2.55631296 -1.28987286 -21.4491167 -5.58321479 24.1749422 -0.01001689 -0.00000552 0.00000873
