HIERARCHY
ROOT Hips
{
  OFFSET 4.3602899495453355e-8 1.1673772430419926 0.00903120994567871
  CHANNELS 6 Xposition Yposition Zposition Xrotation Yrotation Zrotation
  JOINT Spine
  {
    OFFSET 0.00000400409843159832 0.10717498984890383 -0.009311363000479054
    CHANNELS 3 Xrotation Yrotation Zrotation
    JOINT Spine1
    {
      OFFSET -1.157133440709887e-8 0.10585321386790758 -0.004285265132451881
      CHANNELS 3 Xrotation Yrotation Zrotation
      JOINT Spine2
      {
        OFFSET -1.2021792727953998e-8 0.10599313230062335 -0.007812673855060945
        CHANNELS 3 Xrotation Yrotation Zrotation
        JOINT Neck
        {
          OFFSET -3.2927685248284505e-8 0.26240295415719994 -0.044881304131893486
          CHANNELS 3 Xrotation Yrotation Zrotation
          JOINT Head
          {
            OFFSET -1.1268817613937174e-8 0.1746685200511402 0.056256497133401515
            CHANNELS 3 Xrotation Yrotation Zrotation
            End Site
            {
              OFFSET -8.617178878150887e-9 0.10756811731632654 0.02107021751552555
            }
          }
        }
        JOINT LeftShoulder
        {
          OFFSET 0.10574355691983202 0.2300922422130116 -0.07323001980788171
          CHANNELS 3 Xrotation Yrotation Zrotation
          JOINT LeftArm
          {
            OFFSET 0.14878172464754674 -0.04653430124026747 -0.03069340943884992
            CHANNELS 3 Xrotation Yrotation Zrotation
            JOINT LeftForeArm
            {
              OFFSET 0.2410901499999964 2.514874553050106e-8 -2.5644150081216566e-8
              CHANNELS 3 Xrotation Yrotation Zrotation
              JOINT LeftHand
              {
                OFFSET 0.3167439969976485 9.305862591624248e-8 0.0055278706856974474
                CHANNELS 3 Xrotation Yrotation Zrotation
                End Site
                {
                  OFFSET 0.06210611293049251 -0.1056924643799253 0.03949498917827464
                }
              }
            }
          }
        }
        JOINT RightShoulder
        {
          OFFSET -0.10574409307527087 0.23009141295444557 -0.07322999494236766
          CHANNELS 3 Xrotation Yrotation Zrotation
          JOINT RightArm
          {
            OFFSET -0.14878099894090208 -0.04653001551703495 -0.030692881610262193
            CHANNELS 3 Xrotation Yrotation Zrotation
            JOINT RightForeArm
            {
              OFFSET -0.24108999999999764 -2.5144341053717767e-8 2.9072947757557976e-8
              CHANNELS 3 Xrotation Yrotation Zrotation
              JOINT RightHand
              {
                OFFSET -0.3167448378500485 -3.304013818095086e-8 0.005523816194027642
                CHANNELS 3 Xrotation Yrotation Zrotation
                End Site
                {
                  OFFSET -0.06210627893580878 -0.10570000668807578 0.039495226662701347
                }
              }
            }
          }
        }
      }
    }
  }
  JOINT LeftUpLeg
  {
    OFFSET 0.12297482524469029 -0.06742086731113295 -0.010003017167751174
    CHANNELS 3 Xrotation Yrotation Zrotation
    JOINT LeftLeg
    {
      OFFSET 3.29102216173327e-8 -0.45703384336647745 0.010304781301190422
      CHANNELS 3 Xrotation Yrotation Zrotation
      JOINT LeftFoot
      {
        OFFSET 6.562466081661e-8 -0.5002806931369024 -0.03690416879508984
        CHANNELS 3 Xrotation Yrotation Zrotation
        JOINT LeftToeBase
        {
          OFFSET 0.02595079309341415 -0.14255124139316394 0.19507613876404925
          CHANNELS 3 Xrotation Yrotation Zrotation
          End Site
          {
            OFFSET 0.010732212189788037 -0.00003523758576667464 0.11362316400109373
          }
        }
      }
    }
  }
  JOINT RightUpLeg
  {
    OFFSET -0.12297503780805406 -0.0674172528256134 -0.01000298679994319
    CHANNELS 3 Xrotation Yrotation Zrotation
    JOINT RightLeg
    {
      OFFSET 0.0000015762103336008915 -0.45703794623816363 0.010304776602924667
      CHANNELS 3 Xrotation Yrotation Zrotation
      JOINT RightFoot
      {
        OFFSET -0.0000014796473382927555 -0.5002806877425285 -0.03690424189268969
        CHANNELS 3 Xrotation Yrotation Zrotation
        JOINT RightToeBase
        {
          OFFSET -0.02594992229596689 -0.1425528302873685 0.19507509351502048
          CHANNELS 3 Xrotation Yrotation Zrotation
          End Site
          {
            OFFSET -0.01073336011005574 -0.000035035181829541786 0.11362416403777789
          }
        }
      }
    }
  }
}
MOTION
Frames: 100
Frame Time: 0.03333333333333333
-0.00134523 1.11788467 0.00137196 -16.91106069 -39.01316886 -9.26581149 7.99143838 -0.03948034 -0.27490831 16.41345445 -0.12552106 -0.74599374 16.41351202 -0.19291802 -0.72109249 0.3674049 7.48096212 0.83754482 -6.98213213 21.59726925 11.88299226 -37.57106599 -4.82255344 1.54650816 -41.62849625 -7.01533037 -61.68487637 0.00004026 -63.9959619 0.00002192 -119.7919477 2.32384076 31.68048588 -41.17628423 -8.6056838 -9.94164966 -46.81898935 58.24345253 100.94786326 -179.99992825 82.55612204 179.99991953 -52.65334171 -17.34418772 -28.55895265 -20.41159338 43.6401579 27.39604658 22.79047643 0.51123402 -0.68144707 2.03306951 1.28231719 -2.90942778 -0.00002827 0.00000291 0.00000606 4.35570369 5.22030774 -5.96053645 30.8147952 -0.30843836 1.07830683 -20.55785503 -17.48007876 4.47975086 -0.02048707 -0.00001171 -9.4e-7
-0.00181199 1.11793312 0.00155774 -16.88831935 -39.01166209 -9.23069154 7.9762613 -0.05694941 -0.26875615 16.39146419 -0.16476329 -0.7299557 16.39163902 -0.23212202 -0.70512809 0.38951928 7.52363806 0.85675248 -6.93973961 21.73047671 11.82633808 -37.45537114 -5.27369333 3.03717564 -41.17611325 -8.37605758 -62.25307591 0.00002596 -58.59542867 0.00001355 -122.31626607 2.95659684 26.33407796 -36.93512327 -8.06281871 -7.59816156 -48.15404693 57.83020003 99.63644294 -179.99985845 85.89124195 179.9998529 -49.11270506 -17.45318727 -26.12881047 -20.3563858 43.64177182 27.35349837 22.75781922 0.51290275 -0.67616607 2.03372843 1.28831651 -2.94308335 -0.00453046 -0.00000398 0.00000476 4.38292898 5.21012182 -5.97773753 30.79471075 -0.31987674 1.08328501 -20.57712031 -17.46539401 4.46903269 0.00144328 -0.00000237 -7.4e-7
-0.0022353 1.11797615 0.00180974 -16.84861925 -38.99203408 -9.15774869 7.9614706 -0.07687579 -0.24925249 16.37085041 -0.20617425 -0.68802361 16.37126392 -0.27422525 -0.66344287 0.35793437 7.59384122 0.82883114 -6.98873356 21.90971767 11.75548957 -37.13538812 -6.40748291 5.43987427 -40.33157296 -7.82872956 -63.18591829 0.0000118 -55.58180068 0.00000802 -124.06429746 3.21539384 22.36753044 -32.83177558 -7.21063674 -5.62464906 -49.82458114 57.04152352 98.76559013 -179.99827896 89.33550852 179.99827435 -45.69547518 -17.21760058 -23.70990698 -20.25794709 43.61962337 27.2268607 22.69941122 0.53589572 -0.65050068 2.05220841 1.30057312 -2.98303781 -0.02642592 -0.00000367 -3.2e-7 4.39637632 5.1914277 -6.01675208 30.78721942 -0.32407358 1.08838239 -20.60861107 -17.47388458 4.45756775 -0.00075024 -0.00000198 8e-7
-0.00253814 1.11799339 0.00222567 -16.78887876 -38.96616389 -9.02829218 7.95122234 -0.09373877 -0.21354662 16.35837086 -0.23858785 -0.62557877 16.35896321 -0.30770353 -0.60147103 0.20486175 7.68094143 0.71889506 -7.07856997 22.01835337 11.60934512 -37.41244625 -5.86633403 5.73021572 -38.57876648 -9.12887087 -63.80868706 0.0000152 -56.06822714 0.0000051 -124.7064573 2.02565446 20.587188 -29.06715572 -6.12677648 -4.01616519 -49.4754083 56.04275062 96.57825307 -0.0005775 88.90851452 0.00057314 -42.40416812 -16.61954178 -21.28026464 -20.08116634 43.56516817 26.97261446 22.63402788 0.5871399 -0.60724165 2.06244853 1.34399216 -3.03240687 -0.05161232 -0.00000199 -4.8e-7 4.38971615 5.15938761 -6.10891192 30.80895547 -0.29465657 1.08381331 -20.6580692 -17.51264645 4.45403304 -0.0193946 0.00000476 -0.00000149
-0.0026037 1.11799965 0.00278171 -16.694129 -38.89379621 -8.82040742 7.94320589 -0.09581381 -0.16166622 16.35195899 -0.2469833 -0.55835103 16.35315655 -0.31608191 -0.53335411 -0.12412302 7.72063006 0.53968973 -7.16586388 21.77843156 11.29834898 -37.97323995 -4.5857718 5.07315584 -35.42032562 -10.86266091 -64.34988094 0.00004402 -60.59013234 0.00003108 -123.96933815 -1.01250427 20.61930092 -25.532709 -5.09021595 -2.33899547 -45.21159185 55.15559511 91.20265671 -179.99712718 89.78306658 179.99711345 -39.46827949 -15.51074045 -18.60344702 -19.83561821 43.48976547 26.58966637 22.54948208 0.65972335 -0.57420196 2.07311059 1.37401752 -3.05550443 -0.04985033 0.00000443 9.4e-7 4.36374706 5.10249644 -6.26353337 30.85539451 -0.23855588 1.07621676 -20.72304303 -17.60369757 4.45949243 -0.02745953 0.00002778 -0.00000259
-0.00233502 1.11795197 0.00323431 -16.5308159 -38.62404836 -8.50342536 7.92855165 -0.06663341 -0.0951638 16.33258471 -0.19692359 -0.49276671 16.33273056 -0.25545481 -0.47455234 -0.57306127 7.64148044 0.30837637 -7.33202456 20.86888192 10.77161059 -38.59495455 -3.32129586 4.21975796 -32.12177384 -13.15030018 -64.90663157 0.00005408 -65.23482809 0.00004208 -121.95659636 -4.38420806 20.88492785 -22.52339376 -4.4327657 -0.22162881 -39.18240172 54.20098253 84.33832252 179.99990736 87.40308257 -179.99992802 -37.27261105 -14.0018682 -15.79136839 -19.61362317 43.38747126 26.1240252 22.4587515 0.72922425 -0.57560247 2.10488902 1.2509137 -2.98513922 -0.02440542 0.00000511 -0.00000405 4.33535353 4.99994367 -6.45148763 30.92071974 -0.19280823 1.09868136 -20.81277739 -17.83745312 4.44953624 -0.02128511 -0.00001269 0.00000994
-0.00172332 1.11771103 0.00324408 -16.27441449 -37.94961243 -8.04852107 7.9045678 -0.01092348 0.00224783 16.28920128 -0.08224896 -0.38500696 16.29409278 -0.15008303 -0.34062069 -0.97267362 7.46816263 -0.06257248 -7.81560655 19.18113795 10.19428174 -39.21316714 -2.2054986 3.19339638 -29.1267596 -15.12193214 -65.32957565 0.00002979 -68.17628838 0.00001901 -114.38714798 -6.64405182 21.47406932 -19.80915065 -3.97367376 2.3595863 -32.3650056 52.79474401 76.5870961 179.99992818 84.70989626 -179.99994709 -35.78282311 -12.33153477 -13.19703316 -19.51784444 43.20367002 25.60040523 22.41028556 0.78619059 -0.59462174 2.17536164 0.81412724 -2.77200652 -0.00343296 -0.00000626 0.00000145 4.33054728 4.83315461 -6.61810278 31.02899333 -0.18189924 1.18604369 -20.96656995 -18.37538007 4.37679623 -0.02888522 -0.00001056 0.00000354
-0.00088322 1.11722351 0.00277367 -15.96060901 -36.82378623 -7.47772219 7.87936258 0.03408796 0.16837232 16.24091286 0.02268371 -0.15069463 16.25083022 -0.06151024 -0.09645274 -1.21767419 7.31940557 -0.70667949 -8.28491698 17.26726006 9.19575072 -39.75945401 -1.24900113 2.13174278 -25.89392114 -15.43614534 -65.35606008 0.00007371 -70.72073692 0.00006748 -98.67272714 -8.35062349 22.613818 -17.09799941 -3.30646971 4.92538937 -25.14368323 50.66856888 68.13622142 -179.99994144 81.33851482 179.99994959 -35.01558734 -10.22523522 -11.13736876 -19.51546353 42.89267938 24.97974262 22.41577997 0.86726884 -0.58995199 2.2893442 0.03975837 -2.4404613 -0.00001767 -8.5e-7 -0.00000189 4.38517223 4.60729345 -6.73455076 31.1861999 -0.18105484 1.33072913 -21.20815888 -19.29553477 4.21758845 -0.06220637 0.0000039 0.00000306
-0.00004036 1.11670242 0.00246136 -15.68089077 -35.55444146 -6.89081919 7.85230664 0.05337525 0.40380893 16.19295891 0.06510133 0.2128886 16.20680537 -0.00888686 0.23579814 -1.39268796 7.2546172 -1.53431748 -8.18977429 15.58427142 7.98393137 -40.27540207 -0.27550267 0.97373034 -22.11890378 -14.81648699 -65.03609733 0.00003711 -73.11846356 0.00003864 -76.48881183 -12.00153093 22.76789487 -15.00456729 -2.70494489 7.10658004 -19.59952731 48.61815486 61.40515101 -179.99999794 78.35167119 179.99995957 -34.96615622 -8.01594639 -9.78947381 -19.43130783 42.52528121 24.25607847 22.41568619 0.99465537 -0.57167733 2.41145654 -0.83426496 -2.09071995 -0.0000546 0.00000201 -0.00000262 4.52285029 4.35231115 -6.84616003 31.32530183 -0.13885432 1.46789351 -21.48659549 -20.3780202 4.03027076 -0.09580904 0.0000053 -0.00000871
0.00057463 1.11657654 0.00334894 -15.49961325 -34.68889371 -6.40457578 7.79825785 0.08942549 0.66167041 16.10357329 0.11536989 0.61858558 16.16279778 0.01997987 0.58162313 -1.65723961 7.25913403 -2.30155815 -7.29493408 14.1162167 6.59740408 -40.65956602 0.13575009 0.63073779 -17.37345195 -13.62368313 -65.73135651 0.00007001 -75.37501558 0.00005365 -52.38941927 -19.23660647 23.39169626 -14.0073991 -2.63636948 9.02794259 -16.58381406 47.47560765 57.60851839 -179.99999547 76.51368662 179.99999041 -35.51970104 -6.45542178 -8.60229622 -19.09380205 42.29906721 23.53246872 22.30716462 1.10156581 -0.62508969 2.47617382 -1.39614902 -1.83723981 -0.00014471 5.2e-7 -0.00000201 4.72540105 4.11990189 -7.05036914 31.32285123 -0.05022004 1.50917879 -21.67396673 -21.14737283 3.95183926 -0.10525766 -0.0000322 -0.00000451
0.00084929 1.11694633 0.00618729 -15.39527395 -34.57238644 -6.05179702 7.71061439 0.18748178 0.900681 15.95788953 0.2706818 1.0089941 16.1174663 0.04763334 0.8954343 -2.09249684 7.32972997 -2.93578283 -5.6362649 12.73088969 5.02977865 -40.83658043 0.34281046 1.13677179 -13.30361207 -13.94154268 -68.63792198 0.000037 -74.50960847 0.00002812 -34.27276758 -26.9050871 25.95042199 -14.50975279 -3.48923743 10.45147827 -16.92976414 47.85524426 57.94498869 -179.9999613 76.63438654 179.99995691 -36.64906032 -6.03016041 -7.18134237 -18.50627192 42.33164686 22.92140379 22.12224296 1.10221053 -0.80319786 2.39053506 -1.36797447 -1.7467387 -0.02692229 8.2e-7 -0.00000128 4.91673175 3.95833211 -7.42025674 31.16327112 0.03479901 1.40927546 -21.70697072 -21.26802224 4.09600971 -0.09343009 0.00000682 0.00000456
0.0008875 1.1171698 0.01078566 -15.29707903 -34.98585931 -5.74701651 7.63503322 0.32667221 1.09679581 15.81942138 0.50358107 1.36082588 16.07045845 0.08174535 1.18157783 -2.6529605 7.43102344 -3.50395354 -3.65690431 11.27075711 3.36402323 -40.89836754 1.85189672 0.76962722 -12.35199775 -15.91521054 -71.52265689 0.00004809 -72.39503176 0.00003831 -29.63565559 -30.55746109 25.62773888 -16.01419287 -4.56925109 10.82770473 -19.04559078 48.88176692 60.61512636 179.99994536 77.73397653 -179.99995636 -38.44947821 -5.76988942 -6.1347104 -17.89285156 42.48646412 22.44100518 22.13298459 1.03031236 -1.05665819 2.06172163 -0.91031516 -1.78191524 -0.09804437 0.0000162 -0.00000611 4.99997003 3.85906866 -7.94116867 31.0593723 0.10853176 1.21453062 -21.72491148 -20.92485199 4.42080915 -0.08033299 0.00000906 0.00000675
0.00103554 1.11696594 0.01556535 -15.16536991 -35.28482571 -5.36388489 7.57447032 0.48678421 1.22840278 15.72439973 0.80546413 1.59017781 16.02283373 0.11883082 1.454546 -3.19916462 7.4565773 -3.9610261 -1.77253703 9.77860763 1.70157522 -40.86743338 3.80205842 -0.21755939 -12.35733804 -16.09184467 -71.79560999 0.00006003 -72.69546642 0.00005635 -35.85528178 -26.17724339 16.42371701 -17.71094242 -5.28294796 9.97688138 -20.64428336 49.74424083 62.98825188 -179.99996166 78.40777216 179.99994435 -40.75771734 -4.38860433 -6.30639088 -17.35504294 42.57470047 21.9338952 22.31124221 1.01776564 -1.31911088 1.65516087 -0.58013229 -1.77873588 -0.14791872 0.00000686 0.00000133 5.03514954 3.771803 -8.48605436 31.09828149 0.18785834 1.01877201 -21.84009884 -20.71656511 4.74370987 -0.07686255 0.00002198 -0.0000015
0.0013735 1.11651505 0.01899995 -15.03879959 -34.94915937 -4.87411782 7.54386443 0.60376845 1.30602293 15.69881157 1.04435337 1.6779104 15.97541408 0.15684693 1.71468361 -3.60642363 7.37955369 -4.21625263 -0.08473828 8.53828005 0.10973036 -40.86738139 4.73525173 -0.91918962 -13.58632263 -17.2735132 -70.30645469 0.00008192 -72.44860704 0.00007279 -42.94269622 -19.45198631 8.70611869 -19.53145616 -5.99379055 8.44885661 -22.15495251 51.09826281 65.74921105 -179.99997398 79.13497744 179.99994051 -42.67969922 -2.00164406 -7.67449724 -16.87205803 42.50019208 21.28863592 22.45712502 1.11228666 -1.5255505 1.40246697 -0.80288393 -1.62620592 -0.14855063 -0.0000018 -9.4e-7 5.20211108 3.64407176 -8.89039281 31.19886672 0.24865695 0.88275701 -22.06164453 -21.0959357 4.90861782 -0.06465512 -0.00000164 -0.00000162
0.00161881 1.11602844 0.02074575 -14.9884706 -34.01801773 -4.38506594 7.56805365 0.60555963 1.39004025 15.74809031 1.05919024 1.75740491 15.92768239 0.19434834 1.95802601 -3.83423528 7.37976374 -4.39762211 1.52567418 7.90990003 -1.40635453 -40.99365021 4.25144986 -0.86679804 -16.20429838 -17.38219922 -68.4634787 0.00007239 -71.66406504 0.0000554 -49.85432311 -10.51338226 3.35537058 -21.32159327 -6.86524575 7.10521533 -24.20369929 52.95099869 69.31208292 179.99997559 80.1879537 -179.99999487 -43.73979244 0.4427813 -9.43670677 -16.42533402 42.25037734 20.54739781 22.50048035 1.26813912 -1.5828736 1.35734149 -1.47576602 -1.40366087 -0.11151558 -0.00000587 -0.00000505 5.56970374 3.43921495 -9.08917942 31.26927176 0.28162879 0.8270056 -22.34166141 -21.96845704 4.88289827 -0.03845862 -0.0000032 0.00000504
0.00149438 1.11581123 0.02140113 -15.01995376 -33.01967399 -4.02282614 7.61503938 0.48840732 1.53461702 15.80820808 0.83964619 1.96389833 15.87892872 0.22393217 2.19034851 -3.92325415 7.63159513 -4.70022959 3.16316398 8.1320205 -2.96257296 -41.17538957 3.09234096 -0.18457696 -19.90809162 -15.42917745 -67.00435955 -0.00000608 -70.30626579 7.3e-7 -55.75320675 0.74167487 -0.31807428 -22.97411846 -7.7101104 6.39977455 -26.74284631 54.78951041 73.21197403 179.99996279 81.47927915 -179.99997298 -44.27101047 2.11085752 -10.80351734 -15.97896762 41.93315647 19.83372646 22.39925592 1.44663143 -1.48954481 1.45527833 -2.16266171 -1.26062284 -0.05962626 0.00001046 -0.00000529 6.01405747 3.15987163 -9.17352333 31.23000777 0.33189136 0.85122128 -22.57529532 -22.81645785 4.74167753 -0.0366407 0.00001545 0.00000287
0.00096957 1.11589745 0.02191186 -15.07224026 -32.49577187 -3.8238544 7.64340882 0.32954928 1.71242744 15.81794768 0.53894992 2.25989459 15.83139277 0.24198556 2.4164278 -3.97815929 8.07031923 -5.08426128 4.85609789 9.20106954 -4.54625422 -41.2782234 2.26619699 0.72313282 -24.08606746 -12.22908717 -65.9235498 0.00005023 -68.08625781 0.00003456 -59.5695394 12.83848398 -3.52927943 -24.49129205 -8.42347851 6.17498164 -29.31094117 56.29441711 76.92395386 -179.9997836 82.76982411 179.99976013 -44.74337098 2.89714365 -11.431001 -15.55919213 41.70621848 19.30091603 22.22025912 1.60619263 -1.36052667 1.55556954 -2.48594047 -1.26974279 -0.00412467 0.00001097 -0.00000205 6.32360518 2.87686833 -9.2900518 31.12629838 0.44577629 0.91201271 -22.70630954 -23.19349891 4.6095697 -0.07430175 -0.00000381 -0.00000425
0.00017255 1.11613022 0.02279624 -15.11093645 -32.55742912 -3.73392795 7.64485457 0.2426439 1.84648117 15.78157395 0.37455508 2.49422694 15.79010065 0.27279181 2.60775411 -4.08404704 8.48944751 -5.37079168 6.60947805 10.87151599 -6.13824214 -41.36328444 1.66671321 1.59748501 -27.50203748 -8.5932697 -64.84048139 0.00004117 -65.58687162 0.00003471 -61.1208973 24.01563731 -7.41437754 -25.96079595 -9.08907632 5.9288159 -31.48679742 57.42136691 80.10153295 -179.9999947 83.79008133 179.99997919 -45.43907876 3.26404527 -11.54784849 -15.165587 41.64697973 18.96888484 22.03546069 1.7032009 -1.29608075 1.5822353 -2.38133231 -1.39542684 -0.00007611 -0.00000401 -0.00000234 6.43164613 2.68853313 -9.48317967 31.04769702 0.57972403 0.92939874 -22.74986641 -23.07757148 4.57813443 -0.11112682 -0.00001815 -0.00000354
-0.00072489 1.11638672 0.02384133 -15.16028018 -32.85100117 -3.66143906 7.63481813 0.28058063 1.89928107 15.74637187 0.44273901 2.57992872 15.75466924 0.36311696 2.69496695 -4.23932746 8.76103961 -5.47371432 8.4012365 12.78385823 -7.70660852 -41.4405366 1.2551165 2.21521858 -29.42464346 -5.42520527 -63.97539569 0.00002948 -63.26463876 0.00002438 -60.77675782 32.70723999 -12.93808651 -27.44269172 -9.84512592 5.3493394 -33.33917573 58.21083776 82.82832501 -179.99984766 84.45257735 179.99984368 -46.29950158 3.55580183 -11.6025208 -14.72451533 41.68091186 18.68242639 21.82802622 1.76981218 -1.2952265 1.58794262 -2.1208127 -1.54326813 -0.00004677 0.00000979 -0.00000211 6.4718398 2.61560802 -9.68510698 31.01589919 0.66116056 0.86245767 -22.76283074 -22.82286756 4.63100939 -0.10788569 -0.00001927 0.00000249
-0.00217133 1.11637665 0.02464014 -15.31771064 -33.00158058 -3.58239219 7.60812691 0.38684375 1.86060593 15.71337865 0.63616212 2.4957062 15.71375061 0.52939614 2.61895187 -4.38827388 8.92330124 -5.44465389 10.1710505 14.64749224 -9.1989161 -41.43301061 0.97985285 2.44265452 -30.01234961 -3.2839997 -63.16475059 0.00003457 -61.23285734 0.0000271 -60.73579784 38.388017 -17.55409682 -28.92654409 -10.7410325 4.47388159 -35.018756 58.66630289 85.26883856 179.99995831 84.99676013 -179.99998212 -47.28391111 3.91934376 -11.65567229 -14.1876438 41.64794683 18.36688556 21.66131985 1.95323979 -1.29983518 1.60687665 -2.05776775 -1.69285348 -0.00004251 0.00000147 6.7e-7 6.6265886 2.58365696 -9.81734303 31.08407585 0.77488 0.74909205 -22.88799307 -22.81425506 4.61581658 -0.07314315 0.00001364 4.1e-7
-0.00453504 1.11603592 0.02533156 -15.58630428 -33.15636519 -3.52588618 7.55258025 0.49817345 1.7323263 15.648185 0.83391319 2.2521331 15.65676417 0.73688204 2.38552758 -4.46430143 9.09626544 -5.38888502 11.84708711 16.34605801 -10.55322944 -41.39494583 0.64860384 2.54263598 -28.56946305 -1.06640101 -62.51855922 0.00004982 -60.45737103 0.00003111 -62.4550504 41.45566777 -19.10848457 -30.34911706 -11.71446717 3.56044907 -36.66297322 59.05914187 87.52605758 -179.99982006 85.62884075 179.99980561 -48.47177157 4.36847741 -11.55306519 -13.5527034 41.51140734 18.05365407 21.58115579 2.5076314 -1.28232115 1.6011746 -2.28029241 -1.92780589 0.00000148 -0.00000921 0.00000294 6.84050118 2.5546844 -9.942454 31.28335631 1.21229664 0.65457428 -23.1944619 -23.09343342 4.39203128 -0.04871203 -0.00001637 -0.00000434
-0.00730137 1.11555153 0.02596508 -15.89248273 -33.33632282 -3.46615547 7.4859965 0.61252225 1.55858875 15.57334887 1.0338583 1.92529388 15.5853131 0.94696825 2.04863107 -4.395377 9.33042668 -5.36896246 13.36861187 17.89066081 -11.70463938 -41.32221575 0.34206636 2.66635413 -24.35858241 2.01510486 -62.0056485 0.00003399 -61.0096882 0.00001448 -68.51712935 42.64462318 -15.54883572 -31.59792129 -12.79116349 2.97764858 -38.1755964 59.27608075 89.64774536 -179.99989391 86.24892143 179.99988636 -49.49427077 4.45710417 -11.03089454 -12.89250805 41.41121064 17.76430332 21.51744774 3.121621 -1.27366711 1.59356778 -2.5863799 -2.18042696 -0.00006358 -1.5e-7 0.00000385 7.05329792 2.49937959 -10.11812707 31.54952122 1.74137707 0.61136523 -23.57603597 -23.37758993 4.08909828 -0.05916084 -0.00000542 -0.00000578
-0.01037946 1.1149556 0.02655617 -16.23138769 -33.52981878 -3.40811089 7.41088121 0.72912449 1.35094361 15.49154988 1.23547557 1.53702808 15.50686771 1.15019064 1.65519079 -4.15089023 9.55834187 -5.35337102 14.66814137 19.29359047 -12.58012648 -41.19722205 0.13410966 2.65814792 -18.33438794 5.5467441 -61.40233962 0.00000795 -61.01555583 -0.00000138 -78.20971893 42.21732285 -7.85539024 -32.59735921 -14.06700028 2.88732178 -39.56319277 59.26156353 91.7625533 179.99998451 86.87601806 179.99999805 -50.19178681 3.99911865 -10.06206 -12.26193463 41.46874 17.57662076 21.45883441 3.45144367 -1.32094553 1.58732323 -2.77558065 -2.39624714 -0.00002616 -0.00000299 -9.8e-7 7.26747955 2.38851641 -10.3546218 31.86164282 2.08853977 0.61891675 -23.96494291 -23.39613204 3.84388028 -0.08184971 -0.00000888 0.00000362
-0.01368022 1.11427963 0.02712063 -16.59812913 -33.72512832 -3.35660498 7.32960556 0.84704739 1.12102223 15.40515443 1.43818548 1.10919873 15.42604012 1.35313574 1.22744466 -3.82838786 9.69813721 -5.26323631 15.65215678 20.48551279 -13.09417741 -40.9984888 0.16186339 2.20162757 -12.50224331 8.48000289 -60.6357666 0.00002394 -58.78005417 0.00000995 -87.04794798 40.10172442 0.29495367 -33.42832462 -15.4832275 2.94519819 -40.95161092 58.9934271 94.03271361 179.9999527 87.54591458 -179.9999697 -50.67033503 3.27134671 -8.92509711 -11.65691042 41.65971403 17.4846428 21.40027953 3.47658698 -1.4343283 1.58396548 -2.81379677 -2.56711028 -0.00007308 0.00000937 -0.0000037 7.48916412 2.21637256 -10.63331709 32.19841468 2.23146796 0.65254993 -24.3377911 -23.14803063 3.68494951 -0.09030012 -0.00000154 0.00000267
-0.01711537 1.11355522 0.02767382 -16.98772651 -33.91045069 -3.31626871 7.24448574 0.96548467 0.88041954 15.31613603 1.64142287 0.66366271 15.3441447 1.55912456 0.779485 -3.58011689 9.76193178 -5.05854972 16.23623721 21.30551329 -13.16239771 -40.69070826 0.73438092 1.16413184 -8.36197914 10.14657541 -59.64181613 0.00001895 -54.12009887 0.00001509 -91.35142159 37.35910492 5.92049927 -34.28652475 -16.74413803 2.58038114 -42.31307197 58.431925 96.37245236 179.99957255 88.24596729 -179.99958839 -51.09622585 2.79657454 -7.99438223 -11.04850771 41.88531171 17.43359621 21.34087995 3.30766315 -1.58861871 1.58285515 -2.7152907 -2.71649789 -0.00005805 -0.00000234 -0.00000429 7.73627918 2.04677172 -10.88683309 32.54201883 2.22879257 0.64827554 -24.69161337 -22.79975809 3.60036959 -0.09257482 0.00000176 0.00000151
-0.02059626 1.11281258 0.02823139 -17.39516773 -34.07393169 -3.29155342 7.15770459 1.08365192 0.64073487 15.22611473 1.8446018 0.22227612 15.2619443 1.76606129 0.33164867 -3.44219623 9.83232796 -4.79824629 16.43086825 21.55019185 -12.79942918 -40.21071046 1.83933796 0.06689837 -4.43273705 8.07459749 -57.83523819 0.00002982 -48.66330624 0.00002625 -92.7541955 33.61999769 7.7842321 -35.29336783 -17.45667163 1.56012141 -43.26354106 57.44339739 98.37569303 -179.99965151 88.87336292 179.99963864 -51.28652941 2.77207707 -7.19480445 -10.43741056 42.11216374 17.3885589 21.27813312 2.95231217 -1.73552278 1.58270638 -2.45551233 -2.86665021 -0.00005063 -0.00000372 -0.00000275 8.0362498 1.98863213 -11.03906084 32.87592941 2.03145352 0.55085626 -25.01093869 -22.46411734 3.61391812 -0.09805705 -0.00003406 -0.00000216
-0.02403854 1.11211136 0.02881404 -17.81524528 -34.20358197 -3.28645198 7.07131217 1.20049211 0.4134173 15.13631156 2.04717866 -0.19309074 15.17943093 1.97269369 -0.07595435 -3.41045764 9.92828927 -4.62504616 16.33161712 21.12157771 -12.0309871 -39.67111183 2.78920869 -0.84323585 3.70613002 3.28886891 -56.00837849 0.0000252 -50.19266639 0.00001075 -90.57415423 27.50883622 8.5872925 -36.7255968 -17.50123519 -0.41217001 -43.54739376 55.72748722 100.31282998 179.99998265 89.42475692 -179.99999395 -50.87019116 3.03512589 -5.89184024 -9.82272899 42.31432026 17.32785059 21.20049362 2.87526203 -1.83410272 1.60373721 -2.48724966 -3.03007447 -0.00106132 0.00000316 -0.00000272 8.38291251 1.84152813 -11.14787236 33.11823474 2.02024359 0.4001511 -25.31796325 -22.28447403 3.56425029 -0.49705135 0.00004061 0.00000227
-0.0273529 1.11143646 0.02943622 -18.24265036 -34.28703285 -3.30619566 6.98729989 1.31502352 0.21141732 15.0475599 2.24861165 -0.5605463 15.09640846 2.17646549 -0.43864566 -3.60367452 9.96569173 -4.48601191 16.05539081 20.18918871 -10.86676834 -39.15121755 3.660738 -1.65789532 13.00382478 -3.30167361 -52.64119553 0.00000648 -54.24453635 -7.6e-7 -88.21764678 21.65782242 12.0001216 -37.90504668 -17.46282432 -2.18194617 -43.63449692 54.01387285 101.85071703 179.998088 89.9517082 -179.99811384 -50.18987367 3.11216538 -3.87071171 -9.15731874 42.30751581 17.24336062 21.17630378 3.57271715 -1.97728263 1.60731598 -3.13502076 -3.18987197 -0.0416069 -0.00000363 -0.00000404 8.71607879 1.49691883 -11.2570189 33.34211011 2.73624588 0.23399896 -25.74178559 -22.6136054 3.19138712 -1.20069435 0.00001014 0.00000264
-0.03044524 1.11080833 0.03009906 -18.67186926 -34.31273499 -3.35334208 6.90751935 1.42668328 0.04519201 14.96034753 2.44837193 -0.85819154 15.01608895 2.37652018 -0.75544975 -3.94137574 9.89827565 -4.14067289 15.71004442 19.13003588 -9.39635796 -38.66536394 4.41775291 -2.28904648 22.93631552 -9.64780495 -47.65332657 0.00001936 -60.93553993 0.00001564 -85.76136512 18.41544521 17.2303869 -38.46806246 -17.80058478 -3.22090992 -44.21532842 53.0994854 102.79594178 -0.00052475 89.45267378 0.00052129 -50.12713141 3.14456682 -1.99318893 -8.42545889 42.03207543 17.10241681 21.16767833 3.88905054 -2.17903006 1.58675116 -3.1877694 -3.36050301 -0.05828564 0.00000596 0.00000134 9.04125157 0.97010751 -11.28874726 33.58266652 3.11019919 -0.15447973 -26.05272552 -22.59864778 3.11735201 -1.77402446 0.00000368 0.0000049
-0.03323078 1.11029915 0.03082881 -19.09717903 -34.26860622 -3.43074816 6.83383091 1.53457407 -0.07412217 14.87484008 2.64602639 -1.06411327 14.94094459 2.57453054 -0.99811299 -3.97494833 9.79967573 -3.80669711 15.36948529 18.20724628 -7.85087387 -38.23047114 5.02662116 -2.64654871 32.13912769 -13.8509816 -42.2307445 0.00002961 -68.82404208 0.00001544 -82.37361254 19.05006728 20.26560359 -38.59243287 -18.13149389 -3.59050442 -44.92194844 53.16042421 102.55030061 -0.00151088 88.94170669 0.00148355 -51.09087682 3.58948151 -1.48688399 -7.77483694 41.81049102 16.93914563 21.13045914 3.1077028 -2.26214145 1.55150701 -2.23187807 -3.53827641 -0.0544755 -0.00000286 0.00000216 9.42525303 0.42284148 -11.31786924 33.70616001 2.4287188 -0.52127967 -26.11009659 -21.67107676 3.576145 -1.90253051 0.00000375 0.00000187
-0.03562209 1.10993523 0.03165076 -19.51245855 -34.14192659 -3.54278582 6.76784274 1.63740662 -0.13349139 14.79090809 2.84107733 -1.15636596 14.86814782 2.77533615 -1.09578487 -3.62841827 9.71148324 -3.78314797 15.03349985 17.35304752 -6.46833289 -37.86520215 5.45495643 -2.63894314 39.42392957 -15.29875626 -38.08156273 0.00001185 -77.80146666 3.7e-7 -77.34192789 22.8305298 18.2540251 -38.5621862 -18.22712148 -3.55304642 -45.13447536 53.19662517 101.76092345 -0.00063161 88.55707595 0.00061126 -52.00812288 4.01886837 -2.00596323 -7.33455225 41.91577231 16.8986756 21.08739725 2.11595549 -2.16305996 1.52686064 -1.46667375 -3.6998088 -0.01069591 0.00000515 -0.00000166 9.91456827 0.05148084 -11.40902214 33.68193623 1.62685747 -0.55709297 -26.14275996 -20.75445029 3.94086356 -1.68756053 0.00000235 -0.00000175
-0.03753687 1.10973854 0.03257212 -19.91144607 -33.9206675 -3.69196936 6.7112323 1.73435745 -0.12159905 14.70820353 3.03310745 -1.11300817 14.77784575 2.97574549 -0.93059324 -3.16551938 9.59754012 -3.99347376 14.64849747 16.33158146 -5.34559557 -37.59170139 5.68492051 -2.20350463 45.18173839 -14.16725045 -35.60472115 0.00027151 -88.19801389 0.00026278 -68.62844781 29.83689187 8.24189093 -38.53781863 -18.14714658 -3.50502116 -45.10267036 52.96668149 101.08642133 -0.00011393 88.16651879 0.00009155 -52.55969234 4.37474025 -2.88743628 -7.01832786 42.10344921 16.97506856 21.09424095 1.75471533 -2.03579995 1.49130761 -1.51655718 -3.81045161 -0.00008076 0.00000621 -0.00000421 10.49411092 -0.20807842 -11.47531075 33.54109921 1.32308275 -0.4121404 -26.23480308 -20.41186009 3.97284963 -1.48846287 0.00000235 -0.00000441
-0.03821585 1.10997421 0.03376914 -20.28852654 -33.41118046 -3.960551 6.67559407 1.81471283 0.085317 14.61962368 3.21679695 -0.69433276 14.66498845 3.15452345 -0.54051733 -2.68898013 9.47361293 -4.36462465 14.18100267 15.0480901 -4.47835666 -37.38720744 5.30417105 -0.45514442 49.7646041 -12.19119926 -36.29096714 179.99989976 -80.67819627 179.99989104 -48.33343336 27.45372551 -14.28731543 -38.52284444 -17.88478356 -3.45646295 -44.51059554 52.33789067 100.38231957 -0.00007233 87.87418787 0.00006553 -52.46753311 4.33426284 -3.6296514 -6.93185021 42.2134537 17.3171278 21.20004198 1.87496324 -2.00710175 1.41995886 -2.28772109 -3.75081961 -0.11657563 0.00000788 -0.00000413 11.3135083 -0.39230913 -11.29937138 33.06949345 1.23517346 -0.22687872 -26.21083613 -20.62208373 3.86301489 -1.31419264 0.00000278 1e-8
-0.03807367 1.1104702 0.03505056 -20.62703442 -32.44834075 -4.04367968 6.64122638 1.87483801 0.4185761 14.48968222 3.36078811 -0.05868999 14.53923131 3.28360232 -0.001744 -2.28252144 9.37011629 -4.84310702 13.61729492 13.60685816 -3.83354926 -37.35953646 4.6016144 1.74839032 54.3232523 -11.1853742 -36.78898446 179.99994153 -70.87342696 179.9999303 -29.04428953 22.17493158 -25.59966401 -38.51446192 -17.49114712 -3.40989661 -42.96013907 51.37481554 99.45741982 -0.00061668 87.83105179 0.00061487 -51.57567315 3.94966641 -4.16889926 -6.71389798 42.22297478 17.42537702 21.16727975 1.87392463 -2.0478012 1.44416763 -3.24051728 -3.5034683 -0.19133095 -0.00000668 -2.8e-7 12.35222754 -0.60438503 -11.03350091 32.42517789 0.96070566 -0.11909093 -26.11978052 -21.19083115 3.81905236 -1.1606219 0.00002164 0.00000861
-0.03740105 1.11052498 0.03617222 -20.90834599 -31.53146285 -3.80588711 6.60577137 1.91129006 0.69215009 14.37143586 3.44241754 0.4302643 14.42678678 3.3451873 0.50763158 -2.10461311 9.29400647 -5.33001686 12.83533107 12.16376594 -3.15855107 -37.3874289 3.48030432 3.33579157 58.04025569 -9.33390995 -36.66782944 179.99996915 -62.93000376 179.99994654 -15.6056265 20.6452042 -28.29217956 -38.48755945 -17.22963872 -3.33285676 -41.78571629 50.90692889 98.62933669 -0.00015257 87.7434829 0.00012957 -51.02215321 3.9190403 -4.76259079 -6.17187631 42.11263641 16.9437473 21.06388946 1.58015947 -2.04059814 1.49179413 -3.65338392 -3.26619177 -0.0000326 0.0000031 -8e-8 13.13377234 -0.82972039 -11.0409983 32.14329487 0.76744816 -0.12603819 -26.16897822 -21.84829004 3.83320174 -1.02543227 0.00001494 -2.9e-7
-0.0358678 1.10994072 0.03723665 -21.084584 -30.9546379 -3.39412533 6.58953736 1.88534446 0.88175724 14.31033505 3.388083 0.7375662 14.34258674 3.3429349 0.85705893 -2.26473748 9.1982524 -5.65742193 11.57176714 10.84114668 -2.32649145 -37.40898099 2.2504379 3.84942452 58.8584422 -6.03905527 -36.09496206 179.99997152 -58.95664565 179.99996184 -10.56667945 18.55494374 -29.23737353 -38.40128939 -17.39644701 -3.14485883 -41.43255984 50.67390483 98.71441226 -0.00033879 87.5401081 0.00033666 -50.5956758 3.90589376 -4.78695237 -5.59068231 41.90582367 16.12554187 21.12083363 0.9448039 -1.97046668 1.41612534 -3.26054754 -3.10424467 -0.00008353 -0.00000975 0.00002184 13.42174074 -1.08678562 -11.3767835 32.33095253 0.84710113 -0.20836135 -26.36058688 -22.37806861 3.89532713 -0.91944371 0.0000074 0.00000118
-0.0336979 1.10929985 0.03830691 -21.13494784 -30.83966212 -2.99509069 6.56778887 1.84392839 1.01861887 14.26692143 3.3062721 0.90816949 14.26636424 3.2898755 1.0586104 -2.62543131 9.03680958 -5.7773365 9.57512095 9.70568609 -1.55426668 -37.43080618 1.43774518 3.66127238 58.73681383 -3.13251291 -36.13428719 179.99998166 -57.2320025 179.99995627 -10.22510005 14.9242607 -29.4537508 -38.27780664 -17.88030802 -2.8959383 -41.703802 50.94626985 99.17710637 -0.00015678 87.28130835 0.00014946 -50.68979409 4.19353064 -4.38148022 -5.0754563 41.74076564 15.29285733 21.2099654 0.36615005 -1.96258666 1.27511589 -2.51376829 -2.98303787 -0.00021587 -0.00001104 0.00013806 13.29163957 -1.31938136 -11.92341602 32.71097265 1.11130608 -0.31158967 -26.52943624 -22.58451682 4.02450908 -0.84434658 -0.00002499 0.00000328
-0.03130041 1.10900536 0.03960045 -21.13417398 -31.1201722 -2.75295334 6.52244364 1.83293364 1.15298309 14.19301372 3.28871502 1.0549805 14.15202713 3.18894318 1.23015382 -2.91138061 8.83770855 -5.84852896 6.82325467 8.71289547 -0.95739508 -37.42220175 1.74123253 3.1967362 57.26069689 -2.57723283 -37.73312655 179.9999867 -56.91072392 179.99997081 -10.12164446 14.24262808 -31.25564645 -38.19186366 -18.23699745 -2.74075632 -41.97551954 51.09217491 99.84919152 -0.00025077 86.99184507 0.00022721 -50.81885466 4.50038514 -3.54987614 -4.61125051 41.67046083 14.65875857 21.24740667 0.21234896 -2.08390902 1.11054687 -1.92346167 -2.88106752 -0.0003019 -0.00001876 0.00021446 12.9908354 -1.50053624 -12.52927603 33.01280503 1.37446299 -0.40572803 -26.55736598 -22.38234009 4.25469584 -0.78023631 1.4e-7 2.9e-7
-0.02896237 1.1091951 0.04111535 -21.18892239 -31.55928252 -2.70200519 6.46967214 1.85278036 1.30726934 14.100674 3.32773934 1.25318319 13.96353372 3.03110703 1.48513372 -3.03554133 8.65042596 -5.98739327 3.53274098 7.74842146 -0.62808316 -37.3744803 2.67697754 2.45824823 55.80089322 -1.94896688 -40.59228279 179.99997175 -57.18676461 179.99994481 -10.95713687 16.04271268 -34.54921663 -38.13558426 -18.34173655 -2.63568355 -42.08095825 51.52995157 100.05598285 0.00008634 86.65627664 -0.00011259 -51.35958893 5.16916835 -2.77014316 -4.10791977 41.63756699 14.18484275 21.18277834 0.38198643 -2.23917946 0.9662731 -1.54502137 -2.81630485 -0.00018433 -0.00001011 0.00016975 12.7891185 -1.66133161 -13.06580955 33.0832936 1.53513225 -0.48572663 -26.42573754 -21.91753572 4.56055699 -0.7064575 -0.00001224 0.00000131
-0.02680439 1.10976189 0.04261684 -21.27802805 -31.931001 -2.78504992 6.44114682 1.8744123 1.45853399 14.04099087 3.36400865 1.4902905 13.70067438 2.80794808 1.85787062 -3.17276012 8.46210282 -6.08422869 -0.02569494 6.85084949 -0.45525187 -37.29930538 3.29642414 1.3701827 53.88667307 -0.10097678 -44.28522192 179.99999818 -57.59247919 179.99996494 -12.46537644 20.11403926 -36.79537731 -38.00068442 -18.57701502 -2.32532357 -42.26728143 52.09737759 100.20659735 -0.00020204 86.31898929 0.00020729 -52.27837207 5.86259994 -1.73432117 -3.6548002 41.57920748 13.82941018 21.0569175 0.62797044 -2.31636973 0.86024408 -1.27946929 -2.79423092 -0.00020762 3e-8 0.0001223 12.76218561 -1.78827467 -13.41849514 32.91936563 1.62271244 -0.55557122 -26.1922862 -21.48942122 4.85006992 -0.62066086 0.00001965 0.00000558
-0.02485396 1.11053604 0.04398634 -21.2291382 -32.23267489 -2.92532082 6.4278983 1.86878382 1.59332142 14.00307723 3.34674004 1.73658224 13.3894973 2.51581238 2.31103422 -3.50348895 8.26391626 -6.02206095 -3.59601942 6.30209876 -0.30319238 -37.2188126 3.53846955 0.15609533 51.96065417 2.04041355 -48.77932082 179.99998119 -58.71849455 179.99996016 -15.57160518 25.17266639 -34.21420796 -37.73898856 -19.16646689 -1.71685363 -43.26133168 53.10475437 100.73127008 -0.00015888 86.04161512 0.0001503 -54.22860864 6.5782097 -0.3266234 -3.50801224 41.479884 13.67427596 20.97569367 0.95251123 -2.31686755 0.76109035 -1.13887055 -2.80736793 -0.00016653 -0.00000336 0.00009562 12.73099553 -1.81182694 -13.53997923 32.60394 1.77919053 -0.60972036 -25.918939 -21.29422822 5.02618342 -0.53418367 0.00001468 -0.00000794
-0.02113397 1.11321915 0.04604304 -20.93137055 -32.63701581 -3.06436066 6.16233567 1.56766156 1.9407053 13.47924752 2.7266465 2.43138647 13.05334879 2.15372218 2.78216377 -4.74193596 8.41257315 -6.09679631 -6.86817531 6.2860214 -0.02099717 -37.14940045 2.8329212 -0.36919457 32.91808471 -0.61332091 -55.34197436 179.99992931 -77.41354111 179.99990873 -20.1822339 33.70350604 -35.49835091 -37.20929796 -19.65249927 -0.56124899 -45.43019334 55.77796668 102.19723013 0.000078 86.02468624 -0.00009776 -57.0615931 6.90662271 0.66362528 -3.12338567 41.61297835 13.23394636 20.1599065 1.23828088 -2.33939228 0.94065375 -0.96198841 -2.69411825 -0.0001689 -0.00000252 0.00003808 12.86409637 -1.45345381 -13.56865572 31.52107897 1.44822865 -0.61661572 -25.10746756 -20.98288102 5.45938451 -0.22200914 -0.00001162 -0.00000253
-0.01782454 1.11528923 0.04863835 -20.48827317 -33.23675495 -3.18960775 5.87588859 1.25011163 2.26555028 12.90629801 2.05539906 3.04354883 12.69895042 1.73871347 3.20853532 -5.78665884 8.6388501 -6.18493191 -9.48271557 6.4913856 0.6157651 -37.02054742 2.24644667 -0.52917511 23.25391506 -1.26526572 -61.75748163 -179.99991285 -85.78406147 -179.99992311 -37.82113001 37.10801085 -24.12047862 -36.85158366 -19.65190644 0.21756277 -47.31353095 57.79953198 103.97010149 -0.00009832 86.19705963 0.00006359 -58.99091515 6.36912291 1.50652203 -3.09342402 41.74915304 13.0684341 19.69994359 1.64892734 -2.453097 0.91906319 -0.80149907 -2.60597979 -0.00004973 0.00001104 0.00001016 12.71674707 -1.09291171 -13.63490074 30.65410388 1.32974289 -0.62927975 -24.43375391 -20.63233092 5.8321907 -0.01263151 -0.0000054 8e-8
-0.01507983 1.11691651 0.0515371 -20.07273542 -33.92031497 -3.31286437 5.6273378 0.95419606 2.49089909 12.4042963 1.42410959 3.47048343 12.32701507 1.32701491 3.52896416 -6.65858881 8.81034199 -6.24296974 -11.25445038 6.29575242 1.74564575 -36.85927717 1.5157582 -0.57424662 11.1036397 0.70351295 -64.511633 0.00040959 -86.8333179 0.00040265 -67.54789074 29.8691073 -2.53349681 -36.61853419 -19.51737366 0.69622265 -48.96961127 59.58153165 105.56314579 -0.00013607 86.49795053 0.00012565 -59.11834183 5.22605511 1.23455305 -3.12268974 41.90986312 13.02102051 19.41610037 2.04588119 -2.625038 0.79738799 -0.61386909 -2.54304251 -0.00003183 0.00000173 0.00000495 12.51685317 -0.75423581 -13.71336759 29.94011095 1.31120285 -0.70579664 -23.87010008 -20.28560603 6.18975468 0.12048526 -0.00001663 0.00000323
-0.01307186 1.11860443 0.0542128 -19.75642287 -34.42121315 -3.437614 5.41636333 0.67719762 2.60674204 11.98918073 0.84303661 3.71215426 11.94610146 0.98896543 3.70603866 -7.49023697 8.83104907 -6.23784754 -12.36182573 5.35111062 3.32421768 -36.58947513 -0.21744874 0.64344129 -2.30400634 5.10825962 -64.50497513 0.00010723 -83.57875295 0.00009307 -86.23180946 14.74385653 20.03492513 -36.43057993 -19.51364178 1.03071208 -50.53588256 61.47987264 106.8542723 -0.00021751 86.80297036 0.00021613 -59.04303226 5.01597781 0.34282471 -3.02950028 42.12257457 12.9737837 19.00396141 2.25811892 -2.77341353 0.77233323 -0.47141129 -2.48442338 -0.00003942 0.00000354 2.4e-7 12.5346767 -0.46832826 -13.70927958 29.14824877 1.14816933 -0.77792344 -23.31976699 -19.97080832 6.52823507 0.27973831 0.00001332 0.00000389
-0.01269182 1.11964035 0.05553615 -19.52025256 -34.53983348 -3.53351793 5.28117156 0.4958622 2.64910244 11.7341385 0.46872355 3.79808469 11.56982579 0.74779344 3.76487544 -7.92851563 8.63785658 -6.24270503 -12.48412788 3.56378012 4.78515762 -36.6568718 -0.079052 0.04129487 -14.82966355 7.24051623 -63.61823321 0.00014783 -80.57984604 0.00012995 -90.26883476 8.74806525 31.81449682 -36.32590921 -19.57226716 1.20669251 -51.37426241 62.59435621 107.54652651 -0.00008959 86.87911054 0.00008048 -58.65953972 5.03276636 -0.33456014 -3.17453083 42.25516129 13.14984229 18.7900039 2.43851459 -2.82372603 0.79391126 -0.65560476 -2.47124483 -0.00001894 0.00000565 -0.00000319 12.6425937 -0.32644892 -13.55971561 28.57118895 0.97133399 -0.72907702 -23.00800184 -19.84118812 6.62844733 0.51447934 -0.00000985 -0.00000171
-0.01369091 1.1200312 0.05535691 -19.32415631 -34.38163137 -3.57155153 5.16437126 0.41591345 2.6712134 11.53678011 0.30069818 3.82231156 11.20404533 0.5772074 3.77488692 -7.93615208 8.35067697 -6.28270386 -11.63300419 1.57438682 5.96999962 -36.62085725 -0.42908431 0.76884525 -22.10275259 4.44061857 -61.78659784 0.00011034 -78.55100539 0.00010027 -94.79394226 4.73903045 30.98946449 -36.31147082 -19.60934766 1.22367943 -51.26948473 62.85001559 107.59343933 0.00010176 86.6673907 -0.0001233 -57.55013378 5.31370402 -0.71214573 -3.53965314 42.2868597 13.46659329 18.74603292 2.56927563 -2.77990035 0.86965154 -1.01199617 -2.50399713 -0.00009097 6.6e-7 -5.5e-7 12.72098915 -0.25345223 -13.28648169 28.28141787 1.01915564 -0.6115788 -22.95980346 -20.09801822 6.42623329 0.62265329 0.00000586 0.00000306
-0.01549882 1.12014137 0.05478743 -19.18471446 -34.19965561 -3.5495464 4.98994083 0.34527011 2.67902171 11.20439274 0.10650466 3.87247808 10.84085721 0.45900934 3.77852947 -7.71951187 8.06890033 -6.38987081 -10.09455614 -0.5699612 7.32479784 -36.98444262 1.91419073 -1.31203507 -26.13788616 -3.77022812 -57.0762149 0.00008021 -75.99182384 0.00007072 -95.89898412 6.72171866 17.57608859 -36.30437406 -19.64017547 1.22406097 -51.3980982 63.13296455 108.00714042 -0.00019804 86.02220858 0.00016386 -55.85832123 6.48655689 -1.13069744 -3.81204844 42.32436217 13.69637307 18.6780419 2.54341935 -2.68422245 0.98521913 -1.24144188 -2.5915414 -0.00001746 0.00000337 -6.9e-7 12.80357133 -0.10762305 -12.99348792 28.17312724 1.69696567 -0.51899783 -23.14248097 -21.0530302 5.87763379 0.12363407 -0.00000917 0.00000414
-0.01792053 1.11981529 0.0537421 -19.21159381 -34.01297203 -3.47734247 4.7424586 0.38890185 2.63056166 10.73353967 0.11727662 3.85745027 10.4654277 0.42234924 3.76452583 -7.17522687 7.79926641 -6.55495909 -7.93702691 -2.7452597 8.6835444 -37.19094248 3.34379063 -1.90110794 -25.97962639 -12.22223023 -51.34222597 0.00003329 -73.6308893 0.00003317 -94.44794921 10.80856425 4.23934181 -36.29953325 -19.67074932 1.21873439 -51.16911631 63.37896813 108.0542137 -0.00010958 84.98997016 0.0001014 -53.14990847 10.18083707 -1.93811952 -3.82487198 42.27326071 13.73851053 18.61173541 2.5715425 -2.56731526 1.12650532 -1.4329738 -2.73157782 -0.00008568 0.00000354 4.4e-7 12.89558322 0.01239764 -12.7590864 28.35045479 3.17776572 -0.49148485 -23.63435717 -22.74701018 4.94045593 -1.17762463 -0.00002074 -2e-7
-0.02055589 1.11917114 0.05194966 -19.50691926 -33.56582746 -3.38144178 4.43923639 0.59211969 2.54457437 10.20435465 0.46575773 3.73635006 10.07758921 0.53371637 3.70271874 -6.41652216 7.53067432 -6.64495531 -5.53620873 -4.70613919 9.90422874 -37.33507126 3.31487073 -0.57336268 -21.41053967 -19.44438145 -46.3030178 0.00004997 -71.13033052 0.00003344 -87.73611874 13.71942417 -1.79770512 -36.29640592 -19.70178737 1.21056858 -49.60904209 63.50637216 106.6352197 0.00012933 83.803219 -0.00014025 -51.03696299 14.32577273 -3.23445838 -3.51824443 42.12867481 13.60588695 18.50543292 2.67612509 -2.45523288 1.3469734 -1.84902991 -2.82763833 -0.00500089 -0.00000273 1.5e-7 13.20922114 0.02230771 -12.54075275 28.68828065 4.4425557 -0.51755549 -24.24961038 -24.42317615 4.02291988 -2.46876657 -0.00002994 -0.00000387
-0.02332167 1.11856911 0.04966362 -20.03515495 -32.59100597 -3.27893549 4.17856776 0.85856993 2.49835185 9.7704677 0.93723032 3.58617327 9.71145461 0.82860772 3.58628846 -5.65218746 7.26339407 -6.58940954 -3.53591972 -6.32148858 11.06464721 -37.42074621 2.25110365 1.9444031 -16.32912994 -26.27811454 -41.84543238 0.0000631 -68.61594258 0.00005953 -80.26922729 8.56105775 3.42292897 -36.29453031 -19.73208869 1.20066995 -46.62097712 63.49524626 103.66790321 -0.00009052 82.8714926 0.00007841 -49.39652781 15.8435264 -4.89494702 -2.99784585 41.93305571 13.41531291 18.2983052 2.77205207 -2.33980448 1.68952889 -2.71383121 -2.80730726 -0.05760291 0.00000735 0.0000019 13.98230762 -0.1034864 -12.20529602 28.86013485 4.758628 -0.52560709 -24.75163111 -25.66723434 3.39926773 -2.89341859 0.00000748 -0.00000461
-0.02612942 1.11798248 0.04700747 -20.63892045 -30.99156032 -3.12854111 3.9951688 1.1091755 2.49964114 9.48286631 1.38950232 3.45848459 9.41096048 1.25224724 3.44407448 -4.96094698 7.00784506 -6.48580933 -2.31835985 -7.75263219 12.28469373 -37.53499971 1.55545336 4.36164762 -13.93630683 -30.88799272 -40.93934887 0.00005776 -68.74044641 0.00005342 -69.18615199 6.3963193 8.83134928 -36.29360043 -19.76059922 1.19013492 -42.54173947 63.2387297 99.46994051 -0.00001463 82.49291183 0.00000618 -48.24519317 13.89155476 -6.68299188 -2.57114033 41.63517791 13.30106402 18.12529945 2.83064284 -2.17164581 2.10414595 -4.06767624 -2.66439129 -0.10335738 0.00000734 -0.00000529 15.14313651 -0.36150714 -11.67190541 28.78474691 4.33168124 -0.4235988 -25.14852209 -26.73214372 2.93450213 -2.66315284 0.00000397 -0.00000554
-0.02887942 1.11723946 0.04395569 -21.18608836 -28.82000011 -2.84797462 3.84943504 1.33182955 2.51486933 9.27268714 1.8157138 3.35233122 9.17744794 1.72002189 3.31081284 -4.22777388 6.77311004 -6.50570315 -1.68396271 -9.27748217 13.45372396 -37.87003516 2.30964298 5.47876396 -13.89380324 -33.96002082 -42.760973 0.00005321 -71.33256678 0.00004622 -56.63032332 6.38490176 12.21744791 -36.29311801 -19.78611099 1.18011418 -37.48706648 62.69288819 94.23535222 -0.00003087 82.72166219 0.00001762 -47.24648232 9.96745877 -8.8254163 -2.3960389 41.16230812 13.24898866 18.07870045 2.87257727 -1.94158851 2.55477196 -5.8184691 -2.40552249 -0.12691475 -0.00000142 -0.00000123 16.4790614 -0.74564004 -10.96714239 28.56205484 3.66139916 -0.16930545 -25.57015185 -27.98824418 2.38738923 -2.40928849 0.00002824 -0.00000215
-0.03141208 1.1162928 0.04030206 -21.66202774 -26.19942867 -2.38484708 3.68964816 1.54817061 2.53722395 9.06608262 2.26909913 3.25668308 9.04224301 2.14313493 3.20917859 -3.33819808 6.55547152 -6.70932098 -1.18171658 -10.96790245 14.24610566 -38.10221611 2.48726385 7.09361692 -13.73126715 -35.32173314 -45.24475917 0.00002505 -75.36394132 0.00002414 -46.22861926 5.18253264 14.09853552 -36.39911589 -19.55631603 1.14657034 -31.73023052 61.0256391 88.85181332 -0.00001435 83.37282253 0.00001043 -45.65890916 6.15631781 -10.74538989 -2.3826435 40.55199487 13.13698512 18.07755156 2.86829813 -1.69603606 3.08736013 -7.83691228 -2.00403082 -0.12414712 -0.00000268 0.00000329 17.84446776 -1.16695044 -10.11882881 28.31382979 3.01212405 0.16504672 -26.0955387 -29.65967123 1.65931912 -2.31912704 -0.00003779 -0.00000872
-0.03335498 1.11495788 0.03572885 -22.11100503 -23.30919518 -1.74725646 3.52485703 1.74434897 2.57197872 8.88689954 2.72532186 3.17257152 9.01242093 2.48780082 3.12967516 -2.37541876 6.35336404 -6.99635068 -0.56161685 -12.60318279 14.51322588 -38.34264088 2.49693889 8.05894337 -17.10011303 -39.26988981 -48.7734116 0.00005891 -71.95583188 0.00005571 -40.52677916 2.41244462 14.95820591 -36.73665591 -18.80215717 1.06501213 -26.07313802 57.37876326 84.85423358 0.00000426 84.29009267 -0.00000425 -42.63790449 3.76777928 -11.64551853 -2.5067986 39.9268084 12.65080906 18.11160128 1.37563396 -1.04534731 3.6591292 -8.54141315 -1.67951 -0.11658963 0.00000635 -0.00000469 19.0812883 -1.44853305 -9.15390472 28.2624596 0.37087546 0.3591563 -26.16915795 -29.93619098 1.96754607 -2.2194181 -0.00000688 -0.00000499
-0.03436204 1.113405 0.03016243 -22.53684467 -20.40731303 -0.97816752 3.41832911 1.87513714 2.62486937 8.80805943 3.04789734 3.11458886 9.02578765 2.78406262 3.06886849 -1.53207286 6.19604938 -7.24130175 0.13714934 -13.84072132 14.42046756 -38.2711068 1.00023096 10.22515443 -23.26733568 -41.38519563 -55.11223705 0.00005576 -68.07596221 0.00004392 -34.35086661 -1.27094455 16.62765695 -37.11960596 -17.86823757 0.94368745 -22.57379427 53.53099714 83.41699226 0.00000552 84.35461009 -0.00002539 -39.25113319 1.50913894 -12.03211625 -2.57907462 39.3165352 11.79729605 18.07961641 -0.80140186 -0.23107258 4.31827541 -8.51467347 -1.37388263 -0.13568758 0.00000877 0.00000109 20.04390253 -1.52145066 -8.16033732 28.47282148 -2.88143537 0.40080635 -26.04416566 -29.93311932 2.69703797 -1.8901453 -0.00001077 -0.0000019
-0.03422119 1.11171333 0.02363599 -22.88786772 -17.80002962 -0.14107829 3.41267532 1.91923758 2.7121626 8.85972907 3.16214714 3.1075024 9.07424351 3.01905882 3.04022076 -0.94651138 6.12360313 -7.40243014 0.72283321 -14.41653855 14.0405947 -38.21599928 -0.12183856 11.83200919 -33.71357342 -42.86245018 -63.10621519 0.00002165 -60.88502243 0.00001706 -29.07449814 -4.83545745 15.37651829 -37.40848951 -16.97474318 0.76187704 -21.57230449 50.55891895 83.85213557 -0.00006463 82.61290106 0.00004571 -36.19369989 0.28950439 -11.78981406 -2.54237965 38.69453152 10.70730811 17.94147142 -2.64910478 0.47588504 5.06647812 -8.47397408 -1.01705206 -0.19228551 -0.00000196 -6.3e-7 20.51323858 -1.52365481 -7.37468074 29.03501285 -5.84007779 0.43244325 -25.91671022 -29.92835317 3.4459694 -1.51061453 -0.00002269 -0.00000171
-0.03294675 1.11004837 0.01617291 -23.10248464 -15.74268384 0.67696174 3.46871769 1.93441764 2.84527963 8.99462747 3.20936392 3.16285968 9.1520937 3.12686643 3.08467076 -0.65062452 6.13988484 -7.50251839 0.88885248 -14.31127449 13.27228135 -38.39072327 -0.06577593 12.04316112 -44.54776908 -44.96683972 -71.77977987 0.00004524 -52.58564639 0.00003595 -25.34142615 -8.97372896 11.14960768 -37.40258632 -16.40277143 0.46333575 -22.16486818 49.51059729 83.88221003 -0.00000872 79.76382985 0.00000277 -34.93216631 -0.15827198 -11.56937354 -2.40237019 38.06037321 9.44287835 17.60713065 -3.92414568 1.04275399 5.89996946 -8.41584799 -0.66225956 -0.28289069 -0.00000126 0.00000129 20.36356692 -1.61378294 -7.01065255 29.9722153 -7.97675335 0.58881972 -25.89242826 -29.92520277 3.99820423 -1.17229744 0.00000221 -8.6e-7
-0.03075394 1.10839927 0.00821011 -23.13734457 -14.30561566 1.36925493 3.56251731 1.94552904 3.05217753 9.18059809 3.24660614 3.3037161 9.2473964 3.15233311 3.22709419 -0.58247446 6.20890016 -7.56203463 0.40099758 -13.74286204 12.18010638 -38.53966467 0.11182771 11.8860743 -53.17813577 -46.32186903 -79.78894225 0.0000215 -46.44068821 0.0000141 -22.46731213 -12.71216189 5.28293315 -37.15810734 -16.14119199 0.14381965 -23.86017843 49.95131651 83.83799795 -0.00004989 76.45721923 0.00004264 -34.63961356 -1.57181637 -11.35746615 -2.36426032 37.45754724 8.25436755 17.23547245 -4.63323479 1.44861204 6.69279881 -8.33843516 -0.32324842 -0.38270559 0.00000358 -0.00000311 19.64466831 -1.79476694 -7.03815279 31.19856209 -9.17882614 0.87652699 -26.00160557 -29.92542901 4.29116848 -0.89059811 0.00001182 -0.00000726
-0.02803267 1.10680123 0.00024979 -22.9802166 -13.29617445 1.89687639 3.6697722 1.94413695 3.32415558 9.38138619 3.26339527 3.5315247 9.34728232 3.17397945 3.45924884 -0.64613987 6.28539241 -7.54773058 -0.608099 -12.95107734 11.03701978 -38.66117741 0.39096261 11.19137385 -57.04364522 -47.21718649 -85.38872636 0.00001102 -44.60878712 5.1e-7 -19.55635953 -15.67587479 -1.00645166 -36.89867812 -16.08827284 -0.0806971 -25.75174692 50.5304933 84.10216986 -0.00000412 73.54858932 -0.00000724 -33.38310016 -5.65350331 -10.75794629 -2.62557399 37.03881986 7.36574933 16.94940628 -5.1042906 1.69095063 7.39453815 -8.27274582 0.04974283 -0.43379247 -9e-8 -5.7e-7 18.55814308 -1.99003309 -7.25335661 32.50428011 -9.75842452 1.25373148 -26.17266707 -29.92646325 4.39085602 -0.63874937 0.00000377 -0.00000307
-0.02538918 1.10501129 -0.00702891 -22.67704709 -12.32395797 2.33569123 3.76816415 1.90476918 3.70746755 9.56122346 3.16869595 3.8124909 9.47887966 3.08059555 3.74845006 -0.75899832 6.33310765 -7.39304819 -1.65083197 -11.95041553 9.88185315 -38.75263282 0.73880777 10.07765249 -56.0119441 -47.88295993 -87.49626607 0.00002553 -46.18196927 0.00001924 -16.96990564 -18.49524281 -7.8433465 -36.74004804 -16.37537586 -0.0104942 -26.69413514 50.9890902 84.16903199 -0.00000694 72.11270861 -0.00000216 -29.87479951 -11.8926047 -9.94543111 -3.34365952 37.11152666 6.93556352 16.92943889 -6.27823216 1.7541686 7.98198767 -7.98023406 0.53497352 -0.41104765 -0.00001214 3.6e-7 17.37760876 -2.03186377 -7.30523063 33.75607685 -10.09763507 1.55237323 -26.39546637 -29.98739713 4.38050882 -0.47415934 0.00001513 0.00000264
-0.02343333 1.10328773 -0.01293004 -22.33355035 -11.14697615 2.75241248 3.85056234 1.77619552 4.08509198 9.70512472 2.88263731 4.07618228 9.61398381 2.79534946 4.02339314 -0.85076945 6.34140373 -7.09522336 -2.87357614 -10.5573665 8.69918714 -38.80960066 1.06332678 8.97645144 -52.39425769 -48.33435618 -86.43616327 0.0000068 -49.27996569 -0.00000162 -15.84032424 -21.33954434 -15.07553658 -36.74640451 -16.61679716 -0.12217966 -27.30046223 51.58665231 84.20865316 -0.00005177 71.53248232 0.00003271 -25.50463689 -17.34749742 -9.3280702 -4.26543485 37.59580838 6.81417346 17.05528246 -8.37578366 1.67928935 8.50016961 -7.39568336 1.0840282 -0.39062551 -0.00000209 -6e-8 16.41552488 -1.92703635 -7.01018629 34.73235336 -10.10022615 1.66768911 -26.72201776 -29.98638817 4.13400794 -0.43256164 0.00000265 0.00000271
-0.02247011 1.10195045 -0.01702154 -22.02819477 -10.19168294 2.99161784 3.91712166 1.58524167 4.37087444 9.80806909 2.48601495 4.28265161 9.71553401 2.39900352 4.24292745 -0.8501646 6.3301695 -6.73938221 -4.54211074 -8.78752749 7.47709914 -38.8324097 1.31769806 8.29201974 -45.97839117 -48.6497068 -81.73969912 0.00002683 -56.23635333 0.00001849 -16.32030367 -22.27895868 -20.41231612 -36.84191767 -16.69674921 -0.44832191 -28.26836868 52.56588916 84.51724394 -0.00000469 71.04267235 -0.00000828 -22.26634234 -20.41621356 -9.15762139 -5.21419871 38.1848785 7.0308406 17.28673039 -9.66718238 1.55394336 8.84159529 -7.5542207 1.61993909 -0.37112827 0.00000518 -0.0000019 15.71920734 -1.78840137 -6.60386186 35.37719913 -10.10009334 1.72479673 -26.99522014 -29.98614453 3.88514583 -0.39710636 0.0000062 -0.00000315
-0.02219463 1.10110322 -0.01916014 -21.72554364 -10.50545412 2.66497525 3.95935488 1.41664828 4.5484667 9.85513618 2.1706194 4.43580557 9.76666743 2.08325899 4.40749484 -0.70123539 6.32337628 -6.42791789 -6.68045233 -6.67046852 6.25374827 -38.94000541 2.00999659 7.49934801 -35.49235722 -49.63654667 -72.66720174 0.00001906 -68.30460944 0.00001029 -18.76581851 -21.38271757 -20.69608429 -36.91621415 -16.72820213 -0.68697066 -29.9706182 53.72287534 85.87412945 -0.00000268 69.83947819 0.00001095 -20.41644439 -21.11916058 -9.01012625 -6.45063949 38.76032989 8.06506709 17.9149166 -9.67465073 1.37914911 8.68840384 -7.87652795 1.87305751 -0.35236639 -0.00000532 0.00000119 15.00023049 -1.51168232 -6.34949608 35.82949774 -10.09694919 1.72074782 -27.03680954 -29.98531937 3.8775977 -0.31007686 -0.00000327 0.00000358
-0.02399838 1.1033438 -0.01462299 -21.41261965 -12.68155299 1.5904836 4.20993146 1.22876436 4.25547523 10.23032778 1.86213416 4.27615601 10.15563648 1.77661907 4.266982 -0.38665672 6.60857378 -5.62169625 -9.08559192 -4.16431078 5.08961184 -38.67443233 2.69457207 6.16902665 -28.59331533 -46.44177519 -65.58812785 0.00007624 -79.19529895 0.00005235 -17.99301204 -20.50726952 -18.11679521 -37.17946062 -16.20054691 -1.91328483 -31.88746184 55.56781991 87.87583605 0.00002148 70.05682047 -0.00002661 -22.10221491 -19.9168018 -10.4701853 -7.19302146 39.30787139 9.77067613 18.21061552 -9.7035452 1.15170512 7.98510576 -6.53802187 1.23020442 -0.33421655 0.00000141 -0.00000218 14.99497173 -1.13213695 -6.34250127 34.91871813 -10.09359652 1.65261098 -26.4923805 -29.98748243 4.13542082 -0.12416978 -0.00001146 0.0000032
-0.02465378 1.10579284 -0.00880597 -21.18725509 -16.08527398 0.09846786 4.48283196 1.08899186 3.89079395 10.65407184 1.66789529 4.05887261 10.59060299 1.58420951 4.06420965 -0.13470075 6.92203595 -4.99818124 -11.55937756 -1.20982175 4.01870122 -38.21825391 3.43548308 4.6978902 -27.10936066 -42.86261335 -62.75388672 0.00016424 -82.74053644 0.00015688 -15.96834021 -19.44753642 -15.91263196 -37.20545484 -15.48726924 -2.92175813 -34.25081534 56.84591182 90.56465036 -0.0000378 70.38473936 0.0000252 -24.15829757 -18.36379656 -11.40701032 -7.93456947 39.86170854 11.84913001 18.78708961 -9.34067539 0.89212717 6.88559309 -4.45351537 0.32957503 -0.31650189 -0.00000467 0.00000303 14.76388691 -0.5609414 -6.70794269 34.07600985 -10.0871394 1.54071211 -25.71942172 -27.36026512 4.75270425 -0.04162758 5.8e-7 -7.9e-7
-0.02436767 1.1083155 -0.00269794 -21.02883383 -19.69574882 -1.37425439 4.79198568 0.95730218 3.4843384 11.16434507 1.48117897 3.77776071 11.11144984 1.3998771 3.79502253 -0.01546115 7.23175282 -4.4251792 -13.97067793 2.14074478 3.04751034 -37.46599713 4.10403668 3.07549112 -27.80026158 -38.3553722 -62.36049062 0.00015779 -84.24589805 0.00015497 -12.4494314 -16.80161394 -13.87569883 -36.95663398 -14.64725699 -3.84162153 -36.53088682 58.03331905 92.77026111 -0.00003457 71.26443251 0.00003014 -27.11043188 -17.07550456 -12.53427657 -8.41676654 40.51960734 13.73573275 19.19901168 -7.59641587 0.60774907 5.82662854 -3.60016152 -0.42933083 -0.29907932 0.00000506 -4.5e-7 14.40779333 0.09936988 -7.22459614 33.28229011 -10.08140226 1.40078073 -24.91756319 -24.13403144 5.46616623 -0.00096947 -0.00000931 0.00000105
-0.02336348 1.11091347 0.00303256 -20.79750046 -23.09894018 -2.70523077 5.14006098 0.81160667 3.06497622 11.74964988 1.2483675 3.46749769 11.70730492 1.16913919 3.49541845 0.0395027 7.53229581 -3.83559065 -16.22848419 5.70601284 2.20144173 -36.37473856 4.78237704 1.28417548 -29.94816535 -33.82390519 -63.26247508 0.00011915 -82.38949047 0.00010525 -8.1696114 -15.92952483 -12.74017375 -36.35201618 -13.8490479 -4.42168462 -38.0875647 59.30660389 93.74142294 -0.00003071 73.0625894 0.00003917 -30.77188711 -16.62513942 -13.97965382 -8.84142218 41.27365 15.34527354 19.37907005 -6.11984692 0.31073614 4.96281256 -2.701754 -1.09225064 -0.28178539 -0.0000013 -0.00000241 13.88118396 0.76619923 -7.6577298 32.46261543 -8.47019157 1.24356618 -24.42958575 -22.6343188 5.38914791 0.0363561 -0.00000473 -0.00000111
-0.02171918 1.11362694 0.00812523 -20.43749835 -26.41516359 -4.01860502 5.50334071 0.66441429 2.65190404 12.35320148 1.01098357 3.16218621 12.32212312 0.93215054 3.19949457 0.15371511 7.85109707 -3.26737841 -18.32487934 9.24933621 1.55342254 -34.95028248 5.50064542 -0.5208172 -31.34956405 -29.57709907 -63.47736873 0.00013612 -81.38049827 0.00013094 -3.63340188 -14.17055421 -11.30749677 -35.48468771 -12.95419851 -4.76111705 -38.93814398 60.07773004 94.03995676 -0.00002792 75.34878315 0.00002569 -34.02258951 -16.74602886 -15.39686926 -9.47613038 42.02442389 16.94336267 19.46442339 -4.73319835 0.00717226 4.23081488 -1.77467063 -1.68668639 -0.26449458 0.00000322 0.00000306 13.11740943 1.42331547 -7.94800409 31.57518064 -6.76273479 1.07215374 -23.81504989 -21.32281494 5.29922278 0.0747499 0.00001765 0.00000521
-0.01951097 1.11638459 0.0122172 -20.10987301 -29.45352728 -5.25119137 5.86110046 0.54347935 2.23031896 12.94498488 0.81886916 2.82950476 12.92673214 0.73886236 2.87595733 0.33847799 8.1633112 -2.68110322 -20.30838024 12.53897799 1.16352815 -33.2913017 5.95843866 -2.09373052 -32.27725012 -26.39843507 -63.53655624 0.00008364 -78.6325937 0.00007257 -2.40843555 -11.93353254 -8.83604438 -35.06226834 -12.10016233 -5.29549129 -41.50670387 60.02149852 96.45698316 -0.00004304 76.46769709 0.00003013 -36.46036211 -16.93753279 -16.36747023 -10.08934464 42.79164426 18.39186351 19.37420297 -3.60354581 -0.29493583 3.69870572 -0.83415913 -2.16656109 -0.24700323 -0.00000303 5e-7 12.33720672 2.0417716 -8.11381809 30.63730788 -5.35971116 0.89259676 -23.05296965 -20.02297248 5.33504192 0.11861518 0.00001035 0.00001015
-0.01656133 1.11898942 0.01537781 -19.85134294 -32.26491816 -6.41396888 6.22742223 0.45571719 1.78865944 13.5608455 0.67605878 2.43432899 13.55762628 0.59397016 2.49226121 0.53485891 8.40396272 -1.96682995 -22.03841911 15.43075747 0.96969272 -31.36088912 5.8691617 -3.59909328 -34.27676274 -23.73526207 -63.68307638 0.00001664 -73.34935792 0.00001435 -6.79967736 -9.86993209 -7.35372206 -34.98899786 -11.32456198 -6.14365796 -45.83090006 59.14145595 100.78425284 -0.00001631 76.72411351 0.00000111 -37.94368603 -16.81872886 -16.67131152 -10.6924608 43.54566909 19.70630168 19.2290031 -2.64741087 -0.58771395 3.28810538 0.1065983 -2.53506058 -0.22922118 0.00000882 4e-7 11.53307791 2.62787677 -8.21272472 29.7402426 -4.17541507 0.71169197 -22.21083578 -18.74972384 5.46906413 0.17239968 -0.00000587 -0.0000039
-0.01260901 1.12120339 0.01797064 -19.65185853 -34.88738909 -7.527298 6.61339474 0.36395459 1.34833234 14.21682595 0.51306902 2.02565817 14.229514 0.42876969 2.09760473 0.78004275 8.57289372 -1.07654647 -23.03703896 17.96670633 0.79840633 -29.06011005 5.21400063 -5.41438825 -38.77937433 -20.81990351 -63.75313233 0.00005077 -66.32313206 0.00004504 -19.75714986 -8.42744803 -9.29610799 -35.08305128 -10.56440228 -7.25616964 -51.77530279 58.45137678 105.7241875 -0.000044 76.61668858 0.00004207 -39.85802253 -16.0418037 -17.0689293 -11.40719334 44.22808162 20.96949091 19.23662752 -1.7935472 -0.86375574 2.8683861 1.03780805 -2.79639881 -0.21094636 -0.00000569 0.0000053 10.66795892 3.18430604 -8.2759319 28.95444888 -3.12832375 0.53655012 -21.34418315 -17.52034402 5.6875702 0.24048275 7.5e-7 0.0000042
-0.00749242 1.12306678 0.02044814 -19.50743811 -37.49579619 -8.6645824 6.99803559 0.22529864 0.92288431 14.86456897 0.24704482 1.63958908 14.89060109 0.16331851 1.72652739 1.15688956 8.69834588 0.03824502 -22.80651072 20.29182941 0.51238407 -26.37664835 4.20945142 -7.83359628 -45.72880945 -17.27004358 -63.34370828 0.0000302 -59.34014605 0.00001175 -40.35523467 -4.75431358 -13.48571052 -35.13498926 -9.71630519 -8.40500904 -58.92637813 57.85827497 110.78452653 -0.00005784 76.43511911 0.00003655 -42.45475837 -15.05234825 -17.67154904 -12.26370616 44.79624985 22.24044885 19.4753474 -0.83797134 -1.11688134 2.35748382 1.94942152 -3.00311336 -0.19203986 -0.00000883 -0.00000262 9.69566161 3.71531282 -8.33629206 28.24787662 -1.99827378 0.37427048 -20.44876504 -16.34302528 5.93987981 0.32732652 0.00001622 -0.00000326
-0.00460934 1.1228595 0.02109442 -19.41758602 -39.90350087 -9.75109744 7.0722637 0.16322361 0.84890441 14.99365429 0.11484818 1.52371254 15.01791847 0.03720819 1.61593044 1.33778924 8.60483809 0.64943382 -21.29053671 22.41242947 0.10352575 -24.9385727 2.97026698 -7.66600202 -51.13284537 -13.96372542 -62.69854514 0.00002812 -51.25408389 0.000022 -62.47632846 2.34967975 -12.46211859 -36.35487153 -10.16893759 -8.52317295 -66.41871625 57.39785116 117.91693632 -0.00005764 74.75078928 0.00002716 -44.1204902 -15.33198695 -17.44793494 -13.78432827 45.03265247 24.03067779 20.49387244 0.01565217 -1.34343394 1.66551904 2.82995851 -3.30626246 -0.17235119 -6e-8 -0.00000269 8.34847037 4.18934432 -8.15908434 28.39827997 -0.93169785 0.23172129 -20.04129278 -15.23053634 6.03168907 0.43732297 -0.00003526 0.00000115
-0.00157 1.12308456 0.02193037 -19.36460116 -41.92091464 -10.7022917 7.16965483 0.10744632 0.76138998 15.16707425 -0.01806258 1.33780502 15.18912727 -0.08682717 1.43493365 1.36795795 8.58626965 1.1284529 -18.91949681 24.11923518 -0.33871826 -23.5676082 2.21034212 -7.47439489 -56.2263587 -11.7516125 -61.62116674 0.00001272 -46.69023758 0.00000243 -81.00782496 10.17439349 -4.14744733 -37.69456484 -10.34424313 -8.73226264 -71.33243963 56.35778748 122.82605492 -0.00003008 74.5689097 0.0000267 -45.55323242 -16.07645436 -17.6452931 -14.96934866 45.2375747 25.4467577 21.19697968 0.65065152 -1.52615799 1.14406808 3.66253182 -3.53976348 -0.15172907 -0.00000143 -0.00000459 7.30017777 4.54446265 -7.98503175 28.28109334 -0.10615764 0.11461267 -19.54302066 -14.20910051 6.16888774 0.57492656 0.00000548 0.00000707
0.00137166 1.12360382 0.02254848 -19.29314763 -43.0270333 -11.27563587 7.28837243 0.08461283 0.67385003 15.38900013 -0.07640535 1.13785197 15.40964773 -0.13931338 1.23545628 1.17715879 8.65206128 1.34559712 -16.22796516 25.21120013 -0.70959327 -22.27109107 1.81199647 -6.94035841 -60.65510344 -11.03167267 -60.97947681 0.0000097 -44.81535068 0.00001249 -96.9105499 13.71227669 6.58420998 -39.05701575 -9.96503753 -9.34014199 -73.22981352 55.49911143 124.46490019 -0.00010867 76.05661469 0.0000924 -47.3593475 -16.95814025 -18.97759895 -15.65366311 45.27435856 26.15333658 21.52840163 0.77864553 -1.58437574 0.86546293 4.43959904 -3.62534859 -0.12868891 -4.8e-7 -8.2e-7 6.73381981 4.66092795 -7.86480464 27.97603352 0.15178879 0.02832035 -19.06368074 -13.38081908 6.39335685 0.83888814 0.0000063 -0.0000022
0.00380953 1.12410172 0.02276674 -19.18941462 -43.53306579 -11.588115 7.37875964 0.09748706 0.59424301 15.55860392 -0.04130806 0.99351745 15.57909619 -0.1035114 1.08853579 0.89993037 8.71245339 1.40520318 -13.55453868 25.76751766 -0.92720367 -21.08978015 1.71236758 -6.36261986 -63.86675115 -11.10524981 -60.80571311 0.00002186 -45.71481739 0.00001808 -109.19883549 13.13415445 16.6546667 -40.25193621 -9.47914046 -9.89543663 -72.42907421 55.21109382 123.63750371 -0.00002249 79.17148629 0.0000108 -49.03403858 -18.31198842 -20.93510618 -16.22173621 45.37878663 26.62997333 21.68484599 0.48340484 -1.58653234 0.729889 5.03265999 -3.58432066 -0.11850262 -0.00001096 -7.1e-7 6.45413493 4.77313805 -7.66992778 27.66184505 0.36113589 -0.09903781 -18.69740389 -13.18747343 6.52321098 1.10919056 -0.00000992 -0.00000161
0.00543284 1.12433083 0.02250961 -19.0672103 -43.77015062 -11.78040532 7.40397426 0.15144304 0.51333435 15.59475517 0.09219868 0.91218184 15.61710331 0.02833951 1.00754408 0.73652856 8.68028167 1.48774953 -11.00243115 26.05679952 -0.92795582 -20.08361 1.60782175 -5.89544674 -65.38631681 -11.42541002 -60.61018668 0.00002606 -49.07099599 0.00001249 -117.04033562 10.2535952 24.1754708 -41.06102465 -9.17755731 -10.07289014 -69.35965269 55.57485167 121.05475922 -0.00000772 83.49530624 0.00000589 -50.27285388 -20.13376196 -22.96808514 -16.85291816 45.52545723 27.14091796 21.85044751 0.24921228 -1.56728893 0.64631217 5.22699138 -3.51336745 -0.12048667 -0.00000269 -0.00000102 6.2629941 4.99667324 -7.47111712 27.47170688 0.40097506 -0.08866352 -18.46836247 -13.18913003 6.5548273 1.1312183 0.00001143 0.00000381
0.00636684 1.12428718 0.02187087 -18.93506104 -43.92219719 -11.93430647 7.39526316 0.24044663 0.42168512 15.5586682 0.29925827 0.84628539 15.58461368 0.23399705 0.946257 0.69901757 8.6495464 1.14878959 -8.49278969 26.23211214 -0.67223326 -19.29880206 1.22183491 -5.56743241 -64.48500961 -11.87310342 -59.7480062 0.00003054 -54.44845568 0.00000861 -121.26657164 6.60662217 28.7305481 -41.31030387 -8.81830833 -10.05617448 -64.30768129 56.34047689 116.7186843 -0.0000269 88.51622572 0.00001302 -51.08716738 -21.86341686 -24.80258927 -17.55888612 45.63653999 27.73317985 22.08426791 0.28349247 -1.54672265 0.57283504 5.0562313 -3.46278922 -0.12448554 6.3e-7 -0.00000372 6.06026695 5.28695569 -7.29555509 27.41110834 0.32955107 0.07380244 -18.34623932 -13.18620465 6.50256047 0.88036185 0.000026 4.4e-7
0.007027 1.12404923 0.02111074 -18.78553553 -43.9644103 -12.0409343 7.41365873 0.32704898 0.31400693 15.57289522 0.49192484 0.73469917 15.60319929 0.42632339 0.84080488 0.64008133 8.56818569 1.00452284 -5.95235135 26.28018706 -0.15163717 -18.75220622 0.73234669 -5.60781885 -61.70121534 -12.03172809 -59.00360979 0.00002458 -61.10887173 0.00002013 -122.38969808 3.10993259 31.20299664 -40.92888203 -8.36804977 -9.77375043 -57.33369246 57.23180292 110.51000818 179.99993787 85.98407342 -179.99995682 -51.31273872 -23.26685664 -26.20635567 -18.25521962 45.63111767 28.28690717 22.3794387 0.4225131 -1.5217105 0.49119687 4.7712644 -3.41948776 -0.13543836 -0.00000565 -4.2e-7 5.8590228 5.51735851 -7.14113145 27.42677305 0.22632152 0.28549949 -18.29095533 -13.18999341 6.41998255 0.61007244 0.00003215 0.00000236
0.0076437 1.12374329 0.02053449 -18.59936034 -43.80461791 -12.06346881 7.46960085 0.3860686 0.18736054 15.65905693 0.61899228 0.54780758 15.69553805 0.54960504 0.64804552 0.58851581 8.44572197 0.99560462 -5.03753123 25.9466191 0.96461768 -18.38079666 0.59945962 -6.32500479 -60.32815665 -12.97831674 -58.95279063 0.00006493 -65.40221112 0.00005458 -122.17630531 0.85333419 32.88811061 -40.34698771 -7.80143371 -9.35489637 -50.9601536 57.50505589 104.49732162 -179.99992071 81.59086504 179.99990238 -51.40580136 -24.10826618 -27.29434014 -18.89127941 45.5189727 28.72107072 22.69148453 0.38408359 -1.494654 0.40183531 4.58246223 -3.3413377 -0.16250913 -2.5e-7 -0.00000298 5.73120894 5.61974071 -6.98566254 27.43579773 0.02094718 0.44862462 -18.26149083 -13.20489304 6.38692702 0.51970644 0.00000514 0.00000359
0.00805581 1.12343956 0.02021868 -18.47191853 -43.65182096 -12.07659904 7.53153226 0.43102158 0.05278592 15.75487949 0.72123475 0.32974434 15.79142099 0.66513296 0.44645099 0.54397398 8.31228678 0.98036512 -4.62660694 25.48207282 2.3240697 -18.10717717 0.65196581 -6.90704726 -60.49696098 -13.23728618 -60.12431977 0.00002721 -66.79519439 0.00002592 -120.68277684 0.52696018 33.65363217 -39.67606474 -7.13215639 -8.84946437 -46.43890644 57.51455299 100.00105979 -179.99995553 79.30697239 179.9999532 -51.23542507 -24.04361104 -27.80121411 -19.3576439 45.41943165 29.03988812 22.95720724 0.34401237 -1.47540182 0.31524237 4.43130646 -3.27967362 -0.19301794 0.00000172 1.9e-7 5.65481074 5.6692766 -6.87051121 27.46261934 -0.14441786 0.5527138 -18.25928595 -13.21712522 6.37583869 0.5702115 6.9e-7 0.00000411
0.00807277 1.12309891 0.02005554 -18.35537476 -43.36005824 -12.05172643 7.58421732 0.46949256 -0.05838315 15.83062349 0.82417842 0.16121926 15.87390857 0.76042176 0.28218359 0.50572392 8.17277187 0.96047421 -4.61120028 24.92048477 3.84339219 -17.90574505 0.49740574 -6.94660134 -60.99630092 -13.47994971 -61.08638325 0.00004764 -66.76313301 0.00003879 -119.75526875 0.59391878 33.7160982 -39.01044229 -6.38311607 -8.29085558 -43.36308251 57.26884066 96.45020462 179.99999017 78.14163672 179.99999835 -51.25907188 -23.79743053 -28.27610139 -19.78177098 45.32479898 29.33541259 23.21321783 0.31927849 -1.4552852 0.23635884 4.12650035 -3.20639205 -0.21220912 -0.00000412 -5.2e-7 5.68050353 5.70103309 -6.7034805 27.48122657 -0.2220457 0.59038139 -18.30716587 -13.47301507 6.33044526 0.62299296 0.00002142 0.00000453
0.00777363 1.12270706 0.01982424 -18.19854181 -42.84126033 -11.90390417 7.62700928 0.4774356 -0.1269348 15.8894495 0.87221843 0.06412326 15.93286294 0.79262713 0.17056443 0.47303983 8.03203555 0.93762907 -4.88407275 24.29640733 5.4403206 -17.84937893 0.10553049 -6.95464248 -60.85774907 -14.64521354 -60.81623438 0.00004554 -66.37079969 0.0000407 -120.25414491 0.16401955 33.25594953 -38.39211016 -5.65349027 -7.7619161 -40.98438019 56.94939083 93.47193155 -179.99996157 77.35713953 179.99993998 -51.33291668 -23.59115478 -28.82359446 -20.11528504 45.17822516 29.47719561 23.42420591 0.33301986 -1.41594015 0.20141251 3.64155918 -3.10907887 -0.22912242 0.00000103 0.00000188 5.78447988 5.70488954 -6.54049481 27.52480402 -0.30983609 0.63215515 -18.42218039 -13.93993619 6.244214 0.58395672 0.0000021 0.00000332
0.0074248 1.12234596 0.0194655 -17.97705687 -42.17686904 -11.57700413 7.65562553 0.43341471 -0.16395596 15.92671721 0.80743919 -0.01056561 15.96661295 0.72928475 0.08143597 0.44518045 7.8949787 0.91348941 -5.34010148 23.64614751 7.03488385 -17.94180013 -0.52841682 -6.56039764 -60.22203528 -15.62853893 -59.89139719 0.00007608 -65.97540868 0.00006283 -121.43346575 -0.43615046 32.56981003 -37.82607991 -5.04564407 -7.3379485 -39.59873232 56.72061736 91.34340968 -179.99993992 77.00595354 179.99992217 -51.4990772 -23.31448111 -29.36278971 -20.22167915 44.96036307 29.27848942 23.50875855 0.37628219 -1.35519961 0.24175058 3.14472231 -2.99986286 -0.25068603 -0.00000302 0.00000375 5.87990696 5.6345328 -6.48129328 27.62292132 -0.36641707 0.69338065 -18.59224264 -14.52178462 6.12687599 0.4783735 -0.00000362 0.00000342
0.0071797 1.12203491 0.01904878 -17.71698621 -41.5362755 -11.12141 7.67167754 0.35486481 -0.19304926 15.94395626 0.66059231 -0.10695735 15.98127284 0.59377645 -0.0213936 0.42141252 7.76647544 0.88973559 -5.87676183 23.00857267 8.54977491 -18.28075025 -0.98438323 -6.38339586 -59.58067379 -16.69302509 -58.86401181 0.0000407 -65.19158556 0.00004221 -122.60268574 -0.73591246 31.82879013 -37.3245774 -4.63517277 -7.0669561 -39.31736369 56.72989055 90.16834973 -179.99994321 77.21001161 179.99993863 -51.76414505 -22.77173125 -29.77082266 -20.10123798 44.71468862 28.77516928 23.46790658 0.42872597 -1.29031186 0.33825111 2.78058404 -2.90061137 -0.26918239 0.00000334 -0.00000304 5.89413878 5.51040851 -6.55241907 27.79295008 -0.38333474 0.75533313 -18.7893114 -15.07064758 6.01511737 0.40689803 -0.000007 7.6e-7
0.0070119 1.12171944 0.01852769 -17.47593071 -41.03970077 -10.66396284 7.68284663 0.27974535 -0.22198165 15.95327132 0.51401924 -0.21507362 15.98511372 0.44851902 -0.13586943 0.40102555 7.651371 0.86804346 -6.39417435 22.42513457 9.91057048 -18.81916396 -1.27326171 -6.19277596 -59.39945338 -16.85223603 -58.68016042 0.00004424 -64.23389867 0.00003674 -122.74678847 -0.36403723 31.39193793 -36.90202079 -4.41903995 -6.93480969 -39.79134839 56.95184131 89.65231827 -179.99996188 77.76216318 179.99995017 -52.14617435 -22.02815209 -30.07104171 -19.90788172 44.5051061 28.2099804 23.38209828 0.47684908 -1.23882672 0.44893633 2.55407091 -2.82338495 -0.28103757 1e-7 9e-8 5.81744732 5.43813168 -6.65168442 28.03294977 -0.39307466 0.76689138 -18.98455851 -15.54496159 5.93841384 0.40582064 -0.00002494 -0.00000285
0.00685248 1.12140518 0.01777213 -17.2994401 -40.7151534 -10.30899092 7.69136024 0.22555814 -0.24049594 15.95713706 0.41040087 -0.29453648 15.98114579 0.33933683 -0.22596297 0.38325969 7.5545974 0.85008538 -6.79470031 21.93961859 11.04515215 -19.51150731 -1.44621054 -5.8762986 -58.86467868 -16.91481386 -58.4941704 0.00001555 -63.50503305 0.00002127 -122.99577888 -0.13701051 30.95863455 -36.5543687 -4.33461093 -6.8854389 -40.40246135 57.29865234 89.35254493 -179.99993933 78.31235854 179.99992252 -52.56400421 -21.26496679 -30.29708083 -19.76696755 44.36808092 27.78253123 23.30008863 0.51820345 -1.20727511 0.55880749 2.40661995 -2.76835064 -0.28446702 0.00000364 -0.00000368 5.69018918 5.47352286 -6.68085497 28.2992375 -0.41913139 0.71007888 -19.14697161 -15.94895365 5.89590844 0.42656865 -0.00000893 0.00000303
0.00665857 1.12114525 0.01676264 -17.19550234 -40.54037526 -10.08420009 7.69543287 0.18508944 -0.23916742 15.95175239 0.32659807 -0.33188604 15.97037605 0.25606539 -0.2709513 0.36741005 7.48096404 0.83755054 -6.9821391 21.59727106 11.88299137 -20.37925926 -1.43792797 -5.52805897 -58.16564993 -16.70803706 -58.56852454 0.00004261 -62.9038692 0.00002253 -123.01377094 0.14424821 30.60914392 -36.28347892 -4.3624033 -6.89934714 -41.17414962 57.70781851 89.3894063 -179.99987333 78.9252194 179.99985148 -52.91753495 -20.53969013 -30.34577927 -19.69768835 44.29638514 27.5323197 23.22074747 0.5507158 -1.19147316 0.67186395 2.31577965 -2.73574988 -0.27172206 0.00000297 -0.0000011 5.54452814 5.54335707 -6.65647514 28.54505057 -0.43804419 0.64103695 -19.26442472 -16.22950649 5.85748384 0.43151652 -0.00000101 0.00000714
0.00640221 1.12091858 0.01553564 -17.14567358 -40.47458057 -9.96598935 7.70005974 0.15059983 -0.22098138 15.95053782 0.26450168 -0.33157947 15.96760356 0.19720881 -0.2755057 0.36741297 7.48095955 0.83755152 -6.98212846 21.59727313 11.88299543 -21.46028356 -1.30680987 -4.99945888 -57.2159066 -16.17941184 -58.87570748 0.00006429 -62.47385022 0.00004717 -122.90237764 0.41991364 30.30219577 -36.15488628 -4.53570619 -6.99891097 -42.11934524 58.18813388 89.79679815 -179.99997245 79.57899945 179.9999639 -53.23289281 -19.84491532 -30.26322083 -19.69607554 44.26228259 27.42999632 23.15254675 0.56123702 -1.18185131 0.7857242 2.28478566 -2.72526777 -0.23796841 0.00000198 7.1e-7 5.37874098 5.54619982 -6.64382404 28.77032063 -0.41264454 0.63466479 -19.35567927 -16.33125677 5.78713536 0.43038724 -0.00001445 -0.00000471
0.00605537 1.12064423 0.0140259 -17.13118743 -40.44679712 -9.92160908 7.71943282 0.12620719 -0.19746125 15.98004251 0.22845737 -0.31820006 15.99817558 0.1609798 -0.26647866 0.36740536 7.48097072 0.8375458 -6.98212665 21.59727341 11.88299069 -22.77512677 -1.1971119 -4.26677858 -55.99773375 -15.43441317 -59.28143287 0.00004535 -62.24987224 0.00004025 -122.76988104 0.62115373 30.04759952 -36.20589468 -4.84853274 -7.18142769 -43.11759769 58.56791776 90.57782711 -179.99998971 80.17453208 179.99997487 -53.388529 -19.286541 -30.05671133 -19.78115433 44.2376936 27.45402225 23.12006855 0.54636869 -1.16413346 0.89931489 2.27269123 -2.72873437 -0.18794364 -0.00000112 -5.2e-7 5.19354483 5.47342003 -6.64103329 29.00423414 -0.34654402 0.70353728 -19.44795433 -16.31283954 5.66864012 0.4305045 -0.00001369 -0.00000283
0.00560084 1.12031197 0.01213321 -17.13887845 -40.36045512 -9.91345764 7.76749561 0.11650309 -0.1811378 16.06273484 0.21365642 -0.3285645 16.0806892 0.14125675 -0.28172972 0.36740621 7.48095864 0.83754768 -6.98213602 21.59727286 11.88299176 -24.30280893 -1.27890499 -3.44893507 -54.58916544 -14.68293315 -59.61656956 0.00001508 -62.20219186 -0.00000435 -122.66596118 0.71805814 29.88454131 -36.42272655 -5.25477176 -7.42001461 -43.9351708 58.70430851 91.52016814 -179.99995851 80.60524437 179.99992579 -53.33488048 -18.89591029 -29.78180929 -19.93406732 44.19523089 27.54862485 23.10809574 0.53115273 -1.12070081 1.03341963 2.19817725 -2.73342496 -0.13246279 0.00000695 6.1e-7 5.02496733 5.39707898 -6.58407786 29.24998248 -0.28292068 0.79197788 -19.55032035 -16.33709661 5.51209232 0.41853309 -0.00000272 0
0.00505351 1.11998543 0.00994132 -17.14691796 -40.15146856 -9.8926791 7.843384 0.1134436 -0.17955092 16.19054039 0.20156867 -0.38474012 16.20467319 0.12524754 -0.3417725 0.36741423 7.48095956 0.83755158 -6.98213731 21.59728456 11.88299187 -25.99535352 -1.61709318 -2.6863378 -53.08836227 -14.02379511 -59.82602771 0.0000531 -62.27588777 0.00003085 -122.53848217 0.74868228 29.85274229 -36.76910744 -5.71609085 -7.69563323 -44.43243329 58.5863128 92.43823517 -179.99982167 80.84413972 179.99980034 -53.11026038 -18.63153025 -29.49099813 -20.08362165 44.11089263 27.61161897 23.0690061 0.5438322 -1.04446354 1.20927431 2.02237214 -2.73077903 -0.08478424 -0.0000038 0.00000178 4.90762639 5.35331051 -6.45597546 29.48180184 -0.24762508 0.86055977 -19.65914192 -16.50852976 5.3336716 0.39949477 0.00000504 0.00000361
0.00441209 1.11962608 0.00769469 -17.12631956 -39.8448082 -9.82493348 7.92243534 0.10193339 -0.19209047 16.32131418 0.17249492 -0.47709396 16.33052377 0.09757534 -0.43609614 0.36740654 7.48096037 0.83755502 -6.98213195 21.59727107 11.88299239 -27.79143327 -2.13866536 -2.02111636 -51.53651599 -13.36062076 -59.97738358 0.00002968 -62.43073009 0.00000527 -122.29877247 0.79232745 29.96652395 -37.21632384 -6.21713256 -8.00627217 -44.71575444 58.34306126 93.35452563 -179.99994576 80.9812139 179.99993762 -52.83357757 -18.41595783 -29.20989431 -20.22137992 43.98498903 27.61633941 23.02123364 0.57165251 -0.95374127 1.40179725 1.78459751 -2.71852854 -0.05545733 -0.00001127 -9.5e-7 4.81083547 5.32299366 -6.30235566 29.7178073 -0.2333217 0.91856518 -19.7885282 -16.78792895 5.14478066 0.38422325 -0.00002724 -1.5e-7
0.00360324 1.11926697 0.00565156 -17.06710168 -39.53472502 -9.71993681 7.9740689 0.08012684 -0.21404015 16.409633 0.12112946 -0.57277708 16.4167172 0.05019156 -0.53359379 0.36741166 7.48095187 0.83754966 -6.98213381 21.59727809 11.88299522 -29.62706461 -2.70345226 -1.40743462 -49.87632521 -12.49427275 -60.13230784 0.00003115 -62.70237038 0.00003207 -121.92955058 0.93827154 30.21680109 -37.75460328 -6.74309775 -8.35054854 -45.06718471 58.15455112 94.5273998 -179.99995271 81.14675572 179.99992813 -52.57507614 -18.20670499 -28.98216362 -20.3673126 43.87210312 27.61492676 22.9686517 0.57472953 -0.8802537 1.58732761 1.55207677 -2.70230874 -0.045874 -0.00000402 -0.0000012 4.70816942 5.31394198 -6.15240597 29.94556972 -0.24986252 0.9734151 -19.9275952 -17.07393979 4.96509342 0.33843275 -0.0000055 -0.00000317
0.00262231 1.11894402 0.00397466 -16.99281335 -39.30450194 -9.61407689 7.9923836 0.05287173 -0.23694183 16.44191196 0.0550768 -0.64262332 16.44897162 -0.01343215 -0.60687175 0.36740751 7.4809595 0.83754885 -6.98212664 21.59727857 11.88299638 -31.44740587 -3.17841866 -0.82475458 -48.11357827 -11.49248355 -60.32697257 0.00002489 -62.97758637 0.00001198 -121.52020723 1.17185387 30.49385835 -38.38011821 -7.25789552 -8.71018932 -45.57343958 58.09350915 95.9672647 -179.9999134 81.4446189 179.99991874 -52.40274225 -17.98454902 -28.76614168 -20.5173186 43.80953017 27.64693008 22.91562649 0.54581468 -0.83137507 1.74706362 1.37336941 -2.69874838 -0.05112982 -0.00000471 -0.00000239 4.59952904 5.34215938 -6.01284928 30.14973152 -0.29799347 1.01387283 -20.05880178 -17.29674653 4.81499818 0.21107149 -0.0000104 0.0000036
0.00158963 1.11864304 0.00276402 -16.93830993 -39.17074587 -9.52370806 7.99338995 0.0211631 -0.25364653 16.43811673 -0.01505837 -0.68089216 16.44383308 -0.08247261 -0.64954243 0.36741167 7.48096549 0.83754641 -6.98213961 21.59727428 11.88298282 -33.1979956 -3.52879138 -0.26329762 -46.34211696 -10.52969128 -60.57648648 0.00003869 -63.1659711 0.00002933 -121.1186131 1.45371836 30.78026739 -39.07119515 -7.70859709 -9.05058807 -46.08452869 58.12376173 97.45478474 -179.99996094 81.81543258 179.99994519 -52.39655319 -17.74271687 -28.61427997 -20.61245111 43.77205558 27.66534074 22.87752016 0.51941837 -0.78894401 1.86365219 1.27248463 -2.7252278 -0.06010945 -0.00000891 -0.00000269 4.50011942 5.37080934 -5.91707342 30.33904336 -0.34410413 1.03836937 -20.1838692 -17.42647349 4.70143565 0.03474085 -0.00001639 -0.00000178
0.00060433 1.11835411 0.00202078 -16.91636601 -39.0978921 -9.43482183 7.99077297 -0.01318726 -0.26217734 16.42512712 -0.07780614 -0.70154101 16.42780404 -0.14435658 -0.67383516 0.36740797 7.48096972 0.83754598 -6.98213023 21.59726401 11.88299228 -34.83199929 -3.80928574 0.26501293 -44.60812292 -9.57726288 -60.85735923 0.00003254 -63.3803267 0.0000274 -120.75737832 1.71874404 31.05200865 -39.78656153 -8.06200518 -9.3485811 -46.4650337 58.18629046 98.81410124 -179.99996328 82.14747848 179.99994798 -52.43214019 -17.57373887 -28.51191668 -20.59650487 43.72775692 27.60285112 22.84986278 0.51341215 -0.74355123 1.93916337 1.24783828 -2.78000473 -0.058989 -0.00001194 0.00000293 4.4255019 5.3483463 -5.90129477 30.52186135 -0.36092798 1.05846718 -20.31170275 -17.46488483 4.61786591 -0.07449087 0.00002497 7.9e-7
-0.00035566 1.1180938 0.00160579 -16.91293375 -39.0486642 -9.34072639 7.98968022 -0.03817076 -0.2675328 16.41622039 -0.12314141 -0.72054685 16.41647533 -0.18996285 -0.69513254 0.36740828 7.48096291 0.83754898 -6.98213253 21.59728203 11.88298651 -36.30693797 -4.19718892 0.87567456 -42.98203993 -8.44628207 -61.19933723 0.00001124 -63.6483133 0.00000746 -120.37699083 1.99725393 31.31884871 -40.50162232 -8.33696038 -9.62283498 -46.7153551 58.24491565 100.00753276 -179.99993341 82.41545653 179.99991684 -52.50009656 -17.4495385 -28.49617049 -20.50023516 43.68088011 27.48239403 22.81819903 0.50949969 -0.70487321 1.99259793 1.26832442 -2.84505787 -0.03932043 -0.00000522 0.00000202 4.37829283 5.28279466 -5.93909406 30.68909555 -0.35228352 1.07452452 -20.44037068 -17.45816001 4.55112736 -0.07606509 -0.00000133 -0.00000339
-0.00134815 1.11788467 0.00136974 -16.91104961 -39.01316268 -9.26579688 7.99144399 -0.03946333 -0.27491718 16.41345443 -0.12552417 -0.74599268 16.41351025 -0.1929132 -0.72109259 0.36740664 7.48095871 0.83754917 -6.98213261 21.59726733 11.88299572 -37.57106642 -4.82256074 1.54648166 -41.62849573 -7.01535422 -61.68487983 0.00003341 -63.99596104 0.0000211 -119.79192304 2.32382565 31.68049645 -41.1762871 -8.60566954 -9.94166957 -46.81898372 58.24344941 100.94786445 179.99994994 82.55612153 -179.99995677 -52.65337199 -17.34419295 -28.55894311 -20.4116935 43.64010672 27.39611352 22.79062112 0.51123483 -0.6814535 2.03302011 1.282321 -2.90942772 0.0000247 6.9e-7 0.00000104 4.35571617 5.22030198 -5.96053591 30.81474223 -0.30844864 1.07829484 -20.55783552 -17.48007321 4.47976081 -0.02048966 9.2e-7 -0.00000659
