HIERARCHY
ROOT Hips
{
  OFFSET 0 1.1673769999999999 0
  CHANNELS 6 Xposition Yposition Zposition Xrotation Yrotation Zrotation
  JOINT Spine
  {
    OFFSET 0.000003812944337411511 0.10717500000681812 -0.009311
    CHANNELS 3 Xrotation Yrotation Zrotation
    JOINT Spine1
    {
      OFFSET 0 0.1058532983696241 -0.004285186608692496
      CHANNELS 3 Xrotation Yrotation Zrotation
      JOINT Spine2
      {
        OFFSET -8.470329472543003e-22 0.10599345671141647 -0.007812688101110094
        CHANNELS 3 Xrotation Yrotation Zrotation
        JOINT Neck
        {
          OFFSET -8.470329472543003e-22 0.26240299999999994 -0.04488100000000002
          CHANNELS 3 Xrotation Yrotation Zrotation
          JOINT Head
          {
            OFFSET -4.235164736271502e-22 0.17466899999999996 0.05625600000000003
            CHANNELS 3 Xrotation Yrotation Zrotation
            End Site
            {
              OFFSET -4.235164736271502e-22 0.10756799999999966 0.021070000000000005
            }
          }
        }
        JOINT LeftShoulder
        {
          OFFSET 0.10574399999999999 0.23009199999999996 -0.07323000000000002
          CHANNELS 3 Xrotation Yrotation Zrotation
          JOINT LeftArm
          {
            OFFSET 0.14878212914559852 -0.04653266654569688 -0.030693304075147546
            CHANNELS 3 Xrotation Yrotation Zrotation
            JOINT LeftForeArm
            {
              OFFSET 0.24109000000000003 2.220446049250313e-16 -5.551115123125783e-17
              CHANNELS 3 Xrotation Yrotation Zrotation
              JOINT LeftHand
              {
                OFFSET 0.316792 0 -1.1102230246251565e-16
                CHANNELS 3 Xrotation Yrotation Zrotation
                End Site
                {
                  OFFSET 0.1489197794816154 -0.029785938528091638 -0.11888857063295749
                }
              }
            }
          }
        }
        JOINT RightShoulder
        {
          OFFSET -0.10574399999999999 0.23009099999999982 -0.07323000000000002
          CHANNELS 3 Xrotation Yrotation Zrotation
          JOINT RightArm
          {
            OFFSET -0.14878040829228295 -0.04653159475972379 -0.030692917709113934
            CHANNELS 3 Xrotation Yrotation Zrotation
            JOINT RightForeArm
            {
              OFFSET -0.24109000000000003 -6.661338147750939e-16 -2.7755575615628914e-17
              CHANNELS 3 Xrotation Yrotation Zrotation
              JOINT RightHand
              {
                OFFSET -0.31679300000631333 -8.881784197001252e-16 -5.551115123125783e-17
                CHANNELS 3 Xrotation Yrotation Zrotation
                End Site
                {
                  OFFSET -0.06265795211397429 -0.10570764472283312 0.03859362014678265
                }
              }
            }
          }
        }
      }
    }
  }
  JOINT LeftUpLeg
  {
    OFFSET 0.12297511767165623 -0.06742078536803264 -0.010003
    CHANNELS 3 Xrotation Yrotation Zrotation
    JOINT LeftLeg
    {
      OFFSET 0 -0.457033849483632 0.010304509991859542
      CHANNELS 3 Xrotation Yrotation Zrotation
      JOINT LeftFoot
      {
        OFFSET 0 -0.500280623664138 -0.036905110570505176
        CHANNELS 3 Xrotation Yrotation Zrotation
        JOINT LeftToeBase
        {
          OFFSET 0.025950805788189563 -0.14255151365608373 0.19507593811975638
          CHANNELS 3 Xrotation Yrotation Zrotation
          End Site
          {
            OFFSET 0.010732117804750613 -0.000035441498015504746 0.11362327680684622
          }
        }
      }
    }
  }
  JOINT RightUpLeg
  {
    OFFSET -0.12297488233495055 -0.0674172146317622 -0.010003
    CHANNELS 3 Xrotation Yrotation Zrotation
    JOINT RightLeg
    {
      OFFSET 0.00000159348816348992 -0.45703784846455486 0.01030460015485039
      CHANNELS 3 Xrotation Yrotation Zrotation
      JOINT RightFoot
      {
        OFFSET -0.0000015934881634621645 -0.5002806236608007 -0.03690511058134042
        CHANNELS 3 Xrotation Yrotation Zrotation
        JOINT RightToeBase
        {
          OFFSET -0.0259497668227143 -0.14255297441554501 0.19507500887383716
          CHANNELS 3 Xrotation Yrotation Zrotation
          End Site
          {
            OFFSET -0.010733201844058626 -0.000035030229497263656 0.11362417898958707
          }
        }
      }
    }
  }
}
MOTION
Frames: 22
Frame Time: 0.03333333333333333
0.00061749 1.06214462 0.01054528 5.4498389 2.97148327 -3.30410897 4.91997428 1.30843194 1.67885669 9.85711899 2.80024911 1.72212196 9.85712308 2.80025002 1.72212134 -7.49657254 -3.14497875 -0.43478703 -14.10144642 -7.3602899 -5.25389905 1.08850916 -1.22646505 -9.10931805 21.95123715 16.1299282 -69.74461307 -174.79814228 -76.01011181 173.87658637 11.81847637 -20.24351679 2.84053192 0.77647213 6.05409378 9.52984434 5.50672253 -10.52359992 55.52929551 -70.89675513 86.71045156 75.6137938 -0.54101906 5.79380933 2.43602741 -44.7624133 5.78118112 -1.01718669 99.86366144 13.5519963 3.92365691 -9.62713775 -0.88223394 6.21816781 -0.89854904 -2.88788248 -6.62755011 -20.93888438 -5.84405428 4.45868039 49.16801877 -0.21947885 -1.58008592 -25.2776476 0.45260117 -1.48299361 -10.33905531 12.9806563 -1.50932532
0.00614134 1.0872438 0.0280014 5.41605188 2.34858077 -2.19219451 4.50307097 2.5472837 1.20535583 9.06162396 5.0748997 0.77186744 9.06161393 5.07489969 0.77186719 -7.64601958 -4.38002543 -1.0979507 -11.77512058 -11.6538632 -4.908279 1.14826358 -0.35814255 -8.56896254 23.85597442 18.05675392 -67.16438928 165.92995619 -82.36672192 152.7292567 14.14473181 -20.1698914 3.02256444 0.97989574 7.61721374 8.32562109 -0.51887565 -6.99299047 54.86332481 -115.3249329 85.3741416 118.29158881 -0.96171723 7.0695285 2.09592682 -51.8591457 3.11893638 -0.69114166 87.78008736 9.7229566 2.09954922 -12.88145468 0.90260461 -8.62767072 0.60884749 1.95312774 6.29315524 -0.4310956 -7.51628619 3.63337833 31.8656676 3.91717769 -2.37085233 -21.40575173 0.59133078 -1.60388103 -17.39703663 14.14480581 -1.68132749
0.00900671 1.12409492 0.04387014 5.07770322 3.24007082 -1.23881379 4.04406769 3.59184983 0.55346808 8.17502781 7.08329594 -0.19379332 8.17503089 7.08329604 -0.19379223 -6.63324241 -6.20587744 -0.54799471 -10.3689119 -15.91305437 -5.04461853 1.20065737 0.6403046 -7.87000545 25.35305957 18.6396856 -63.21561552 97.64504834 -84.64166966 83.05767809 15.1003088 -20.2483753 3.34002991 0.9880006 8.49064967 8.46072336 -1.71091088 -6.81215568 54.89118916 -130.84490538 80.03613759 133.01631887 -4.99894704 12.32722253 3.55352861 -49.22807378 1.50259978 -2.15250801 63.78735972 10.22734361 -0.84956762 -11.89573372 -0.02533582 -0.65592106 -2.75209142 -2.57197606 0.64398243 17.46219889 -10.82743126 2.31361905 12.56066902 12.6881876 -1.21911355 4.18215372 0.03348413 2.49459615 -34.17372915 12.42626127 -6.08479882
0.0121265 1.15307114 0.06621391 5.13800636 5.51136325 0.13295774 3.4391436 4.11805752 -0.33009685 6.97261903 8.29355836 -1.31026884 6.97261476 8.29354677 -1.31026602 -5.58872476 -7.32454751 -0.60084869 -6.79581576 -19.63421193 -3.20442142 1.22590097 1.61539207 -7.16514336 26.55387276 18.46148736 -58.9098993 59.56164758 -80.33934619 44.03519482 15.03939416 -20.40965993 3.6178161 0.91423489 7.83863908 8.8344251 -2.68717863 -5.96885096 54.41862259 -139.03171951 74.99967123 140.94478434 -8.50036642 17.51446593 7.74482553 -40.62475339 -0.94800969 -5.77697977 31.43026879 9.23221547 -0.9741865 -9.45019884 0.20648045 -1.21564162 -3.95085834 -3.99930909 -1.28545434 25.56560628 -14.83480772 1.14396099 7.08633437 14.25540417 -2.78045058 27.26106974 3.51231623 17.89740132 -23.21968552 8.74360996 -19.4848836
0.01282899 1.15507637 0.08572427 5.38397844 5.86254554 0.26230521 2.86922072 4.51644637 -0.845917 5.85119422 9.21620956 -2.06482445 5.8511945 9.21620901 -2.06482568 -3.0079176 -8.27905558 0.44413104 -6.39980943 -21.15591369 -3.13767409 1.22231138 2.32511801 -6.70212669 27.43163488 17.97865081 -55.36106996 50.29338298 -76.80185326 34.249067 14.28020597 -20.60893863 3.67534377 0.90382829 8.05199496 8.94815683 -2.92166854 -5.210927 53.42533902 -149.08213448 73.24991496 151.40930062 -8.01490814 26.74454604 12.51791538 -39.68052857 -3.49605931 -6.88255827 19.01693023 7.73677073 -0.30040313 -14.95645673 0.53441992 -2.32648883 -3.57879806 -3.39930449 0.07065473 27.39129914 -13.48113369 -0.1786062 18.59700479 9.50688293 -1.96097658 27.38834682 3.32752956 15.53883244 -5.97485977 2.36672034 -3.9917329
0.01579767 1.15167252 0.09157455 4.05519609 4.03155738 -0.1050592 2.98030644 4.61436425 -0.96685764 6.06611107 9.4259632 -2.14553028 6.06611511 9.42596615 -2.14553057 -1.3245848 -8.10719197 1.47669494 -7.21079601 -19.21159074 -4.00709832 1.20892576 2.45803704 -6.79315769 27.14522753 17.23145601 -52.97498632 46.94636377 -75.7176186 30.5352646 12.99058523 -20.87916313 3.41473509 1.04881458 9.11302514 8.18471669 -2.34741097 -3.93985772 53.23498114 -150.85991794 72.07085604 154.55428826 -7.67296646 26.88652589 13.52861938 -38.65476095 -3.64833896 -5.93955242 17.45277209 2.71969495 -0.83405873 -19.22044906 0.44810083 -1.28231145 -3.52876874 -4.25718059 -3.84177958 25.52053267 -10.38614461 -2.26138938 35.89314876 -2.06514545 -2.28818294 27.58953199 3.22983649 14.06866176 -11.32590746 5.41771872 -4.09415657
0.01684172 1.1421978 0.09418373 2.86223292 4.46526821 0.01187946 3.36228144 4.31134253 -1.08147657 6.80512192 8.63717297 -2.15602364 6.8051142 8.63716344 -2.15602113 -1.93282999 -7.29187976 0.40664326 -5.61904315 -19.04478142 -1.63796156 1.19380863 1.78571208 -7.58457078 24.26900679 15.67522246 -51.24935178 44.44161466 -76.69575386 27.56760969 11.15711036 -21.32249366 2.91722283 1.12770565 8.72148493 7.55315966 -0.21175804 -4.52805424 53.66510384 -148.99822789 72.4044566 153.49230028 -7.76242759 26.48690673 13.61353119 -33.37683474 -4.36164401 -6.71329346 14.17332052 2.01730745 -0.35320772 -17.90917289 0.44266999 -0.9585497 -3.41486165 -3.92975548 -2.74502992 20.08363211 -9.41168846 -2.99300131 56.12893313 -0.4301415 -2.04272892 23.55300585 2.27316984 11.06553932 -18.81822036 9.94963919 -6.16432521
0.01619469 1.12374237 0.08343355 2.3601753 6.33887436 0.21292707 3.8949438 3.85354605 -1.17715166 7.84829446 7.49281821 -2.17130295 7.848291 7.49281865 -2.17130274 -2.57282825 -6.87300103 0.32224008 -5.9730874 -18.99825393 0.55551023 1.14391989 0.31908658 -8.85091694 18.18696717 12.65055123 -50.04303728 39.94931959 -78.78004511 22.69003996 8.85678598 -22.00261397 2.51998966 1.04945802 8.10400007 7.92223872 4.77252778 -8.23717661 55.77347933 -150.10511427 74.07921531 154.87576809 -5.43911133 29.92823684 11.41803895 -31.10210353 -4.65233121 -9.21051597 17.91378156 3.11521489 0.16520941 -9.67870846 -0.59530071 5.81635629 -3.72512108 -4.0211053 -2.03683585 10.79525938 -7.25255747 -4.16778814 74.54184309 -4.23271679 1.0009421 19.47358358 2.01088472 10.10831593 -19.33075783 12.73861021 -6.33268703
0.01213728 1.08663072 0.06103326 2.17133674 6.34897083 0.57125397 4.58463297 3.31900234 -1.43774388 9.21460693 6.12711441 -2.50333803 9.21460353 6.12711738 -2.50333715 -4.70228054 -6.26507444 1.34472916 -8.06393592 -16.88949685 1.9794849 1.03378691 -1.65438768 -10.05868586 10.10677599 8.28316757 -50.41700011 31.32823851 -81.13435872 14.32196988 6.49908039 -22.85349955 2.70003462 0.9160035 7.0615525 8.63142258 9.10831147 -10.75876774 58.3822326 -139.94511406 79.32026614 145.12716793 -5.91687464 23.74940127 11.84450442 -33.58814625 -3.08125482 -8.99322846 33.82892647 1.09567839 -0.2881368 -2.43625967 -0.22533438 5.50498375 -4.74349532 -4.1157598 -0.12436472 -3.05755621 -4.29401946 -5.46408019 92.96268215 -1.46852006 2.46305324 14.1402048 1.15632355 6.1351056 -17.31500725 9.95214146 -5.51468821
0.00865325 1.0509591 0.03608161 3.19376924 5.56421448 0.6805458 5.03748886 1.9524927 -1.5985464 10.0791733 3.34839105 -2.29731633 10.07918031 3.34839401 -2.29731851 -6.07405707 -4.53557506 1.55863862 -12.70147111 -13.05048884 3.60630367 0.91150096 -3.68664241 -10.71839277 2.27994315 3.9898261 -52.98523079 17.98698703 -83.5672172 2.34827482 4.70170689 -23.72903606 3.64975032 0.93472189 5.90922074 8.15874978 11.58731444 -11.37456638 60.67745515 -47.85180694 84.44569135 54.83043964 -5.5958374 24.37911588 9.29748276 -33.01707916 -0.05976365 -6.76317468 49.99781264 -0.99721833 -1.66303827 -19.87949253 -1.23132267 6.75186761 -4.84435209 -4.35037532 -0.76704707 -23.00125633 -0.70631061 -6.97378285 107.02487232 1.68131799 3.26749554 11.01171148 0.87294609 4.61913774 -15.25356347 9.29739159 -4.92839114
0.00344837 1.0441909 0.01816659 3.71667566 5.28475973 0.57907728 5.39345679 0.02049652 -1.53651686 10.78619789 -0.28797376 -1.49838843 10.78619424 -0.28797179 -1.49838811 -6.57250921 -2.22854807 0.73827252 -15.1250176 -8.80590294 4.86684203 0.85429586 -5.3274545 -10.7346416 -3.59780942 1.35032605 -56.31010834 -5.93414929 -86.60125484 -19.08293407 3.83155881 -24.50294885 5.0188244 0.95206363 5.0509549 7.70396928 14.39875187 -13.44423553 60.52610443 -6.56396139 75.98859548 16.69789129 -4.23846421 24.62443348 4.56412712 -22.11300604 1.02212292 -5.12668418 49.50662855 -2.51277472 -0.8735164 -30.70631585 -1.67377115 6.31094034 -4.76710592 -4.48818904 -1.47375277 -41.88956949 0.73660458 -7.77870429 109.17587634 1.89826083 3.37272697 10.61728114 0.51594291 2.35769528 -14.09924345 9.80478809 -4.90766457
0.0030026 1.06557807 0.01835878 4.12522561 5.40282759 -1.20220205 5.44484145 -1.69289652 -0.78879326 10.94581811 -3.39240605 0.21008161 10.9458297 -3.39240602 0.21008095 -8.23959442 -1.18859993 2.10257745 -14.78770906 -3.73753075 3.11179144 0.86991676 -6.25710668 -10.43252221 -7.19629373 0.88801228 -58.26235781 -121.10065313 -87.39469145 -131.02769207 3.72597257 -25.11453617 6.13968136 0.74749212 2.94604596 8.95330229 18.71032375 -17.31543915 58.68295901 -1.69133264 73.48034687 14.42032228 -4.34421187 24.23770742 3.91219909 -2.36274821 2.0005475 -2.95223208 32.35643404 -4.49716135 1.76721523 -32.37384607 -1.15590503 4.77212911 -5.33243084 -4.13752754 0.04977804 -51.97205491 -0.72229807 -6.98608687 98.6451441 -0.2480524 3.34105029 10.07047735 0.21325714 0.14529256 -14.10082375 9.10269987 -5.1226759
0.00316944 1.09857185 0.03055398 5.18384664 3.44064929 -3.00778371 4.9911881 -2.91159542 0.37098666 10.1108203 -5.55701821 2.23155103 10.11081255 -5.55701873 2.23155003 -7.42652557 1.78958726 -1.21704695 -14.39440702 0.34317108 3.06659104 0.89929478 -6.43010292 -10.2279669 -9.18915498 2.16963424 -58.02518637 -155.83899575 -81.27723307 -162.31924368 3.85783347 -25.54661016 6.44539827 0.84224421 1.10425623 6.90021021 24.68200201 -23.58311592 56.35280654 1.39420233 75.67394053 12.9579998 -3.97578856 21.69400476 5.82605473 12.62927295 5.54952406 -0.56242056 17.42067224 -6.18312112 1.78734728 -14.81510202 -0.4351653 3.94035992 -28.16893394 -5.00799698 1.78727095 -56.25927212 -1.75054893 -4.06282106 80.67954584 -2.54292456 3.2711881 6.12783877 0.25195717 -0.35223975 -11.20768486 9.96051227 -4.70123384
0.00222148 1.12655182 0.03941466 7.14107435 0.08807721 -4.39716249 4.43319915 -3.89396833 1.41550711 9.03707881 -7.49541083 3.61789474 9.03707661 -7.49541014 3.61789412 -8.90411516 3.69970086 -0.25975201 -10.14085478 7.14513193 1.59002237 0.90275071 -6.13686961 -10.28656353 -10.39410486 4.22791603 -56.3335889 -164.36610002 -73.98837203 -167.70159713 3.78707372 -25.78329042 5.82685778 0.91911478 1.31783003 5.9629379 29.07516794 -28.61872838 54.6869847 -4.2214538 77.99920621 19.26851387 -5.62399949 18.71745189 7.28837245 14.85908677 10.77998869 0.19203544 17.86491861 -6.35357546 3.4320888 12.37953069 0.11375457 -1.67335155 -40.12551651 -7.06336533 4.03114352 -56.04854423 -2.29030033 0.26191856 55.93141478 -4.47867235 2.5719789 4.36546696 0.24726605 -0.04488468 -9.46296604 10.25889282 -4.63455995
0.00361338 1.14074486 0.03776598 8.73926688 -0.59927613 -4.26527253 4.13794168 -4.47999658 2.08745896 8.47839048 -8.84297732 4.5342559 8.47840425 -8.84298922 4.53426 -9.91325859 4.97847744 -0.31114131 -9.62593545 10.80389759 0.37726427 0.88469834 -5.8224476 -10.50835277 -10.99893153 6.16285274 -54.59117463 -168.56442415 -67.25612089 -169.60584131 3.52865557 -25.80761706 4.63121134 0.88645936 -0.60488561 4.51371815 31.09801108 -30.6305971 54.65866518 -2.85640215 79.4377902 17.57382172 -4.82397412 17.51526639 8.01603907 18.55618199 9.6031958 -1.42818129 21.45053914 -6.41921494 5.20938145 8.24804247 0.04526827 -1.34642024 6.3332402 -4.6891928 -4.08697868 -49.83942074 -2.76578346 1.85489442 25.89494285 -9.05746447 0.81108412 5.01948124 0.18798838 1.33860662 -8.20454817 13.3064141 -5.62420776
0.00422531 1.13612862 0.04480672 7.62526082 -0.41289468 -3.53312245 4.49395035 -4.57227811 2.24436629 9.18777245 -9.17306139 4.65997003 9.18778181 -9.17306745 4.65997279 -10.37466596 5.54695024 -0.75089284 -10.68900341 12.0119495 0.10698605 0.85797101 -5.76093273 -10.74617239 -10.22166387 7.80052538 -53.9256269 -170.7613191 -62.16849803 -170.80155198 3.51290417 -25.66000667 3.31724068 0.81813123 -2.04612672 3.44825849 33.38820248 -30.96447457 57.98482222 1.89622969 81.350555 11.59111726 -2.2232906 15.33790969 7.6376994 19.16803611 7.25625203 -3.1045164 37.03898695 -5.29338993 7.40732493 6.2529637 0.19101914 -4.28306011 -0.30510614 -4.13441606 -4.58613274 -46.86024351 -2.96278416 1.67801519 14.37739529 -2.88278983 0.15785297 -1.42045159 0.05189491 4.0768827 -7.07222712 12.92965874 -5.69144959
0.00340906 1.12424188 0.05185881 6.44555238 -0.54740856 -3.0541602 4.71794275 -4.10616257 2.24635033 9.60117273 -8.25329473 4.52745658 9.60117116 -8.25329406 4.52745815 -9.02201654 4.9829183 -1.23842101 -11.76995441 11.16755893 -1.94423211 0.83037594 -5.89084446 -10.93816215 -7.08509565 9.4386958 -54.74873662 -171.20323 -59.23752302 -171.71349737 4.1610592 -25.23341587 2.28665271 0.78584264 -2.12857026 4.00540622 34.1490716 -30.14851051 60.09014282 -2.10020551 83.61577319 14.55993875 -1.09778917 13.60247962 5.80141427 16.25932872 7.84150014 -3.12376948 53.13122959 0.38155284 7.56534542 7.15008077 0.15577124 -6.39321361 -2.37807992 -3.60253087 -4.67201053 -44.93973433 -3.20587591 1.93535347 13.20628576 2.83227694 -0.32131565 -5.97586547 -0.50561243 8.75024288 -6.42908254 14.61946926 -6.62240953
0.00236982 1.10361046 0.04300147 6.34681415 0.25244821 -3.00114419 4.82145282 -3.87267593 2.34269774 9.7839376 -7.57404455 4.55360981 9.78394234 -7.57405051 4.55361096 -8.37154733 4.65238843 -1.80835647 -11.94863032 10.13486774 -3.06897297 0.81818748 -5.91640714 -11.0249791 -1.66751107 10.98181208 -56.98244072 -169.80188714 -58.7378614 -172.11316826 5.42870164 -24.65700853 1.96850562 0.77360427 -1.4335745 5.22308705 31.15943698 -27.60282797 58.77490688 -0.1628533 86.40162335 12.28799421 0.77388225 11.92900732 5.97946793 8.46008965 8.53161117 -1.42954341 69.95516847 6.61580899 6.78432144 3.56115049 0.27607099 -5.29617346 -3.44276571 -4.56374924 -5.04507581 -40.24459732 -3.73816732 2.0523507 11.97796168 2.16750983 -0.37495065 -4.91434869 -0.50131954 8.10297726 -8.26000788 13.76163472 -7.28898117
0.00037019 1.08053453 0.03519935 6.23497 1.59934767 -2.62779995 4.98541095 -3.35277291 2.3010279 10.07114452 -6.20197857 4.32361473 10.07115132 -6.20198055 4.32361492 -8.83646458 4.26939621 -3.18558138 -12.63925874 6.90663346 -2.16772987 0.84779065 -5.53268552 -10.87427854 4.81145222 11.96335753 -60.15615572 -166.94047933 -60.83951624 -171.92776897 6.80883715 -24.22468069 2.59885939 0.73293963 -0.80461856 6.68529824 25.68948532 -23.59826793 56.41748869 6.8516094 88.08774186 4.40719308 2.22917446 9.35340385 5.96424532 -3.50466687 7.81065489 0.12314943 86.35332005 13.92869498 6.08432564 -0.64681744 0.43584698 -5.62156131 -1.52919597 -2.39080398 -2.96239517 -41.67667129 -4.42167462 2.41737986 27.20574445 0.06158966 -0.43100086 2.3459092 0.10464249 -1.50948013 -6.5345767 12.77668468 -6.8486231
-0.00255942 1.05162575 0.01594469 6.40909 3.01678226 -3.90187366 5.25145863 -2.10352493 2.52275143 10.5398 -3.57740601 4.22645281 10.53978637 -3.57740581 4.22645063 -9.34632051 2.11648832 -2.69852574 -15.15559652 2.7737323 -3.68605514 0.92607456 -4.58392681 -10.40346782 11.09106087 12.48826255 -63.50061811 -164.12869803 -65.21220774 -171.94391265 7.9811699 -23.80781369 3.74577829 0.66878906 0.89995478 8.94473391 18.23205195 -18.10972766 55.37319795 -24.45602987 85.87585117 33.72072806 -1.90369947 10.14638498 8.95542282 -20.30393587 6.30942033 1.41542957 101.66524619 12.98894861 5.4947506 -5.23551739 0.00016802 0.08384716 -2.87144562 -4.6445527 -7.16373438 -42.93380698 -5.6999434 1.77683754 45.62395856 -0.21071575 1.68113882 -8.13092881 0.40300284 -2.91799252 -4.12523044 11.99743814 -2.30095574
-0.00373122 1.0410965 0.00548145 5.79797105 4.21662741 -5.25078585 5.30792615 -0.71623055 2.75194739 10.61585028 -0.9348593 4.04570399 10.61585566 -0.93485927 4.04570318 -8.89380409 -0.12476857 -2.45290697 -15.21243073 -2.44108246 -4.42319827 1.01987958 -3.1007134 -9.7284598 16.75037401 13.49264272 -66.6702203 -164.53084213 -70.79401097 -174.61776488 9.31412363 -22.87199371 4.22345967 0.6980334 3.59883879 9.61945365 9.78865859 -12.43040528 55.06905914 -23.06410032 84.47255531 30.44604948 -0.89857926 6.22290223 1.22090068 -35.28820052 3.08803809 0.29376098 106.91117827 11.49665857 5.10748931 -8.35366354 -0.34605049 2.57494937 -4.96064532 -6.93176414 -9.91484791 -34.81543692 -6.37436118 3.83287573 53.20939151 -1.64611428 1.55687414 -21.59086486 0.61150322 -2.43594054 -5.1678647 12.1545845 -1.96720134
0.00061749 1.06214462 0.01054528 5.4498389 2.97148327 -3.30410897 4.91997428 1.30843194 1.67885669 9.85711899 2.80024911 1.72212196 9.85712308 2.80025002 1.72212134 -7.49657254 -3.14497875 -0.43478703 -14.10144642 -7.3602899 -5.25389905 1.08850916 -1.22646505 -9.10931805 21.95123715 16.1299282 -69.74461307 -174.79818293 -76.01012303 173.87655262 11.81847708 -20.24351412 2.84050288 0.77647213 6.05409378 9.52984434 5.50672136 -10.52358939 55.529299 -70.89646298 86.71046963 75.61347639 -0.54101768 5.79381612 2.43603423 -44.7624133 5.78118112 -1.01718669 99.86366144 13.5519963 3.92365691 -9.62713775 -0.88223394 6.21816781 -0.89854887 -2.88788533 -6.62754836 -20.93888438 -5.84405428 4.45868039 49.16801877 -0.21947885 -1.58008592 -25.2776476 0.45260117 -1.48299361 -10.33905531 12.9806563 -1.50932532
