HIERARCHY
ROOT Hips
{
  OFFSET 0 1.1673769999999999 0
  CHANNELS 6 Xposition Yposition Zposition Xrotation Yrotation Zrotation
  JOINT Spine
  {
    OFFSET 0.000003812944337411511 0.10717500000681812 -0.009311
    CHANNELS 3 Xrotation Yrotation Zrotation
    JOINT Spine1
    {
      OFFSET 0 0.1058532983696241 -0.004285186608692496
      CHANNELS 3 Xrotation Yrotation Zrotation
      JOINT Spine2
      {
        OFFSET -8.470329472543003e-22 0.10599345671141647 -0.007812688101110094
        CHANNELS 3 Xrotation Yrotation Zrotation
        JOINT Neck
        {
          OFFSET -8.470329472543003e-22 0.26240299999999994 -0.04488100000000002
          CHANNELS 3 Xrotation Yrotation Zrotation
          JOINT Head
          {
            OFFSET -4.235164736271502e-22 0.17466899999999996 0.05625600000000003
            CHANNELS 3 Xrotation Yrotation Zrotation
            End Site
            {
              OFFSET -4.235164736271502e-22 0.10756799999999966 0.021070000000000005
            }
          }
        }
        JOINT LeftShoulder
        {
          OFFSET 0.10574399999999999 0.23009199999999996 -0.07323000000000002
          CHANNELS 3 Xrotation Yrotation Zrotation
          JOINT LeftArm
          {
            OFFSET 0.14878212914559852 -0.04653266654569688 -0.030693304075147546
            CHANNELS 3 Xrotation Yrotation Zrotation
            JOINT LeftForeArm
            {
              OFFSET 0.24109000000000003 2.220446049250313e-16 -5.551115123125783e-17
              CHANNELS 3 Xrotation Yrotation Zrotation
              JOINT LeftHand
              {
                OFFSET 0.316792 0 -1.1102230246251565e-16
                CHANNELS 3 Xrotation Yrotation Zrotation
                End Site
                {
                  OFFSET 0.1995166749313234 -0.0432441138377333 0.06217329198086369
                }
              }
            }
          }
        }
        JOINT RightShoulder
        {
          OFFSET -0.10574399999999999 0.23009099999999982 -0.07323000000000002
          CHANNELS 3 Xrotation Yrotation Zrotation
          JOINT RightArm
          {
            OFFSET -0.14878040829228295 -0.04653159475972379 -0.030692917709113934
            CHANNELS 3 Xrotation Yrotation Zrotation
            JOINT RightForeArm
            {
              OFFSET -0.24109000000000003 -6.661338147750939e-16 -2.7755575615628914e-17
              CHANNELS 3 Xrotation Yrotation Zrotation
              JOINT RightHand
              {
                OFFSET -0.31679300000631333 -8.881784197001252e-16 -5.551115123125783e-17
                CHANNELS 3 Xrotation Yrotation Zrotation
                End Site
                {
                  OFFSET -0.19951915633182982 -0.04324491729730817 0.06217288017764484
                }
              }
            }
          }
        }
      }
    }
  }
  JOINT LeftUpLeg
  {
    OFFSET 0.12297511767165623 -0.06742078536803264 -0.010003
    CHANNELS 3 Xrotation Yrotation Zrotation
    JOINT LeftLeg
    {
      OFFSET 0 -0.457033849483632 0.010304509991859542
      CHANNELS 3 Xrotation Yrotation Zrotation
      JOINT LeftFoot
      {
        OFFSET 0 -0.500280623664138 -0.036905110570505176
        CHANNELS 3 Xrotation Yrotation Zrotation
        JOINT LeftToeBase
        {
          OFFSET 0.025950805788189563 -0.14255151365608373 0.19507593811975638
          CHANNELS 3 Xrotation Yrotation Zrotation
          End Site
          {
            OFFSET 0.010732117804750613 -0.000035441498015504746 0.11362327680684622
          }
        }
      }
    }
  }
  JOINT RightUpLeg
  {
    OFFSET -0.12297488233495055 -0.0674172146317622 -0.010003
    CHANNELS 3 Xrotation Yrotation Zrotation
    JOINT RightLeg
    {
      OFFSET 0.00000159348816348992 -0.45703784846455486 0.01030460015485039
      CHANNELS 3 Xrotation Yrotation Zrotation
      JOINT RightFoot
      {
        OFFSET -0.0000015934881634621645 -0.5002806236608007 -0.03690511058134042
        CHANNELS 3 Xrotation Yrotation Zrotation
        JOINT RightToeBase
        {
          OFFSET -0.0259497668227143 -0.14255297441554501 0.19507500887383716
          CHANNELS 3 Xrotation Yrotation Zrotation
          End Site
          {
            OFFSET -0.010733201844058626 -0.000035030229497263656 0.11362417898958707
          }
        }
      }
    }
  }
}
MOTION
Frames: 29
Frame Time: 0.03333333333333333
0.02155407 0.97551163 0.00103124 6.32782883 -16.2974739 -0.73232953 8.18028835 -2.25898791 2.845077 2.8265326 -0.7128552 0.18968239 2.82325873 -0.72259181 0.1860483 6.84685772 3.04202653 1.80409702 0.64775855 14.05858373 10.75573564 1.24852778 -14.38978994 6.46130828 -81.33775747 -24.32285672 -62.89425994 0.00002216 -35.00636953 0.00000962 -128.6929735 9.80799526 15.77520679 0.63614424 4.95915342 5.77227644 -50.76209783 36.65235434 83.12456804 -179.99999621 73.50042966 179.99998613 -25.49499168 -36.1719804 -26.08396744 -44.46474259 9.87344082 7.32499673 96.31614323 2.84737549 -2.06816717 -16.17720731 5.81458152 7.65857191 -1.78634235 0.01020724 -0.96395994 -31.120799 3.90601586 10.9192717 63.71454278 -7.31810829 -5.32556832 -38.23930305 -18.07945945 2.90725817 -6.58389952 -0.00000199 -5.2e-7
0.02081454 0.99713142 -0.00747877 7.85304464 -16.35147284 0.3039991 7.74827802 -2.261775 2.19932685 2.61801928 -0.71669041 0.1682295 2.61530871 -0.72574299 0.16549708 7.07772799 3.33187769 1.29398705 0.09566423 14.9062652 10.9676493 1.2278281 -18.04485676 7.34173128 -79.45505205 -22.38722848 -58.73773107 0.0000065 -35.38591899 0.00001159 -128.48287728 10.27673582 16.16103806 0.67825158 5.67643124 4.7889731 -51.90328431 35.83606455 83.66356067 179.99990151 75.19391109 -179.99988738 -25.42246171 -34.99884238 -26.00908079 -51.64824727 9.87212775 7.67258182 89.78336645 2.09232028 -1.92305472 -19.28898969 4.82899684 5.20873747 -0.00056739 0.00000215 -7.5e-7 -25.07195231 4.13722492 9.09835876 57.62143 -7.50801532 -6.76530592 -37.31669756 -18.46664884 4.19310754 -8.08896184 4.9e-7 -4.2e-7
0.01912185 1.02584793 -0.01488646 9.57895202 -16.10144915 1.16036952 7.29597294 -2.60123381 1.5968575 2.45726306 -0.8036991 0.17589174 2.45529715 -0.81276067 0.17356042 6.83819303 3.51602742 1.20894376 -0.04512564 15.90731585 10.91712601 2.07393854 -25.67934461 10.94546427 -75.5007584 -16.3250539 -50.21941468 -0.00000821 -37.87359998 -0.00000292 -128.52709779 10.24269496 17.00156751 0.70995066 6.06613197 4.12445519 -54.33359534 34.93787554 84.57314451 -179.99997233 78.93432811 179.99996524 -25.12126412 -32.84241069 -24.29978309 -56.13951149 9.23211162 6.61222219 78.63525028 2.45628329 -1.20251483 -21.44651305 2.31108564 1.9648436 1.88905863 -0.00000103 5.8e-7 -17.89560162 3.70405528 7.13898416 48.37854498 -7.79848165 -8.44347587 -33.26361494 -17.67370354 7.06931725 -10.51946778 0.00000385 0.0000056
0.01746185 1.05711258 -0.02039715 11.40887184 -15.50958861 1.86596081 6.73704387 -2.88630768 1.02091715 2.1606425 -0.85838783 0.0909164 2.15926812 -0.86881821 0.08959464 6.52497002 3.45252001 1.80014291 0.03606673 16.54299241 10.62672784 4.02131023 -32.03401201 15.44566612 -73.91070852 -11.35615311 -44.08347807 0.0000093 -37.83160084 0.0000129 -128.31602215 10.73756619 16.90380853 0.69316811 5.92731841 4.5076965 -56.05933088 34.32125626 84.73489535 -179.99993264 82.37871657 179.99991899 -25.53080807 -30.71268517 -22.62426462 -57.57562827 9.12570751 4.82507905 62.70141952 2.63191147 0.25807527 -24.52342188 3.3711803 -0.61315857 4.17168119 0.00000192 -0.00000208 -10.2386994 2.37266599 5.03527786 37.0644034 -7.98611798 -9.99914719 -25.76523156 -15.35304962 11.01426063 -13.89791066 -0.00000478 0.00000626
0.01689622 1.08205574 -0.02012021 12.73401701 -15.28607859 2.25486625 6.13268868 -2.85039832 0.70367648 1.90949213 -0.81901337 -0.01019249 1.90866202 -0.83132915 -0.0111217 6.53694457 3.26862055 2.47761108 0.07438971 16.72139305 10.10252787 6.08834309 -35.24016657 19.23404693 -72.85080814 -8.05773595 -41.21964948 0.00000932 -38.85803287 0.00000503 -128.19552057 10.23703189 17.29090847 0.66828052 5.78723576 5.2485699 -55.91264907 33.83744946 84.000292 -179.99999012 83.41501735 -179.99998857 -26.4543596 -29.6741028 -21.71483618 -56.49428969 6.56789731 1.81672345 47.27735283 6.09042056 2.38068421 -27.73828048 4.88050927 -4.27272053 3.48982311 8.8e-7 6.9e-7 -3.26263117 0.43399968 2.62004445 27.09034356 -7.88739928 -10.55940297 -15.48721978 -11.71146822 15.48191269 -16.94034187 -0.01071559 0.94132731
0.01801578 1.09059433 -0.01216435 13.03301868 -16.20003462 2.23627467 5.6568188 -2.36181718 0.58748333 1.96637143 -0.64864546 -0.07300539 1.96550845 -0.66417575 -0.0756678 7.48389573 3.08385562 2.87713132 0.33577279 16.56156149 9.47584897 7.34690411 -36.54131635 21.35544598 -67.93030787 -5.15259412 -39.18496123 0.00000712 -47.43158251 0.00000769 -130.82947108 5.78261501 20.07551565 0.65447736 5.94229357 6.00292082 -52.84769064 33.22260652 81.8810598 179.99989634 79.5483219 -179.99989666 -27.43534874 -31.4353095 -21.97708193 -55.88937618 4.84401649 1.81334192 40.25752031 8.99098975 2.74617291 -30.56068953 5.9470008 -8.04728637 -0.87377771 -8.9e-7 -3.9e-7 0.85573559 -1.02627152 0.25406185 23.6649651 -8.00791365 -10.91737924 -4.63293844 -7.85231941 19.78894615 -27.14326392 -0.25010519 1.98066084
0.01990896 1.0866217 -0.00413232 11.53718422 -18.36057612 1.79996042 5.35620572 -2.72177281 0.87462785 2.03634856 -0.58368906 -0.14836179 2.03015637 -0.61472146 -0.13954298 7.55534685 3.07169616 3.12624819 0.55858876 17.32676781 8.13594121 7.79253508 -37.54618099 21.6871579 -60.96573564 1.10568146 -35.28568332 -0.00002298 -64.61662283 -0.00000217 -132.0250842 -2.03427473 24.37519751 0.63006689 6.34293445 6.90050627 -47.361142 34.13299134 79.02734955 179.99999932 73.45423395 179.99999364 -26.63755187 -30.88972858 -20.6887617 -53.3849652 5.93514127 2.17907368 36.4259145 9.41821706 2.24412962 -32.16408077 7.28568395 -2.06629763 -3.13330154 0.00000237 0.00000221 0.36496432 -0.13920227 -2.21821791 29.12243039 -8.45628924 -10.83431217 5.63820675 -4.80803935 23.5514143 -37.51776331 -1.30654227 4.2965279
0.02017932 1.06616249 0.00312245 10.21325465 -19.39875026 1.80575994 5.10275001 -3.52324442 0.39790098 2.06271048 -0.6658979 -0.355323 2.05503793 -0.7286594 -0.34008381 6.95509896 3.07598157 3.40442737 -0.41760727 18.02352347 7.9368512 7.82473806 -38.49587281 21.3933876 -58.94775272 2.42154574 -33.26191623 0.00002359 -68.82065388 0.00004112 -131.5856975 -3.70374254 27.46959893 0.61438232 6.70562506 7.61420569 -45.87009861 34.18026346 78.611259 -179.99999338 71.4826151 179.99997592 -28.19628939 -31.26526485 -21.78144813 -52.83049088 9.44608678 1.52860562 41.08945915 8.84169406 3.08454431 -25.86332576 6.91887794 7.53393538 -5.84215894 0.00000226 3.3e-7 -2.02347048 3.2353269 -3.69637681 38.65465035 -6.68604284 -9.75761741 16.29613088 -3.44799415 23.12308701 -47.62960874 -7.39184545 9.42466601
0.01949686 1.03423562 0.00751034 8.79477551 -18.45448068 1.75898801 5.26687511 -4.88756221 -0.15714773 1.9127061 -1.0148105 -0.47095087 1.90280327 -1.08663195 -0.44958977 5.2040136 2.87384989 3.90775257 -0.98027763 18.19860078 8.50776071 7.95775632 -38.55341185 21.54143588 -58.66815703 1.86354063 -33.13628542 -0.00000329 -67.35905334 -0.00000585 -131.53599097 -2.92272927 27.73468216 0.63857946 6.42584521 7.95293465 -46.27438661 34.33259071 79.54837363 -179.99999692 72.42784607 179.99998983 -28.90699977 -31.00731734 -22.23536553 -53.65949617 15.41781255 4.94689716 49.16472781 0.3773954 1.60326948 -14.77134532 7.55015106 7.90517358 -5.17921078 -0.00000213 -9.6e-7 -6.37620458 6.68578733 -2.57051774 54.61314392 -6.08828592 -9.74800135 15.90175854 -6.42778823 22.93343446 -27.45710627 -9.65450108 20.14783832
0.01996814 1.00529367 0.00598158 7.04185784 -16.63694356 2.07920752 6.32622555 -6.05398521 -1.0168717 1.98056607 -1.32257342 -0.73219856 1.96789862 -1.39482083 -0.70346436 3.36441627 2.44045571 4.63247452 -1.47068392 17.65928925 9.02894733 8.44539976 -37.93255548 22.51868109 -61.25379529 0.29329215 -35.49300222 -9.9e-7 -61.89203298 0.00000325 -130.77630455 -0.30895598 26.22397965 0.66209564 5.64661482 8.12339061 -47.98020722 34.30104426 80.50708292 179.99999747 74.58130227 179.99998665 -29.18102717 -31.07716819 -22.40593137 -51.82366687 13.61116287 3.27189133 56.78818339 1.12174681 0.05241396 -14.8817829 7.0945348 7.13206144 -2.37857895 -0.00000399 5e-7 -11.95323516 7.8443793 -1.75704943 70.77949534 -3.94316055 -8.93069287 12.09579171 -12.8286885 21.05955967 -7.80993428 -1.42793512 11.40150873
0.02196335 0.98267983 0.00354935 5.5539064 -16.25607728 2.74866894 7.19421591 -5.92040375 -1.83655231 2.40219665 -1.25519545 -1.00717747 2.38592411 -1.32800083 -0.97830715 2.49516051 2.11532344 4.8555942 -0.89525283 17.33073663 8.79671229 8.10646824 -36.58665812 22.26910165 -64.68731285 -1.52945965 -38.94698031 0.00000923 -56.75157384 0.00001514 -129.33218794 1.97208975 24.62761658 0.66573213 5.42079166 7.81794101 -49.09309555 33.68777927 80.65997343 -179.99999049 75.6493594 -179.99999878 -28.91624839 -31.83148395 -22.2464745 -48.56006225 13.67017184 1.74835828 63.61721865 0.94118222 -1.41783339 -22.48586752 7.66950486 7.9255189 -1.73286492 -0.00000188 -0.00000272 -19.42750699 10.9682296 -1.36599947 85.09818802 -3.24578602 -5.87854534 7.98413848 -18.71796149 15.7514809 8.2301502 -0.00166057 0.32982339
0.02456073 0.96618279 0.00169989 4.87861222 -16.74632375 3.22697851 7.40269079 -5.36005836 -2.10666407 2.6881575 -1.12086721 -1.05913174 2.67077922 -1.18935438 -1.03347595 2.49784213 2.11792186 4.55817623 -0.33343438 17.61589869 8.00317358 6.86212622 -34.73931862 20.36002257 -66.69020748 -3.59830865 -41.81701036 -0.00001576 -53.26906882 -0.00000876 -128.49332493 3.17808479 23.38498426 0.63936662 5.59372236 7.35673445 -49.55237991 33.34649284 80.61119703 179.99998204 76.13811951 -179.99999881 -28.5989768 -32.72710822 -21.92719795 -44.33573447 14.77111947 0.61899681 67.9692389 1.25453365 -2.57554846 -30.28455514 6.78404035 9.74571036 -2.47685166 0.00000299 -0.00000314 -28.48438376 13.89290482 0.21106355 95.9666668 -3.18870727 -2.93612653 1.55521153 -21.55120152 6.98680268 7.58602623 0.00000498 -0.00000903
0.02684714 0.95858124 -0.00231525 4.48651945 -16.19177168 3.32046766 7.79536889 -5.51566968 -1.85946466 2.89195449 -1.25655642 -0.82316369 2.87531407 -1.31214483 -0.80158173 2.99730543 2.27580284 4.21897699 -0.02034816 18.02090897 7.18421109 5.44924868 -32.88050948 17.75342915 -68.84465156 -6.21696113 -44.16986166 -0.00000611 -49.4569665 0.00001004 -127.73900579 4.36184513 22.06977775 0.60812827 5.3917007 6.69611532 -50.59237565 33.49576174 80.85455492 179.99998343 77.18839794 -179.99999807 -28.59620495 -33.10890039 -21.45711645 -38.8613313 15.32374294 -1.62523059 69.50794216 3.00807987 -2.96956674 -36.59284799 4.72478558 12.15820408 -3.27858822 -0.00000228 -0.00000258 -37.46410221 14.69858693 2.2172175 102.35602593 -3.63245091 -1.12285782 -4.52776693 -20.52079541 2.58806814 0.61676718 -0.00000347 -0.00000389
0.0279223 0.95845093 -0.00597151 4.08484538 -14.97815172 2.75663678 8.2992679 -6.00990147 -1.09537617 3.14547858 -1.52476242 -0.44941204 3.12921418 -1.56289115 -0.43333719 3.72879193 2.44649364 4.03931659 0.37646511 17.98152939 7.56447121 4.2877894 -31.05787219 15.19929193 -72.07715525 -9.01822815 -46.73097857 0.00002603 -44.74037383 0.00002341 -126.4078224 6.01380316 20.49660684 0.60139039 5.19620611 5.96667969 -51.84408837 33.66594528 80.95853902 179.999945 78.3853202 -179.99993907 -28.69672598 -33.02159033 -21.11451018 -33.0372641 14.89572557 -3.37978143 69.57434731 4.14382338 -2.83107287 -39.5416237 3.90320901 11.63611993 -5.75660815 -0.00000229 0.00000209 -45.23940476 13.82972826 4.28697499 104.08796828 -4.28130997 -0.45275974 -7.92190998 -16.9556468 4.07864525 0.42389253 0.00000764 0.00000173
0.02784356 0.9658168 -0.00858059 3.93865216 -14.09707915 1.66475095 8.63428157 -6.26617569 -0.03946865 3.36319058 -1.72766568 -0.07407414 3.34737127 -1.74855943 -0.06478553 4.5570107 2.66819082 3.84969815 0.60681171 17.61065154 9.01668362 3.45261615 -28.92440997 13.0982129 -74.96336046 -11.24552199 -49.55426793 -0.00002128 -41.1317483 -0.00001543 -124.9511646 7.42365652 19.16236227 0.61617445 5.15279885 5.44193064 -52.29142843 33.78612954 81.17162068 179.99996808 78.87256236 -179.99997845 -28.35271256 -32.72105003 -20.97958608 -26.96017425 14.20627239 -4.29487463 67.93870485 5.54466162 -2.54528694 -40.29830769 3.01459854 10.41032057 -10.43258049 0.00000613 -0.00000127 -51.54492491 11.62442755 6.2549907 101.23427374 -4.21430694 -0.5728419 -10.58034797 -12.8037105 7.43631548 0.06983094 2.9e-7 0.00000252
0.0275966 0.98050255 -0.01158461 4.13317596 -13.7142496 0.50663729 8.87661145 -6.15726621 0.92801814 3.57936931 -1.80664429 0.20532624 3.56531729 -1.81681619 0.20614444 5.94451166 2.89040997 3.66626435 0.57203825 17.34754128 10.02460953 2.89070518 -26.40942574 11.63116814 -77.69474624 -13.27773815 -52.70665083 -0.00001648 -38.61793411 -0.00001081 -123.16507637 8.46224476 18.58065515 0.61507749 4.73312102 5.64429689 -52.41097992 34.04452742 81.80384022 179.99995164 78.74546414 -179.99996454 -28.06653676 -32.27968371 -21.0117871 -20.492667 13.21463324 -5.05460636 63.9308344 7.37596691 -2.20703834 -39.00516808 2.23461939 8.49063915 -14.61132104 0.00000233 0.00000365 -55.80013109 8.72781371 7.95585784 93.82145405 -4.26288441 -1.14994836 -13.06472858 -10.27006196 10.52326028 -2.37473284 -0.00000601 0.00000307
0.02814793 0.99937209 -0.01459514 4.70009328 -13.96263739 -0.40742585 8.7688146 -5.84307789 1.72498269 3.53870947 -1.80601648 0.44511642 3.52799405 -1.81118352 0.44023949 7.3810973 3.17650542 2.96993234 1.06442006 16.79026686 10.57952111 2.2875374 -24.23735958 9.88117929 -78.91477046 -15.3557058 -55.03579009 0.00000494 -36.93610232 0.00000775 -122.18088649 8.85871651 18.00182055 0.63606182 4.9605183 5.35978943 -51.61239012 33.43283263 82.31073813 179.9999382 78.40984019 -179.99995413 -27.32689826 -31.82936711 -20.44978368 -13.27338026 12.52300081 -6.19671405 57.05998616 8.90556761 -1.80170548 -36.68615306 3.21042065 7.18667967 -16.54332726 -0.00000389 -0.0000017 -57.54764938 5.75679986 9.1061289 82.40890234 -4.73823721 -1.61149419 -14.51810577 -12.04292081 11.21987799 -4.28809804 -0.00000799 0.00000234
0.03024055 1.02108414 -0.01697814 5.78933811 -14.81448734 -0.94674043 8.15339202 -5.56516391 2.49728825 3.16636458 -1.80768294 0.76598073 3.15979053 -1.80566132 0.76041014 8.21997226 3.50701311 1.67448807 2.16952347 16.04141462 10.9837984 1.61154778 -22.59400132 7.5647626 -77.9387141 -16.94714765 -55.6707871 0.00000282 -37.01040489 0.00001519 -122.32856539 8.34014443 17.55979297 0.72780193 6.07959738 3.57762243 -50.21132293 32.11127193 82.61270329 -179.99997687 78.34074436 179.99995137 -26.55650032 -30.97196302 -19.36186007 -5.65521174 12.02445692 -7.7986829 47.56124392 9.72167728 -1.20488703 -32.10618189 4.61353815 6.08587984 -17.87965012 -0.00000264 -0.00000248 -56.78326067 2.68363079 9.05734705 67.47829658 -4.58634116 -1.36172107 -15.94927128 -16.97963438 13.13253713 -3.27230055 5e-8 -0.00000247
0.03375176 1.04206885 -0.01662817 7.08842643 -15.69012921 -0.87824365 7.60921833 -5.34341225 2.80755603 3.0328381 -1.78840046 0.95605859 3.02709611 -1.7802901 0.94824812 8.53975101 3.61980186 1.16282181 2.21063755 15.6034699 11.1937242 1.43912735 -20.924397 6.93646548 -77.65223114 -16.97622113 -56.44251498 -0.00000951 -38.72956886 0.00000199 -122.54518441 7.28395242 17.6097893 0.74948213 5.68961215 2.88732841 -50.39036637 32.5738115 82.9069888 -179.9999805 78.39750927 179.99995843 -26.42918183 -30.38687056 -18.37492457 3.04221412 11.21592208 -9.90555731 34.98485533 9.63488747 -0.5001499 -24.54681028 5.40001557 4.05437151 -20.22021543 0.02827484 -1.60459407 -54.66414238 -0.4234167 8.35543287 51.18992287 -3.30012478 -0.32232953 -17.66339329 -17.80476685 17.28952529 -1.82235721 -8e-8 -0.00001224
0.03593854 1.05733406 -0.01014132 7.76117396 -16.19681875 -0.45693996 7.32539402 -5.41094569 2.60849221 3.06088763 -1.76407251 0.94228515 3.05468343 -1.75933951 0.93264689 8.2668658 3.52664215 1.53880709 1.83126232 15.75938253 11.30347976 1.48398864 -19.3162934 7.22036446 -77.79596725 -16.6665548 -57.54515864 -0.00000615 -40.44991921 0.00000914 -122.77738271 6.37251238 17.53987817 0.71465675 4.92458366 3.44257647 -50.74172321 33.49418188 83.10776856 179.99995522 78.19867699 -179.99995273 -25.75771262 -30.28111333 -17.30266454 11.2662432 10.27459002 -11.53165679 23.81807561 10.2176395 -0.40851374 -12.59412127 5.10593137 1.18690362 -31.26265497 0.04004269 -0.26058212 -54.55238907 -2.7000452 8.21186188 42.19307272 0.29493346 0.620859 -21.90403751 -14.85268258 17.81062599 -2.53482084 -0.00000707 -0.00000163
0.03588344 1.06412635 0.00335291 7.75879325 -16.52159169 0.19936524 7.14180786 -5.66090542 2.1684683 3.12326799 -1.77904332 0.69077885 3.11615337 -1.78681184 0.67769143 7.27193046 3.42968596 1.96157151 1.38166207 16.2677857 11.49647827 1.47865559 -17.73689295 7.47996945 -77.01234222 -16.40106417 -58.35256183 0.00000862 -42.65071988 0.00001446 -123.29305076 5.79020643 17.74798176 0.69735291 5.02742778 4.14171243 -50.04188323 33.75706165 83.68362625 179.99998579 77.26719231 -179.99997767 -23.95271183 -30.69928289 -16.65532544 19.20093612 9.35204896 -12.94123814 13.90704805 10.08443894 -0.83028669 3.51722676 2.93734818 1.00077185 -45.24925931 -0.09880534 0.28549401 -53.43339746 -2.46396084 9.46693966 39.67864832 0.71928817 -1.15920648 -26.62155748 -12.66777126 15.66846953 -2.34950706 0.00000627 -0.00000912
0.03533728 1.05246703 0.01416214 7.74335812 -16.41992684 0.66808712 6.90124467 -5.87259099 2.27295188 3.25504358 -1.83432162 0.29583246 3.2451545 -1.85483363 0.27393649 6.24726779 3.32390634 2.08120721 1.12954953 16.38900022 11.44131871 1.46680679 -16.11709726 7.82201465 -76.3540443 -15.95354999 -59.30634239 -0.00000476 -45.15472237 0.00000221 -123.65810915 5.33896378 18.65625153 0.67013985 4.98515661 4.56108651 -49.5664827 34.03377241 84.7520278 179.99998238 75.87704672 -179.99998403 -22.55931173 -31.68247648 -16.80599279 20.56969633 13.61670098 -11.05631707 16.65762745 1.56467888 -2.39413107 18.34399321 -0.28900964 -1.2477623 -59.94940985 -3.97612966 5.55371522 -50.59695993 -2.48299815 13.50023445 38.17403808 -5.19612471 -3.98763896 -22.26854168 -6.94865524 -7.79814326 -4.45772415 0.00000221 0.00000671
0.03402958 1.02405084 0.01714944 7.39814628 -15.99245681 0.33560666 7.17442945 -6.01781721 3.00669097 3.17121645 -1.79335213 0.10980397 3.15913859 -1.8198675 0.08933067 5.81372387 3.2054933 2.0694536 0.3463759 16.01665209 11.11904436 1.43106435 -14.91247009 7.80123625 -77.0428542 -15.89557524 -60.78047167 0.0000245 -45.20084719 0.00000706 -123.59335938 5.70478965 18.94403723 0.63657956 4.72341645 5.0698841 -49.70309274 34.69080293 85.09190262 -179.99997605 75.12502904 179.99997042 -22.35599889 -32.86313951 -17.57699542 12.42673462 14.83594885 -6.42465955 33.43074232 -4.1275872 -2.28205657 26.38077868 -1.47097801 -8.43751106 -57.42046182 -20.00862907 17.71764626 -51.7074886 -5.13853415 12.649235 45.5320411 -5.04255606 -5.68105567 -11.98533179 -10.52024063 -7.00935194 -6.00355936 0.00001354 0.00000474
0.0322475 1.00053618 0.015654 6.02191407 -16.39288525 -1.15428028 8.65400928 -5.41557713 4.06403866 3.18053057 -1.59769642 0.22524842 3.168685 -1.62529191 0.21473063 5.88593964 3.12825647 2.03997787 -0.30449209 15.47616864 11.13896402 1.46232796 -14.6147316 7.84426441 -78.51633436 -15.04435132 -61.84202737 0.00001741 -44.06943843 0.00001099 -122.73796747 6.69178937 18.82531472 0.6268812 4.77539622 5.50702969 -50.43867493 35.3030524 84.921555 179.99999958 75.31162143 179.99999905 -22.54104594 -33.5228204 -18.23444719 5.06261409 15.70834903 -2.10734661 50.60737563 -5.44890366 -1.55797978 22.45077766 -0.84355712 -8.59074333 -15.62023865 -2.77470893 7.32318172 -51.50289017 -3.97183712 13.09240308 53.96349836 -4.36514028 -4.94767928 -12.39994351 -12.39846792 -4.45013048 -4.17490106 0.00000608 -0.00000146
0.02984474 0.98180001 0.01641101 4.66718035 -16.7674562 -1.9522445 9.47355073 -4.86958288 4.28864047 3.41072758 -1.45146708 0.43580747 3.40230603 -1.47476809 0.42670545 6.27098051 3.16754287 1.54353969 0.14261782 14.74273387 11.94476705 1.44007237 -14.7196446 7.57413373 -78.7661498 -14.41217776 -61.65606117 0.0000123 -44.42608573 0.00001864 -122.71012586 7.1741225 19.43750757 0.64968867 5.28007354 5.29838177 -51.10785285 35.32235416 85.42523115 179.99997095 75.05353683 -179.99998277 -22.21157997 -34.64506663 -18.98057871 -2.06473809 15.74764821 1.00546434 65.79719827 -1.40764224 -1.05575672 12.9967005 0.42403239 -4.80113012 -1.61110698 -0.20238874 2.2888445 -50.06423181 -1.39981279 14.16016018 61.97575081 -6.73225338 -4.56879403 -19.47191432 -12.70676931 -1.93667608 -2.992257 -0.00000767 -0.00000137
0.02595834 0.96855041 0.01498267 4.68033108 -16.75518768 -1.96453632 8.97168011 -4.29024135 4.07598019 3.41676617 -1.28429468 0.50251273 3.41154436 -1.30157543 0.49109516 6.61690803 3.21102984 1.45730398 0.97652319 14.78045061 12.06131519 1.35748098 -14.67830092 7.05805421 -78.44571884 -16.61872512 -61.45912926 0.00001029 -43.47365075 0.00000211 -124.43250683 7.28937751 19.15173275 0.65674861 5.50965018 5.55202302 -50.72461189 34.99226881 85.60605964 -179.99998052 74.20901693 179.99997718 -21.64769226 -35.96037895 -19.79019291 -12.11227766 14.64175453 3.6117517 79.50840987 0.71379206 -1.35427103 4.75568274 4.08676385 -0.56142294 0.72624026 0.01291025 -1.08350979 -47.6546348 0.52132422 14.54793086 67.14010786 -8.80188118 -4.52138341 -26.64698388 -13.11926375 0.23299685 -2.73788559 0.00000693 9e-7
0.021728 0.96641533 0.00978068 5.03947021 -16.78448963 -1.99047209 8.70343074 -3.48092245 3.84956441 3.16624959 -1.05934516 0.40632216 3.16208267 -1.07263842 0.39831516 6.84523039 3.18747784 1.84694763 0.73230758 15.17085837 11.50088819 1.27550873 -14.4873739 6.66865682 -79.06573099 -20.36027585 -61.92944074 0.00000636 -40.05785797 -0.00000531 -126.40900377 8.02391321 17.66432791 0.64317467 5.18697092 5.97266688 -50.17900112 35.26363468 84.94701591 -179.99996632 73.83398461 179.99997676 -22.40601996 -36.11189488 -21.52836283 -23.38757595 13.07661828 5.7166337 89.87425637 1.51047728 -1.79770444 -3.34057771 7.08231928 4.35318198 0.63033307 0.01263817 -1.07234692 -43.20989482 2.17695524 14.4415212 68.2424689 -10.04721445 -4.47556884 -31.91011135 -13.59488533 2.02406697 -3.82169113 1.6e-7 0.00000232
0.01933306 0.96892464 0.00511744 5.36543028 -16.76775051 -1.73778418 8.5952449 -2.75517941 3.5029785 2.9823421 -0.86100602 0.27391284 2.97866183 -0.87264139 0.26902711 6.92861604 3.06793091 2.08718726 0.38777845 14.91489692 10.87797903 1.2390165 -14.30646677 6.55758306 -79.87255922 -23.11867268 -62.22376154 -0.00002895 -37.28907953 -0.00000837 -128.10177885 9.0261426 16.61035673 0.64191628 4.97042991 5.90820789 -50.29576629 36.36336593 83.97773381 -179.99997486 73.65410956 179.99997114 -24.42392439 -35.821983 -24.64178397 -34.15157692 11.30743805 6.78368838 95.74629085 2.82463342 -2.08931111 -10.69207819 6.02582697 9.2096453 -1.63356581 0.0307609 -1.67517661 -37.38935077 3.21496325 13.10680265 67.1358559 -9.31005547 -4.73066126 -35.38284672 -15.24218379 3.92509257 -5.42621583 0.00002259 6e-8
0.02152149 0.97552071 0.00105554 6.22748781 -16.38784593 -0.81302704 8.2159099 -2.24340831 2.88096318 2.86892952 -0.71936619 0.19182127 2.86574033 -0.73025656 0.18846464 6.75799475 2.90357295 2.038809 0.64733248 13.99416492 10.81725717 1.2418321 -14.37629474 6.50270684 -81.31630734 -24.27802712 -62.8790023 -0.00001375 -35.31196014 -0.00000828 -128.49183343 9.81123383 16.03585474 0.64511008 4.99084915 5.88167092 -50.67364989 36.71328178 83.12329726 -179.99997551 73.35376465 179.99997936 -25.56717608 -36.04824 -26.32976651 -44.4645741 9.87397796 7.32460116 96.31676849 2.84732584 -2.0681559 -16.17792396 5.814553 7.65852662 -1.79921031 0.01064527 -0.98448414 -31.14020588 3.91959743 10.89824301 63.73334851 -7.24760813 -5.31988658 -38.12454737 -18.13069201 3.04318644 -6.58389598 0.00000687 0.0000022
