HIERARCHY
ROOT Hips
{
  OFFSET 0 1.1673769999999999 0
  CHANNELS 6 Xposition Yposition Zposition Xrotation Yrotation Zrotation
  JOINT Spine
  {
    OFFSET 0.000003812944337411511 0.10717500000681812 -0.009311
    CHANNELS 3 Xrotation Yrotation Zrotation
    JOINT Spine1
    {
      OFFSET 0 0.1058532983696241 -0.004285186608692496
      CHANNELS 3 Xrotation Yrotation Zrotation
      JOINT Spine2
      {
        OFFSET -8.470329472543003e-22 0.10599345671141647 -0.007812688101110094
        CHANNELS 3 Xrotation Yrotation Zrotation
        JOINT Neck
        {
          OFFSET -8.470329472543003e-22 0.26240299999999994 -0.04488100000000002
          CHANNELS 3 Xrotation Yrotation Zrotation
          JOINT Head
          {
            OFFSET -4.235164736271502e-22 0.17466899999999996 0.05625600000000003
            CHANNELS 3 Xrotation Yrotation Zrotation
            End Site
            {
              OFFSET -4.235164736271502e-22 0.10756799999999966 0.021070000000000005
            }
          }
        }
        JOINT LeftShoulder
        {
          OFFSET 0.10574399999999999 0.23009199999999996 -0.07323000000000002
          CHANNELS 3 Xrotation Yrotation Zrotation
          JOINT LeftArm
          {
            OFFSET 0.14878212914559852 -0.04653266654569688 -0.030693304075147546
            CHANNELS 3 Xrotation Yrotation Zrotation
            JOINT LeftForeArm
            {
              OFFSET 0.24109000000000003 2.220446049250313e-16 -5.551115123125783e-17
              CHANNELS 3 Xrotation Yrotation Zrotation
              JOINT LeftHand
              {
                OFFSET 0.316792 0 -1.1102230246251565e-16
                CHANNELS 3 Xrotation Yrotation Zrotation
                End Site
                {
                  OFFSET 0.21802580156256723 -2.220446049250313e-16 -2.7755575615628914e-17
                }
              }
            }
          }
        }
        JOINT RightShoulder
        {
          OFFSET -0.10574399999999999 0.23009099999999982 -0.07323000000000002
          CHANNELS 3 Xrotation Yrotation Zrotation
          JOINT RightArm
          {
            OFFSET -0.14878040829228295 -0.04653159475972379 -0.030692917709113934
            CHANNELS 3 Xrotation Yrotation Zrotation
            JOINT RightForeArm
            {
              OFFSET -0.24109000000000003 -6.661338147750939e-16 -2.7755575615628914e-17
              CHANNELS 3 Xrotation Yrotation Zrotation
              JOINT RightHand
              {
                OFFSET -0.31679300000631333 -8.881784197001252e-16 -5.551115123125783e-17
                CHANNELS 3 Xrotation Yrotation Zrotation
                End Site
                {
                  OFFSET -0.21802679862805874 0 -5.551115123125783e-17
                }
              }
            }
          }
        }
      }
    }
  }
  JOINT LeftUpLeg
  {
    OFFSET 0.12297511767165623 -0.06742078536803264 -0.010003
    CHANNELS 3 Xrotation Yrotation Zrotation
    JOINT LeftLeg
    {
      OFFSET 0 -0.457033849483632 0.010304509991859542
      CHANNELS 3 Xrotation Yrotation Zrotation
      JOINT LeftFoot
      {
        OFFSET 0 -0.500280623664138 -0.036905110570505176
        CHANNELS 3 Xrotation Yrotation Zrotation
        JOINT LeftToeBase
        {
          OFFSET 0.025950805788189563 -0.14255151365608373 0.19507593811975638
          CHANNELS 3 Xrotation Yrotation Zrotation
          End Site
          {
            OFFSET 0.010732117804750613 -0.000035441498015504746 0.11362327680684622
          }
        }
      }
    }
  }
  JOINT RightUpLeg
  {
    OFFSET -0.12297488233495055 -0.0674172146317622 -0.010003
    CHANNELS 3 Xrotation Yrotation Zrotation
    JOINT RightLeg
    {
      OFFSET 0.00000159348816348992 -0.45703784846455486 0.01030460015485039
      CHANNELS 3 Xrotation Yrotation Zrotation
      JOINT RightFoot
      {
        OFFSET -0.0000015934881634621645 -0.5002806236608007 -0.03690511058134042
        CHANNELS 3 Xrotation Yrotation Zrotation
        JOINT RightToeBase
        {
          OFFSET -0.0259497668227143 -0.14255297441554501 0.19507500887383716
          CHANNELS 3 Xrotation Yrotation Zrotation
          End Site
          {
            OFFSET -0.010733201844058626 -0.000035030229497263656 0.11362417898958707
          }
        }
      }
    }
  }
}
MOTION
Frames: 17
Frame Time: 0.03333333333333333
-0.00835059 1.089832 0.00336926 -11.18818642 -55.89402199 -7.33899579 5.23521964 0.42515516 0.58167852 4.88998607 1.03112367 0.31063524 8.44014502 0.95156491 0.05529735 2.54119682 5.57711428 -0.20397009 2.36574915 37.18277318 -7.33264001 8.93600245 -24.74335053 -2.9680843 -26.19475522 8.72999024 -60.27114778 -91.19704638 12.8098692 -86.39108852 -27.66268936 -7.41417579 -5.80417033 10.57755732 20.06874517 -2.16949571 3.88127163 34.85898574 47.00840178 -110.5433299 63.38423486 96.84374339 -10.28909682 22.30953522 13.47369656 -22.78847966 12.91092467 15.98447445 28.60341987 14.69186428 0.11740769 3.06404853 0.22126996 -9.34356512 -0.21979191 0.09895743 0.20259371 -21.05058198 -18.60208707 -21.97035318 37.70630571 -3.72884178 -3.24338304 -12.1172056 1.48277433 11.42212381 1.97451094 2.20661305 2.46472168
0.02377682 0.89704866 -0.02943005 23.75326731 -52.53170342 25.5454231 9.26377166 0.51587107 -1.10280665 4.90453208 0.75963081 0.33854958 8.45142808 0.68849312 0.12478189 -1.92512903 5.39862621 -0.90302058 -5.91184126 36.11011309 -7.60483286 6.10973817 -29.09308116 -7.59088464 -31.96584082 21.58053658 -50.69917662 -86.14010586 12.60748607 -107.17952424 -30.3398725 -3.84895355 -4.59466386 9.20032108 24.10439301 -1.23796858 -0.98257305 29.77537593 49.49821268 -132.52790486 53.91714842 124.47185901 13.88883507 15.63183652 8.97128432 -69.53747996 2.20115445 16.55700059 69.57074872 15.96488144 -1.70449913 -7.07067161 2.61820619 -14.57409703 -0.19799474 0.12975572 0.19537825 -64.68917323 4.48490518 -22.67738523 80.44172426 -9.463427 -2.98407184 -25.05218928 -4.95246161 16.35227435 2.25119369 2.21595826 2.70881931
0.02963069 0.80397981 -0.03566895 32.95839277 -48.82801296 32.84036212 11.34037429 0.41835533 -0.95461715 4.88508549 0.12443544 0.42444511 8.42835647 0.07112814 0.29640555 -6.01202583 5.14414623 -1.56462839 -13.40041755 34.67070081 -7.56417208 4.04790041 -31.5445589 -10.44395317 -41.51507307 24.93619403 -44.17267282 -85.74075025 10.79357185 -108.79727686 -32.77094084 -1.63589962 -2.37406828 8.17253526 26.36726327 -0.02788157 -8.91087548 27.43242226 51.77070123 -132.2546473 54.6677779 125.51543994 16.353371 13.17321838 13.05002242 -86.53469003 -3.09715749 16.73311833 83.57519233 15.70763669 -2.27508914 -8.9891487 3.03150951 -16.97920973 -0.22356982 0.11788604 0.20615675 -80.26491285 10.09425093 -22.41105389 94.71030534 -8.23998616 -2.31452436 -28.69449797 -6.68690342 17.45548485 2.25691164 2.21607859 2.7138483
0.02359881 0.78498268 -0.03280457 32.66789076 -48.55926959 31.43431129 11.8384507 0.2623886 -0.80931469 4.882942 0.06838529 0.4309025 8.42594336 0.01641562 0.31060512 -7.00143047 5.03370592 -1.75878881 -15.11362091 33.93499451 -7.31584166 3.44852774 -32.240705 -11.26131468 -43.7138245 23.65128717 -43.37675954 -86.12259231 10.44778749 -105.53057873 -31.41568988 -0.88631888 -2.52382756 7.85292759 26.89682088 0.05406125 -11.27157698 25.69129679 52.29180767 -126.55287103 56.35695051 119.7001859 14.34530797 15.80807999 15.07908032 -88.5260592 -5.13970125 17.32727081 87.00307528 15.75419714 -2.39370563 -10.06512024 2.05224514 -17.67596839 -0.22469376 0.11527376 0.20715309 -81.26071765 9.06806428 -23.38143335 97.46274349 -8.56128388 -2.22402423 -30.45481777 -5.5408986 17.93882239 2.24796518 2.21571513 2.7059501
0.01363877 0.78902679 -0.02523848 30.1042995 -49.0207797 28.52423383 11.88107828 0.1484489 -0.6588381 4.88757522 0.16575401 0.41784411 8.43113348 0.11102443 0.28468712 -7.01478825 4.9563038 -1.83004182 -14.94395193 33.2261471 -6.88379846 3.31357858 -32.41345248 -11.43252447 -43.29064664 21.71433806 -44.61483406 -86.76431851 10.16474343 -100.25219335 -30.46120845 0.0094415 -4.59614623 7.93950812 26.68885377 -0.70830115 -12.10846437 24.32976126 52.77514661 -117.90726956 56.3706083 111.00756399 13.74640024 19.00641133 16.12544137 -86.22245615 -5.45439146 17.92574036 87.43149742 14.57918569 -2.50125612 -11.39447148 2.17652663 -17.47097214 -0.22568935 0.11373514 0.20803727 -78.16927743 6.72319198 -25.12325416 97.03815937 -7.62918684 -2.16086071 -31.94236887 -5.0193499 17.47869089 2.25614499 2.21596415 2.71316281
0.00231128 0.81654708 -0.01623779 25.13059756 -50.16904926 24.30567277 11.54092268 0.07345713 -0.50071616 4.88287235 0.19274032 0.41546683 8.42659705 0.13734689 0.27862767 -6.76523856 4.87845994 -1.87797119 -14.23222439 32.41380752 -6.33354177 3.62026011 -32.13382447 -10.6302602 -41.96733906 21.17641743 -46.22942328 -86.75915218 9.66114353 -98.24640525 -31.63004564 -1.27069507 -3.57049241 8.63884355 25.23127387 -2.67202823 -13.05616217 24.16687535 54.37587945 -115.80700962 55.81240392 109.89417979 12.15182892 16.9041428 15.44819839 -79.60210223 -3.76617746 18.49184051 84.44334124 13.66208225 -2.46828582 -12.41682671 2.16599946 -16.71234596 -0.22510712 0.11303426 0.20751192 -71.3943668 4.07356526 -27.75514001 93.89340461 -0.93475103 -0.90570874 -34.52569095 -3.03419761 11.10015101 3.33810209 -2.83441623 6.28796695
-0.00979369 0.86570526 -0.00694926 18.93319008 -51.97339827 19.52391325 10.93718198 0.14030794 -0.32212031 4.86542083 0.0400828 0.43537956 8.40842863 -0.01150508 0.31799504 -6.35230572 4.79920668 -1.91244858 -13.16142457 31.51408048 -5.70197718 4.15975439 -31.52082089 -9.00851537 -40.48434332 21.4447685 -48.02637105 -86.8679072 9.10696153 -95.20418674 -34.20399091 -2.60329919 -2.90919852 8.28526604 23.17403955 -2.22738518 -14.13322353 26.18616202 54.15783145 -112.23816128 55.61714673 107.00369723 9.61011927 12.59372122 15.15325154 -69.44090333 -0.94045119 18.51575773 77.76018562 13.93026329 -2.19749551 -12.37418741 2.08121941 -16.17115147 -0.2153154 0.11277788 0.19851458 -62.99267596 0.1622321 -28.77077058 87.1742286 1.56986135 -1.12908354 -32.92772155 -1.86776899 8.39750755 1.19766341 -4.79710235 5.13578165
-0.01482125 0.93572876 0.00131526 12.08967891 -53.87023128 14.4593529 10.22942113 0.37791679 -0.18393105 4.83990446 -0.17765575 0.46277632 8.38203232 -0.22402431 0.37284502 -5.80951172 4.7208568 -1.93704245 -11.80592006 30.55544028 -5.01739497 4.70059357 -30.62969883 -6.910703 -38.7802346 21.43052412 -50.44913428 -87.33155461 9.04369886 -89.37297177 -36.85443293 -2.66746059 -4.27017322 7.41453894 20.62854268 -1.62790457 -15.84937661 29.61245617 54.63245088 -104.35583171 56.17262296 98.84181601 6.7935029 9.58610843 15.77701383 -56.23192257 2.46590929 17.05978769 66.11580153 15.83439787 -1.49972714 -10.09275207 1.78915867 -15.79352357 -0.21609714 0.11236411 0.19921011 -53.3718533 -3.37350327 -29.05755038 76.95316692 2.39730507 -1.47236044 -25.32876909 -0.56690831 10.34073411 -4.94563351 -5.14149149 2.86824251
-0.01315949 1.02294949 0.0036293 5.49490477 -55.14795025 9.64827943 9.56752865 0.67047128 -0.11883356 4.82039356 -0.35755443 0.48564294 8.36181068 -0.39968964 0.4181553 -5.17147251 4.6452212 -1.95295664 -10.24040863 29.56821033 -4.3088074 5.01731639 -29.54034841 -4.67602329 -37.30506748 20.69066142 -53.3275043 -87.95366762 8.71306522 -82.28345718 -39.67075247 -1.72018459 -6.52978557 5.87296315 18.00761622 -0.99454438 -17.38749824 32.92992869 56.07598314 -95.15179951 56.08226454 89.06918158 4.92687264 7.60586569 16.93536973 -40.11068378 6.22269668 13.86962705 47.05894016 16.92586738 -0.25225398 -4.09931518 2.62600136 -14.13352483 -0.29492213 0.18737295 0.2722526 -43.22972096 -8.06486538 -29.14459016 62.77677384 4.32503457 -1.67816443 -13.61164204 0.22450769 11.66984518 -11.46193699 -4.88200853 2.94401129
-0.01154767 1.05240928 0.0021955 5.24184216 -55.08217558 9.332137 9.11480233 0.95550706 -0.05867968 4.81457911 -0.36149398 0.48783748 8.35602609 -0.40357831 0.42058335 -4.47723194 4.57428558 -1.96330344 -8.53951693 28.58131482 -3.60061223 4.80600226 -28.33858598 -2.79880913 -36.5986853 18.03127959 -56.5725156 -88.11329561 6.88455587 -75.49271922 -42.92798216 -0.3999777 -8.55412276 3.79532716 15.8114965 -0.47954274 -16.80006885 34.14917172 56.6204458 -89.83320933 55.42180865 83.86177558 3.76235722 6.64922333 16.97366468 -32.95360971 8.90259421 12.04718342 42.29572182 12.91887236 0.93245393 -7.49695323 4.63478824 -14.14459751 -0.00039509 -3.29071365 0.00030964 -32.24677486 -14.49683222 -27.21106123 49.27597276 -2.16497212 -4.43663329 -19.23018793 -0.59705048 15.78992479 -12.0923869 0.25856353 -0.0269489
-0.01046569 1.06692794 0.00386932 4.58938877 -54.93543121 8.0194707 8.98654942 1.07774558 0.41810161 4.81673092 -0.1881541 0.47058915 8.3589754 -0.23359584 0.38181137 -3.75958419 4.50924184 -1.96947544 -6.78674715 27.62607448 -2.91752555 4.03981987 -27.08654071 -1.40496159 -36.68654077 14.00371349 -59.54053167 -89.01341422 10.16285334 -72.98088732 -39.85603893 -1.31305488 -7.45379481 1.29829179 14.51324546 -0.11665336 -13.45050416 32.00543533 54.76971359 -93.89623114 54.08367631 89.96882117 2.93795594 4.17941779 14.19842491 -33.41555044 10.60821454 11.8990106 51.11741861 8.91588889 0.8260357 -6.80195612 0.88294513 -13.05791778 -10.95949573 -8.27385147 0.04366995 -28.25718481 -11.82706542 -21.07354951 47.1134363 -14.74065189 -11.31604634 -8.82161812 0.0981435 26.37625958 -11.0124626 4.76514656 0.06148605
-0.0115742 1.06776108 0.00323025 3.67555103 -54.68963265 6.9119837 9.30145885 0.97280961 0.32931467 4.82775051 0.02854797 0.44954459 8.37098166 -0.021268 0.33430657 -3.05457138 4.45149855 -1.97221017 -5.06463599 26.7330996 -2.28249272 2.83557376 -25.89159943 -0.40895443 -38.71760191 9.38171136 -61.69211668 -88.0093561 7.66277918 -72.09793868 -41.73933359 -2.54522873 -4.10755826 -1.58945769 14.29338744 0.19435905 -9.65680749 28.00997915 52.15280518 -100.68932659 52.51769581 99.61388434 1.24109862 1.94079924 9.36922228 -43.85342182 9.72069102 14.9169662 64.87126277 -5.54486206 -0.11912695 18.88530045 1.01184778 -6.6925516 -39.95817972 -7.68999645 -1.54855773 -38.55067268 -6.00565156 -29.88576311 64.95511635 4.6689315 2.88521356 14.24223162 4.31927657 12.70475041 -42.52907805 -0.13128319 -0.11324604
-0.01386003 1.06801743 0.00456461 2.64962701 -54.3785146 5.56444202 10.04979566 0.47054562 0.3855266 4.80690444 -0.46332696 0.50624393 8.34768453 -0.50109137 0.45520244 -2.3972864 4.40207782 -1.97284386 -3.45952421 25.93360813 -1.71673915 1.33076348 -24.57992398 0.26254745 -38.76475083 15.03571227 -59.61102908 -86.65263962 7.06832216 -78.4410248 -42.327986 -4.11392071 1.14976561 -4.75591664 14.5992579 0.56521783 -13.45708131 31.79191626 55.38801998 -99.07515056 51.92980841 98.63918424 1.27546518 -1.23838973 8.23014857 -53.444513 9.78011085 17.42043754 78.63623982 -13.65313115 -0.08481662 33.25079931 4.49298106 1.10224969 -19.42315129 -2.61331302 -3.30129919 -53.20527945 1.9320841 -26.752364 86.06879105 6.36878018 1.53694575 24.13568497 4.87252149 14.15214477 2.29698309 2.84840482 -7.25067747
-0.0168558 1.06871597 0.00762968 1.65034883 -54.04461777 4.16437334 11.31122262 -0.06475843 0.08206866 4.79316693 -0.98143012 0.56798452 8.33216189 -1.00662239 0.58314314 -1.82533738 4.3621828 -1.9729197 -2.05687035 25.25775439 -1.23988739 -0.62220409 -23.32630939 -0.0385242 -39.70181627 21.58862598 -55.68769253 -85.40023369 6.26887954 -85.72869356 -42.30848354 -5.25378834 7.09996059 -8.0725904 15.43160876 1.0755603 -17.72834147 35.99299835 59.77145231 -96.51492608 51.54355401 96.25837814 1.44197537 -2.35087512 7.41248937 -66.39893777 7.35988818 22.55754912 98.15749923 -11.39415777 0.04397498 35.25489473 3.94229962 2.98374741 0.17724031 -2.00926341 1.9634014 -70.69783285 8.91348332 -22.54844149 109.56172586 6.62232471 1.54248156 23.98983638 5.3175776 8.42597304 4.65475373 3.25746938 -4.47421283
-0.01993323 1.07098633 0.01102826 0.80210852 -53.74185476 2.94743267 12.95680153 -0.39563526 -0.22330758 4.80252044 -1.18788796 0.59557156 8.34105128 -1.20774162 0.63704953 -1.37194275 4.33247939 -1.97136118 -0.94666361 24.73784969 -0.87437994 -2.66408913 -22.17578908 -0.54889496 -41.39712579 24.89835693 -52.75180805 -84.68938525 5.61114713 -90.3412155 -41.44770568 -5.0434819 11.62116287 -11.43095491 16.64726304 1.78218667 -18.30049773 37.79042365 61.80546397 -96.25391379 51.07533604 96.59536769 1.74187895 -1.1243537 5.53433034 -78.09515615 5.63435516 27.86466041 112.95114229 -13.78407026 -0.15967707 42.91874009 9.47426118 -8.30806282 2.08894244 -0.53587481 0.05946174 -86.73631088 11.50814514 -21.45021901 125.99930432 11.72019764 2.1458854 33.12076561 0.40557462 2.35308206 2.61157049 2.51470021 0.33301246
-0.02168644 1.07263443 0.01317335 0.2158644 -53.52846935 2.08969215 15.11163476 -0.43976016 -0.25561043 4.84148096 -0.95492405 0.56792653 8.38065531 -0.97992469 0.58003122 -1.09178706 4.3150092 -1.97051563 -0.26040256 24.42346758 -0.65301293 -5.00221213 -20.78558236 -1.03611825 -40.55306406 25.48002024 -52.94884204 -84.33477095 4.85435905 -93.12935492 -39.69581937 -3.67127994 12.86943523 -15.42549388 18.22016707 2.87570652 -12.71477928 37.66591512 60.00311002 -97.94380001 50.60806839 99.18650819 2.74763999 3.41963435 3.44483123 -86.35691728 6.23383643 33.57117732 121.59101874 -13.86961069 0.55172389 46.84671298 13.15788786 -11.52269164 3.10981626 0.09975028 -0.95848648 -96.80400915 9.1731605 -24.2130977 134.24726617 10.56694427 0.8061398 39.58610351 -3.5585648 -3.50775007 0.93819045 3.40515359 1.74406979
-0.02244317 1.07318039 0.01414074 -0.00356212 -53.44862684 1.75929781 16.40635358 -0.41209976 -0.23493324 4.86629605 -0.74714647 0.54123764 8.40602003 -0.77730428 0.52711955 -0.96702942 4.3075037 -1.97031719 0.04546866 24.28498269 -0.55533794 -6.35363521 -19.94184921 -1.26669323 -39.52724226 25.30832696 -53.72980287 -84.2047061 4.40167761 -94.3900687 -38.51141666 -2.74343089 12.9186547 -17.81118911 19.11878475 3.64391865 -8.57444592 37.15521597 58.51257936 -99.25033805 50.31504848 101.06513196 3.51489537 6.51762283 2.15905286 -90.39543822 6.77174047 36.80133183 125.27261994 -12.99842497 1.14408905 46.99727621 14.44651743 -10.15383335 3.36331892 0.24137398 -1.21009773 -101.38990092 7.2477622 -26.38103837 137.32771441 8.84978032 -0.21149532 41.51374384 -5.1566534 -6.76902527 0.46706747 3.75224594 1.97788449
