HIERARCHY
ROOT Hips
{
  OFFSET 0 1.1673769999999999 0
  CHANNELS 6 Xposition Yposition Zposition Xrotation Yrotation Zrotation
  JOINT Spine
  {
    OFFSET 0.000003812944337411511 0.10717500000681812 -0.009311
    CHANNELS 3 Xrotation Yrotation Zrotation
    JOINT Spine1
    {
      OFFSET 0 0.1058532983696241 -0.004285186608692496
      CHANNELS 3 Xrotation Yrotation Zrotation
      JOINT Spine2
      {
        OFFSET -8.470329472543003e-22 0.10599345671141647 -0.007812688101110094
        CHANNELS 3 Xrotation Yrotation Zrotation
        JOINT Neck
        {
          OFFSET -8.470329472543003e-22 0.26240299999999994 -0.04488100000000002
          CHANNELS 3 Xrotation Yrotation Zrotation
          JOINT Head
          {
            OFFSET -4.235164736271502e-22 0.17466899999999996 0.05625600000000003
            CHANNELS 3 Xrotation Yrotation Zrotation
            End Site
            {
              OFFSET -4.235164736271502e-22 0.10756799999999966 0.021070000000000005
            }
          }
        }
        JOINT LeftShoulder
        {
          OFFSET 0.10574399999999999 0.23009199999999996 -0.07323000000000002
          CHANNELS 3 Xrotation Yrotation Zrotation
          JOINT LeftArm
          {
            OFFSET 0.14878212914559852 -0.04653266654569688 -0.030693304075147546
            CHANNELS 3 Xrotation Yrotation Zrotation
            JOINT LeftForeArm
            {
              OFFSET 0.24109000000000003 2.220446049250313e-16 -5.551115123125783e-17
              CHANNELS 3 Xrotation Yrotation Zrotation
              JOINT LeftHand
              {
                OFFSET 0.316792 0 -1.1102230246251565e-16
                CHANNELS 3 Xrotation Yrotation Zrotation
                End Site
                {
                  OFFSET 0.06265729429771016 -0.10569948639925819 0.03859412819617963
                }
              }
            }
          }
        }
        JOINT RightShoulder
        {
          OFFSET -0.10574399999999999 0.23009099999999982 -0.07323000000000002
          CHANNELS 3 Xrotation Yrotation Zrotation
          JOINT RightArm
          {
            OFFSET -0.14878040829228295 -0.04653159475972379 -0.030692917709113934
            CHANNELS 3 Xrotation Yrotation Zrotation
            JOINT RightForeArm
            {
              OFFSET -0.24109000000000003 -6.661338147750939e-16 -2.7755575615628914e-17
              CHANNELS 3 Xrotation Yrotation Zrotation
              JOINT RightHand
              {
                OFFSET -0.31679300000631333 -8.881784197001252e-16 -5.551115123125783e-17
                CHANNELS 3 Xrotation Yrotation Zrotation
                End Site
                {
                  OFFSET -0.06265795211397429 -0.10570764472283312 0.03859362014678265
                }
              }
            }
          }
        }
      }
    }
  }
  JOINT LeftUpLeg
  {
    OFFSET 0.12297511767165623 -0.06742078536803264 -0.010003
    CHANNELS 3 Xrotation Yrotation Zrotation
    JOINT LeftLeg
    {
      OFFSET 0 -0.457033849483632 0.010304509991859542
      CHANNELS 3 Xrotation Yrotation Zrotation
      JOINT LeftFoot
      {
        OFFSET 0 -0.500280623664138 -0.036905110570505176
        CHANNELS 3 Xrotation Yrotation Zrotation
        JOINT LeftToeBase
        {
          OFFSET 0.025950805788189563 -0.14255151365608373 0.19507593811975638
          CHANNELS 3 Xrotation Yrotation Zrotation
          End Site
          {
            OFFSET 0.010732117804750613 -0.000035441498015504746 0.11362327680684622
          }
        }
      }
    }
  }
  JOINT RightUpLeg
  {
    OFFSET -0.12297488233495055 -0.0674172146317622 -0.010003
    CHANNELS 3 Xrotation Yrotation Zrotation
    JOINT RightLeg
    {
      OFFSET 0.00000159348816348992 -0.45703784846455486 0.01030460015485039
      CHANNELS 3 Xrotation Yrotation Zrotation
      JOINT RightFoot
      {
        OFFSET -0.0000015934881634621645 -0.5002806236608007 -0.03690511058134042
        CHANNELS 3 Xrotation Yrotation Zrotation
        JOINT RightToeBase
        {
          OFFSET -0.0259497668227143 -0.14255297441554501 0.19507500887383716
          CHANNELS 3 Xrotation Yrotation Zrotation
          End Site
          {
            OFFSET -0.010733201844058626 -0.000035030229497263656 0.11362417898958707
          }
        }
      }
    }
  }
}
MOTION
Frames: 32
Frame Time: 0.03333333333333333
0.00005239 1.13706963 0.00808792 1.02028061 2.74231726 -2.06422689 0.1901737 0.30320953 0.79155632 0.38498031 0.69241328 0.49692259 0.38498 0.6924161 0.49692176 -0.00430774 -0.45599172 -1.20808875 2.74495741 -3.02761583 1.9081068 0.54633499 -14.77964074 -16.71903271 -6.08580695 6.47130688 -50.65136945 18.14921835 -31.93902884 -5.07871386 19.39983689 -9.01701247 14.00527291 1.4178271 7.41819005 17.75291133 0.62325992 -19.220135 55.03105316 11.68745509 24.82186341 10.77645431 22.35769482 3.43429465 -7.26472235 -28.63504469 5.28074987 7.31604361 63.60417522 -0.88657092 0.77252603 1.70308006 0.37044363 -1.320776 -10.95027112 -1.75761496 -0.59537811 -12.90871862 -9.00634645 3.27864504 21.74137339 7.7961865 -0.06641918 -9.12468077 0.5981189 -4.73415362 -4.89422985 -0.66743648 0.58383256
-0.00149398 1.14459564 0.00597931 1.02042987 1.3716395 -2.00771656 0.20726315 0.66377525 0.56088851 0.42497068 1.33954199 0.14955429 0.42497015 1.3395423 0.14955427 0.53828516 -0.61746117 -0.46384436 2.30496177 -2.94459551 1.55186813 0.85651376 -13.55991544 -15.86129804 -3.24160815 10.24350751 -53.40390335 17.21802153 -30.40963472 -4.51857083 21.52297306 -9.87781916 13.34718222 1.32909583 8.17743058 16.9886829 -2.2544686 -21.64834386 54.35534452 8.18386048 34.56298613 13.01457474 25.06592543 -2.46103777 -4.43991019 -31.89165071 5.24195074 6.84036191 56.46505981 1.18172237 -0.0267093 -1.11977386 0.38840317 -0.73458773 -4.55100817 -0.33787276 -0.62856829 -8.07192978 -9.59171559 3.55559126 19.87201608 8.78191484 0.091817 -9.9931581 0.84264027 -5.29314712 -5.17765432 -0.68027774 0.44004594
-0.00262931 1.1454129 0.00279208 0.89360243 0.2210578 -2.13123351 0.31737503 0.96995371 0.36620927 0.64813061 1.90006913 -0.04369617 0.648131 1.90006952 -0.04369688 0.59926718 -0.85160832 0.51937904 2.13233021 -2.7092359 0.8814716 0.94732247 -13.02193237 -15.99345741 0.85769803 13.07017663 -54.4884109 18.02831615 -30.98356251 -3.93639736 20.26327297 -9.66119318 13.25342771 1.34658906 8.60210789 15.80242101 -6.33113723 -19.14644673 53.32482163 6.14616495 39.13607718 14.65975391 24.50594008 -6.74880395 -3.75771146 -33.5293873 4.6863701 6.21876327 46.77702607 3.62268417 -0.39101658 -3.47346616 0.32900729 0.08927231 -5.57035747 3.73800194 -3.58541406 -3.70703841 -10.16336834 3.54465213 18.95203918 9.90345619 0.54132306 -11.31690437 1.07010749 -5.70893622 -5.31360648 -0.78620336 0.4582566
-0.00298688 1.14077423 0.00181241 0.68862614 -0.59503367 -2.20169674 0.37314371 1.1992194 0.21147721 0.75930218 2.33510058 -0.13833431 0.75930113 2.33510059 -0.13833402 1.55074425 -0.99423453 1.20476205 1.53417318 -2.50662938 0.41613133 1.14720733 -12.10682164 -15.62867974 4.29498736 14.86904264 -56.48826882 19.00419889 -29.7537289 -3.74804823 19.88492846 -10.21774657 13.41149779 1.35294813 9.05602249 14.79054431 -10.3632504 -15.23216582 52.25620248 4.92674449 41.21268113 14.62068901 23.51259899 -9.43257624 -4.14662061 -34.50636925 4.23683219 5.62371818 36.26241523 4.93765308 -0.42542975 -4.20146126 0.24282095 1.36977367 -4.98360676 1.30214853 -1.73341313 0.70661545 -10.9420356 3.06285604 18.34178395 11.30675302 1.30241679 -13.08146767 1.3454208 -6.1905132 -5.93837345 -0.9836079 0.52507098
-0.00320279 1.13206925 -0.00144 0.57995755 -1.20115042 -2.10125161 0.45171006 1.388423 0.02621211 0.91553092 2.713268 -0.30317394 0.91553134 2.71326724 -0.3031733 2.07688579 -1.16782476 2.03412812 1.15349512 -2.32674717 -0.04346766 1.26262332 -11.74251404 -14.95967077 7.06468146 16.60663912 -59.08099237 19.80808748 -27.7182771 -3.19163172 20.82064026 -11.442328 13.2950427 1.31536602 9.54058254 14.29981946 -13.71968429 -9.86929113 51.43355388 5.00757542 41.9362951 11.89806122 21.38125418 -10.11170515 -5.84539624 -35.51298314 4.17703586 4.98673955 25.95558883 4.47899292 -0.03608296 -2.06282071 0.24868472 2.21204143 -5.09639458 0.60076992 -1.24262445 4.49532477 -11.40428701 2.31025714 18.38441964 12.34762322 1.98805877 -14.79968885 1.59814599 -6.44657029 -7.62090663 -1.34649309 0.78553691
-0.00262851 1.12094696 -0.00560626 0.65185039 -1.85654556 -1.92482603 0.46955197 1.59344071 -0.17157302 0.95170259 3.14133639 -0.53427006 0.95170091 3.14133674 -0.53426982 2.58223702 -1.4185144 3.06936646 0.74147464 -2.1895944 -0.4861324 1.24445847 -11.98868941 -14.6244866 9.64712348 18.67979906 -61.39979173 20.39050857 -25.99901042 -2.33739363 22.63009731 -12.75051481 12.95156735 1.327428 9.91388323 13.51639357 -16.40227809 -4.36861139 51.75347886 5.44704052 40.63274794 8.06308793 19.68419507 -8.38856597 -8.99605596 -37.15756187 3.67429936 4.24358511 18.42835471 3.60752582 0.8258294 -0.52160759 0.31778781 1.30915376 -6.08802614 3.06116244 -3.17492637 6.97017795 -11.9407393 1.27283642 20.24578048 13.27074149 2.37796698 -15.8034562 1.79157416 -6.46669503 -11.35177637 -1.57883728 0.305354
-0.00090853 1.10846932 -0.00829596 0.76877487 -2.65470559 -1.83933366 0.46042096 1.8414659 -0.32846534 0.93751031 3.6488138 -0.78667019 0.93751099 3.6488158 -0.78667051 2.63031904 -1.74352572 4.17938716 0.50478735 -2.14205037 -0.76481907 1.31556715 -11.74885574 -14.25620217 11.2802036 20.43772846 -63.22103016 20.83328529 -24.6646219 -1.4649064 24.73096703 -11.97672364 11.09162163 1.35889451 10.18018468 12.75083082 -18.27123355 0.19119567 52.5816803 5.89292373 38.64990702 4.43542133 18.61289657 -5.07877656 -13.16672565 -40.18216306 3.06668788 3.91084964 17.22376873 2.60070823 1.64202615 -2.20730961 0.33624138 -0.3503342 -7.53843066 4.92887667 -4.69494755 9.1942359 -12.42185779 0.35349511 22.52058806 13.8583674 2.2966187 -15.8110928 1.96851385 -6.46142385 -16.05203875 -1.76268108 0.33216519
0.00208598 1.09361992 -0.00633873 0.75323014 -3.43868879 -1.82049293 0.4379241 2.09124624 -0.442871 0.89801201 4.1487635 -0.99847375 0.8980107 4.14876335 -0.99847371 1.87948953 -2.03185514 4.90808475 0.79019095 -2.29000976 -0.58219873 1.37131075 -11.39728536 -14.37634589 13.39478006 22.61328938 -63.97097248 21.57009376 -26.92296737 -0.57669478 25.49095459 -6.9394817 6.94047349 1.4111459 10.60156594 11.58676688 -18.41738175 2.31919326 53.76759148 6.37225231 38.75168026 1.58787333 18.11017097 -1.75796928 -17.60648161 -42.00840361 3.54605315 4.07317437 19.82740135 0.54937171 1.6495537 -6.10553783 0.40749041 -0.88823623 -10.16934646 3.4755367 -3.86894677 11.19121278 -12.90556672 -0.51970816 25.67589535 14.2550664 1.59330478 -14.27213371 1.93555222 -6.11370821 -22.58055912 -2.21722739 -0.00289494
0.00755374 1.07713135 0.00205106 0.69987568 -4.01592712 -1.68775069 0.37649723 2.27756547 -0.55108909 0.7793364 4.51951299 -1.18010833 0.77933612 4.51951376 -1.18010871 0.53012948 -2.14343287 4.9428032 1.51680886 -2.6406713 0.18776088 1.26035226 -11.70632136 -15.18803081 15.96168138 25.03910247 -63.90905206 22.36286037 -31.87486663 0.33585776 24.72862038 -0.42909288 2.68800849 1.51677761 10.36155006 10.83484902 -16.74827634 2.60447421 54.75385523 7.67687087 42.22029121 -0.65653403 18.01094902 0.25900211 -21.53645638 -41.12074319 4.7940557 3.95575728 22.09549365 -1.7745537 1.15077949 -6.52918173 0.22511327 1.18319674 -14.56755102 3.20192767 -4.1105297 12.71373998 -13.23473149 -1.576528 29.63014505 14.25885523 0.52018525 -9.43869444 1.6971723 -5.56880806 -32.96883016 -2.51935107 -0.00843716
0.01315802 1.06729157 0.01242274 0.90842089 -4.29465693 -1.30113234 0.15875237 2.35667439 -0.6701884 0.34779641 4.66323651 -1.38998307 0.34779539 4.66323477 -1.38998266 0.57008503 -2.01650196 4.58584933 1.28650828 -2.92389666 1.20777817 1.01258988 -12.70526102 -15.97975683 17.57691709 26.53579501 -64.17256949 22.14112858 -34.47291939 1.07159284 23.72908532 4.10437634 0.0342197 1.60567527 9.66983043 10.85328638 -13.58902584 1.72335676 55.93238567 9.92424517 46.41600691 -3.00565529 18.18035407 1.71816517 -23.64457672 -41.8569589 5.24461589 3.88324557 27.81281344 -4.75004022 0.82233451 -0.20088406 0.28449923 0.0632284 -12.28140246 5.20280431 -3.09350605 13.26709948 -13.35130867 -2.33991352 32.48930096 13.19236204 -0.89861604 2.76852968 1.2859075 -4.33684557 -49.01128147 -2.24700619 -0.08035713
0.01919553 1.06387238 0.01937319 1.37193785 -4.20100811 -0.70718734 -0.14063777 2.28966807 -0.85657324 -0.24629079 4.51060023 -1.73484496 -0.24629174 4.51060029 -1.73484456 1.3579669 -1.8263843 4.55589679 0.77574578 -2.85968251 1.84871898 1.09149357 -12.44751817 -15.63403421 17.1448053 26.61632854 -64.05674502 21.50244007 -35.41249449 0.7623273 24.10497785 8.03052565 -2.34737821 1.53654501 9.27965987 12.24035186 -8.82904951 -0.18842153 56.50704004 13.19090012 50.93733433 -6.5224483 17.75540984 2.26714111 -23.78037805 -40.27396394 5.22234145 3.11455498 30.06620031 -3.97994488 0.4153082 7.58070875 0.24919977 0.64887345 -4.25923603 4.51438652 -4.49981917 12.85204232 -13.13689122 -3.03002781 32.27469847 10.3204646 -1.75764059 22.68680164 1.25247676 -1.38860724 -67.48581353 -1.55180109 0.8596319
0.02471726 1.06556473 0.02048744 1.65884563 -3.76044293 -0.19351453 -0.25776425 2.07333032 -0.98514771 -0.48077273 4.0520093 -1.96909477 -0.48077325 4.05200659 -1.96909437 1.14176721 -1.54219077 4.08900576 1.19314554 -2.51148467 2.31384331 0.92714479 -13.12594664 -16.05125756 16.03605558 26.99948211 -63.01356185 20.79192837 -37.02436884 0.540925 24.77369866 11.14678383 -4.55282606 1.47863195 9.00606132 13.39108791 -3.99761149 -2.13259006 57.78457717 16.64956123 53.98987032 -10.80272648 17.58967994 3.15497302 -23.25830022 -39.7406577 5.16600993 2.28829123 36.40522085 -3.45322426 0.15343008 1.5732345 0.28653769 1.43440989 -2.95949396 3.79038375 -4.50089749 10.16900019 -11.50890131 -3.77432585 36.806227 4.26913996 -2.15180471 33.213984 1.30518875 -1.84900174 -61.3682876 -1.86756541 4.63097669
0.03045387 1.07842262 0.01954346 1.50750382 -3.23345533 0.065212 -0.16516982 1.77296172 -1.02036115 -0.30847952 3.41433997 -1.85246551 -0.30847991 3.41433953 -1.85246539 0.9125814 -1.0592769 2.78614873 1.7248886 -1.97757917 2.80806834 0.18880909 -15.4784126 -18.5683285 14.14606874 27.18591929 -60.56114011 19.99086466 -36.98054277 1.06057157 24.27976988 11.65985838 -5.32907104 1.622128 8.47156632 12.59874098 -0.68927895 -2.79408637 61.38936688 18.07747455 51.77228082 -13.06676863 17.73849435 5.85627939 -22.95871007 -35.92789994 5.34413818 1.20173241 37.76739731 -3.5698368 0.31906648 -3.36773187 0.29116582 1.93980035 -3.19653515 3.82769924 -4.86066047 3.57201736 -10.49235325 -4.49074678 44.79129613 0.27419354 -2.26825083 34.20490451 0.77421181 -5.07449392 -47.99858847 -7.63917952 12.96812334
0.03526158 1.09894424 0.01782343 1.13022242 -2.76604311 -0.05251066 -0.02397846 1.44304456 -1.00499454 -0.03890153 2.72911186 -1.60187656 -0.03890115 2.72911222 -1.60187608 1.34677765 -0.66484177 1.97732043 1.98291346 -1.17689645 2.86044435 0.01893127 -16.17277626 -18.70171799 10.18509426 23.89119494 -59.2595934 18.4299686 -31.76716348 0.35410359 24.36285135 8.63501924 -3.72471047 1.60735704 8.0733612 13.55382458 2.06530637 -3.28140497 63.14394329 18.85284411 47.25112021 -13.88584817 16.94349389 8.48638554 -22.23077825 -29.77235872 5.73595769 0.47727133 35.19130665 -4.16506179 0.60188183 -6.50281041 0.25990573 2.31361332 -3.39759426 3.87986098 -5.07409679 -3.56619418 -9.21735359 -4.4180284 51.10397385 -1.2170321 -1.88502058 29.15810782 0.3201709 -8.54588382 -39.71821093 -11.15603992 16.58040146
0.03832418 1.11937439 0.01487473 0.85793957 -2.04930827 -0.47242859 0.0829124 1.05500488 -0.89277071 0.16515837 1.95971127 -1.18100555 0.16515811 1.95971043 -1.18100662 1.92786073 -0.30127737 1.28401226 2.19626694 -0.4181367 2.88561132 0.16738938 -15.76501828 -18.18051405 6.56700959 19.11447843 -58.44081625 17.81572799 -27.63207701 0.08645011 23.52505391 5.1370336 -1.90725242 1.49710671 8.06623631 15.02867771 4.25939 -4.55272171 63.75024895 18.80904173 41.55055902 -13.00717831 15.74823477 10.70962803 -21.13585238 -22.97727175 7.0874135 0.47327423 30.78706987 -6.3243419 0.81627682 -8.53915025 0.18810109 2.87516879 -3.46450484 3.91893806 -5.03506322 -11.52765882 -8.07417853 -3.66264395 55.49428534 -1.7113906 -1.18008763 20.30294656 0.42463651 -10.96721361 -36.70440635 -12.35216589 16.0939072
0.04090249 1.13753815 0.01380359 0.86986492 -0.68123376 -0.95082306 0.10895022 0.56694247 -0.70051477 0.21449935 1.02724681 -0.70658376 0.21449816 1.02724603 -0.70658416 2.97134216 0.03411655 0.66386311 1.79807881 0.15801003 3.07841903 0.2371107 -15.5894766 -17.89199633 4.28127427 15.08720736 -57.4539932 17.91304737 -27.22622443 0.06827179 21.74019609 2.40399338 -0.89391669 1.53427507 7.35106815 16.20553639 4.80823066 -5.75843478 63.88930653 17.6798341 33.72877372 -10.08162472 15.01299256 13.05565701 -20.03761859 -15.95618992 8.50606349 0.37106066 25.30403765 -9.09159385 1.02061687 -9.94057377 -0.01289848 4.18279288 -4.1953199 3.94767969 -4.97478226 -18.11535896 -7.27211789 -2.77666799 55.28630757 -2.4869524 -0.2709122 11.25067588 1.0196821 -11.59169333 -29.79700098 -10.15181197 13.98572073
0.04269668 1.1484275 0.00885666 1.1628227 1.21668143 -1.10645665 0.14895685 0.02965066 -0.55011434 0.29771884 0.01368903 -0.42302432 0.29771802 0.01368867 -0.42302375 3.24467995 0.2797746 0.42412357 1.41935979 0.55748484 3.30015217 0.27272582 -15.94775109 -16.95577155 3.02049884 12.1701475 -56.33688734 18.07891827 -30.89946292 -0.24996704 19.36381628 0.91272699 -0.63753988 1.65805206 6.15609594 17.66833918 4.30314877 -7.25751506 63.07704143 16.32405563 26.09385701 -6.88487368 14.48783244 14.69227302 -18.44408082 -10.18381264 9.16411211 0.18110497 20.76793763 -11.75644261 1.03488935 -10.46167767 -0.03205562 4.4609559 -5.33207297 3.96711285 -4.91632278 -23.67969763 -6.75815303 -2.433101 51.19053952 -3.43543189 0.38698375 4.07187648 1.34967394 -10.84003059 -18.65187658 -5.87385539 12.17899192
0.04362708 1.15072891 0.00290169 1.54912204 3.05169658 -0.76532692 0.18800785 -0.43124707 -0.48441233 0.3790666 -0.85240173 -0.37517217 0.37906769 -0.85240155 -0.37517251 3.20016062 0.46625858 0.34557977 0.91513608 0.79655861 3.56031885 0.26376508 -16.43098218 -16.23778944 2.41017135 10.34528084 -54.48790512 18.47417558 -37.95215378 -0.03707916 16.59365549 0.87643007 -1.02900868 1.78000608 5.25218359 18.61229043 4.23287677 -8.8017813 62.18434677 15.23928977 19.78779615 -3.87560999 13.1081671 15.48058307 -16.80435789 -4.76512924 9.96310051 0.00736339 16.48874022 -14.50321949 0.48601819 -11.44960487 0.00897243 4.52483681 -5.8124781 3.76281094 -4.63493848 -27.96186899 -6.05678122 -2.73812439 43.6629021 -4.234742 0.54051759 -0.25140599 1.49401904 -9.71165866 -9.34134733 -2.73667481 4.81092641
0.0440806 1.14525551 -0.00052573 1.8056809 4.34046075 -0.1295788 0.2231194 -0.73575991 -0.46013111 0.44942997 -1.42783013 -0.44780717 0.44943034 -1.42783068 -0.44780763 3.32019015 0.61150809 0.20161955 0.22463596 0.90939291 3.80867932 0.42579397 -16.15210386 -15.38080858 1.06845978 7.94986598 -52.73522102 18.44468345 -44.61630584 0.25979601 14.24589819 1.20697941 -1.04544882 1.68049928 5.36029757 20.14367384 6.87192391 -11.774573 60.83773899 15.29125921 18.83197992 -2.30694984 10.51929967 14.31954007 -14.40273685 0.73419204 10.91159225 -0.33493943 12.81019064 -17.23831774 0.00277159 -13.49738537 -0.01943757 5.09989169 -5.87430866 3.99045732 -4.91253046 -30.47674934 -5.17810001 -3.23014577 34.01693318 -4.40281136 0.0563928 -3.41016695 1.49884556 -8.97634423 -10.16177018 -2.44351387 2.24889657
0.04463871 1.13356041 -0.0033026 1.87215774 5.09026433 0.45653769 0.31686 -0.9184693 -0.34310926 0.63585923 -1.78099886 -0.36922798 0.63585969 -1.78099764 -0.36922817 3.08770055 0.81845212 -0.63363815 -0.18558109 0.82739893 4.22418786 0.32688986 -16.69102612 -15.35831291 -0.59444098 6.37513362 -50.70355879 17.91069715 -50.61689308 0.81408949 12.2104962 1.52844184 -0.18951845 1.78525324 4.91445105 19.8811964 8.32512737 -12.57619738 60.33896244 15.76392679 15.75208164 0.64813718 8.72330967 14.38211248 -13.331146 4.89118996 12.03757065 -0.15990236 12.05522739 -19.55445103 -0.68440066 -16.10036162 -0.04733663 5.70613667 -6.93270279 4.02250368 -4.85240273 -32.47734009 -4.31517159 -3.65295473 24.17582629 -4.29140971 -0.81263381 -6.67010206 1.4800937 -7.7997313 -10.81926131 -1.61668475 1.69528338
0.04467168 1.11938699 -0.00593702 1.85295452 5.66160824 0.83663047 0.41110859 -1.07048995 -0.19656081 0.82215124 -2.09864701 -0.26521321 0.82215091 -2.09864636 -0.26521309 2.99916543 0.91866601 -1.21528676 -0.55107776 0.81684134 4.26295074 0.35173145 -16.58377764 -15.3332796 -2.90177845 3.93712254 -48.90295833 17.33888757 -54.30031057 1.55159906 10.67392415 1.14124944 1.66751611 1.804641 4.71579407 20.34852289 10.9030616 -13.5493119 60.09208735 17.45403035 15.16344365 1.38404363 7.19043986 12.81702604 -10.66485954 6.50153789 12.79812748 0.75310061 16.05221874 -21.22532047 -1.16705733 -18.40281458 -0.19117398 6.6649695 -10.87073126 4.09383809 -4.63119521 -34.0731618 -3.85367881 -4.06501656 14.85471093 -4.14251583 -1.59133836 -9.86564899 1.11831362 -4.45783411 -12.02784766 -1.84778372 0.6782043
0.04414588 1.10204185 -0.00736005 1.87298012 6.38273519 1.06576049 0.4638189 -1.25902648 -0.01834254 0.92591522 -2.50961736 -0.0769098 0.92591421 -2.50961736 -0.0769102 2.53130266 1.03895959 -1.93010933 -0.41407784 0.7909833 4.12443742 0.38311965 -16.49626225 -15.22943187 -5.30744882 1.98493234 -47.6969482 16.78489606 -56.45608424 2.20781188 10.13166115 -0.30789894 4.79151753 1.83514707 4.61935824 20.09276892 13.99250355 -14.40146112 60.95867855 19.41710707 15.79371352 1.16905222 6.71864579 9.99319054 -7.33230014 6.95425874 12.28214894 1.77359064 22.24974963 -21.51448229 -1.02992776 -19.79405089 -0.32119927 7.44077381 -17.46449052 4.29781307 -4.40335777 -35.92612028 -4.08326164 -4.56587637 9.56955131 -2.96421794 -1.80362233 -13.2867576 0.11579397 -0.55673615 -14.03638932 -1.3837018 1.67304868
0.04234539 1.08474633 -0.00857637 1.9848162 7.30115987 1.1872712 0.47393588 -1.49888578 0.12737893 0.94778517 -2.98834088 0.16770595 0.94778462 -2.98834167 0.16770618 1.33081324 1.21800133 -2.71354244 0.29955784 0.71733834 3.85326736 0.17216236 -17.20031627 -15.7963365 -7.21635825 1.52093759 -46.0991289 16.4053936 -57.63548417 2.58155917 10.41097398 -2.63370323 8.95146345 2.00984077 3.78872315 19.98035912 17.27658446 -15.72011731 61.58286528 21.6585537 19.07411122 0.19693444 7.16800493 5.33958793 -3.93643346 7.77088214 11.55508507 2.27122472 27.67959037 -21.00170033 0.37929187 -19.37358558 -0.2009337 7.20231644 -25.19357876 4.4726517 -4.17951373 -38.90786931 -4.01230193 -4.94533813 11.62251508 -1.70888736 -1.79471782 -15.09884101 -0.68037323 1.96527679 -12.47373826 -0.33296129 0.52719817
0.03771142 1.06968261 -0.00444947 2.20986076 8.14553376 1.0634221 0.35545403 -1.71427888 0.20129201 0.71561399 -3.3788026 0.37505413 0.71561399 -3.37880149 0.37505408 0.20682259 1.30220531 -2.99548615 1.07906648 0.67533449 3.2752875 0.12546646 -17.41848672 -15.8276033 -8.3676648 1.5060148 -45.29919622 16.1339637 -57.97960061 2.52394866 11.31138391 -5.01141244 12.82620775 2.09098422 3.37123641 20.07801718 20.07523285 -17.4718432 62.24973559 22.91804918 21.62187382 -0.71316488 8.03471145 1.14873795 -1.253304 10.59645756 12.34529504 2.84031034 29.05654103 -21.37246148 2.3686968 -17.40427559 -0.01716297 6.18119204 -28.61892146 4.28980114 -4.3716513 -42.0385781 -3.82024521 -4.73365678 18.98417337 -1.02483431 -1.77874983 -13.42929218 -0.25235612 1.41663263 -17.10438672 0.18153896 -0.40990807
0.0317556 1.0620575 0.00257282 2.59392152 8.49310318 0.48530682 0.08744467 -1.78446609 0.32122503 0.18432411 -3.49166416 0.63480163 0.18432326 -3.49166358 0.63480168 0.14548474 1.2794174 -3.09165905 1.12747366 0.52164696 2.74373783 -0.15091539 -18.0076791 -16.91731455 -7.78535924 2.70842836 -43.78097366 16.44586711 -58.39034044 2.66229287 11.75154571 -6.73460878 15.70164462 2.20018464 2.85379703 19.9070572 21.11720629 -18.59337426 63.13656848 23.12611879 21.12712849 -1.22367632 9.21344842 -1.66881429 0.57898964 12.51373338 12.09558283 3.7904743 29.679915 -19.78508256 3.52206094 -12.3844714 0.09253877 4.83623479 -31.42291164 3.82692124 -0.42827807 -44.61979391 -3.9803729 -3.98673222 26.66686927 -0.95540401 -1.92139282 -4.65327282 0.24418587 1.21608326 -21.02108779 -0.46151215 0.25931673
0.02515795 1.05917 0.00486708 3.08111017 8.19436405 -0.63269495 -0.1854464 -1.69523057 0.60461568 -0.36541165 -3.24384126 0.93940756 -0.36541104 -3.24384062 0.93940814 -0.03692991 1.07835344 -2.62368007 1.27798045 0.29909242 2.18086579 -0.15734402 -17.94860592 -17.04006127 -7.40888708 3.25857386 -43.58070753 16.37871804 -56.76370338 1.43633223 12.13788022 -8.01265583 17.61063935 2.27900672 2.42983435 20.15486986 22.3357917 -19.57612241 63.26036486 23.57419863 23.03269168 -2.14490768 9.53520498 -5.07910601 2.42839016 6.05644254 11.40911428 5.43987772 41.58002534 -16.08117001 4.67889858 3.46134952 0.11525829 6.95233204 -47.74697487 4.64339304 -2.22194876 -43.6077516 -4.5309477 -2.8700041 28.68617273 -0.40607231 -0.99943069 4.15375721 0.43642703 0.38911706 -10.62687378 -0.64957203 0.95832301
0.0190461 1.0659948 0.00603723 3.37849471 7.54809357 -1.80422896 -0.31938767 -1.47803332 0.91028608 -0.63269537 -2.76528293 1.39183171 -0.63269522 -2.76528398 1.39183243 -0.58614398 0.89840858 -2.48210876 1.59079296 -0.16194505 2.12503971 0.05249463 -17.23702127 -16.6089169 -7.72696111 1.81101513 -44.64747848 15.93829732 -52.00464469 -0.56140027 12.24516879 -8.96219803 18.56469765 2.10750529 3.23825139 20.29328715 21.65245348 -20.87131858 62.57433186 23.00421628 24.44390002 -1.50807101 10.88952275 -6.39220768 3.02344145 0.47878798 9.62678545 7.27766049 50.76828423 -9.12715529 4.43918296 10.75844689 -0.13222429 4.68578612 -38.04259241 3.19505179 -5.52209467 -40.49072924 -5.19060878 -1.31169737 28.54441702 -0.13154884 -0.16292414 7.88217579 0.36351908 -0.58541546 -2.74276177 -0.59523199 0.65210194
0.01167231 1.0779561 0.00512381 3.17944262 7.02764897 -2.67814816 -0.24978857 -1.23958828 1.13308027 -0.49729593 -2.23925895 1.61294892 -0.49729676 -2.23925816 1.61294854 -1.56894547 0.53784412 -1.65738946 2.26672266 -0.61981726 1.96190396 0.15990563 -16.77058822 -16.52659185 -8.21229845 0.0214132 -45.09268971 16.19551003 -46.34248016 -2.47081649 11.8291118 -8.9709701 18.50525476 1.81190941 4.60492664 20.61098509 18.86696859 -22.55258078 61.4458548 21.23839577 25.49202475 0.00789459 14.31257296 -4.97025674 2.15516721 -6.0926233 8.40406912 8.61958752 59.17065243 -4.34899576 3.95056495 20.06604177 0.82759759 8.44295283 -14.64758724 0.96763489 -11.72247325 -37.89008634 -6.21953598 0.54122806 31.55586129 0.19784251 -0.23519259 3.70476581 0.3284831 -2.18766626 -5.80806806 -0.59692933 0.45822889
0.00715298 1.09487808 0.00426755 2.52295737 6.5952194 -2.97955154 -0.07230588 -0.98076045 1.25262641 -0.14707481 -1.69965649 1.60848705 -0.14707481 -1.69965668 1.6084864 -2.08370946 0.21164699 -1.09596548 2.79556651 -1.19044223 2.01123302 0.19035436 -16.75498754 -16.33531355 -8.4883192 -1.63706976 -46.38345887 16.88514572 -39.37497361 -3.60621035 11.52432859 -9.26158481 18.00748761 1.61835509 5.50098079 20.74571348 15.14823608 -22.33105166 59.8468799 19.64204973 26.05866782 1.26047754 16.75452779 -1.97697829 -0.08421175 -12.3336241 6.98036913 8.65838608 65.46656965 -4.09936109 3.37909433 19.9064414 1.60659064 12.01387896 -7.23531123 1.76157014 -10.52972461 -32.46352161 -7.62563649 1.77302019 31.06956046 1.53625665 -0.43851507 -0.7156711 0.39084322 -3.05084666 -5.42230711 -0.65376798 0.52826893
0.00414687 1.11212678 0.00656846 1.77004333 5.83496352 -2.78301124 0.0720931 -0.63866938 1.18795262 0.13960648 -1.04507298 1.33205622 0.13960518 -1.0450733 1.3320559 -1.69131875 -0.1029147 -0.65618997 2.94545921 -1.78469493 2.00880461 0.15329663 -16.59892761 -16.83339287 -8.83539684 -0.91219521 -47.24732582 17.157174 -34.001519 -5.3106849 13.45550568 -9.07692867 16.8565949 1.55153193 5.94019137 20.280623 11.91081761 -19.44321378 58.70757526 18.67312345 26.18448224 1.97003088 16.38357307 1.21073568 -3.17633751 -17.84667982 5.66964498 7.85219929 67.84504572 -4.29666757 2.65435144 13.02275275 1.02574259 11.36524608 -7.36440125 3.36453226 -14.83302709 -25.86473665 -8.31917259 2.50104856 28.80419235 3.19452759 -0.37649065 -4.34605674 0.4193325 -3.46222286 -4.77061388 -0.69091939 0.60052798
0.00185149 1.12658188 0.00903071 1.24235928 4.51621821 -2.3847996 0.12669049 -0.19678547 0.99301148 0.2513185 -0.22739148 0.91024832 0.2513174 -0.22739189 0.91024855 -0.65458485 -0.34699407 -0.57159097 2.81838554 -2.38661142 1.95578645 0.35988588 -15.60200489 -16.83957167 -8.94359135 1.97752717 -48.78247759 17.17152229 -30.72030605 -6.78946797 17.40450003 -8.91501453 15.53984375 1.44723657 6.72727346 19.34808975 8.12101267 -17.71821875 57.37611463 16.55390197 26.43554682 4.3857189 16.92163867 3.27015136 -5.94295462 -23.05032377 5.17617819 7.32810999 66.78460713 -2.50959091 1.78862221 6.33016024 0.37915831 5.35402164 -12.685096 1.65228556 -8.46699612 -19.28868116 -8.80671325 2.94733753 25.74789654 5.3791868 -0.26652543 -7.16494601 0.49230016 -4.14884618 -4.78193929 -0.68653575 0.59940648
0.00005241 1.13706978 0.00808793 1.02028082 2.74231848 -2.0642346 0.19016769 0.30320998 0.79156497 0.384968 0.69241861 0.49692506 0.38496869 0.69242021 0.49692474 -0.00432473 -0.45600051 -1.20810238 2.74499822 -3.02761741 1.90811308 0.54632108 -14.7796506 -16.71908115 -6.08574579 6.47138547 -50.65139441 18.1492331 -31.93910258 -5.07870919 19.39984452 -9.017007 14.00527142 1.41781464 7.41816203 17.75296595 0.62326925 -19.2201394 55.03104468 11.68746176 24.82186873 10.77644942 22.35771496 3.43430712 -7.26471067 -28.63497245 5.28075718 7.31605092 63.60412548 -0.88657957 0.7725293 1.70305302 0.37044438 -1.32077841 -10.95022543 -1.75760847 -0.59537897 -12.90865856 -9.00634282 3.2786642 21.74126419 7.79617778 -0.06641798 -9.12463144 0.59812002 -4.73417526 -4.89422576 -0.66743407 0.58383252
