HIERARCHY
ROOT Hips
{
  OFFSET 0 1.1673769999999999 0
  CHANNELS 6 Xposition Yposition Zposition Xrotation Yrotation Zrotation
  JOINT Spine
  {
    OFFSET 0.000003812944337411511 0.10717500000681812 -0.009311
    CHANNELS 3 Xrotation Yrotation Zrotation
    JOINT Spine1
    {
      OFFSET 0 0.1058532983696241 -0.004285186608692496
      CHANNELS 3 Xrotation Yrotation Zrotation
      JOINT Spine2
      {
        OFFSET -8.470329472543003e-22 0.10599345671141647 -0.007812688101110094
        CHANNELS 3 Xrotation Yrotation Zrotation
        JOINT Neck
        {
          OFFSET -8.470329472543003e-22 0.26240299999999994 -0.04488100000000002
          CHANNELS 3 Xrotation Yrotation Zrotation
          JOINT Head
          {
            OFFSET -4.235164736271502e-22 0.17466899999999996 0.05625600000000003
            CHANNELS 3 Xrotation Yrotation Zrotation
            End Site
            {
              OFFSET -4.235164736271502e-22 0.10756799999999966 0.021070000000000005
            }
          }
        }
        JOINT LeftShoulder
        {
          OFFSET 0.10574399999999999 0.23009199999999996 -0.07323000000000002
          CHANNELS 3 Xrotation Yrotation Zrotation
          JOINT LeftArm
          {
            OFFSET 0.14878212914559852 -0.04653266654569688 -0.030693304075147546
            CHANNELS 3 Xrotation Yrotation Zrotation
            JOINT LeftForeArm
            {
              OFFSET 0.24109000000000003 2.220446049250313e-16 -5.551115123125783e-17
              CHANNELS 3 Xrotation Yrotation Zrotation
              JOINT LeftHand
              {
                OFFSET 0.316792 0 -1.1102230246251565e-16
                CHANNELS 3 Xrotation Yrotation Zrotation
                End Site
                {
                  OFFSET 0.21802580156256723 -2.220446049250313e-16 -2.7755575615628914e-17
                }
              }
            }
          }
        }
        JOINT RightShoulder
        {
          OFFSET -0.10574399999999999 0.23009099999999982 -0.07323000000000002
          CHANNELS 3 Xrotation Yrotation Zrotation
          JOINT RightArm
          {
            OFFSET -0.14878040829228295 -0.04653159475972379 -0.030692917709113934
            CHANNELS 3 Xrotation Yrotation Zrotation
            JOINT RightForeArm
            {
              OFFSET -0.24109000000000003 -6.661338147750939e-16 -2.7755575615628914e-17
              CHANNELS 3 Xrotation Yrotation Zrotation
              JOINT RightHand
              {
                OFFSET -0.31679300000631333 -8.881784197001252e-16 -5.551115123125783e-17
                CHANNELS 3 Xrotation Yrotation Zrotation
                End Site
                {
                  OFFSET -0.06265795211397429 -0.10570764472283312 0.03859362014678265
                }
              }
            }
          }
        }
      }
    }
  }
  JOINT LeftUpLeg
  {
    OFFSET 0.12297511767165623 -0.06742078536803264 -0.010003
    CHANNELS 3 Xrotation Yrotation Zrotation
    JOINT LeftLeg
    {
      OFFSET 0 -0.457033849483632 0.010304509991859542
      CHANNELS 3 Xrotation Yrotation Zrotation
      JOINT LeftFoot
      {
        OFFSET 0 -0.500280623664138 -0.036905110570505176
        CHANNELS 3 Xrotation Yrotation Zrotation
        JOINT LeftToeBase
        {
          OFFSET 0.025950805788189563 -0.14255151365608373 0.19507593811975638
          CHANNELS 3 Xrotation Yrotation Zrotation
          End Site
          {
            OFFSET 0.010732117804750613 -0.000035441498015504746 0.11362327680684622
          }
        }
      }
    }
  }
  JOINT RightUpLeg
  {
    OFFSET -0.12297488233495055 -0.0674172146317622 -0.010003
    CHANNELS 3 Xrotation Yrotation Zrotation
    JOINT RightLeg
    {
      OFFSET 0.00000159348816348992 -0.45703784846455486 0.01030460015485039
      CHANNELS 3 Xrotation Yrotation Zrotation
      JOINT RightFoot
      {
        OFFSET -0.0000015934881634621645 -0.5002806236608007 -0.03690511058134042
        CHANNELS 3 Xrotation Yrotation Zrotation
        JOINT RightToeBase
        {
          OFFSET -0.0259497668227143 -0.14255297441554501 0.19507500887383716
          CHANNELS 3 Xrotation Yrotation Zrotation
          End Site
          {
            OFFSET -0.010733201844058626 -0.000035030229497263656 0.11362417898958707
          }
        }
      }
    }
  }
}
MOTION
Frames: 31
Frame Time: 0.03333333333333333
-0.00294704 1.06785042 -0.00395567 9.96208422 -29.41777357 1.90079719 1.75940898 0.04086794 0.23948346 3.57754753 0.0727634 0.25218539 3.57729599 0.07589618 0.25185439 10.76054787 4.15617614 -6.66641466 5.20730162 20.61155414 -8.23669649 2.14133901 -17.0416831 -11.04212968 -66.83499606 -5.56648273 -40.7802512 179.9999344 -74.56429893 179.99995818 -33.49316717 -25.1239259 -25.32836677 5.11439644 32.40200541 4.78584712 -47.99072784 12.47734221 46.06372191 -179.99997546 81.82590316 179.99996957 -4.87161298 20.92984963 3.46540094 -37.91389009 8.67000905 28.3332234 37.32781435 -5.79017863 -6.88326922 -4.51032644 23.87163848 -10.97067398 -0.00600685 -0.00001445 0.00000194 -33.00838242 -0.7433847 -11.02024652 37.65545546 -7.25407265 -2.36080052 -13.95854389 9.57607444 15.04694071 -0.00429662 -0.00001135 0.00000166
0.00010064 1.0630053 -0.0087651 10.99893722 -32.56206428 2.69626067 1.93030291 -0.05996949 -0.16422313 3.75568779 -0.04674827 0.16112696 3.75545868 -0.05200784 0.16111686 10.44247547 4.55578603 -6.9898865 4.59534294 22.73511205 -8.76494679 2.19165232 -17.90372174 -10.89049033 -69.72989142 -4.47770659 -41.51896739 179.99993832 -74.42587563 179.99992228 -34.03397227 -24.88171589 -25.94552762 5.35723121 33.9695622 4.73407199 -48.04887209 10.96291674 46.34470418 179.99994913 84.02436549 -179.99994479 -7.23934759 19.55127268 7.40746088 -39.12569526 9.66712815 30.04529268 38.81390985 -6.63390392 -7.52202404 -5.52878095 25.27134311 -10.60983754 -0.34872402 0.00000511 -1.3e-7 -35.41234179 1.20733232 -9.5591939 38.58703377 -8.59540312 -3.04732088 -13.692209 11.67477296 15.47398722 -0.00369428 0.00001297 0.00000317
0.00831142 1.0551799 -0.01152008 12.64493496 -33.06115054 3.38768069 2.07394765 -0.32269835 -0.24572528 4.01699734 -0.41902753 0.22747759 4.0169526 -0.42050107 0.2271657 9.87766782 4.9109417 -7.31811098 2.9525989 24.53104373 -8.91088043 2.21528129 -18.98016583 -10.6094603 -72.42127601 -3.32291323 -42.40636497 -179.99999517 -74.50923193 -179.99997515 -34.40793707 -24.50454139 -26.33943564 5.42697101 34.82738919 5.07952651 -48.11166565 8.12213696 46.93011804 -179.99966251 87.84956452 179.99963933 -9.23317007 17.9891017 11.366853 -42.19882686 9.30326148 30.84754523 41.46926992 -6.18269645 -7.85072541 -6.66242939 24.35679656 -10.0941055 -0.53877403 -0.00000128 -0.00000277 -38.16140545 1.88072697 -9.55206863 40.02767193 -9.30942702 -2.84847246 -13.7843379 12.51078436 15.93844363 -0.00303189 0.00002233 0.00000169
0.01836217 1.04682823 -0.01472308 14.56548856 -31.39622898 3.92475186 2.18828472 -0.75052835 -0.25587597 4.31975669 -1.14846528 0.32689865 4.31986972 -1.14982991 0.32691078 9.28149617 5.13744717 -7.54444617 1.03466991 25.6753807 -9.08548876 2.18691255 -20.0338408 -10.30522022 -74.70258659 -3.13771541 -43.28515989 179.99992898 -74.27513307 179.99993035 -34.27466881 -23.3827473 -26.15597429 5.29433624 34.45562884 5.85172916 -47.91983492 4.49127386 47.54757703 -0.00062364 87.39654128 0.00060673 -11.14690133 16.23082706 15.21227325 -46.48955427 7.82255711 30.17118958 44.33318345 -6.75745056 -7.20467476 -6.70812738 23.90541685 -9.88999118 -1.10728192 0.00000266 0.00000259 -40.92071072 1.6835442 -10.8274721 41.70353621 -9.34834909 -1.7745691 -13.99413563 12.09260352 16.10783773 -0.00237128 0.00000683 -9.2e-7
0.02472139 1.03924629 -0.01648964 15.85231102 -27.55730997 3.8845159 2.21337369 -1.22941606 -0.37156274 4.5671121 -2.0161058 0.46580392 4.56395278 -2.02483208 0.46860632 8.86396239 5.07414642 -7.50678121 -0.44202694 25.52147915 -9.44205812 2.14539793 -20.92446601 -10.11879747 -75.7591781 -3.59642291 -44.02113793 179.99997462 -73.92710088 179.99998851 -33.9483679 -21.38601823 -25.62966089 4.81253225 32.04771335 7.10167809 -47.18422451 0.57429759 47.93415686 -0.00007647 82.41196351 0.00008679 -12.64902316 14.4054441 18.62120638 -50.74534023 6.17148916 28.04104862 46.6481094 -8.1829838 -5.68086226 -6.1071858 23.31241395 -9.67897392 -1.67338923 0.00001258 0.00000376 -42.57428924 1.23843157 -12.7965923 43.75580012 -9.58834458 -0.49591111 -14.86093804 10.24249456 16.36505522 -0.00193954 0.00001667 0.00000323
0.02574736 1.03389298 -0.01528757 15.85094571 -20.78549247 3.03659437 2.56219181 -1.60698895 -0.53480443 4.93123089 -2.76727901 0.63361675 4.92113548 -2.78842712 0.62898509 8.75015972 4.56480165 -7.03288675 -1.16885228 23.3475386 -9.67738687 2.13945842 -21.44012767 -10.0271963 -75.62580529 -4.74657228 -44.08918892 179.99998861 -72.5863321 179.99998881 -33.65142368 -18.97144076 -24.84302063 3.8075998 26.94713913 8.98801942 -45.68544403 -3.14127662 47.82615272 -0.0000163 77.89486957 0.000021 -13.70011086 12.62145556 21.37357881 -53.1938442 4.68853939 24.6439397 46.80553912 -8.93366013 -4.90080266 -5.81768185 20.36434908 -8.33569347 -1.25645842 0.00000674 0.00001004 -41.95861042 0.53669993 -15.07280354 46.05624666 -9.48289099 0.26291437 -16.64869714 5.36348702 16.66513898 -0.00184048 0.00002631 0.00000397
0.02103889 1.03190491 -0.00816948 15.84146143 -10.2999066 1.53942744 2.43658163 -1.74982604 -0.21015105 4.85928434 -3.19338864 0.95302142 4.85327819 -3.20573169 0.9502119 8.97102247 3.50345639 -6.10516195 -1.46404824 18.17477952 -8.90906629 2.14469119 -21.29962954 -9.87041208 -73.22111066 -5.96145884 -43.90241189 179.9999993 -72.10742899 -179.9999986 -33.63362626 -16.69414484 -24.02981391 2.54373558 18.78000995 10.95963716 -42.87357607 -5.87448527 45.65899537 -0.00003793 74.54325007 0.00004298 -15.6355551 11.79976379 23.33025798 -54.95928471 2.69757937 19.54258668 45.0401395 -9.57895479 -4.36297998 -4.75909873 15.34966163 -6.69140345 -0.59692693 0.00000755 -0.00000316 -39.60995919 -1.51916396 -17.36396585 48.36004376 -9.73176447 0.88395506 -19.51289159 -1.66987268 15.65233917 -0.428891 0.00001624 0.00000437
0.01245737 1.03154999 0.00385236 15.75882311 3.31383767 -0.66935009 2.35350426 -1.58505915 0.69232306 4.67333058 -3.16794267 1.32645443 4.67610514 -3.16673836 1.32327564 9.37274337 1.90747454 -4.99312577 -1.72046566 9.44869587 -6.51791312 2.05167318 -20.39757617 -9.55216759 -70.78856574 -8.62948577 -44.12514383 179.99997952 -71.51434089 179.9999786 -34.0301459 -14.75114514 -23.54458513 1.62105624 7.9243579 11.29871636 -38.23713989 -9.0740458 41.66377029 -0.00001268 73.58477758 -0.00000348 -19.15876493 10.01893071 25.16036738 -56.23230763 0.68871075 13.40686119 42.29255904 -9.73500152 -3.82593958 -1.93178566 7.48344256 -5.79258625 -0.19413716 -0.00000471 0.00000234 -35.6553694 -5.73999239 -18.86420189 50.38153821 -10.72777147 1.11932633 -23.01747942 -8.96231666 13.24899096 -1.58095571 9.4e-7 0.0099346
0.00647704 1.03140015 0.01934058 15.49901382 18.97955106 -3.4971489 2.17821072 -1.23705576 2.38566815 4.36245578 -2.67781614 1.98941034 4.37978994 -2.6495441 1.98823101 9.68398744 -0.0154646 -4.0790285 -1.83704432 -1.60623174 -2.89815435 1.82457154 -19.12866845 -9.10776407 -69.2727735 -12.10287835 -44.85799656 -179.99999478 -71.09176415 -179.99998371 -34.57951057 -13.03798216 -23.29300105 0.89007867 -3.51805817 8.36515851 -34.46351743 -12.72717908 36.01369983 -0.00001225 73.45107348 -0.00000838 -21.36780815 5.0675963 25.08186714 -56.41132409 -1.31933743 6.23830904 39.47561886 -9.76214688 -2.98149081 1.18113765 -2.138171 -4.29831268 -0.11794032 -0.0000086 -0.00000308 -30.42632754 -9.782654 -19.2309193 53.18153872 -11.60809608 1.51801758 -23.05899577 -14.6050203 13.96070054 -7.47036404 -0.0335429 1.96208355
0.00592645 1.03035812 0.03568885 15.96857652 34.87548679 -6.7301303 1.87185475 -0.90271898 4.36432973 3.9760564 -1.80512288 2.7951518 3.99907505 -1.74272298 2.79746174 9.82532848 -1.85776583 -3.55973405 -1.41765963 -11.9219816 0.89891078 1.60662685 -18.25403222 -8.66465312 -68.03120506 -15.86625397 -45.514046 179.99999161 -70.90082044 -179.99998978 -34.83681897 -11.75941022 -22.84988102 -0.47395148 -12.17784222 2.09008919 -33.96507418 -12.71570411 30.22500855 0.0000763 73.38989166 -0.00009128 -17.33079064 -0.84129818 20.59584776 -55.98508304 -3.39783784 -1.23615564 37.28419274 -9.744836 -2.02877785 4.12293597 -11.36944473 -2.46163307 -0.0240859 -0.00001043 3.9e-7 -25.15889658 -11.9406429 -16.90103401 56.87954542 -13.595529 1.17728099 -21.14411377 -15.0422506 14.48321964 -18.30195065 -0.23222478 5.0612887
0.011049 1.02818321 0.04716743 17.05012884 48.32938023 -9.964073 1.57811002 -0.71470512 5.88482436 3.66514092 -0.67425441 3.43114191 3.67635786 -0.57852206 3.43080082 10.02764732 -3.16696213 -3.41753867 -0.13959266 -18.67478903 3.78842105 1.5524105 -18.12827008 -8.41638569 -65.48309253 -19.51773816 -44.83685168 179.99995957 -70.88445945 179.99994343 -34.89169529 -11.70820934 -22.44777404 -2.31724329 -15.78837464 -6.00389097 -34.65497537 -8.71652235 26.09327797 -0.0000254 71.8468097 0.00003028 -1.88296863 -4.20626367 14.36024199 -55.14787389 -5.42338443 -7.93790357 36.2767496 -9.72461692 -0.98030951 6.34239138 -18.21829442 -0.79288857 -0.02544129 0.00001455 8.3e-7 -20.46661439 -9.67830238 -12.73718311 60.57415083 -15.27139787 2.1171187 -16.94564816 -13.04685608 15.36786673 -29.8981639 -1.53634164 11.34981938
0.01470486 1.02530609 0.05533421 17.04314361 57.43934006 -11.59325387 1.40355504 -0.61657549 6.58190931 3.54560958 0.56535543 3.6799618 3.53124324 0.68671111 3.66833089 10.53629661 -3.73526918 -3.55804497 2.08613577 -21.313195 4.94480541 1.65007321 -18.31925801 -8.55697004 -61.09950982 -22.31610128 -42.44768488 179.99998199 -71.31965228 179.99999357 -35.32920456 -13.57566283 -22.98643584 -3.41234109 -14.36499429 -13.87982695 -33.45764774 -2.40957792 24.31953239 -0.00002767 68.62004753 0.00002803 19.53733856 -5.89265983 10.27474458 -53.88845981 -6.87746018 -12.61091181 36.82355325 -9.7098606 0.30205731 7.12436533 -22.11660972 0.24096945 -0.05464984 -0.00000212 -0.0000046 -17.42930097 -4.66300469 -7.7637998 63.42918408 -15.13219189 2.91070755 -12.52550067 -8.02879553 14.47007394 -44.64161612 -3.1646758 8.66693794
0.01827392 1.02109779 0.05882853 14.46627104 61.56442792 -9.73316074 1.36434967 -0.45874783 6.57069593 3.63056956 1.725054 3.51766023 3.5883731 1.8592319 3.49041591 11.2742666 -3.68460274 -3.8550895 4.85939489 -21.21138683 4.29581255 1.79005944 -18.1607371 -9.09359921 -56.13908672 -23.52356165 -39.56914055 179.99999068 -72.41059504 -179.99999406 -36.42643131 -16.96642947 -24.78148052 -2.83447978 -8.84002551 -20.00894725 -29.73766358 4.55006998 24.43857068 -0.00000704 64.06243246 0.00001806 34.82657098 -6.4391125 8.05025444 -52.6493585 -7.44185264 -14.78050094 38.45773319 -9.69605729 0.23977832 6.86825282 -22.54197533 1.37245641 -0.08549555 -1e-7 0.00000353 -15.78053772 0.83222012 -4.32517334 65.06110202 -13.81422439 3.42266403 -8.92419466 -1.48846487 11.97737209 -53.19033087 -1.85395407 3.33776774
0.01786446 1.01766136 0.06088418 12.28223609 62.43614905 -7.4214976 1.40550982 -0.17308524 6.2078288 3.80751335 2.6427278 3.0435241 3.74530166 2.77529001 3.00293855 11.91222855 -3.25323041 -4.17922684 7.31967331 -19.87498283 2.93050423 1.89144617 -17.53392481 -9.71873506 -52.45656827 -23.63600578 -37.79541888 -179.99998951 -73.84629929 -179.99998978 -37.80069175 -20.45446348 -27.03243966 -0.76883263 -0.95368958 -23.73300721 -26.16965237 10.67402576 25.57922222 0.00000838 58.73412253 -0.00001152 42.65642774 -5.80464043 6.83175947 -52.02560328 -7.13812071 -15.07016658 39.51301024 -9.67404167 -0.65786275 6.5787374 -21.27191882 2.2251008 -0.11069005 -2e-8 0.00000451 -14.89036334 3.85067331 -2.6111627 65.53790505 -12.75284296 3.76318581 -8.98405023 4.46493405 6.00879366 -54.93094549 0.44697947 -0.73159822
0.01427286 1.01500244 0.06637511 11.92587288 62.49922654 -6.9182683 1.46411063 0.19968254 5.71655441 3.95178255 3.28559151 2.43315532 3.88045196 3.40581524 2.38466394 12.21315095 -2.6897481 -4.45664889 8.71455177 -18.06382262 2.16682155 1.91788274 -16.90588918 -10.05092978 -50.80100469 -23.74288177 -37.3093098 -179.99996791 -75.07161288 -179.99995991 -38.9210411 -22.82625082 -28.83463863 1.472481 6.29223832 -25.07526093 -25.66412583 14.59666992 27.06384447 0.0000088 53.88177708 -0.00001308 45.39142408 -5.41677686 6.37599695 -52.23647634 -6.6218129 -14.48465644 40.49965544 -9.45138237 -1.3013569 6.11035017 -20.7393745 2.73858423 -0.130379 0.00000297 -0.00000101 -14.72556831 3.0893991 -2.79698762 65.70640981 -12.25058941 3.84201203 -9.78869955 7.49783024 3.17764109 -54.73317552 1.1358593 -1.99263842
0.01002392 1.01289413 0.07286578 12.67703978 62.22899399 -7.71451 1.52138586 0.5745277 5.20846439 4.04197562 3.70554732 1.8709175 3.96977756 3.80987013 1.81985822 12.19445617 -2.22435319 -4.624475 8.8736576 -16.25175067 2.23803542 1.86982345 -16.61829754 -9.96802933 -50.57025234 -24.09703537 -37.19470178 -179.99996794 -75.84453125 -179.99996465 -39.70351485 -23.84153776 -30.05236088 2.76254115 10.58146143 -24.07130703 -28.54911084 15.87064017 28.49250929 -0.00000455 51.09887033 7.3e-7 45.97853996 -6.19339747 5.85030936 -53.04799803 -6.4629685 -13.97398318 41.61679778 -8.27275029 -1.01168325 5.33213068 -21.2726139 2.56804453 -0.14064602 0.00001665 -0.00001048 -15.30285395 0.48857593 -3.92568518 66.04355843 -12.13935951 3.84578102 -10.43197747 8.67949503 2.82518197 -54.26815285 0.72184586 -1.39299416
0.00587787 1.01313805 0.07763052 13.5081447 61.0064909 -8.62937558 1.58620937 0.85885494 4.71894099 4.10849702 3.91140786 1.44248899 4.0399532 4.0017937 1.39364678 12.03223078 -1.9379278 -4.60410866 8.20942655 -14.7379459 2.48026126 1.7832086 -16.50167706 -9.63597123 -50.88589484 -24.18109369 -36.83217497 -179.99996099 -76.18871746 -179.99995008 -40.1984109 -23.90409781 -30.79038048 3.07184272 11.99627645 -20.71666173 -32.59944699 15.13569132 29.80474072 -0.00002683 51.32197373 0.00002774 46.19754635 -7.64524484 4.81475269 -53.7372402 -6.5169193 -13.36844781 42.1801018 -7.37866954 -0.17542606 4.50088155 -21.006385 1.74094136 -0.14306688 0.00001281 0.0000044 -16.18543936 -1.82494061 -5.16943784 66.2113454 -12.27222758 3.77251692 -11.11089162 8.96420551 3.12741931 -53.59637815 -0.00638111 0.01580712
0.00393353 1.01612297 0.07975098 14.09709603 58.42084756 -9.26418918 1.65350562 0.97280083 4.2852373 4.14853184 3.84154456 1.13735332 4.08597385 3.92229232 1.09497389 11.90621151 -1.75084891 -4.40545839 7.42151335 -13.41993134 2.38077758 1.69986049 -16.23020353 -9.33727456 -51.32626656 -23.58954919 -36.38436554 -179.99999053 -76.06028357 -179.99998138 -40.06933284 -23.51508351 -30.68752502 2.98662086 12.14406119 -15.77906304 -36.8190299 12.40402471 31.55508785 -0.00002511 54.19126635 0.0000233 46.32811385 -8.67998094 3.75379081 -54.11038594 -6.55399939 -12.29313823 42.21969753 -6.69810304 0.69620887 3.67735161 -19.69119866 0.72278432 -0.14145768 0.00000762 -0.00000318 -17.20985321 -2.26370984 -5.90305633 65.94510449 -12.46742878 3.62612911 -11.38390017 8.61289748 4.00910213 -52.72224265 -0.66696943 1.47826806
0.00655419 1.02253356 0.07756415 13.76621485 54.39547588 -9.02640491 1.71074832 0.89081237 3.89233411 4.14705173 3.45427362 0.92380026 4.09264203 3.52903039 0.89062268 11.86207861 -1.55184715 -4.20158417 6.99744487 -12.04248748 1.97858598 1.65496657 -15.72371107 -9.30092504 -51.6354723 -22.37367689 -36.28522091 179.99997758 -75.42503988 179.99998986 -38.91123037 -23.15997696 -29.34048208 2.86636636 12.2742586 -10.71950481 -40.34147098 8.44671605 33.73584644 -0.00002067 58.36674168 0.00001753 46.64297996 -8.89395604 3.25599202 -53.64094224 -6.61079089 -10.67895236 41.58828512 -5.43451897 1.33843101 3.00108851 -18.00071621 -0.33579823 -0.13700249 0.00000598 -9.2e-7 -18.34408264 -0.94315302 -6.61604897 65.59251182 -12.90084202 3.51099663 -10.13458062 8.02276937 5.37581147 -52.73242115 -1.53170218 3.15949272
0.01048033 1.03010445 0.07397515 12.88726861 49.03040264 -8.04454638 1.76962391 0.68884145 3.45684259 4.12731001 2.82037878 0.76770992 4.08410908 2.88944296 0.74472146 11.81585746 -1.26893194 -4.18062898 6.78621959 -10.36163707 1.45864754 1.66773223 -15.11943313 -9.58858048 -51.52112539 -20.79051122 -36.68411457 179.99998696 -74.5560569 179.99999912 -36.87275473 -23.30603649 -27.08573651 2.78093369 12.71651771 -6.43360205 -43.49688803 4.08972808 35.96193064 0.00004414 62.98173406 -0.0000403 47.09854668 -8.55840997 3.75883869 -52.57807087 -6.1645296 -8.22703556 40.66221432 -4.7480965 1.44029189 2.40230027 -15.39678298 -1.43949348 -0.13063868 0.00000291 0.00000113 -19.48020999 -0.60165502 -8.93488073 65.20207166 -14.07637105 3.44018092 -8.49319254 6.33332961 8.82287282 -52.57370308 -2.81569209 5.29149619
0.01233149 1.03759056 0.06823333 11.72987168 42.25051627 -6.49605938 1.84031311 0.5142293 2.93013119 4.11717417 2.12135239 0.6170931 4.08726082 2.18178819 0.60330139 11.70850957 -0.86714911 -4.33538294 6.264801 -8.10857948 0.86164429 1.72528351 -14.55176483 -10.09637989 -50.96782127 -19.07657368 -37.3862759 -179.99998957 -73.92737091 -179.99999383 -34.68838515 -24.12997866 -24.89194465 2.73957587 13.41106676 -2.81585039 -46.82840322 -0.24445283 37.75278457 0.00003015 68.04138634 -0.00003628 46.33245082 -7.77964642 5.09436419 -51.21284511 -5.26203946 -5.13444266 39.69191955 -5.04580428 1.08365499 1.86152723 -11.06388469 -2.43883864 -0.12069856 -0.00000169 -6e-8 -20.66685881 -1.60505131 -12.56562743 64.28632993 -15.51047311 3.37905206 -7.71034241 3.50067786 13.23998012 -48.38312927 -4.15753727 7.99474933
0.01229866 1.04418473 0.06131654 10.74757536 34.14455469 -5.00564173 1.90185331 0.44150429 2.26063121 4.09568041 1.53106363 0.42085977 4.07780624 1.57931967 0.41366 11.58747405 -0.34324122 -4.518018 5.29685731 -5.13291533 0.20162319 1.78909666 -13.99923868 -10.66647526 -50.2256362 -17.38515909 -38.08199337 179.99999716 -73.82267171 179.99997738 -33.18696268 -25.39624423 -23.61428232 2.72427521 14.28751606 0.47666877 -49.94668059 -4.09277907 39.16843033 -0.00002447 72.83879283 0.00000729 42.78323243 -7.0509108 4.40601125 -49.92729048 -4.12638921 -1.49566897 39.16689698 -5.12435392 0.65235678 1.07416933 -6.19013345 -3.42543244 -0.11356285 0.0000168 0.00000207 -22.80100036 -3.47490012 -16.29380101 63.01002377 -16.58539097 3.26744074 -6.55227968 -0.63523424 17.06304955 -40.64203609 -4.26476688 10.4760074
0.01027809 1.05108139 0.05390178 10.02442552 25.18107578 -3.62067042 1.91292634 0.43834176 1.56708242 4.00442501 1.09981371 0.17402293 3.99498057 1.1343875 0.17049207 11.52861644 0.27471401 -4.65389668 4.29720834 -1.55143324 -0.49791158 1.8199922 -13.29865708 -11.18019329 -49.52502889 -15.84764972 -38.61885051 179.9999689 -74.12662658 179.9999697 -32.58520617 -26.71772829 -23.31925608 2.73730571 15.43024295 3.54522722 -51.66355025 -6.67890692 40.83435138 0.0000995 75.47968684 -0.00011096 35.57425218 -3.65514872 1.63297598 -48.40810096 -2.70063494 2.54742552 38.61720762 -5.08562408 0.18990646 0.1861564 -1.04486623 -4.64851095 -0.20410147 0.00000262 -0.00000339 -25.46237266 -5.97696374 -18.96061402 60.48235008 -16.08737343 2.58796017 -6.91054011 -4.29767139 17.95080917 -31.50703651 -2.8843105 11.2215279
0.00837776 1.05790055 0.04697197 9.75519177 16.19104961 -2.86938252 1.85290707 0.41144597 1.33699742 3.86697234 0.83291242 0.1294599 3.86009619 0.86498593 0.12687338 11.48512743 0.86648057 -4.82629162 3.79130056 1.88624111 -1.31689426 1.83597475 -12.94977584 -11.45087973 -49.79051736 -14.31378918 -39.02328145 179.99997706 -74.59789973 179.99997938 -32.4307014 -27.38377062 -23.39491836 2.85790553 17.14296092 5.41641089 -51.95644168 -6.94891711 42.32159264 -0.00010309 77.556382 0.00008313 28.9050221 1.48122029 -1.05306376 -46.98899424 -1.12893828 7.00563646 38.13727162 -5.69359758 -0.51339139 -0.51262022 4.44943518 -5.67138368 -0.24092696 0.00000221 0.00000119 -27.74262803 -9.23250754 -19.89549081 56.30830118 -14.46536066 1.61375078 -9.75369313 -6.46045616 15.55284075 -21.35069552 -1.09174916 10.76942493
0.00808445 1.06362007 0.03977082 9.62560398 8.28255854 -2.22525766 1.79220345 0.37017691 1.33304115 3.76240636 0.65417971 0.20234829 3.75674147 0.68763458 0.20003582 11.4105353 1.39215119 -5.04677329 3.64097273 4.92411092 -2.22289845 1.86586734 -13.13371632 -11.53289692 -51.15462709 -12.7816268 -39.32723853 179.99999355 -74.95032283 -179.99999963 -32.4286995 -27.46493672 -23.55962547 3.03637163 19.16980143 6.1651651 -51.20127301 -5.39882234 43.28900584 0.00004425 80.57894547 -0.00004382 23.59575287 5.54235638 -2.16717408 -45.59252659 0.39205368 10.79809396 37.6181233 -6.03167728 -1.35432611 -1.09037479 9.12437096 -6.24133895 -0.27378525 0.0000107 0.00000154 -28.61025953 -12.67732436 -19.89335446 50.60503232 -11.74170503 0.58182756 -13.75322299 -6.97976576 12.40021419 -14.28808963 -0.11523512 3.59071806
0.00867084 1.06630524 0.03197217 9.47936043 1.15010869 -1.56978736 1.85274577 0.31226362 1.42972657 3.74850468 0.51606057 0.36062584 3.74328135 0.55478209 0.35894747 11.32420298 1.88738888 -5.28945911 3.69731186 7.77600746 -3.18131576 1.90104578 -13.56092261 -11.52821666 -53.10513234 -11.16685673 -39.42025699 179.99992594 -74.97055493 179.99993074 -32.49569231 -27.27852634 -23.76603242 3.25984091 21.3347717 6.39595931 -50.02561476 -2.77119301 43.86763564 0.00004003 84.06882514 -0.00003777 17.89765128 9.09088932 -2.3139853 -44.43912035 1.47708364 13.89441948 37.74922431 -5.84407636 -2.04588626 -1.75901018 12.90121992 -6.94332643 -0.29915068 -0.00000215 0.00000146 -28.14478699 -13.71602482 -19.29601428 44.88966017 -9.37318661 0.08400755 -16.74469628 -4.28431222 11.60315933 -6.38124149 -0.06166704 2.66118553
0.0084489 1.06848885 0.02467956 9.36263121 -5.64075994 -0.90295866 1.93238965 0.25163888 1.43121891 3.75859327 0.40617329 0.47247798 3.75425373 0.44592948 0.47128095 11.23084589 2.3608097 -5.54808556 3.92508662 10.49152529 -4.18961434 1.94127882 -14.16107286 -11.46171271 -55.58577491 -9.71858418 -39.4542874 179.99998276 -74.77062945 179.99996894 -32.60873613 -26.90131271 -24.00063725 3.55275656 23.59331737 6.25039513 -49.01590651 0.53101963 44.78662676 0.0000057 87.73028036 -0.00000777 12.7641208 12.15428676 -1.84074661 -42.99038785 2.4088304 16.69888629 37.76411458 -4.56394221 -2.57599388 -2.27873435 15.21343926 -8.1302269 -0.20743953 0.00001287 8.3e-7 -27.79287534 -12.16140846 -18.33250584 40.8213413 -8.1703183 0.12033733 -18.01030118 0.101069 11.55514522 -2.49022966 -0.00826393 0.98092107
0.00663453 1.07161873 0.01805278 9.2868223 -12.1784817 -0.24563768 1.94335952 0.19584865 1.31287323 3.73310104 0.31248839 0.50637551 3.72995624 0.34770223 0.50534615 11.13514529 2.82104679 -5.81642138 4.29012604 13.12046754 -5.2436887 1.9865368 -14.86393143 -11.35802274 -58.37670411 -8.50171329 -39.55816261 -179.99998012 -74.57665886 -179.99995799 -32.74549648 -26.41029917 -24.24989887 3.92153319 25.90392541 5.87003262 -48.3207496 4.17600463 45.72246008 179.9999895 88.73252497 179.99999534 7.91551593 14.86835897 -0.91181252 -41.01065283 3.3030118 19.38129279 37.29303293 -2.06671929 -3.19043641 -2.48423653 15.9984163 -9.52034347 -0.10213141 -0.00001324 -0.00000436 -28.50449221 -10.209879 -17.47871288 38.65540172 -5.89280901 0.65085763 -17.34145396 2.0905977 10.69982568 -0.58005569 -0.0000089 0.0000024
0.00254272 1.07271484 0.010799 9.27003664 -18.55968056 0.44062058 1.8603391 0.14273457 0.9929694 3.65145965 0.22302672 0.42974354 3.64974267 0.24694761 0.42883947 11.04163705 3.27676822 -6.08824682 4.75993388 15.71297563 -6.33877822 2.03566526 -15.59928219 -11.24209516 -61.30852629 -7.58294388 -39.81998547 -179.99996367 -74.4771344 -179.99995214 -32.88552737 -25.88276085 -24.50135529 4.34915653 28.2275713 5.39916802 -47.93328456 7.90899863 46.1718988 -179.99966598 85.61566495 179.99963186 3.06922258 17.3973506 0.43963299 -39.19788611 4.69609158 22.45059713 36.99970338 -1.2928627 -4.38639376 -2.8870736 17.65347661 -10.4863656 -0.21983671 0.00001494 -0.00000735 -29.61225234 -7.31170041 -15.89101397 37.51740258 -4.41447374 0.30939522 -15.71353108 3.91839574 11.8795476 -0.00533084 0.00000464 0.00060824
-0.00244538 1.07124519 0.00243789 9.35549351 -24.84158666 1.15830414 1.8467336 0.11103165 0.46867987 3.61155985 0.14465167 0.23389712 3.61113555 0.15048805 0.23360811 10.95829975 3.73365087 -6.36107251 5.28531773 18.29890431 -7.44384469 2.08793271 -16.28915402 -11.14744266 -64.36237441 -6.95599831 -40.17777743 -179.99999138 -74.17930728 -179.9999704 -33.05811094 -25.41973164 -24.79257889 4.78524916 30.51521765 4.98844706 -47.83240316 10.92344506 46.25704893 179.99994469 83.21478426 -179.9999482 -2.00091924 19.86501587 2.26927062 -37.86831266 6.93174504 25.92130323 36.75652277 -3.84842758 -5.92047291 -3.62436879 21.19184416 -10.90145759 -0.15174354 0.0000114 0.00000321 -31.06975286 -3.54105947 -13.1103234 37.33132103 -5.83408377 -1.21821863 -14.61664782 6.98623612 13.79836788 -0.00467443 0.00001285 -0.00000493
-0.00294713 1.06785034 -0.00395572 9.96208404 -29.41776649 1.9008096 1.75940472 0.04086657 0.23947293 3.57754325 0.07277157 0.25218454 3.57730032 0.07588348 0.25185626 10.76054467 4.15617023 -6.66641003 5.20731174 20.61155682 -8.23670997 2.14134209 -17.04168033 -11.04213233 -66.83494876 -5.56651104 -40.78020799 179.99996667 -74.56429198 179.99997815 -33.49318786 -25.12391238 -25.32838577 5.11439404 32.40201869 4.78584909 -47.99073001 12.47735254 46.06372987 179.9999516 81.82590616 -179.99996509 -4.8716273 20.92987468 3.46541506 -37.91382961 8.67002852 28.33320171 37.3276241 -5.79009951 -6.88323435 -4.51017452 23.87159317 -10.97072669 -0.00600821 -0.00000444 -0.00000501 -33.00835433 -0.74338569 -11.02026194 37.6554374 -7.25409977 -2.36080748 -13.95856841 9.5760917 15.0470084 -0.00429996 0.00000355 2e-8
