HIERARCHY
ROOT Hips
{
  OFFSET 0 1.1673769999999999 0
  CHANNELS 6 Xposition Yposition Zposition Xrotation Yrotation Zrotation
  JOINT Spine
  {
    OFFSET 0.000003812944337411511 0.10717500000681812 -0.009311
    CHANNELS 3 Xrotation Yrotation Zrotation
    JOINT Spine1
    {
      OFFSET 0 0.1058532983696241 -0.004285186608692496
      CHANNELS 3 Xrotation Yrotation Zrotation
      JOINT Spine2
      {
        OFFSET -8.470329472543003e-22 0.10599345671141647 -0.007812688101110094
        CHANNELS 3 Xrotation Yrotation Zrotation
        JOINT Neck
        {
          OFFSET -8.470329472543003e-22 0.26240299999999994 -0.04488100000000002
          CHANNELS 3 Xrotation Yrotation Zrotation
          JOINT Head
          {
            OFFSET -4.235164736271502e-22 0.17466899999999996 0.05625600000000003
            CHANNELS 3 Xrotation Yrotation Zrotation
            End Site
            {
              OFFSET -4.235164736271502e-22 0.10756799999999966 0.021070000000000005
            }
          }
        }
        JOINT LeftShoulder
        {
          OFFSET 0.10574399999999999 0.23009199999999996 -0.07323000000000002
          CHANNELS 3 Xrotation Yrotation Zrotation
          JOINT LeftArm
          {
            OFFSET 0.14878212914559852 -0.04653266654569688 -0.030693304075147546
            CHANNELS 3 Xrotation Yrotation Zrotation
            JOINT LeftForeArm
            {
              OFFSET 0.24109000000000003 2.220446049250313e-16 -5.551115123125783e-17
              CHANNELS 3 Xrotation Yrotation Zrotation
              JOINT LeftHand
              {
                OFFSET 0.316792 0 -1.1102230246251565e-16
                CHANNELS 3 Xrotation Yrotation Zrotation
                End Site
                {
                  OFFSET 0.06265729429771016 -0.10569948639925819 0.03859412819617963
                }
              }
            }
          }
        }
        JOINT RightShoulder
        {
          OFFSET -0.10574399999999999 0.23009099999999982 -0.07323000000000002
          CHANNELS 3 Xrotation Yrotation Zrotation
          JOINT RightArm
          {
            OFFSET -0.14878040829228295 -0.04653159475972379 -0.030692917709113934
            CHANNELS 3 Xrotation Yrotation Zrotation
            JOINT RightForeArm
            {
              OFFSET -0.24109000000000003 -6.661338147750939e-16 -2.7755575615628914e-17
              CHANNELS 3 Xrotation Yrotation Zrotation
              JOINT RightHand
              {
                OFFSET -0.31679300000631333 -8.881784197001252e-16 -5.551115123125783e-17
                CHANNELS 3 Xrotation Yrotation Zrotation
                End Site
                {
                  OFFSET -0.06265795211397429 -0.10570764472283312 0.03859362014678265
                }
              }
            }
          }
        }
      }
    }
  }
  JOINT LeftUpLeg
  {
    OFFSET 0.12297511767165623 -0.06742078536803264 -0.010003
    CHANNELS 3 Xrotation Yrotation Zrotation
    JOINT LeftLeg
    {
      OFFSET 0 -0.457033849483632 0.010304509991859542
      CHANNELS 3 Xrotation Yrotation Zrotation
      JOINT LeftFoot
      {
        OFFSET 0 -0.500280623664138 -0.036905110570505176
        CHANNELS 3 Xrotation Yrotation Zrotation
        JOINT LeftToeBase
        {
          OFFSET 0.025950805788189563 -0.14255151365608373 0.19507593811975638
          CHANNELS 3 Xrotation Yrotation Zrotation
          End Site
          {
            OFFSET 0.010732117804750613 -0.000035441498015504746 0.11362327680684622
          }
        }
      }
    }
  }
  JOINT RightUpLeg
  {
    OFFSET -0.12297488233495055 -0.0674172146317622 -0.010003
    CHANNELS 3 Xrotation Yrotation Zrotation
    JOINT RightLeg
    {
      OFFSET 0.00000159348816348992 -0.45703784846455486 0.01030460015485039
      CHANNELS 3 Xrotation Yrotation Zrotation
      JOINT RightFoot
      {
        OFFSET -0.0000015934881634621645 -0.5002806236608007 -0.03690511058134042
        CHANNELS 3 Xrotation Yrotation Zrotation
        JOINT RightToeBase
        {
          OFFSET -0.0259497668227143 -0.14255297441554501 0.19507500887383716
          CHANNELS 3 Xrotation Yrotation Zrotation
          End Site
          {
            OFFSET -0.010733201844058626 -0.000035030229497263656 0.11362417898958707
          }
        }
      }
    }
  }
}
MOTION
Frames: 90
Frame Time: 0.03333333333333333
0.00414866 1.05203056 -0.00928085 11.74654645 -18.94269057 0.29787496 2.39628141 -0.56326634 1.89125444 7.47021083 -1.17314289 1.47745227 7.48078186 -1.05694023 1.50668288 -5.83024657 3.35006246 -2.38861523 -22.63402911 14.53803097 -1.22187373 0.57908703 5.09034445 -11.39505153 -5.93362522 -21.65888549 -54.75209479 0.00059616 -84.23448212 0.00066017 21.30192805 0.88426689 27.09260766 1.68061999 4.49609403 10.40696229 -15.94130303 17.87155092 63.69300417 0.0018968 88.26238115 -0.00194388 24.9033882 7.63993498 1.47435036 -46.56864755 7.11670403 25.01527899 43.39995439 7.95567343 1.53215422 -5.44770869 1.96224435 -18.73184635 -0.46729647 -0.00001981 0.03902863 -39.14175726 -10.13662105 -16.68810372 42.94126239 -9.23307257 -1.2638286 -9.5394306 -2.39709667 17.28148499 -0.43673255 0.003069 -0.40183994
0.00169497 1.0569854 0.00738003 6.25135114 -16.64940462 -0.63048022 0.54435814 -0.50720504 1.62050898 6.93221984 -1.06472125 1.47396367 6.94161932 -0.95895517 1.50061357 -2.91653765 2.90263636 -1.65821534 1.81693104 11.16520372 3.36103615 0.98115294 4.75998023 -12.51753688 -5.13355042 -28.22619243 -49.57271117 -4.03116815 -61.14188951 -11.52137396 19.87917103 -1.13708003 39.76841725 1.76805693 5.46759302 12.36744871 -15.11050199 19.05730926 61.24201418 0.19227021 73.33493702 3.02784369 22.76856205 6.09779968 -5.98352453 -40.35012842 8.41724786 23.13023638 42.55355216 6.25253817 2.48185451 -6.34538503 2.04053244 -18.70080663 -0.56082859 -0.14974841 0.16419473 -31.67396382 -9.96837632 -17.63932374 42.28578924 -11.27082197 -1.88570422 -10.52645033 -2.77472611 19.20012263 -0.4373558 0.00308393 -0.40240987
-0.0008902 1.06575653 0.0342967 -3.04840314 -12.73054215 -1.29772873 -0.66964983 -0.81316224 1.24333573 6.28353107 -1.07828569 1.31338362 6.29262131 -0.98068302 1.33911653 0.32854863 2.73060789 -0.97653459 26.52411444 12.53826885 8.2614081 1.12096933 2.63167272 -13.79658101 -2.15706618 -34.58972734 -42.303093 11.54690647 -43.5816512 -10.87676401 16.74894931 -15.00049119 32.5697551 1.76288885 6.08515278 13.1298063 -17.75172383 23.43521899 62.12709258 -1.4964067 45.06975985 6.34339454 21.12289714 8.63161571 -16.77334528 -29.39282056 10.12852536 19.2573828 41.35486 3.91806779 4.69974275 -6.82185624 1.996832 -18.12865899 -1.22772203 0.08521364 1.32617559 -18.44886989 -11.03779186 -19.59126344 39.91924668 -13.93277171 -2.5709686 -11.51417664 -3.18467156 21.86336603 -0.43923651 0.00310054 -0.40415236
-0.00265544 1.07298965 0.06312734 -11.93772831 -7.68843236 -1.0292188 -1.73242615 -1.2816007 0.81648819 5.57965024 -1.15124031 1.02818865 5.58892367 -1.06149294 1.05285773 2.37290542 2.95201585 -0.76502991 37.63607803 16.73238928 9.11802439 1.02576914 -0.13259604 -14.5418347 6.02958103 -37.60231659 -30.54602023 34.19260066 -47.29202659 -7.74706609 9.59456515 -28.93393765 6.08828476 1.70521633 6.14772698 12.58238057 -22.0628984 26.59180148 66.05376975 2.33832073 16.76795599 4.40785835 18.71664033 14.01317857 -18.43726444 -19.58231424 10.15067221 14.68871349 42.35728438 1.7968005 7.65089143 -5.48160821 1.59018686 -15.95960615 -6.05209497 0.5767386 1.01925063 -3.95859586 -13.51658167 -20.81277584 35.86771606 -17.3424262 -2.80881878 -11.73764232 -3.56915825 24.45359831 -0.44290358 0.00314113 -0.40751353
-0.00447919 1.07658417 0.08852418 -17.93106516 -2.9822686 -0.60668699 -3.35639514 -1.00334004 0.60079272 4.79592392 -1.00302504 0.79551535 4.80465436 -0.92246713 0.81472684 2.25325958 3.34583689 -1.26048113 32.89091215 19.8830659 5.11420943 0.88244378 -0.65370985 -13.5705174 15.57271352 -37.9378173 -17.51200711 67.68739368 -58.26193145 17.51864241 4.59536796 -32.01602359 -7.17426914 1.6553983 5.94968058 11.7634996 -20.06057133 22.11121104 66.25616804 13.46583013 10.4655273 3.45936377 14.01682692 16.28957332 -4.25148892 -14.22912211 8.50312323 12.46918896 45.7699068 0.22285948 10.17330406 -3.54695651 1.52382953 -16.90037575 -10.69001222 1.12929993 0.87901224 8.22252153 -16.07730393 -19.77203637 31.08339795 -21.01459082 -2.52942517 -11.19813736 -3.77524183 26.18531675 -0.448012 0.00322692 -0.4122192
-0.00649254 1.07850037 0.11043039 -21.61920439 0.62311791 -0.0728153 -5.29180964 0.76046911 0.41746368 3.97174706 -0.42392679 0.62145361 3.97948995 -0.35371889 0.63188034 0.61823271 3.73445817 -2.3865814 19.50947704 22.96883201 -1.71202778 0.67741739 1.64661246 -10.49150273 18.41033125 -39.07234164 -9.54963075 86.35424573 -62.07024077 39.06599514 6.48908167 -30.74279878 5.94651184 1.56908691 6.45287539 11.73814841 -11.959036 10.6957212 63.42283582 27.91293982 21.5836662 -3.10446745 9.21451881 14.57135571 11.07147513 -11.41952831 6.98088196 11.78221215 48.95086758 -0.84551416 11.55587553 -1.32637292 1.33791737 -17.60807647 -14.36526208 1.66342788 0.02293741 17.64240425 -18.0317266 -17.79252255 26.22684237 -24.1579065 -2.11381211 -10.30643132 -3.72844701 27.07081061 -0.45755267 0.0033626 -0.42099989
-0.00759711 1.08017334 0.12825379 -24.08262873 3.61731997 0.94596294 -6.7616997 3.88504984 -0.30257135 3.25075455 0.50516359 0.27768583 3.25596554 0.5634142 0.28193378 -1.40713441 4.02903065 -3.83154643 2.61009128 27.05765795 -7.65354076 0.26219385 4.4228205 -6.29902983 11.57928182 -42.79970178 -8.38627185 56.16079767 -68.79085667 16.69141034 8.4515106 -32.5331903 17.34966108 1.29913799 8.77116123 12.95899319 -3.65733283 -0.79948525 62.30467914 32.4938118 30.0724777 -9.7640737 6.48126107 13.6434666 12.12016233 -9.2164603 5.87533222 11.30937514 50.65817371 -2.02430787 12.10772071 0.05210032 1.1636597 -17.75576013 -17.31179829 2.10612124 -0.00133508 25.23333223 -19.80130268 -15.94392501 21.27330206 -26.89182695 -1.74960099 -9.11493191 -3.47355854 27.4490033 -0.47794823 0.00366316 -0.43977398
-0.00871024 1.0799543 0.13978316 -25.94384171 6.8381492 1.97740355 -7.55355627 7.49019154 -1.79716069 2.66679744 1.50983037 -0.33085477 2.66225904 1.55323762 -0.32671369 -3.37965629 4.00057611 -5.00197234 -14.62585634 30.29954155 -10.66388207 -0.31947139 6.19530449 -2.15286769 -2.52032754 -49.411712 -12.29943987 7.25028949 -60.1293964 -21.87184698 5.19948219 -34.53933069 12.46762935 0.7789239 12.8700884 14.94445469 3.61425914 -9.3943149 62.0748522 18.43489781 34.0022784 -3.15000841 4.87583226 14.35340618 6.1437295 -7.95378482 4.91836667 11.06578108 51.56720891 -3.62403183 12.41116088 -0.07534466 1.09708435 -17.11825771 -17.79750928 2.26035443 -0.02419195 31.80425199 -20.78764379 -13.43246605 16.91306902 -30.32179027 -1.41497377 -7.88675815 -3.17233484 27.61826369 -0.4983054 0.00399397 -0.45850313
-0.01108712 1.07552132 0.14390714 -27.46829683 10.58162791 2.60894241 -7.97606112 10.3785726 -3.70959667 2.14554147 2.28895757 -0.99196763 2.12323373 2.31570583 -0.98316075 -5.15656386 3.50476199 -5.46771011 -29.11385393 29.93929063 -11.82789391 -0.85135652 6.9159087 1.51061033 -24.27008464 -58.05821253 -23.84614424 3.82352038 -43.6615965 -16.7641261 1.16176849 -34.92512101 5.12317783 0.20541917 17.12525399 16.28072362 9.35755439 -16.02173302 61.33307074 2.22652456 34.10077206 7.20295781 1.71315507 15.04424283 8.9722473 -8.11955872 3.96227832 11.34525438 53.12557523 -5.14943132 12.8041129 -1.99229444 1.17457024 -15.12441879 -15.34335209 2.38448434 -0.88520969 36.66309368 -20.25231784 -10.11509673 15.09795675 -34.81660182 -1.20472797 -7.40439601 -3.03161118 28.11306713 -0.46983098 0.00354925 -0.4323054
-0.01444111 1.06619149 0.14148915 -29.14133861 14.83247723 3.18947019 -8.17181089 11.76066705 -5.52391433 1.68699235 2.66945935 -1.43698159 1.64854977 2.68062852 -1.42368699 -6.43418352 2.66369251 -5.34937412 -40.55665926 25.18792157 -10.96375368 -1.0298926 5.87937614 4.95705869 -52.05070953 -61.50195513 -42.63529758 16.44436788 -26.44257402 -2.25317108 -0.70619583 -35.6765657 4.26210657 -0.13163872 20.03804272 16.19914736 10.7766918 -20.07160857 57.7381826 6.39348621 32.91735809 6.20527235 -3.35927821 15.82807988 20.86791298 -9.38595486 2.61057978 11.69865393 55.84045468 -6.40210531 13.24979163 -4.56159708 1.20773957 -12.30875749 -13.35247258 2.66395586 -2.56830879 39.37501606 -18.93739349 -6.77493674 16.84490243 -39.7936015 -1.04735446 -7.96806608 -3.06954297 29.46237435 -0.41349533 0.00272598 -0.38046198
-0.01837847 1.05284958 0.13363052 -31.1631926 18.99312165 4.09782688 -8.12299936 11.76240357 -6.87118732 1.32249065 2.72136529 -1.57589157 1.27884329 2.71991182 -1.56240378 -7.12568347 1.67249517 -4.89871231 -49.21177945 16.9086092 -8.30351506 -0.60227597 2.85137001 8.43778396 -64.71885108 -57.17706129 -46.58260121 20.8400339 -15.83751336 2.90929193 -1.43531247 -33.37267489 6.82511782 -0.18668802 21.55500281 15.258848 5.95468429 -20.1318317 49.73810175 29.68743175 26.47848752 -4.73015156 -8.29195999 19.07246026 29.24923856 -11.07413915 0.77415951 11.62026355 59.21913092 -7.03407015 13.41054244 -7.10723128 1.07848501 -8.98890331 -12.48304783 3.09463087 -4.32511562 40.18085046 -17.2876583 -4.03246334 21.54486933 -44.92039229 -0.78836697 -9.09653222 -3.20389337 31.74027501 -0.39205745 0.00245521 -0.36073917
-0.02229225 1.03708115 0.12121764 -32.79882901 21.59229935 5.3671313 -7.89299945 10.96162452 -7.41701366 0.96544653 2.61943582 -1.49431455 0.92692945 2.60864686 -1.48382169 -7.4016976 0.73949265 -4.21638565 -54.46906559 8.16532979 -5.68425114 0.2901903 -0.1995778 11.75869477 -62.13900663 -49.20237077 -36.05400108 8.62968368 -13.37755259 2.11501379 -2.13142668 -29.77702762 10.09048996 -0.1308424 22.79071668 14.17677402 -2.44862927 -16.68282223 39.53045299 50.34395407 16.85836063 -10.71801657 -11.18252345 22.16377906 27.20139347 -12.86687235 -0.89717537 10.8892174 62.26500178 -6.89315651 12.72547122 -9.09783526 0.85455074 -6.14111369 -11.65236709 3.37636172 -5.76445634 38.26522826 -14.85934781 -2.79162789 28.34710326 -49.88762955 -1.10166352 -10.18027222 -3.56079264 35.05426818 -0.40629851 0.00267424 -0.37382506
-0.0239037 1.01660752 0.10286685 -33.5213914 21.90542387 6.98530745 -7.21112008 9.63192578 -6.78152063 0.58754895 2.42347338 -1.27544574 0.55939642 2.40862013 -1.26878785 -7.37626265 0.12911651 -3.53829826 -56.87423197 2.65617465 -3.79673076 1.0254205 -1.39335478 14.01507082 -54.90957829 -38.54270612 -23.25310913 -16.6671249 -12.96560894 -0.9918745 -3.07466433 -29.18658313 12.50797761 -0.07505591 24.84851883 13.20831609 -10.74298459 -11.65250129 29.34078926 56.39934405 13.31017855 -11.842515 -11.21813785 21.22281457 18.17244149 -15.67293689 -2.12722409 9.45228961 65.82185189 -6.02983553 10.82460706 -8.93734533 0.71650488 -5.1242364 -12.14468762 3.07281243 -5.65450548 33.13741481 -13.23052987 -3.93545298 36.14853126 -52.61484452 -3.52284845 -11.03250858 -4.3171791 39.41271618 -0.42746058 0.00290647 -0.3933001
-0.02124568 0.99603501 0.0771449 -33.84957562 20.21141689 8.64382871 -5.64297764 8.06123321 -4.92526249 0.43426546 2.15622449 -0.88386046 0.41937141 2.14456005 -0.88290158 -7.14881338 -0.08015186 -3.12365006 -57.58556947 0.78840684 -2.76216746 0.78523659 -1.4578278 13.03006637 -45.59084838 -26.09662387 -9.97132978 -42.31337097 -10.29032124 -4.30533815 -4.0434643 -29.19515093 12.50722103 0.05283928 27.2579165 12.18384691 -17.51649526 -5.0559367 20.37741242 47.55935603 15.72179881 -10.95878553 -9.68871413 20.4298992 8.06227963 -19.31361167 -2.35524852 8.20556337 70.04718787 -5.04011878 8.02357817 -5.03273546 0.52930041 -5.0514256 -13.44135364 2.43378265 -4.75232926 26.86426968 -13.77727535 -8.35129155 43.79921318 -50.5983835 -5.62141093 -12.31803722 -5.18889482 42.34875484 -0.43604166 0.00305387 -0.40120035
-0.01619346 0.98014618 0.04560382 -33.92105672 18.00434159 9.91182116 -3.41403799 7.03838458 -2.61798942 0.64568494 1.97817247 -0.35039936 0.64525787 1.97255039 -0.35840452 -6.73718491 -0.16535902 -2.84371778 -57.13738606 -0.35153722 -2.53426823 -0.62242727 -2.16530805 7.70161746 -35.62487759 -11.48733913 3.59983709 -50.2201353 -6.80397408 -5.36744579 -5.00188593 -28.77023899 9.67479125 0.29667311 28.27748993 11.02242825 -22.38126601 2.34711987 13.32765442 30.53560325 21.40419494 -7.52117767 -7.81679723 23.51536867 -0.09964245 -23.48574402 -1.7497984 7.95791031 74.02875723 -5.05765519 5.20874222 3.03273289 0.15977651 -5.24938889 -18.21363235 2.5396362 -3.05003323 20.42689148 -14.64175325 -14.29973306 50.77600938 -46.18559827 -6.010111 -13.90283451 -5.851946 42.9791553 -0.43809332 0.00307728 -0.40310103
-0.01073904 0.96882339 0.0099189 -33.3444123 16.72680688 10.67867821 -1.17908048 6.95827852 -0.66944617 1.03521985 2.00429396 0.13394328 1.04780071 2.00089248 0.11431652 -6.047431 -0.35760213 -2.42809322 -55.58301672 -2.57315425 -2.35479275 -2.04568959 -3.45685704 1.81660364 -27.48579546 5.65129514 12.20919119 -35.73220449 -4.19502136 -5.81094965 -5.72162543 -29.14263491 6.82550459 0.51799322 27.02481086 9.95164283 -25.51798843 8.04371748 7.18526242 14.67424312 30.45783761 -2.64942149 -6.27403965 26.99231621 -5.5353875 -28.34169494 -1.19067205 8.31510006 76.8250976 -6.41609051 2.91926638 11.09642168 -0.35759517 -7.74343373 -23.94840221 2.89152094 0.73280258 14.04255742 -14.38388529 -18.96222399 55.98238695 -43.13232391 -6.20844406 -14.5050948 -6.00866065 42.67660885 -0.4386787 0.00308898 -0.40363199
-0.00495882 0.95908707 -0.02961695 -32.2541383 16.004398 11.09104897 1.07494589 7.22228682 1.01301623 1.44730752 2.08240721 0.44829316 1.46925738 2.07856746 0.41609267 -4.95521249 -0.58243176 -1.83475803 -53.18569482 -4.6820065 -1.99196004 -2.16614297 -3.97555949 -0.10145829 -19.88863022 24.563518 9.36828621 -18.41825963 -2.70577504 -7.72750815 -5.4767998 -27.45342141 8.37725407 0.78050848 24.38359186 8.50466561 -28.12232281 11.68576015 1.89196514 5.70404308 41.70656487 0.96166176 -5.16307078 27.9864541 -9.11586042 -34.48165062 -0.94286866 8.93286288 80.84082392 -6.65963793 1.34099904 9.44711201 -0.36430547 -10.98702336 -6.52525564 3.34506174 2.45154389 7.69190487 -12.84013127 -22.17737244 60.04165007 -41.7526386 -6.664354 -14.04734047 -5.75435705 42.271496 -0.43868976 0.00307019 -0.40362948
0.00145454 0.94994018 -0.0733892 -31.16531625 14.98002789 11.23660312 3.78831351 7.22278111 2.85852351 1.86077071 2.04852937 0.64551539 1.8882654 2.04578957 0.60159578 -3.37217186 -0.76921559 -1.1367904 -50.40386169 -5.92210837 -1.99433561 -1.20124697 -2.95492822 0.54647735 -6.79247795 41.44000243 -9.06600711 -21.89619888 -2.77475672 -9.31838948 -4.91097615 -23.860089 11.49711172 1.52274583 21.77396926 5.55847605 -31.32896186 14.08320702 -1.18472764 5.15163984 52.27407086 -1.40397771 -4.35836063 27.79488633 -11.7366806 -40.26493167 -0.32663561 9.50195518 84.142435 -5.17956866 0.42685948 4.44372822 0.02655017 -10.07796469 2.00383145 3.10592295 -2.81228764 1.56694145 -10.24091279 -24.50566822 63.31147137 -41.03056758 -7.33219869 -12.86065857 -5.15081952 41.56321357 -0.43860263 0.00309254 -0.40355865
0.00695256 0.94058236 -0.12092346 -29.94263084 13.28649428 10.96017835 6.78120137 7.26303907 4.2455056 2.24291762 1.99674668 0.75282402 2.2735432 1.99519927 0.6980003 -1.55835082 -0.96313656 -0.38323301 -46.85599547 -7.64433547 -1.57837838 -0.13760143 -0.927504 -0.00308604 13.67724258 48.41637436 -40.23100026 -45.53693322 -2.74455247 -9.1276186 -5.00534112 -20.43877363 12.077744 2.65284237 19.86574143 1.81932075 -34.51674847 14.26616728 -2.63307118 10.79405139 61.08845975 -10.49555476 -3.4950501 27.68575184 -14.63729564 -45.05660685 0.14948237 10.56304783 87.24390731 0.29715713 0.37653511 -0.14695628 0.15699183 -7.45642501 1.78016302 2.41679921 -2.16094299 -4.5906122 -6.55885392 -25.66521413 65.9736219 -40.77757896 -8.20392928 -11.10430977 -4.26197041 40.42840152 -0.43859327 0.00307257 -0.40355531
0.00968068 0.93056534 -0.16858384 -28.64137648 11.45007665 10.82630618 9.34488074 7.681942 3.80222868 2.5627203 2.07901442 0.62805373 2.59231902 2.07373354 0.56049718 0.11401965 -1.18842927 0.41550239 -40.32318305 -10.94640905 0.7742243 0.42792763 0.59856452 -3.62181654 26.00730253 45.07076844 -63.878474 -68.23393736 -2.79619692 -6.62402094 -5.48947414 -14.20827126 14.05048633 3.15506112 18.59093688 0.13442478 -36.12111672 11.18605132 -4.75520287 13.19096847 69.24192023 -16.81652009 -1.93083167 27.72343361 -19.81650066 -47.54836601 -0.16065895 12.04892135 90.90786731 8.89786074 1.039911 -2.62650034 0.09599665 -6.11958707 2.30888103 2.11255689 -1.8468554 -10.66225785 -2.63907121 -26.05309186 68.1001988 -40.85553524 -9.1751436 -9.07377313 -3.27629099 39.00059399 -0.43864807 0.00309038 -0.40359095
0.00987798 0.91985856 -0.21251539 -27.69536693 9.95764748 11.25181032 10.87934348 8.09665935 1.32278987 2.78989802 2.23764058 0.15714553 2.80897671 2.22488152 0.07669457 1.60241031 -1.46561867 1.16566236 -27.47409231 -15.10300164 4.99726644 0.59351136 0.28015312 -9.18817527 25.23346579 39.15421381 -72.51611008 -76.05543137 -2.5885581 -3.50222051 -5.80242277 -6.72069823 20.30934649 2.44244493 17.35725296 1.59268623 -35.58874911 5.50864359 -7.46686841 -6.75769086 77.10605353 0.72327807 -0.03207588 27.97610162 -25.80979909 -46.1440622 -1.19651731 13.38870549 95.01487327 17.910654 2.04345432 -1.83997977 -0.09281087 -4.92529878 3.59946676 2.21962893 -1.89287206 -16.14019242 0.54636608 -26.6546288 69.9548006 -40.54579626 -9.89090301 -7.31042955 -2.41986142 37.2553696 -0.4385763 0.00306348 -0.40353515
0.00895284 0.90999725 -0.25299913 -26.9193008 8.90956988 11.37001846 10.83029883 7.8658328 -1.52995204 2.82980809 2.24381524 -0.51235303 2.82994842 2.22734596 -0.59562822 2.9865674 -1.76151901 1.57532655 -9.02648705 -18.34369661 9.30564901 0.62208395 -1.76760515 -14.30236205 18.92912788 33.81989493 -72.55851616 -72.63745354 -2.50689091 -2.08232692 -5.57103265 -3.84782747 26.01818381 1.3859929 15.72219976 3.76584939 -33.66291007 -1.69991948 -8.48379101 -55.68159643 78.28235261 49.56502165 0.37222029 28.0293236 -27.11081761 -40.17757236 -2.85224574 14.76209489 98.59386435 25.97710466 3.21846368 0.2285212 -0.27425062 -2.86489172 3.72214097 1.4314834 -1.110296 -21.06253124 2.73798034 -27.01516001 71.46707692 -39.76499431 -9.96842706 -5.80482546 -1.69957753 34.94513236 -0.43847986 0.0030876 -0.40345718
0.00895089 0.90096108 -0.29110724 -25.72840676 8.28276979 10.03282962 9.13876283 6.52400219 -2.88443427 2.6846727 1.87971471 -1.09722603 2.66907662 1.86750734 -1.16525236 4.24447582 -1.87714527 1.3861577 7.6780868 -19.51917391 10.32553435 0.5626527 -3.89023616 -17.84926379 12.11735581 29.68739307 -68.34602991 -65.97272764 -1.97767457 -4.04960044 -5.25169965 -5.82072858 24.79883394 0.96784569 14.18204787 4.83511903 -31.95610611 -9.1569951 -7.81581299 -80.71682072 75.2506456 74.97212315 -1.18094041 27.03289053 -22.80431172 -30.6282359 -4.5937162 16.4088791 100.16840424 30.65012725 4.43759255 1.16905533 -0.35917782 -0.36044053 2.80807868 1.31452142 -1.09678335 -25.8291895 4.04919314 -26.00530328 72.48867751 -39.1114048 -9.25796965 -4.16536154 -1.02220824 32.19257166 -0.43855637 0.00306301 -0.40352082
0.00937491 0.89162269 -0.33001486 -24.08203828 7.86815141 6.98274944 7.04726727 3.67146235 -2.60839934 2.56886789 1.04578268 -1.40567707 2.5527251 1.04278471 -1.44377677 5.24972167 -1.65510413 0.64728303 17.7240239 -18.03567055 5.84699038 0.47359915 -4.94259967 -19.78681758 5.68006018 26.23568285 -62.23467905 -58.4982997 -2.90945054 -7.66418996 -5.7714221 -10.70687129 15.67590365 0.94330733 12.98716447 5.5769797 -31.55808906 -15.18301178 -7.8986341 -87.7659381 72.36520678 81.34700914 -2.50793105 25.72130282 -19.26091628 -18.12046569 -4.12112304 18.60939515 95.16504311 31.99477695 6.34771773 3.13936726 -0.50652524 4.56650523 1.6668601 1.44498372 -1.34652905 -30.60210521 4.62812014 -23.1945433 72.96279737 -39.11763808 -7.87853259 -2.05679648 -0.30386442 29.10031551 -1.18809607 -0.16471393 0.051537
0.00875196 0.88202278 -0.37585112 -22.23580098 8.31620703 3.28624828 5.90014011 -0.90082485 -2.00007212 2.59013748 -0.25462 -1.35497705 2.59138249 -0.2485018 -1.35334008 5.87896778 -1.15726718 -0.3501849 22.91429537 -14.80594317 -1.46639315 0.31373189 -6.19739463 -20.59373734 -0.69133476 22.67545138 -55.49682073 -48.53983363 -5.89506682 -9.69693265 -6.87684444 -18.10238945 5.34955915 0.87595126 10.80487329 5.56047256 -31.39799651 -20.05101256 -7.85691653 -84.83227457 66.00655674 77.25854229 -2.52184504 25.69441004 -19.21571627 -5.47176422 0.11247944 20.75250956 80.48025599 31.46788599 10.96491458 -0.75401965 -0.5771281 1.6905382 -14.71722523 7.69273075 -21.09323877 -35.24328695 4.21493135 -20.08229786 72.73901564 -39.97800771 -5.96652385 0.64567677 0.41672239 26.07137749 -3.86506128 -0.49529412 0.09956499
0.00824975 0.87467346 -0.43113537 -19.2295308 10.91595976 0.28666083 6.26423174 -6.47902658 -2.09137883 2.64157931 -1.79531758 -1.04233478 2.67109923 -1.78202536 -0.99096015 6.15157966 -0.55890645 -1.21130543 25.30845119 -12.33941524 -6.7178199 -0.03272567 -9.65704589 -20.75411378 -7.00881698 18.81279267 -47.18061548 -35.84833907 -9.33100866 -9.2173105 -7.28344648 -24.70596664 1.95039855 0.69465699 6.2894593 4.15012341 -28.95071518 -25.68835931 -3.83614746 -79.77632691 56.82875743 70.12847842 -2.76734145 26.77177456 -17.78850001 1.66988397 3.18884523 21.17664049 68.00982906 29.12289572 17.77185103 -28.63737042 6.38234652 -21.95658687 -11.05932198 6.76133424 -23.56220225 -40.38360061 3.0274935 -19.17332261 72.70686241 -41.54270946 -3.33166699 0.50421864 0.36836447 23.82090956 -6.69983235 -0.72827185 0.01797622
0.0057726 0.86756973 -0.49697279 -15.52303228 14.04521961 -2.1095987 8.88394755 -10.59420074 -3.0697737 2.86751155 -2.89975191 -0.82189833 2.92227238 -2.88218577 -0.71950635 6.18214884 -0.08451784 -1.56017843 25.66386856 -10.83250529 -8.01563161 -0.41950678 -14.85072734 -19.94301303 -13.41617339 13.93074473 -35.69018696 -22.2777219 -11.66859281 -7.51847711 -6.35987874 -27.18275127 5.32182589 0.43219526 0.63611426 3.10478113 -22.6840278 -32.71207484 6.91791201 -76.21005326 48.55986343 60.85880225 -3.88058558 28.34505576 -13.30619812 0.9170046 -1.74969288 24.02793942 59.33232708 24.13333162 19.40650986 -31.46477531 12.74264562 -39.19523493 -2.31373073 2.88738415 -2.9205694 -46.57714166 2.24990079 -19.10370408 73.1420744 -36.10995736 -0.46599178 -5.66155691 -0.5683997 14.97639338 -8.36047045 -0.58388064 -0.25288314
-0.00338494 0.87140817 -0.56147278 -14.21187774 13.52718874 -3.99691771 13.3958549 -11.03553428 -4.90192143 3.53842399 -2.94897752 -0.97123168 3.60189393 -2.93623131 -0.84084565 6.1437511 0.18515628 -1.52835041 25.13673824 -8.11587051 -7.88498711 -0.66069223 -19.20672 -18.56540529 -19.4787417 7.05409013 -21.52094309 -8.46422276 -12.42145638 -5.96191725 -5.38095568 -28.30118834 8.46459285 0.24390252 -3.22807667 3.49556834 -14.68554985 -37.27938012 22.69346799 -70.94737029 36.49879216 43.89113198 -4.18432763 30.5893041 -11.2703344 -6.0194826 -5.98180751 24.85359883 65.00351419 25.06218721 17.26534547 -29.79155453 11.70143284 -38.10708846 -3.55756912 3.53907915 -3.49322179 -50.32158207 2.00083821 -16.95380932 71.29837292 -32.51578493 0.93503528 -11.73634498 -0.81975984 7.86637646 -6.88230151 0.63445855 -1.08467362
-0.00892045 0.88530609 -0.6167176 -14.46574196 8.74607946 -5.37810142 17.11193877 -9.06361056 -7.32498718 4.33427916 -2.30668885 -1.3273923 4.3900236 -2.31132867 -1.20253187 6.19654944 0.50793642 -1.8971723 25.09983021 -3.10920694 -10.25543031 -0.77877998 -20.50881293 -18.4010023 -24.2496012 -1.04182561 -7.6468099 4.60461495 -11.54094057 -5.37971756 -5.62251865 -28.93096263 7.3588524 0.26338522 -3.2905232 4.20377898 -9.51677667 -35.19943627 36.26546335 -70.14068793 15.73293292 21.92500283 -3.28765281 31.36589475 -14.21223905 -9.54012194 -3.71547583 27.17413665 67.28932873 24.24986156 14.37960758 -28.23347543 10.17149482 -35.40908465 -4.62580492 4.16485151 -3.9969124 -51.78518476 1.21042485 -14.20190436 67.96996418 -37.12605384 2.08613253 -17.61560166 -1.21686255 8.84325055 -3.67077741 2.42368394 -2.34801177
-0.00909077 0.8991169 -0.66168239 -13.94247254 2.67466778 -6.60040574 18.43722477 -7.38930849 -8.81595254 4.69801284 -1.8071619 -1.47681782 4.74263617 -1.83063963 -1.36914041 6.34256189 1.0617998 -3.06645217 26.99108627 2.322251 -16.24401954 -0.53785308 -18.54374186 -18.90648948 -27.68490757 -8.11990016 1.43810159 14.54376826 -9.62573887 -5.0719679 -6.56102443 -23.79960794 4.22871082 0.44181267 0.17768848 4.76802693 -4.24373946 -30.16142982 47.47390247 -78.49734451 3.18295602 5.87118502 -3.10111568 25.94612413 -17.99316893 -12.30533635 -0.05610493 28.56058782 67.50828021 25.09406938 12.90353929 -26.24516737 9.11072938 -33.83011905 -5.43801507 4.68727231 -4.38842595 -54.40481718 0.92902692 -13.6504313 67.5398152 -40.51986455 4.05785866 -18.18731766 -2.3834653 14.35545135 -0.36151885 3.02586531 -2.71913549
-0.00836175 0.90402641 -0.69750397 -13.87917942 -2.21064725 -7.53587626 18.87602279 -6.49658297 -8.78000863 4.74160802 -1.57705833 -1.27727805 4.7764308 -1.61369796 -1.18105818 6.48131813 1.54882725 -4.35579572 30.01297934 5.1368941 -22.94099423 0.07502993 -15.78618257 -18.08078228 -30.50562317 -12.64002134 3.51823248 20.80277872 -7.58714942 -3.46514721 -7.09334526 -12.21274775 5.11778771 0.62029149 4.437448 5.55893747 4.600278 -26.32840144 59.48511943 -77.72189527 1.81818456 3.72808052 -4.56531863 16.07937716 -17.4661357 -13.79949992 1.58774358 29.17894138 68.20059389 27.23441222 11.85823094 -24.43976377 8.54434479 -33.68660935 -5.91361613 5.02616557 -4.62922648 -57.67619113 1.34652152 -13.07674518 70.67955121 -38.79357338 3.71149582 -16.58481606 -1.88398294 12.45230966 1.1805676 3.68179033 -3.25436906
-0.01098988 0.90394356 -0.72464747 -15.30110438 -5.3564656 -7.88192729 19.55752625 -5.34732489 -8.18403966 4.87832645 -1.29646615 -0.90660417 4.90217129 -1.3478618 -0.82110563 6.5487781 1.62667246 -4.91984514 31.74210518 4.85516738 -26.75618944 0.30257813 -14.73466523 -16.98625049 -33.15244962 -14.97713301 1.46080753 23.9276043 -5.99315981 -0.86702748 -7.33407209 -1.55988622 12.51609692 0.69241218 6.9858022 6.59372924 12.01915672 -23.40663127 69.06350404 -61.75578784 3.39892872 5.75010539 -6.35111585 8.93464797 -12.66740289 -13.05814781 1.93439678 28.85492232 68.60928834 29.66238012 11.38118584 -22.62639563 8.11902643 -34.39281405 -5.32039788 5.01444411 -4.62119872 -58.74122179 3.18916353 -11.8244454 75.57854845 -33.05845544 0.524402 -15.2666574 -0.69869061 6.05728952 1.83243084 4.55206861 -4.03984352
-0.01619671 0.90260239 -0.74575215 -17.44330505 -7.3882095 -7.93439087 19.61122174 -4.07471602 -7.10296046 5.06082746 -1.00999608 -0.53329406 5.07527876 -1.06979504 -0.4586673 6.56163224 1.36313197 -4.72537641 31.92329689 3.04258423 -27.11098098 0.00723841 -14.92970264 -16.82713638 -35.20721854 -15.6040222 -1.88467534 22.41279752 -5.17273701 1.01767636 -6.76255252 0.56170912 21.90021601 0.63833128 8.16512199 8.5020909 14.80558248 -21.84260227 72.70787597 -39.24157614 4.02312402 5.58912976 -7.23773355 5.73938349 -7.91736433 -10.969333 1.66348199 27.49644769 68.08704147 32.5646629 11.89635424 -20.46452191 7.68862221 -35.78077084 -4.47451598 4.79964087 -4.43947963 -56.06065502 6.65749587 -10.00953865 79.72532128 -30.49669826 -3.33145698 -13.74673354 0.00048249 1.74447759 2.41719066 4.38894216 -3.87625436
-0.0216638 0.89752327 -0.76174521 -19.69017684 -8.86706072 -8.29401814 18.1957269 -3.83195707 -4.78196271 5.02424908 -1.02715773 -0.18717193 5.03362519 -1.06994858 -0.11261121 6.55192667 1.04183477 -4.22195797 31.53079866 0.94000877 -25.04465069 -0.12325811 -14.94664498 -16.36727881 -35.14017743 -13.7820286 -5.96667872 14.24994699 -5.44294076 0.72098462 -4.73085436 -6.50289289 27.66055909 0.46698475 9.11578791 11.8930554 14.27846895 -21.26365928 70.56848739 -23.86137077 3.11946815 6.28993596 -7.56176162 3.02439992 -5.07539215 -8.7724759 0.80862818 25.97983405 67.69562723 35.54918675 13.14320853 -18.53396123 7.35019267 -37.29049216 -3.5850257 4.50766543 -4.18494748 -48.83110384 10.64441276 -8.02533039 78.82621795 -29.20279457 -7.10305099 -9.40690564 0.56629051 -2.81991569 1.83346499 3.94422065 -3.47636005
-0.02663142 0.89092148 -0.7720414 -21.67431843 -9.90882253 -8.63849737 14.80471384 -4.9065009 -2.1371425 4.65946528 -1.37770268 0.11392458 4.66691361 -1.38948917 0.19847701 6.54629738 0.77997502 -3.61805021 30.71952982 -1.40904064 -21.14284157 -0.05101583 -15.12111332 -15.80739019 -32.33321848 -9.78704485 -9.2724446 2.22950709 -6.27916468 -2.22218433 -3.02227031 -15.21405416 27.53805194 0.28024607 9.51066988 15.51689653 12.8737167 -20.83572205 66.08403946 -18.09751657 2.35468883 7.78718621 -7.77519376 -0.12041359 -4.304347 -7.08770174 -0.26827161 24.45430981 68.17831746 37.90449136 14.15294895 -17.59158154 7.11469932 -37.20011116 -2.88475224 4.40455123 -4.09071655 -36.86632379 12.76428963 -7.87500683 70.13692412 -25.43893561 -11.58416704 -6.20598505 0.03686198 0.24408719 1.37144658 -0.24927912 0.35129937
-0.03329205 0.88357756 -0.7742746 -22.74148844 -11.22066584 -7.62475637 9.46882695 -6.05146014 -1.30906277 3.95156053 -1.68227738 0.2934991 3.95870238 -1.68142542 0.37695801 6.51427549 0.46849303 -2.85347943 29.23696755 -5.05482443 -15.78917561 -0.22029921 -16.2617289 -16.84013598 -28.84576298 -5.81915947 -10.00013874 -5.25201252 -6.67109172 -5.64689775 -4.28205728 -16.32619344 18.11308383 0.20738047 8.95452352 17.66955555 12.32668674 -20.81859238 63.24540517 -13.18405812 2.52542603 8.43068256 -7.76210623 -0.73471599 -5.47697906 -6.29831275 -0.57625642 22.39124277 69.65614867 39.57605966 13.76631304 -17.58144802 6.90214609 -35.56128721 -2.41185775 4.49957645 -4.17219232 -26.61862368 13.22218684 -11.25066542 60.34332794 -17.32818118 -16.02912349 -4.46626397 -2.3048207 23.5552685 -1.64238198 -6.77544192 5.69583483
-0.0431493 0.8694565 -0.77741165 -23.80086866 -13.82287895 -5.83571532 4.96581923 -6.18096015 -1.45023771 3.21299859 -1.71683062 0.36533622 3.21913318 -1.71805794 0.43196681 6.32352855 -0.00265006 -2.00717567 26.91467014 -10.5367702 -9.68495467 -0.54675473 -17.59202353 -18.71881872 -26.81171273 -3.70119802 -9.35202988 -1.4754581 -6.98446413 -6.54413818 -7.66630758 -9.80321788 -1.32611409 0.20153994 8.21109775 18.85668208 11.25808772 -20.65398616 61.42078628 -4.73309394 3.89200329 7.85057263 -7.47215499 2.77978426 -6.70894501 -6.41043228 -0.13791473 20.21379223 73.03158131 40.68062189 12.24516918 -18.26907999 6.51664733 -31.74255967 -1.87523263 4.8212618 -4.45830647 -25.31820004 14.01725994 -12.97421078 58.85633405 -14.4348633 -18.45519326 -3.61378594 -2.54454192 37.43941184 -3.76821369 -5.80228951 4.49518026
-0.04129783 0.86708893 -0.78575866 -27.85412068 -16.15638731 -6.9918734 4.30169208 -7.00143016 0.60851169 3.02495396 -1.92647665 0.48834924 3.02711235 -1.90991605 0.55620616 5.95361363 -0.56493735 -1.27490896 23.96541457 -17.11416973 -3.46443685 -0.63738834 -17.79806217 -19.30912226 -25.84492984 -3.10580565 -10.51725604 12.47730949 -7.80519245 -4.74151507 -10.71965703 -5.49255349 -24.1881912 0.1531289 7.97102316 20.54019234 7.27645405 -18.94947932 56.83664286 4.98600112 5.45667744 6.92478215 -7.21244305 7.5262326 -6.5821673 -3.93469432 1.36416696 19.5799116 74.42676799 42.19949583 11.91760177 -18.25491429 5.68051815 -26.98656797 -1.2308963 5.1732024 -4.77809287 -26.19275523 15.53020622 -11.00044692 61.93615189 -14.28915441 -17.55925602 -2.92466959 -1.9530739 29.86470096 -3.04572195 -3.34201194 2.55195934
-0.03853628 0.86663109 -0.78944145 -34.04637019 -15.30242698 -10.20188096 5.37988873 -10.04066904 4.14448976 3.25358951 -2.76717359 0.74683823 3.25187903 -2.71447899 0.84753312 5.59751866 -1.0964728 -0.58508778 21.88264189 -24.20629553 2.89897668 -0.55144561 -17.35832996 -18.91409347 -24.44802703 -3.02897499 -13.38613258 29.75587982 -9.01295326 -2.21968361 -13.52374625 -8.91043755 -40.46008835 0.17706766 7.28830669 22.13126778 1.82182631 -15.77777233 50.33760189 14.31528476 6.59128092 6.45518933 -7.1814205 10.34978743 -5.48148153 1.00676066 2.35088211 21.08163235 74.18649115 42.44641124 13.26788337 -18.40016484 5.1938618 -24.18204032 -0.94392797 5.36327327 -4.9533077 -22.10771232 14.32047376 -9.25183539 63.30736936 -14.49283226 -16.76652562 -3.35676828 -1.85905719 23.91598103 -2.36727678 -2.79866367 2.18118508
-0.03788395 0.86837859 -0.78980827 -37.84970533 -12.42675853 -10.75034847 3.38833869 -14.14708193 5.5250091 3.04713296 -3.87282555 1.02604679 3.04746538 -3.80735634 1.14599079 5.3375301 -1.6189029 0.22682737 22.34612235 -31.66016086 9.93391763 -0.60072426 -17.7299872 -19.05061238 -22.52092913 -3.19073741 -15.56036494 43.69173624 -10.33069082 -0.20292312 -15.89958255 -14.41259024 -44.44906958 0.45050694 4.64960407 22.07082959 -2.05505054 -12.63317204 46.23907967 22.84165119 7.48223438 5.74961006 -7.34984829 11.9120219 -3.8319629 3.92265479 2.15150144 21.79123217 73.62558145 41.35595525 14.3164874 -18.64941185 4.89499208 -22.36890492 -1.01781692 5.57925345 -5.14974663 -17.0049739 11.71225684 -10.70146718 63.07935616 -14.51137124 -16.85349839 -4.52876341 -2.14105487 23.69356601 -2.50563212 -2.76382854 2.13389282
-0.04053889 0.86233269 -0.79032005 -38.43199113 -10.88354515 -8.78857988 -2.0007489 -17.11537639 4.09736862 2.23867596 -4.63886242 1.20017003 2.2441778 -4.59420906 1.2936733 4.99777927 -2.13634203 0.95075086 24.28749005 -37.97024832 17.41077953 -0.71280986 -18.59829575 -19.35030032 -21.10601697 -3.97846549 -16.89517152 52.27162733 -11.4019602 1.48507345 -15.90734484 -17.03130511 -38.56690214 0.81174957 1.09738675 20.85152754 -4.20621298 -9.8830383 45.39965965 29.5805613 7.78742426 3.82080382 -7.71570348 13.91807715 -1.37644624 2.87153722 1.17738579 21.10742792 75.39165099 40.44034157 13.73691701 -18.95347221 4.46317464 -19.76126294 -1.04202943 6.00579675 -5.53865653 -16.57672908 11.11417341 -12.86841183 65.16088943 -15.03025604 -17.00520412 -6.02273939 -2.4729384 23.4511878 -2.59909659 -2.58977667 1.97436494
-0.04097088 0.85373848 -0.79430809 -40.1144968 -11.10698923 -7.84307599 -5.96169901 -18.61328185 3.37088044 1.57514163 -5.03860263 1.30189376 1.58146676 -5.01264426 1.35790078 4.48928636 -2.50935991 1.26448132 23.52898128 -41.3140612 22.60304486 -0.64479072 -18.65400357 -18.80171556 -20.67938681 -5.72402546 -18.35385387 56.7748721 -11.98546314 2.6764692 -13.91231441 -18.51316173 -27.70662413 0.93726 -0.25704486 20.23019096 -6.45739055 -6.59478084 45.06214246 34.44255313 6.90687875 1.19379773 -8.2955414 15.96882428 1.81726489 2.36524011 1.65833219 20.89247225 77.7330481 40.09920076 12.73742684 -19.24301066 3.7327975 -15.8132843 -0.8615401 6.43655889 -5.93670431 -16.50645202 12.43719011 -13.29544642 67.44151221 -15.73240038 -17.12545062 -6.64554441 -2.52143797 21.90113095 -2.43155084 -2.38350518 1.81964313
-0.03962765 0.84213172 -0.80236802 -44.52513763 -12.05172573 -8.77042115 -6.82536868 -19.6729348 4.44611295 1.40836706 -5.29444571 1.42208145 1.40857115 -5.26913368 1.46328699 3.97467412 -2.66868715 1.18846124 17.36899565 -42.13668365 22.3685265 -0.53655008 -18.1691204 -18.28184888 -20.96940575 -8.20564667 -18.99794525 58.36039521 -12.34027383 2.92593609 -11.13318675 -21.134635 -14.13829003 0.80688444 1.13601271 20.45469064 -9.28182026 -2.75617738 43.54508873 38.97967756 5.99622766 -0.71233999 -8.92755299 17.13682789 4.95407066 4.51344768 3.32053343 21.6777126 79.58925244 40.30156132 12.38449722 -19.40141436 2.93333414 -12.15785786 -0.62912644 6.71961312 -6.20323783 -14.76872003 14.14606919 -11.9438918 69.48462857 -16.28191777 -17.44342794 -6.704318 -2.36044017 19.72866422 -2.19972459 -2.21112866 1.70051589
-0.03967459 0.82594418 -0.8136323 -48.74673748 -12.90005358 -9.28912283 -7.68116677 -20.36399892 5.07849295 1.31602559 -5.43315162 1.5876038 1.30751929 -5.40655063 1.61885167 3.58409922 -2.64698083 0.80347145 8.31935596 -41.33806996 17.19565924 -0.59127234 -18.11706533 -18.72785409 -21.76525762 -10.94434183 -18.17017757 57.84523837 -12.69855499 2.88292488 -8.03148041 -24.14269918 -0.83432319 0.67216764 2.557992 20.22348346 -11.48942109 0.58753658 41.81282172 44.43749579 8.0031434 -2.23942311 -9.5419109 17.43591847 7.96920865 6.55814428 3.97691933 21.60295574 81.66946778 40.83076043 12.09969738 -19.09605644 2.41240589 -9.96106264 -0.48574425 6.95565064 -6.42542627 -13.94615745 15.74606745 -11.10342038 72.26907695 -16.50350307 -17.58304302 -6.73265501 -2.08794116 17.38659662 -1.95041348 -2.0772723 1.61540459
-0.04262299 0.80329516 -0.82758292 -51.81989454 -13.3513546 -8.7416103 -9.92828425 -20.55636314 4.23019855 0.98114485 -5.44617494 1.69334314 0.96850432 -5.42797901 1.70062401 3.29975328 -2.43507147 0.12720318 0.57516467 -38.83479345 10.52617689 -0.60546587 -18.30041334 -18.76142668 -23.12395765 -13.77059596 -17.59191592 55.75276396 -12.83221341 3.41018344 -5.76985638 -26.56135067 7.22555963 0.66129876 2.45131194 18.99938133 -12.96453791 3.97148371 41.27254761 50.91784462 12.3233633 -4.89381621 -10.38028094 17.87305726 11.77142729 7.1978877 2.83227218 20.39471345 84.6480861 41.62055046 11.67732897 -18.35476906 2.07373665 -8.67789222 -0.35871887 7.1404844 -6.60084013 -14.71781107 17.32879713 -11.31963968 76.15777709 -16.49804193 -17.20530495 -6.8558218 -1.88369344 15.53000454 -1.6787686 -1.84464928 1.44674222
-0.04702883 0.77355232 -0.84490105 -55.3724489 -13.84244123 -8.43900862 -11.77119487 -20.25370865 3.14455445 0.56999169 -5.3767311 1.64413709 0.55913126 -5.37052581 1.62503011 3.10218584 -2.06273286 -0.62205774 -4.2803844 -34.83305387 5.21573681 -0.36286166 -17.85983872 -17.1191718 -25.17324403 -17.03966064 -18.37480198 51.71486115 -12.85767486 4.17308641 -5.53750665 -28.65846581 7.55830667 0.6817426 2.18645538 17.74662271 -15.23822845 9.25161493 41.9942808 57.26426688 15.15479141 -7.81570885 -11.53697588 19.53543186 16.15106814 7.61634798 1.00849872 19.07886839 88.39845666 42.70953631 11.18685863 -17.16155317 1.63639535 -6.9657169 -0.05436671 7.25022818 -6.71445537 -16.09488998 19.18691011 -11.42433263 80.87378726 -16.22828752 -16.30692946 -6.86706086 -1.64870255 13.56949894 -1.30603982 -1.40292699 1.10574688
-0.05189695 0.73535876 -0.865992 -59.56473541 -15.04150602 -9.07028257 -12.22286932 -19.55093243 2.81506709 0.28894598 -5.21378847 1.5173334 0.27974899 -5.21466941 1.48296949 3.03422193 -1.6502446 -1.22424563 -6.53768316 -30.29082802 2.05181168 0.00426903 -16.33466011 -14.7275476 -27.73867769 -20.76804459 -19.2753328 45.97163331 -14.41802763 5.18674527 -7.04270919 -29.58048011 2.42920783 0.61244288 3.4292119 17.17253457 -18.9488573 16.14691374 43.02995396 62.25402593 16.23225289 -9.88734783 -12.60466627 21.69464091 19.39411564 7.86827958 -0.84096968 18.25154651 93.05473156 43.82080855 10.3324571 -15.49122156 1.07725241 -4.52575822 0.48985458 7.36053731 -6.83972009 -19.12741064 21.61930745 -10.51285078 86.50880963 -15.6072101 -14.70187145 -6.48808869 -1.23212148 10.33552056 -0.77607145 -0.6252119 0.48074773
-0.05791892 0.68765503 -0.88987713 -63.72918081 -17.13387426 -10.32182665 -12.10846782 -18.46513656 2.98665744 0.13164223 -4.92432027 1.42495826 0.1203993 -4.92683074 1.38487398 3.1755977 -1.30479106 -1.62425078 -6.89070563 -26.3245093 0.61581665 0.31305036 -14.13520312 -12.64686709 -30.13109718 -24.00170872 -18.78465946 39.91174203 -19.64611641 6.90138507 -8.65512181 -28.29403632 -2.85144985 0.40259752 6.07262246 16.80516034 -23.82108357 23.56670136 44.21131109 65.64152688 16.38269081 -10.97432364 -13.02064514 23.39361294 19.86015604 7.6193512 -2.85219756 17.80580677 98.68062121 44.31315084 8.90738629 -13.44967419 0.59175478 -2.09338404 1.07111864 7.6145203 -7.10523362 -24.96502776 24.51906196 -8.65767174 93.00041318 -14.3282562 -12.39321721 -5.77610762 -0.69766026 6.0155932 -0.38319649 0.27840894 -0.28069093
-0.06605491 0.63072212 -0.91540426 -67.70712818 -19.89913298 -11.90711824 -12.10805776 -17.17846065 3.16790222 0.05583074 -4.56848751 1.34481755 0.04317761 -4.57119173 1.30426367 3.50758945 -1.06040491 -1.81097645 -5.97231012 -23.23277236 0.09823227 0.53659826 -11.94230284 -10.63024455 -31.98575342 -26.33733426 -16.85830346 32.75948924 -27.02849398 7.34044179 -9.05783373 -27.41534846 -4.06842501 0.24288917 9.03178512 15.3932713 -30.66983881 31.99341906 47.45742195 65.87801988 14.40797893 -9.25526661 -12.4561004 25.46214838 16.65094596 6.97746438 -5.39721963 17.77659428 105.01174465 43.48689954 7.02338581 -11.0067381 0.3565883 -0.71194653 1.6173069 7.8268264 -7.33419172 -33.59253622 27.3270685 -6.12114025 99.76696466 -12.19245871 -9.74766948 -4.87702294 -0.21589573 1.85187676 -0.3880822 0.77458355 -0.7207985
-0.07622875 0.5649201 -0.94214387 -71.65441707 -22.62884389 -13.78753905 -12.00333135 -15.97104344 3.30599357 0.08726623 -4.25179325 1.17823816 0.07800038 -4.25579316 1.14253405 3.92401579 -0.91356869 -1.83626599 -3.84116669 -20.94102583 -0.11604896 0.66413104 -9.47167018 -7.92791808 -34.01729963 -28.57421192 -15.19717642 20.92090636 -32.96959907 3.30660766 -8.21162342 -29.80777978 -1.24180489 0.54493421 12.02445518 11.76161671 -40.71379888 40.09900414 54.53868339 62.3545929 9.98209624 -5.16867366 -11.00176516 28.59866137 10.63399872 6.03364933 -9.48939737 18.43491271 111.83534063 40.51051697 4.85686446 -8.14127574 0.42964175 -1.36008346 2.62634253 7.73068155 -7.29161221 -44.65925338 29.57126815 -3.45052881 105.88595824 -8.77441541 -7.03360116 -1.16194904 -0.06348023 0.42088026 -0.4895394 0.75867631 -0.71451416
-0.08699331 0.49101892 -0.96966266 -76.06564522 -24.80719169 -16.22216718 -11.12594875 -14.69071667 3.64246914 0.23012112 -3.92732164 0.94706649 0.22570533 -3.93131246 0.92146785 4.4618018 -0.88388537 -1.75889424 -0.93058665 -19.82970479 -0.02305455 0.78878879 -6.67881721 -4.42760898 -37.10165721 -30.94009298 -15.23136056 4.71818207 -36.40451595 -4.40908926 -6.74660457 -33.93777785 3.05113099 0.96681913 13.90297128 6.6764574 -52.1318192 45.90024842 62.29659863 56.91270855 6.22574466 -2.73529346 -9.83200421 31.58721198 6.29060767 5.5580732 -16.0160521 19.66888296 118.51596506 35.1826795 2.56302596 -4.60839364 0.63240518 -3.8577428 4.32373577 7.12186179 -6.76533521 -56.75123193 29.51075299 -1.07915524 110.11886988 -6.89883556 -4.71496385 5.81321534 -0.04275121 -1.73784674 0.40794115 1.06054846 -0.91650902
-0.09657081 0.40924027 -0.9961787 -81.19680412 -25.85395237 -19.25792573 -8.96615924 -12.88054528 4.14349109 0.40229982 -3.43897266 0.82979624 0.39803894 -3.43893206 0.81789643 5.18111665 -0.92492931 -1.64049552 1.7125252 -19.61420765 0.46884806 1.27275666 -5.54037031 -0.92613647 -40.31388241 -31.63223083 -14.66706626 -11.11790458 -39.28681206 -12.18823714 -5.31480132 -36.86712252 6.69914025 0.48312234 10.82875867 1.77150094 -66.87504736 52.27551791 71.25544241 51.07209953 4.23074016 -0.52950941 -9.99956893 34.20720279 6.02125334 6.5806176 -25.32408619 21.14753229 124.27199276 28.24108414 0.2614095 -0.10632138 0.53509242 -4.96083804 5.50680743 6.21159729 -5.88111373 -67.75946427 25.74280055 -0.70903579 111.69351376 -9.52921192 -3.19885156 13.88556226 -0.43656471 -5.75417655 2.60116659 2.68235959 -2.27093424
-0.10690525 0.31680348 -1.01986747 -86.78869905 -26.02390722 -22.28745072 -5.47187401 -10.57134859 4.11662306 0.56044808 -2.80353563 0.76914891 0.55375321 -2.79666568 0.77371304 6.07368751 -0.83366246 -1.74787499 4.36574968 -18.09896087 0.09879674 2.10705723 -6.19462923 2.64577666 -42.03847576 -29.62892607 -11.14049511 -23.07976388 -41.58389553 -17.76442231 -3.72507559 -38.42361577 10.3475663 0.29896055 5.26752237 -5.19146093 -82.75260611 56.74554577 78.28459266 46.14802116 5.00799257 0.40510393 -9.93786003 33.7252513 5.74401719 9.58401496 -37.079188 23.41880969 128.48110132 18.69766075 -2.03955091 4.55173826 0.2595087 -4.04399184 5.83693594 5.68055509 -5.34276126 -77.45336543 18.46528168 -2.82922243 110.29510508 -17.50440022 -2.66718538 16.4317727 -0.60130491 -6.79689629 3.95058348 4.13178955 -3.42271372
-0.11998608 0.21776019 -1.04351945 -93.62114449 -26.57479544 -24.84490153 -0.61360753 -7.87551507 3.31701184 0.87497994 -2.05036517 0.43403192 0.86762558 -2.03571769 0.45163788 7.21143186 -0.65374252 -2.04982893 8.69964892 -15.18973083 -1.50481034 2.17702428 -3.69814887 6.46327766 -43.90096829 -28.47665359 -9.83135681 -29.75231859 -42.21747117 -20.14818455 -1.72310749 -39.29114125 14.94225145 1.73622866 8.33048018 -14.14057441 -65.7290955 53.92129169 49.59599329 45.11975729 19.14017953 -12.01368084 -9.58586527 25.3573353 8.0436265 14.2785783 -47.99226576 25.99674456 129.63433638 7.27640067 -3.84899145 8.52077963 0.01421967 -2.83271953 5.93246945 5.67977467 -5.34344957 -84.20434436 9.53730017 -5.63236869 105.18473761 -23.44307602 -2.02368396 12.93380409 0.04250863 -0.8834623 4.83163097 5.13223818 -3.97436019
-0.1320491 0.14709045 -1.0637839 -101.9344567 -26.1035091 -26.67583965 4.82120284 -3.63694435 2.42786223 1.43432327 -0.84598576 0.2264472 1.42984939 -0.83552875 0.23668844 7.96627791 -0.91248096 -1.36531766 13.01027592 -15.9567621 1.03234551 1.03936351 2.90378101 7.51678789 -46.85246141 -29.57520468 -13.16126532 -39.86053308 -46.48042416 -28.43713883 -1.37883458 -38.79135123 16.08803037 0.22163188 13.93958735 -18.10878118 -47.00628489 33.67631935 17.81741113 53.93140223 38.99336454 -41.0131738 -12.27199921 18.05119905 20.45180167 16.65766461 -52.96090078 21.87746223 128.59013842 1.80671593 -4.19740405 11.40215622 -0.01008304 1.01114986 6.12663438 5.87276997 -5.5461047 -85.47339296 1.69470759 -12.54532406 99.75827616 -17.46110593 0.35052545 12.07676056 0.68619837 10.82484833 5.60548315 6.02600371 -4.37429362
-0.14079762 0.14512305 -1.07963072 -107.0473932 -23.18405884 -27.43951606 7.82499904 2.39699745 1.05037265 1.69735438 0.90770704 1.1594818 1.71680111 0.88332166 1.14538265 6.84375753 -1.73523075 1.20903615 13.13798594 -21.61244351 13.10313646 0.7181079 5.06857526 4.66576221 -44.50769498 -22.74269671 -6.88703255 -74.84258935 -51.32249573 -64.35970789 -3.05178073 -38.74192022 12.18142755 -6.62270338 -0.17880928 -20.06237299 -56.26825934 24.89512151 18.11831091 49.64786708 48.23919847 -54.07502165 -17.02362274 22.18557345 34.95636484 16.6636723 -52.77402638 12.16943483 126.98774081 4.88855919 -3.6882286 14.30789712 0.40118908 6.4042064 6.5162583 5.71169939 -5.38586262 -87.83450065 -4.29951552 -28.86625829 100.17014663 -7.57745826 3.50806968 14.77617563 0.87578204 18.09376343 6.27929304 6.82761163 -4.6290976
-0.15817508 0.17935418 -1.09922538 -108.15270539 -22.43084081 -28.67791049 6.09694021 7.26826377 -1.15855423 1.09637134 2.47435678 2.80484141 1.1723811 2.41922376 2.78429232 4.43437708 -2.49025866 4.18726242 10.80392401 -26.54881758 28.2423014 2.39022888 -0.06915947 4.8169787 -38.68485395 0.51477014 12.92559987 -101.61345313 -38.14219255 -96.65904952 -2.02230868 -40.56267388 13.54350435 -12.34105962 -21.28385917 -26.97381483 -69.99652347 26.03440473 35.141233 25.50190393 50.23846098 -39.5256028 -19.2835601 26.8253176 39.10954099 20.15726669 -47.43227009 8.9641951 122.03415555 10.51475144 -1.98760802 18.12710237 1.0368734 10.07694465 6.88867066 5.57029843 -5.24377532 -92.65320472 -6.72917623 -43.13292411 104.0063628 -8.08596476 5.05752631 24.79338336 1.24478016 14.23023255 6.86025897 7.54907774 -4.74733337
-0.17650845 0.20477392 -1.12439463 -111.42943786 -27.12402051 -31.34282705 1.72207073 9.723234 -2.76079489 0.12452813 3.3831817 3.59485768 0.25107838 3.34601957 3.59844568 3.74014332 -2.45393747 5.58957873 9.75934039 -25.51820117 37.02943422 3.85227057 -3.59075951 12.27231693 -38.25281331 22.78793214 28.28268351 -95.38419481 -40.86939122 -87.13444614 2.01248595 -36.7945498 25.42608593 -10.08217521 -21.19218633 -24.52281995 -69.16680394 27.90897437 36.45555845 15.29153174 57.06841311 -28.96992204 -16.82804252 21.984127 36.15565654 22.49144842 -35.97025789 7.84496954 114.71031161 13.2998179 0.8680889 22.75047431 1.89735929 13.0195261 7.2455123 5.53497126 -5.21149142 -92.96120374 -7.96357023 -45.17086109 105.27962484 -7.86466337 4.48428489 28.0043875 4.13353632 19.32498604 7.35512291 8.20054872 -4.73895545
-0.18281692 0.22171526 -1.1510725 -117.16347067 -32.1368157 -35.07267195 -1.94199611 11.60510004 -2.04231651 -0.50115961 3.97414649 3.36300001 -0.35072366 3.97525217 3.39705371 5.28958912 -1.96677667 5.21704798 13.41210654 -20.39691743 37.30312499 3.33627226 -1.65332867 19.71083811 -35.62501374 23.52868441 28.90224481 -41.69622983 -43.98454664 -26.87928602 3.00265888 -24.39237651 40.51312108 -5.75397533 -8.58312638 -16.60104377 -60.18121464 28.45956788 26.46966012 29.32502381 67.3451967 -37.99266178 -14.2018687 14.21341172 35.05971512 22.61401586 -25.16143605 6.07076232 109.09038537 15.5441677 2.91274003 26.13776897 2.58431734 14.47543329 7.43798126 5.21311545 -4.87359347 -89.05128744 -5.95737818 -43.32152676 105.68483257 0.26364227 3.13967023 12.79710853 -0.79188584 19.7344075 7.77069236 8.79043869 -4.61529901
-0.18219313 0.23483878 -1.17553762 -119.98261381 -34.19937481 -37.74180939 -4.18307707 13.23042994 0.32497233 -0.82070273 4.34889404 3.0873536 -0.65863486 4.37095012 3.14138713 6.57266055 -1.70959766 4.24187338 18.5616759 -16.1917754 32.99074832 2.27639984 -0.56226417 20.44776459 -33.77057737 16.0866368 25.39561116 -15.2328074 -16.65781252 -1.83222719 1.02278828 -11.55745328 54.34232523 -5.02252688 -4.05480474 -12.63146661 -56.69272238 29.82271123 24.60140629 47.37162145 71.05287361 -53.15463089 -12.83504548 12.53672049 30.11044073 19.80628095 -19.93546769 6.4566845 106.49555502 17.7155201 3.68288762 27.47576548 2.52529612 13.09089414 7.39531223 5.0677152 -4.71972244 -81.87074712 -1.62140062 -42.32675464 104.77885361 7.56281354 1.76692213 1.9870729 -3.22875716 9.68839444 8.11347412 9.32597621 -4.38867525
-0.18188387 0.23877052 -1.19116882 -119.47666343 -34.34556543 -38.84284456 -4.78886373 13.60756859 1.85388525 -1.03471005 4.34863442 3.09070372 -0.87216182 4.37048113 3.15263586 6.1846228 -1.55864378 3.8035764 18.16553305 -13.24941048 29.48844587 1.9394988 -3.03817142 16.19918859 -33.5205872 18.33928369 26.06539154 -23.02897888 -10.5334224 0.2890563 -2.17291107 -4.97018094 51.98507369 -5.91217626 -7.69695023 -11.47739231 -57.38345688 32.79257036 28.52036765 44.53737647 76.52532777 -49.16266159 -11.55421703 14.93839695 20.12829786 14.5973618 -18.50481831 8.80858194 105.86315384 16.84139116 3.81718679 28.41163494 2.44798656 12.16195304 7.07165121 5.44328438 -5.11279069 -74.4964027 -0.02405055 -38.12672698 101.63753544 3.99472957 -0.82340626 6.7144126 -3.22297379 0.92539777 8.39017008 9.81322005 -4.07244554
-0.18527929 0.2368205 -1.19811081 -118.65658897 -32.42545822 -39.40459871 -3.27588191 13.12660048 1.66647565 -1.01207746 4.10234425 3.10483541 -0.86096441 4.10926342 3.15926522 4.7837156 -1.36015437 4.00265553 11.29311691 -11.07085305 28.99692438 1.62314315 -5.81005414 11.18327567 -32.80985551 24.62045572 28.17439215 -32.77003934 -11.90457961 -2.64335989 -5.60276029 -6.11929508 27.09771986 -6.27333425 -11.71578116 -9.47733913 -57.30527278 33.39304208 29.27880545 16.7546452 84.21322272 -21.43313074 -11.09519185 14.61131986 17.7106253 10.31212582 -19.05313114 10.99676704 105.4777767 13.90647989 3.89260064 29.65362341 2.72429591 12.92273957 6.8656403 6.31510281 -6.02397581 -70.60083652 -3.3684592 -32.14132311 96.49853917 0.1644714 -2.53510744 11.41860639 -0.86771835 -5.21273552 8.607439 10.25762224 -3.68053075
-0.18581083 0.23062849 -1.20277008 -118.34836069 -29.50655535 -39.42843334 -0.47672113 13.05543192 0.79218244 -0.7557961 3.95254486 3.04788317 -0.61500735 3.93635897 3.08599835 3.50272723 -1.19691587 4.28098503 3.1424883 -10.3225022 29.36908929 0.79488574 -7.37956513 6.21480047 -31.02679267 27.2241801 28.4233439 -20.48043605 -12.50990097 -2.38093727 -7.27994042 -11.58431672 4.8392843 -6.4687922 -13.67278547 -6.13898204 -57.56468672 30.86957264 26.30117444 30.21991669 86.19144894 -36.55049222 -12.32029552 12.87769598 26.22020974 6.3617594 -20.79334425 10.88516237 105.16173328 11.45921105 3.97114672 30.90515358 2.99318842 13.52788018 6.69769737 6.53829447 -6.25270645 -66.07530008 -6.46109622 -31.98179013 91.704897 6.78900651 -2.20992547 10.42271067 -1.39403645 -5.18931622 8.77195093 10.66399854 -3.22751106
-0.18385242 0.21922714 -1.20291571 -118.31433966 -26.82750494 -39.19389513 2.45948939 13.68266276 -0.0963496 -0.54081083 4.00025231 3.05184782 -0.40006911 3.95838327 3.07877125 3.0054135 -1.07543283 4.32535047 -1.28906195 -9.66660217 28.6139227 0.07224978 -8.98747933 1.9423375 -27.51379848 27.4651365 25.98335038 3.79538802 -13.13460865 0.0415169 -6.51788909 -18.78122504 4.73861454 -7.21280833 -14.39893525 -3.59727397 -60.01983217 27.49799194 22.91155182 61.79989051 77.28700462 -71.47238672 -13.19875947 13.64897471 31.75194334 2.12814462 -22.74525618 8.79305307 105.42913025 9.47834578 3.94091356 30.85445168 2.96542943 13.49268544 6.28464008 5.75842174 -5.43052814 -63.06132368 -9.09542378 -33.97618598 87.14416078 7.8448925 -1.72714304 9.12279417 3.34859941 -6.371197 8.89066756 11.0370453 -2.72852385
-0.18112756 0.20523751 -1.19843156 -117.54058205 -23.96228438 -38.84080451 4.80896844 14.07947914 -0.52897195 -0.52016368 3.99210819 3.18911696 -0.37676483 3.92660292 3.21360003 2.99718467 -0.97742028 4.27816837 -1.90962303 -8.75374787 27.97586916 0.09595483 -11.22101348 0.07180662 -22.22119983 27.96330549 20.72888753 19.01268305 -14.22159618 1.41901367 -4.13777066 -24.60288795 14.33495711 -8.03714139 -14.58160517 -3.33209897 -62.67554619 24.85102288 20.0361144 60.71665404 67.85066823 -73.66325209 -11.7322025 12.32641096 22.7645204 -2.34937909 -25.44177102 5.56918511 106.49577745 7.50945323 3.84590489 29.50720562 2.73307434 13.24026124 6.35209294 5.14357455 -4.79359928 -61.86963201 -11.32572642 -35.71445459 84.08189078 13.49691075 -1.40858992 8.62411972 0.93740162 -9.49653729 8.97075707 11.3812415 -2.19920891
-0.17784257 0.19441216 -1.19163568 -115.54769368 -21.03339337 -38.5955313 5.90713433 13.797047 -0.12934921 -0.58984466 3.8205645 3.38641067 -0.4469447 3.7400243 3.41169892 2.51888183 -1.00337669 4.37009827 -1.37664744 -8.47967416 28.40205668 0.63878333 -13.66111675 0.13599123 -16.96580343 29.3988579 14.88845182 20.71416314 -17.34313383 0.44818901 -3.11812818 -28.62194612 16.13768812 -8.35378866 -14.63143711 -4.83703455 -63.37944992 23.1280372 17.38291208 55.71912019 63.54975151 -71.17604825 -8.73345685 6.8848868 4.42490019 -6.61814489 -29.25872389 1.45637872 108.06347328 5.85105593 3.73896195 27.85106309 2.60979685 13.64802018 6.89685933 5.21405957 -4.87064905 -61.03970231 -12.71764277 -36.35717533 81.79669969 21.18673171 -1.27002874 6.78245071 -5.19068754 -11.47547608 9.0193325 11.70109038 -1.6553714
-0.1743882 0.19047822 -1.18471131 -113.34441572 -19.16925532 -39.01085812 5.50694092 13.47844822 0.99180545 -0.60874745 3.69289808 3.54452145 -0.4637548 3.61043764 3.56969554 1.19863638 -1.25193019 4.63451091 -0.52395765 -8.82759775 28.93611575 1.19926608 -15.9163997 0.36469469 -13.36660181 32.01301519 10.67283621 16.89939252 -23.21932063 -1.52323846 -4.72790323 -30.20497998 9.74851957 -8.16725494 -14.66813935 -6.9067939 -62.71982395 21.81623446 15.15519057 47.54381646 62.20998202 -64.91101268 -6.49029576 6.14466654 -10.04227825 -9.44882266 -33.2957148 -2.79464417 109.52682264 5.29654943 3.62149929 26.65036422 2.51830411 13.9416645 7.65400289 5.4283212 -5.10362144 -59.90788504 -13.45792425 -35.27380146 79.66290497 26.60429014 -1.3018483 4.23999969 -10.22538408 -13.59965178 9.04397084 12.00138649 -1.11333997
-0.1705015 0.19141468 -1.17922852 -111.74901698 -18.5543036 -39.84815476 4.25782781 13.46000126 2.37928698 -0.57853949 3.69762879 3.63257231 -0.42711772 3.62261188 3.6566587 -0.3359024 -1.62521049 4.93485117 1.38524494 -8.90327479 28.76766475 1.59202062 -17.43979459 0.34032804 -10.83139188 34.75157159 7.41138419 15.94113488 -28.60020935 -2.25129872 -7.00072445 -29.9548459 2.69672721 -7.67159141 -14.2196278 -8.72105568 -62.61874966 20.37622249 13.53109549 35.16642874 62.95948143 -54.83815235 -5.63819676 12.93864925 -13.57564064 -10.71787454 -36.83820116 -6.75915586 110.51351054 6.54914736 3.51026511 26.47160718 2.30349095 12.85913383 8.24279102 5.36570391 -5.0433001 -58.50313065 -14.07877831 -34.21552578 76.8106034 25.98670576 -0.76075524 1.52271612 -9.6007382 -15.47151504 9.05222829 12.28717089 -0.5895435
-0.16820437 0.19315685 -1.1732959 -110.91221131 -18.71598486 -40.71948388 2.95504495 13.40959881 3.69520613 -0.58009214 3.70597395 3.66805868 -0.42410574 3.64108752 3.69198603 -1.55472689 -1.93006474 5.15782376 4.33209571 -8.0712821 28.34036493 1.73296184 -17.68819638 0.32627293 -8.15189917 36.20861076 4.12988735 21.84401767 -31.0264907 -0.61429499 -8.38735873 -30.15350086 -1.46330673 -6.91489386 -12.66525738 -9.87220706 -63.45356558 18.78257204 12.06858052 20.56569232 65.30008198 -43.22605452 -5.91519088 19.14592652 -9.39453185 -11.2124487 -39.70771057 -10.53066638 111.41265521 9.40953511 3.47722177 26.14855614 1.60095557 9.15488732 9.11903156 5.49864165 -5.19723685 -57.19118406 -15.25299068 -34.39681688 74.17719417 22.25823034 0.3330963 -2.7730971 -8.93962456 -13.01167789 9.05201724 12.563688 -0.1008036
-0.16879883 0.19549345 -1.16814529 -110.63426061 -19.45988974 -41.69265197 1.66127995 13.08273937 4.85631802 -0.63312117 3.64701444 3.68852636 -0.47684117 3.59356845 3.71390291 -2.49040265 -2.09170114 5.28496817 7.61824876 -6.32538965 28.14377519 1.61572055 -16.77754829 0.32122351 -5.17746764 36.48880017 1.10776339 33.91399169 -29.97062196 3.02059418 -8.85205275 -31.29059483 -2.88896634 -5.96030537 -9.9798107 -10.26187227 -63.87478833 17.39643154 10.35097394 5.75646089 68.32523594 -30.91806305 -6.40499891 20.3439235 -6.04306538 -11.27989325 -41.76185837 -13.61147342 112.1697983 12.93767407 3.60822303 25.03306181 0.3941556 2.58788049 11.23721569 6.15015864 -5.96233789 -55.750685 -16.87863812 -34.32123868 72.16555748 16.3488625 1.18266258 -8.02072866 -7.66395846 -10.66366694 9.05111191 12.83649932 0.33607387
-0.17198913 0.19829958 -1.1659143 -110.56108386 -20.66624678 -42.80078696 0.15065768 12.52540704 5.90489754 -0.69097385 3.55529633 3.72306348 -0.535904 3.51631924 3.75021491 -3.34191231 -2.15256544 5.32552116 10.74451888 -4.04937693 27.86618277 1.394397 -15.28158836 0.27028328 -2.37548439 36.52838414 -1.49117089 48.69108686 -24.09764353 7.67894527 -8.80147265 -32.25287002 -2.7831119 -5.02677092 -6.87334903 -10.06836435 -63.16898719 16.48385972 8.60382562 -10.58901516 70.90922676 -15.73183546 -6.50382555 19.18913957 -6.19006089 -10.7017642 -43.14537173 -15.20172617 112.36470523 15.26651673 3.75886638 24.33678521 -0.48705448 -2.7618734 12.6711745 6.62950973 -6.55737495 -54.97450654 -17.4099175 -33.66155152 71.2340917 12.01819183 1.6845286 -12.43457444 -7.44362921 -7.12845595 9.05762641 13.11138383 0.70393478
-0.17560556 0.20021059 -1.164711 -110.46837792 -22.04660515 -43.86686256 -1.36084189 11.88644076 6.85327391 -0.72029285 3.46050935 3.76691774 -0.56678062 3.43703138 3.79485889 -4.23723089 -2.16823951 5.28680169 13.36962824 -1.77714742 27.11826087 1.25674824 -13.79490834 0.24721304 0.08146858 36.74750497 -4.08376638 65.15429277 -18.73617213 9.42971948 -8.35700961 -32.46610613 -1.64912968 -4.29179955 -4.11953199 -9.76962643 -62.15074506 15.92245727 7.31997746 -27.40862956 71.74680692 0.78057934 -6.55208337 18.65597166 -6.29411326 -9.69061395 -43.49230084 -15.51012376 112.16556867 16.32906926 3.84175497 24.34052154 -0.61443097 -3.52078756 12.28077592 6.56658341 -6.47043553 -55.04009148 -17.08538647 -32.44117674 71.04007524 8.34652931 1.80797272 -14.00914346 -8.09427123 -4.06991405 9.07970724 13.39443907 0.98563937
-0.17875808 0.2008947 -1.1641462 -110.47892392 -23.21215956 -44.7917356 -2.41915754 11.38746451 7.55115612 -0.71840445 3.38866113 3.79591328 -0.56634012 3.37692143 3.82348945 -5.19720088 -2.18382001 5.2275032 15.12854165 0.02510969 26.18310233 1.27537887 -12.85056656 0.26520609 2.12793405 37.12222853 -6.5616383 83.06128629 -17.18250592 7.66493141 -7.65109606 -32.17681225 0.96822827 -3.79767743 -2.0484518 -9.60697332 -61.63053221 15.55155239 6.57319704 -39.35371522 70.98763636 12.43531877 -6.89069756 19.38448467 -4.56193999 -8.7365813 -43.24585235 -14.83641818 111.91689883 16.20269042 3.8654821 24.53984469 -0.46287894 -2.58046291 11.62664223 6.37697686 -6.23121405 -55.69497202 -16.7854994 -30.9319198 71.10818951 7.04657581 1.80754475 -13.19150562 -7.97975786 -4.15684848 9.12547355 13.6915694 1.16369529
-0.18271537 0.20076469 -1.16447578 -110.84054219 -23.98349166 -45.59975976 -2.85784683 11.24846172 7.79862015 -0.68316978 3.38537826 3.79397533 -0.53059741 3.3793726 3.82050929 -6.18197734 -2.24640811 5.24028619 15.85122955 1.14660112 25.60311026 1.35575214 -12.6742943 0.09527042 3.05475526 37.77189631 -7.8810471 94.22678807 -13.16622784 4.19106971 -7.50581822 -31.24503342 3.52628168 -3.5561097 -0.81548426 -9.32276112 -61.5569603 15.37901802 6.20350852 -44.36544784 69.98979581 17.11219188 -7.2741196 20.57773833 -2.65271235 -7.35351078 -42.45342886 -13.25804956 111.54383804 15.62680711 3.92549256 24.54754115 -0.21195212 -1.06382892 11.22436272 6.28210718 -6.1112515 -56.11625799 -16.80015895 -29.70743104 71.36754679 7.27130492 1.85509279 -12.49255549 -7.43138701 -5.22375342 9.20316656 14.0086502 1.22047169
-0.18709446 0.2001399 -1.16542175 -111.48504846 -24.45935153 -46.24355026 -2.87000474 11.45789933 7.64653582 -0.61239997 3.45787747 3.7604956 -0.45684389 3.45335085 3.78525634 -7.16349365 -2.36151781 5.32965893 15.75530314 1.69830482 25.50957076 1.37275949 -12.83202452 -0.31175924 2.07935603 38.36958801 -7.53737236 92.56625448 -13.37045084 0.61850484 -7.93609963 -28.48592153 4.3667424 -3.53475422 -0.40691364 -8.77297787 -61.70102827 15.43341562 6.17505234 -44.10041912 69.60673984 16.7044898 -7.38507272 21.42241491 -2.10571667 -5.69516927 -41.22088114 -11.1480136 111.05164335 14.75771618 4.00746243 24.44428324 0.10533861 0.86672403 10.72485583 6.18538704 -5.98827725 -56.09952844 -17.07074384 -29.06368167 71.69765975 7.5976176 1.94587113 -12.50903617 -7.19305142 -5.55371416 9.08519233 14.05549814 1.18205991
-0.19057131 0.19943611 -1.16686638 -112.14628201 -24.76093418 -46.6162047 -2.71860543 11.77298015 7.36717314 -0.53054083 3.55079047 3.71746413 -0.37143536 3.5460031 3.74014604 -8.10671947 -2.46733661 5.3878217 15.26598542 1.93678111 25.63964286 1.33328828 -12.53697685 -0.45438345 0.14513994 38.71607472 -6.57637355 80.68194124 -12.21580128 -1.97527547 -7.44315226 -23.30919987 5.78089317 -3.62741241 -0.32675342 -8.19066893 -61.87900563 15.58918833 6.26397814 -41.18260725 69.83167988 13.88726995 -7.25762598 21.67033997 -2.62892523 -4.32515778 -39.78553264 -9.03960356 110.53666152 13.80185316 4.08316216 24.32120862 0.44060916 2.93144181 10.14252832 6.04808819 -5.82028082 -56.00431027 -17.40607371 -29.00319548 71.91014403 8.00680491 2.06504371 -12.73196094 -7.09772428 -5.59687167 9.10230059 13.95548386 1.29793741
-0.19235218 0.19903805 -1.16859039 -112.70849994 -24.84638566 -46.69215449 -2.52313659 12.04928823 7.11532316 -0.48904616 3.62546272 3.70427568 -0.32669085 3.61893356 3.72604235 -8.94519097 -2.5133923 5.32661079 14.70799843 1.89866539 25.69838246 1.27025409 -11.64857682 -0.1280165 -0.74043766 39.34841974 -6.24764272 74.00092011 -7.59287315 -0.80752321 -6.05259262 -18.96004449 9.07226841 -3.78234111 -0.08994421 -7.79142405 -61.81117883 15.69210652 6.04326758 -38.29319493 70.27571482 11.32558805 -7.093634 21.55293343 -3.30965859 -3.43257523 -38.42451874 -7.29000082 110.08930259 12.97134072 4.14057569 24.21046548 0.74674657 4.83705328 9.53784168 5.93424658 -5.68084242 -55.83152827 -17.63653583 -29.40490432 71.95325112 8.01761532 2.15210859 -12.95961864 -7.10722612 -5.4201137 9.24643545 13.91582647 1.32437643
-0.19238571 0.19902176 -1.17007736 -113.11768254 -24.66256495 -46.49010621 -2.29025136 12.40966319 6.86737869 -0.50120365 3.71416905 3.72134607 -0.33411221 3.70406514 3.74424749 -9.71413449 -2.54233556 5.1716894 14.1425604 1.36763391 25.6332299 1.19208577 -10.90940763 0.17580196 -0.16562308 39.72398912 -6.70763294 74.24039834 -8.44406136 1.34744075 -5.29836224 -17.83559329 11.25635802 -4.04511667 0.01000365 -7.5850077 -61.46094159 15.75767726 5.5231589 -37.02355983 70.61547966 10.51742439 -6.99466011 21.52508954 -3.71188427 -3.01073375 -37.37009723 -6.06330764 109.79983067 12.39870718 4.17173325 24.12076717 1.00040241 6.42801136 8.88717552 5.85936865 -5.58562128 -55.44406683 -17.70458385 -30.16473727 71.79371536 7.70831658 2.1562087 -13.30476289 -7.4852114 -4.44582866 9.35467567 13.83292777 1.40747161
-0.19066819 0.19908241 -1.17104759 -113.31570162 -24.27661788 -46.10938956 -1.98512065 12.95804527 6.66812834 -0.51598821 3.84379657 3.71005895 -0.34276861 3.82904046 3.73425767 -10.58739356 -2.6256174 4.99976952 13.44044229 0.3323131 25.6419017 1.1733503 -10.9198077 0.20045074 0.63119355 39.04166664 -7.40385123 76.64182773 -9.07839231 2.30953193 -5.66873292 -17.66204515 9.92099213 -4.40710955 -0.66302518 -7.52892311 -61.19243096 15.90893943 5.26124768 -36.92531814 70.81198987 10.7830807 -6.94959872 21.81414516 -3.85435964 -3.02869184 -36.70871618 -5.31367403 109.70566754 11.94751356 4.15287799 24.11162489 1.19823237 7.64550989 8.23133525 5.7863059 -5.49427378 -55.05111729 -17.63833405 -30.97781124 71.52749085 7.3321988 2.0916773 -13.49641315 -7.86116934 -3.62406284 9.421725 13.70300665 1.55260849
-0.18716533 0.19874897 -1.17150444 -113.30118744 -23.78498095 -45.66734565 -1.55518463 13.5033693 6.57657592 -0.50879892 3.9575156 3.63514286 -0.33221945 3.93772836 3.65914343 -11.49895346 -2.74567848 4.85958786 12.58678544 -0.8287143 25.86483823 1.24983684 -11.52474547 0.17157527 0.67893593 38.17796731 -7.83583736 79.09126383 -8.27429182 2.77017653 -6.36603005 -17.11191972 6.91153381 -4.75218986 -1.96609461 -7.55244332 -61.23045828 16.1441661 5.48474992 -36.7511292 71.02337909 10.74518762 -6.91887581 22.17164781 -3.92557508 -3.47320651 -36.45893451 -4.97452264 109.81801667 11.55761538 4.07298245 24.22176501 1.35717223 8.55908288 7.5987948 5.74154549 -5.43531052 -54.71361837 -17.47609604 -31.54152317 71.14981413 7.05054582 1.97922396 -13.47865805 -8.02622773 -3.37165629 9.44742977 13.57758835 1.69824935
-0.18268951 0.1978324 -1.17144318 -113.08139956 -23.22282365 -45.15867099 -1.00195349 13.71908177 6.48657446 -0.50779991 3.97032653 3.54205529 -0.33410352 3.94522386 3.5651658 -12.01987623 -2.82057692 4.78426575 11.76006483 -1.71711858 26.17411891 1.34107936 -12.19959552 0.20635634 0.21421185 38.31473462 -7.94762928 81.17901457 -7.59231247 4.27440192 -7.07147187 -16.71215932 3.5056962 -4.95755758 -3.04609867 -7.57470541 -61.36920765 16.29428634 5.76125804 -36.48207434 71.28496218 10.47203262 -6.88151245 22.26028525 -4.06034578 -4.2814666 -36.62725782 -5.10303352 110.08441623 11.16322027 3.94058845 24.49928312 1.51771082 9.38449501 6.94336054 5.71151162 -5.39256259 -54.5571877 -17.27566884 -31.92413454 70.78889283 7.10829839 1.86882937 -13.28938067 -7.84194525 -3.91079449 9.41246923 13.46211648 1.84035383
-0.1788416 0.19662049 -1.17082733 -112.70859209 -22.56793208 -44.58499065 -0.42048998 13.53970396 6.29421717 -0.52248298 3.87934067 3.49391553 -0.35596813 3.84911853 3.51639729 -12.07332353 -2.83403586 4.77654296 11.11323275 -2.29572493 26.35801817 1.38824972 -12.64562921 0.19357759 -0.0127999 39.16868202 -8.11866355 81.58411582 -7.57597076 6.3264014 -7.84247576 -16.21828428 -0.47129164 -5.00728203 -3.49415492 -7.6384373 -61.37257025 16.26710698 5.7438979 -37.0119397 71.45086 10.96733718 -6.84464969 22.12364614 -4.22605308 -5.2117405 -37.18729229 -5.67415158 110.42268596 10.77240381 3.78531037 24.86599019 1.67861062 10.14939521 6.33259328 5.66543856 -5.334859 -54.65617913 -17.11526902 -32.38947422 70.65648436 7.62609953 1.80804631 -12.97795447 -7.35004953 -5.11803672 9.33922656 13.34876291 1.98470981
-0.17607805 0.19561234 -1.16990326 -112.31136141 -21.87901315 -44.07182199 0.06227245 13.25932411 6.09452339 -0.54567149 3.77156794 3.49828346 -0.38540169 3.73679883 3.52072514 -12.02397484 -2.84701906 4.79163034 10.72375614 -2.82942517 26.35192925 1.4069128 -13.01999671 0.01928349 0.29657771 39.92021054 -8.6162796 80.81627061 -8.03444145 7.90875734 -8.42958097 -15.60627656 -3.71450377 -5.00870432 -3.68497576 -7.82258997 -61.24597414 16.14537854 5.53216993 -38.35863768 71.43913517 12.28799021 -6.82590533 22.02924402 -4.31227601 -6.0632871 -37.96963318 -6.53988398 110.77238779 10.53037329 3.64230087 25.17310619 1.7665518 10.50272426 6.05089083 5.64852062 -5.31301138 -54.74952305 -17.0424475 -32.95578563 70.64103396 8.29464537 1.78790441 -12.75349689 -6.97144969 -6.04955604 9.27844072 13.23417147 2.12851052
-0.17375322 0.19519056 -1.16905983 -111.98788829 -21.29419795 -43.72886096 0.3676132 13.1537007 6.02426461 -0.58140065 3.71919998 3.52419788 -0.42341808 3.68068437 3.5474908 -12.03219024 -2.89404718 4.79600521 10.61951384 -3.45344444 26.23650087 1.42267074 -13.50123904 -0.27185712 0.81908156 40.34489182 -9.20236137 80.51074425 -8.55990374 9.03477105 -8.82098942 -15.40888102 -5.66819181 -5.04885667 -3.99647801 -8.08423662 -61.10082058 16.03346879 5.32098205 -39.41362882 71.34593876 13.33284016 -6.82646277 22.05705956 -4.30183829 -6.77213626 -38.73290978 -7.53347398 111.07051106 10.54100726 3.53925125 25.40154068 1.77233766 10.41601525 6.09629478 5.64218095 -5.30710282 -54.72051374 -17.01667813 -33.43012827 70.6209411 8.49532949 1.78807804 -12.70965773 -6.68688894 -6.58910651 9.24769653 13.11993964 2.26787993
-0.17208216 0.19511013 -1.16848167 -111.769996 -20.94798164 -43.5665121 0.47557473 13.19489721 6.07758777 -0.61924466 3.71560898 3.54445733 -0.46088897 3.67493585 3.56902944 -12.04496561 -2.95103579 4.79847468 10.70129817 -3.96959317 26.15322169 1.43361651 -13.88492847 -0.50812061 1.14892833 40.43959636 -9.56440619 80.57096744 -8.97957555 9.62802289 -9.08713168 -15.53287329 -6.74976948 -5.08040242 -4.32276977 -8.31034916 -61.01792975 15.94344416 5.19013432 -39.40177571 71.30532288 13.2999881 -6.82893183 22.0914068 -4.28400324 -7.24753383 -39.33915489 -8.43846774 111.25841043 10.7028294 3.48562264 25.57999714 1.74272578 10.15390522 6.18461509 5.62089067 -5.28638597 -54.66754578 -17.02534608 -33.69157194 70.5477685 8.56531753 1.80120998 -12.68943153 -6.55687379 -6.84885461 9.23739262 13.01358697 2.39512135
-0.17149939 0.19517427 -1.16824059 -111.68232027 -20.90592756 -43.58120881 0.41283974 13.16645329 6.19027181 -0.62693073 3.7069546 3.54986755 -0.46861543 3.66664511 3.57462605 -12.03272662 -2.98021268 4.82699452 10.81165638 -4.05574053 26.14901229 1.42208496 -13.7801007 -0.53791004 1.22343389 40.18409218 -9.70845202 80.39390927 -9.18620209 9.4250175 -9.13094894 -15.66712741 -6.80052268 -4.97283279 -4.29786909 -8.43538571 -61.01548425 15.81966712 5.14334027 -38.79439645 71.3366225 12.60033664 -6.82319922 22.07412146 -4.30931377 -7.40574561 -39.70037912 -9.05828976 111.31236235 10.93114594 3.48187496 25.68486324 1.69067992 9.80734067 6.24470004 5.61251984 -5.27863538 -54.66114745 -17.04996877 -33.68256176 70.49665594 8.57515913 1.82251103 -12.70849929 -6.52506681 -6.91502703 9.24806159 12.91541382 2.51008489
-0.17194224 0.19529335 -1.16839279 -111.73107016 -21.13074257 -43.77222346 0.22760751 13.01800643 6.33775473 -0.60100091 3.67837559 3.55190201 -0.44359123 3.64050357 3.57556679 -12.00749119 -2.97624838 4.88098965 10.92078588 -3.69525964 26.14281516 1.38495679 -13.1837319 -0.39986401 1.16414383 39.74035441 -9.70251443 80.51367316 -9.12002415 8.76383499 -9.00289294 -15.91939882 -5.94386622 -4.72308132 -3.83903489 -8.46011224 -61.03942286 15.65221299 5.12484704 -38.56422409 71.38668537 12.21661067 -6.82089877 22.05000317 -4.32348421 -7.24898462 -39.79618364 -9.30357974 111.23849206 11.1942271 3.52662248 25.7137883 1.62055677 9.39819058 6.3189606 5.59652082 -5.26314421 -54.67591569 -17.09500536 -33.38381339 70.46729727 8.55542336 1.84785088 -12.75430854 -6.53655198 -6.88690807 9.26879759 12.81919579 2.62156286
-0.17314045 0.19542122 -1.16889885 -111.88332517 -21.51309511 -44.09459025 -0.04553184 12.99269569 6.51006937 -0.58290139 3.68870269 3.56558963 -0.42396297 3.65361088 3.58875734 -11.98939024 -2.96996704 4.91826028 11.09515736 -3.30295617 26.11686421 1.34524901 -12.60767754 -0.3082308 0.97605157 39.2959711 -9.41039687 81.11074646 -8.93392651 8.13606252 -8.86296349 -16.24726794 -4.97599213 -4.5296698 -3.38998224 -8.40105835 -61.03335416 15.53915232 5.09402631 -38.87744903 71.43328383 12.43329874 -6.83598178 22.01271353 -4.27167312 -6.84868797 -39.68237395 -9.23808394 111.06278568 11.43910866 3.61157975 25.70393131 1.56037621 9.06275364 6.41323719 5.55625077 -5.22257679 -54.67624031 -17.17642763 -32.8913013 70.44848565 8.52220727 1.87951874 -12.81834094 -6.56981782 -6.80647613 9.29615149 12.72994262 2.72403147
-0.17481674 0.19555008 -1.16958351 -112.08033037 -21.95804346 -44.4766614 -0.38091227 13.24357606 6.6920115 -0.59386057 3.77491901 3.58632055 -0.42925135 3.74211383 3.61066695 -11.99350309 -2.98497652 4.91648718 11.32729042 -3.17960768 26.14160128 1.31992057 -12.36947586 -0.37680114 0.61906185 38.84731454 -8.76884945 81.58488582 -8.84090293 7.61937204 -8.77493006 -16.38654954 -4.44959851 -4.51398196 -3.34178822 -8.28070261 -61.02537214 15.55375152 5.10665577 -39.14585401 71.49913206 12.71308962 -6.86608716 21.90896903 -4.1720128 -6.31609191 -39.43708519 -8.97901297 110.83017268 11.62293367 3.71649997 25.68889348 1.53764494 8.9409222 6.49557456 5.51060375 -5.17617026 -54.6744233 -17.28096994 -32.32715967 70.44863655 8.49468524 1.92129047 -12.88754693 -6.60661931 -6.71046956 9.32726367 12.64795448 2.81756296
-0.17666445 0.19566427 -1.17026665 -112.27095485 -22.40773237 -44.85761889 -0.74401121 13.6277985 6.87296037 -0.61152359 3.89848107 3.60033163 -0.43945159 3.86797021 3.62638379 -12.0162633 -3.0135378 4.89957977 11.54648373 -3.20263325 26.23297957 1.30059423 -12.27652695 -0.52483708 0.16212209 38.32366972 -7.96356117 81.71324023 -8.88425427 7.09888814 -8.73295023 -16.32488911 -4.33318034 -4.58348661 -3.58211246 -8.14025215 -61.07091646 15.6458767 5.21805547 -39.04549785 71.59680295 12.6534208 -6.90200655 21.75079879 -4.05793019 -5.7810968 -39.14178044 -8.60787908 110.59438731 11.74039978 3.82137694 25.65421853 1.52271022 8.87193429 6.59555773 5.4756477 -5.14095039 -54.6788609 -17.38259409 -31.76307887 70.46704578 8.46132818 1.96437646 -12.97268876 -6.66045968 -6.57616829 9.36244892 12.56626461 2.91035103
