HIERARCHY
ROOT Hips
{
  OFFSET 0 1.1673769999999999 0
  CHANNELS 6 Xposition Yposition Zposition Xrotation Yrotation Zrotation
  JOINT Spine
  {
    OFFSET 0.000003812944337411511 0.10717500000681812 -0.009311
    CHANNELS 3 Xrotation Yrotation Zrotation
    JOINT Spine1
    {
      OFFSET 0 0.1058532983696241 -0.004285186608692496
      CHANNELS 3 Xrotation Yrotation Zrotation
      JOINT Spine2
      {
        OFFSET -8.470329472543003e-22 0.10599345671141647 -0.007812688101110094
        CHANNELS 3 Xrotation Yrotation Zrotation
        JOINT Neck
        {
          OFFSET -8.470329472543003e-22 0.26240299999999994 -0.04488100000000002
          CHANNELS 3 Xrotation Yrotation Zrotation
          JOINT Head
          {
            OFFSET -4.235164736271502e-22 0.17466899999999996 0.05625600000000003
            CHANNELS 3 Xrotation Yrotation Zrotation
            End Site
            {
              OFFSET -4.235164736271502e-22 0.10756799999999966 0.021070000000000005
            }
          }
        }
        JOINT LeftShoulder
        {
          OFFSET 0.10574399999999999 0.23009199999999996 -0.07323000000000002
          CHANNELS 3 Xrotation Yrotation Zrotation
          JOINT LeftArm
          {
            OFFSET 0.14878212914559852 -0.04653266654569688 -0.030693304075147546
            CHANNELS 3 Xrotation Yrotation Zrotation
            JOINT LeftForeArm
            {
              OFFSET 0.24109000000000003 2.220446049250313e-16 -5.551115123125783e-17
              CHANNELS 3 Xrotation Yrotation Zrotation
              JOINT LeftHand
              {
                OFFSET 0.316792 0 -1.1102230246251565e-16
                CHANNELS 3 Xrotation Yrotation Zrotation
                End Site
                {
                  OFFSET 0.06265729429771016 -0.10569948639925819 0.03859412819617963
                }
              }
            }
          }
        }
        JOINT RightShoulder
        {
          OFFSET -0.10574399999999999 0.23009099999999982 -0.07323000000000002
          CHANNELS 3 Xrotation Yrotation Zrotation
          JOINT RightArm
          {
            OFFSET -0.14878040829228295 -0.04653159475972379 -0.030692917709113934
            CHANNELS 3 Xrotation Yrotation Zrotation
            JOINT RightForeArm
            {
              OFFSET -0.24109000000000003 -6.661338147750939e-16 -2.7755575615628914e-17
              CHANNELS 3 Xrotation Yrotation Zrotation
              JOINT RightHand
              {
                OFFSET -0.31679300000631333 -8.881784197001252e-16 -5.551115123125783e-17
                CHANNELS 3 Xrotation Yrotation Zrotation
                End Site
                {
                  OFFSET -0.06265795211397429 -0.10570764472283312 0.03859362014678265
                }
              }
            }
          }
        }
      }
    }
  }
  JOINT LeftUpLeg
  {
    OFFSET 0.12297511767165623 -0.06742078536803264 -0.010003
    CHANNELS 3 Xrotation Yrotation Zrotation
    JOINT LeftLeg
    {
      OFFSET 0 -0.457033849483632 0.010304509991859542
      CHANNELS 3 Xrotation Yrotation Zrotation
      JOINT LeftFoot
      {
        OFFSET 0 -0.500280623664138 -0.036905110570505176
        CHANNELS 3 Xrotation Yrotation Zrotation
        JOINT LeftToeBase
        {
          OFFSET 0.025950805788189563 -0.14255151365608373 0.19507593811975638
          CHANNELS 3 Xrotation Yrotation Zrotation
          End Site
          {
            OFFSET 0.010732117804750613 -0.000035441498015504746 0.11362327680684622
          }
        }
      }
    }
  }
  JOINT RightUpLeg
  {
    OFFSET -0.12297488233495055 -0.0674172146317622 -0.010003
    CHANNELS 3 Xrotation Yrotation Zrotation
    JOINT RightLeg
    {
      OFFSET 0.00000159348816348992 -0.45703784846455486 0.01030460015485039
      CHANNELS 3 Xrotation Yrotation Zrotation
      JOINT RightFoot
      {
        OFFSET -0.0000015934881634621645 -0.5002806236608007 -0.03690511058134042
        CHANNELS 3 Xrotation Yrotation Zrotation
        JOINT RightToeBase
        {
          OFFSET -0.0259497668227143 -0.14255297441554501 0.19507500887383716
          CHANNELS 3 Xrotation Yrotation Zrotation
          End Site
          {
            OFFSET -0.010733201844058626 -0.000035030229497263656 0.11362417898958707
          }
        }
      }
    }
  }
}
MOTION
Frames: 85
Frame Time: 0.03333333333333333
0.002142 1.05461914 0.00150663 11.73174594 -18.92730505 0.189531 2.43442106 -0.51610293 2.01006125 7.45696581 -1.1687551 1.46975225 7.467517 -1.05332806 1.49884215 -5.76437402 3.31687567 -2.38876287 -22.66482234 14.46716014 -1.28620003 0.5932893 4.74477355 -11.38517858 -5.51918908 -18.27423691 -52.47800338 -27.5540712 -86.10949036 -27.45782844 20.57439846 0.44538805 22.56230849 1.72492156 4.41643188 10.30073901 -15.27284536 14.87317295 61.47432393 -122.87864695 87.90482812 123.30645499 24.68507725 7.31440274 4.98173449 -48.40229869 6.15637807 25.37038961 46.29343555 7.60739841 1.60962582 -5.69785235 2.13460908 -20.10804209 -0.45346821 -0.00187296 0.00042064 -41.91636491 -9.28063991 -17.10240805 48.07476886 -9.04836815 -1.37830055 -11.69286807 -2.78146321 17.75960605 0.00045403 0.00041833 0.00120579
0.00274625 1.05469948 0.00131081 11.67259449 -18.74133616 0.21616302 2.81250698 -0.45100855 2.12112655 7.34750448 -1.15923982 1.39894708 7.3578576 -1.04792754 1.42815121 -5.2429293 3.25086244 -2.28610565 -23.09314629 14.21916451 -1.72862636 0.67490472 3.10269315 -11.60595663 -5.52596794 -15.79805575 -52.50928734 -12.53626139 -87.16141389 -11.91050096 17.81054613 -0.59076033 17.89593913 1.90023722 4.20164643 10.00145629 -15.40994914 13.56836692 61.46749236 -174.0824458 89.10030855 176.1047398 24.2469047 8.42540367 4.16449424 -48.43985695 6.2704573 25.32628329 46.27691747 7.37465971 1.50344839 -5.67532886 2.12269098 -19.91499477 -0.45473909 -0.00838306 0.00401068 -41.82317214 -9.17835432 -17.14756576 48.05954774 -9.28795295 -1.44263221 -11.65547735 -2.79099252 17.91491242 -0.0009433 -0.00061523 -0.00299302
0.00393605 1.0548645 0.00112521 11.60969936 -18.53664708 0.33005847 3.28831487 -0.46625766 2.33841792 7.22302381 -1.17804213 1.27990164 7.23310153 -1.07235475 1.31050269 -4.54960071 3.2264292 -2.14902906 -23.70811212 14.18912314 -2.62124611 0.81247521 1.28964958 -12.11180484 -5.74416587 -12.84100068 -51.93160382 9.11849205 -87.69324803 10.99956501 15.04414259 -2.21205706 11.63052269 2.06939375 3.93462941 9.7438971 -15.61806593 12.32404153 61.37773703 108.79360503 87.61744466 -104.83013773 23.74087914 9.61530306 3.38352969 -48.47828252 6.50848636 25.26818749 46.25379232 7.0981957 1.27353357 -5.68186931 2.10884985 -19.60858731 -0.4561944 -0.01189694 0.0080948 -41.74840493 -9.01639067 -17.28110796 48.0207952 -9.53471012 -1.55365681 -11.57659854 -2.80183597 18.1264643 -0.02788607 0.00299602 -0.07842731
0.00559155 1.05472885 0.00078032 11.6589712 -18.47116537 0.59380546 3.77797692 -0.66496272 2.63205036 7.10006988 -1.25304695 1.10678829 7.10964386 -1.15393451 1.14118408 -3.6956165 3.34672645 -2.03749356 -24.74513634 14.76740791 -3.96978749 0.93117153 -0.7052868 -12.73690185 -5.91149595 -9.19948535 -50.9246385 10.86309679 -88.29569897 14.9939283 12.34937253 -3.22054327 5.42969731 2.23134485 3.60884317 9.50113838 -15.98389977 11.53913362 61.21455153 101.83867254 85.07308997 -95.65294872 23.23885572 10.71813593 2.56276464 -48.58331067 6.81873701 25.21580978 46.27441982 6.91329893 0.93125571 -5.74570295 2.10721366 -19.20963242 -0.45727633 -0.0552868 0.01091749 -41.90183138 -8.76282662 -17.48464371 48.03114163 -9.65488849 -1.71667124 -11.45816809 -2.80841654 18.36001637 -0.12254786 0.01408757 -0.34358103
0.00701424 1.05357079 0.00045487 11.73048995 -18.64020261 0.90314076 4.07717655 -1.0516503 2.81777504 6.98532155 -1.38000223 0.93961073 6.99400835 -1.2865363 0.98013056 -2.57345496 3.62916787 -1.75535656 -26.02510136 16.20659905 -5.64361807 0.94519368 -2.91617662 -13.04454007 -5.53948482 -5.09881028 -49.94165421 -6.83464567 -88.98646642 0.14273839 9.67704547 -2.73308358 1.0050042 2.41517398 3.27489992 9.47760604 -16.51904053 11.51432962 60.65113072 100.68648645 82.52372899 -91.88767259 22.71755419 11.87431789 1.63856585 -48.82298648 7.15831273 25.39360284 46.62670815 6.47991948 0.46043157 -5.81922752 2.1303696 -18.80194753 -0.41609265 -0.07651634 -0.00314235 -42.22541193 -8.34702843 -17.56844174 48.24808388 -9.70044437 -1.99065974 -11.38719863 -2.84519056 18.70333152 -0.10188242 -0.01456486 -0.28923216
0.00779665 1.05154053 0.00092647 11.5038379 -18.84693411 1.01371409 4.07339948 -1.56227133 2.66587452 6.9040267 -1.5351559 0.87910968 6.91180862 -1.44386666 0.92708432 -1.03539333 3.87994473 -1.24278009 -27.04825916 18.15631192 -7.14589393 0.81972667 -5.5710484 -12.72448874 -4.35950875 -0.62005224 -49.0198952 7.38440774 -89.3467158 16.47959615 6.88272128 -0.98575697 -0.94046999 2.64005501 3.24175765 9.98797399 -17.04799427 12.18211146 59.01111046 97.89321322 80.4645427 -86.17830952 22.14902745 13.27889025 0.14311452 -48.952058 7.56932829 25.86616797 47.25138844 5.71536528 -0.03661479 -5.90268309 2.19504554 -18.39557613 -0.9669942 0.12220317 0.01364584 -42.23921674 -7.86820806 -17.4559304 48.65236679 -9.84413171 -2.35752078 -11.45506605 -2.95163802 19.22652379 0.03818018 -0.1047447 0.0908125
0.00813606 1.04980728 0.00356639 10.48037703 -18.54339056 0.58866824 3.69884582 -2.13251455 2.38757536 6.8987305 -1.70585315 0.93670858 6.90614835 -1.61386027 0.99212617 1.08245752 3.78447728 -0.95404016 -27.03174896 19.42701725 -7.53610905 0.57733565 -9.12442718 -12.05021285 -2.6410203 4.14081189 -47.60229289 43.82268619 -87.91330675 52.79482777 4.01247766 0.90683167 -1.4251303 2.83784636 4.02990506 11.00858402 -17.17640749 13.07389298 55.8710707 89.21059156 79.12207765 -74.58846237 21.53784616 14.82325819 -2.73067027 -48.52413926 7.94696776 26.3467318 47.97071697 4.50301616 -0.28848809 -6.28989276 2.26655761 -17.9440017 -1.38476523 0.45182687 0.02798715 -41.14882983 -7.78618495 -17.47216298 49.05254733 -10.11202087 -2.53025021 -11.77785415 -3.12391475 19.78971309 0.13022643 -0.23339948 0.31939266
0.0091558 1.04983917 0.00939196 8.42413644 -17.00952978 -0.50252158 2.84448527 -2.53374671 2.48270745 6.93465283 -1.83407976 1.05034791 6.94175447 -1.74194883 1.10928414 3.69152639 3.19075654 -1.2514274 -24.61906392 18.26912836 -6.10097503 0.31109394 -13.12876738 -11.57083266 -1.71090629 7.25320826 -45.07626372 24.24344232 -84.34381928 30.30648406 1.7697921 3.12763884 -1.99466668 2.93438883 5.56693023 12.13829245 -16.23387245 13.64936515 51.44559086 71.21635979 78.19319693 -54.33511945 20.97073033 15.5781425 -7.23320069 -47.27398287 8.19836862 26.34965224 48.51370914 2.68866055 -0.06862525 -7.23892791 2.31469433 -17.37340962 -0.83847375 0.59413281 0.03356327 -38.33215566 -8.50334978 -17.97541584 49.12744424 -10.70585694 -2.25626101 -12.34913192 -3.33795809 20.29843307 0.18921277 -0.37525757 0.43611454
0.01045382 1.05086891 0.01766405 5.69760924 -14.20480238 -1.71943406 1.43718859 -2.29476921 2.85573406 6.82880018 -1.7687291 1.19404999 6.83540334 -1.67874321 1.24723351 6.76186279 2.51944915 -1.68039557 -19.83216032 14.04419897 -2.09420699 0.14197965 -16.17609529 -11.26838962 -1.52589693 5.66491983 -43.17474351 9.13078853 -77.91972483 11.26266183 0.68778552 5.65093116 -1.95025585 2.95995528 7.14616206 12.98773894 -13.81479769 12.92823083 46.8680507 52.71842419 76.22933652 -34.27533276 20.39801535 14.84924738 -12.18374406 -45.40241954 8.39889026 25.63601367 48.88157893 0.30929708 0.61793696 -8.11256723 2.30789279 -16.65120702 -0.4493446 0.69665631 0.03830188 -34.21983843 -9.79855076 -18.90412174 49.02410985 -11.82031784 -1.77378757 -13.13603927 -3.61504492 20.92234111 0.21847924 -0.45811666 0.48658811
0.0109789 1.05222443 0.02764263 2.88484856 -10.52443536 -2.38056427 -0.41676138 -0.94599054 2.53601916 6.4798926 -1.34446651 1.40913137 6.48721587 -1.25632057 1.44600828 10.2938348 1.89923197 -1.50160625 -13.59627261 7.20484129 3.66707279 0.08512189 -17.93270436 -10.89448578 -1.24197325 -0.6386247 -42.53001477 3.61856285 -69.6111215 1.98708641 -0.29789982 7.48574672 -2.92822795 2.93958805 8.31839626 13.1117091 -9.94654245 10.05288131 43.76963535 39.0200008 73.85776386 -19.89222196 19.77720569 13.07896408 -17.02571216 -43.16732979 8.71066481 24.18597521 49.00849038 -2.43037346 1.5339395 -8.64019392 2.28450796 -15.83379742 -0.46953932 0.90218501 0.05091641 -29.60976143 -11.34173218 -20.02173246 48.82866712 -13.53079458 -1.53933088 -14.01722289 -3.97663797 21.88074332 0.20299399 -0.39394936 0.46714728
0.01024031 1.05369095 0.03886994 0.49093738 -6.37633623 -2.2877814 -2.56896395 1.47091373 1.20449189 6.09997648 -0.56942757 1.67101085 6.10598104 -0.48209465 1.68658496 13.70830212 1.2284412 -0.37880535 -6.90115119 -0.58316272 9.74267645 -0.05198743 -19.67174707 -10.76199226 -1.36575628 -7.31441722 -41.82000121 2.17620461 -62.30867932 -4.74054938 -0.2873649 8.15312276 -6.28209971 2.89902891 8.94388921 12.35080114 -4.93356114 6.09555715 43.2277391 27.16939814 71.58674299 -8.69378386 18.99902401 11.01822162 -21.93371399 -40.94546718 8.94151112 22.12465021 48.94368105 -5.16031739 2.49189281 -8.8723766 2.252232 -15.07689252 -0.47309575 1.06599132 0.06235096 -25.18549172 -13.09703653 -21.23311331 48.50290198 -15.61503211 -1.51127952 -14.87269833 -4.38349932 23.05829924 0.18274663 -0.31934719 0.43543576
0.00857795 1.05547577 0.05089341 -1.09370819 -2.01172816 -1.82706071 -4.98571312 4.08004289 -0.06793927 5.91506264 0.26432986 1.81323416 5.91402294 0.34923715 1.81462251 15.92998878 0.39627173 0.63159508 -0.32157945 -7.13403991 14.1376834 -0.36855775 -22.32111128 -10.66101745 1.6581506 -14.47673874 -39.17706326 -1.66881482 -57.06333462 -12.16879524 1.6677386 7.28716296 -11.92998133 2.88947918 9.10189066 11.19933162 0.53941912 3.90471014 44.33231806 12.73246515 68.66815811 4.1304344 18.08447196 9.04582921 -27.42376096 -39.21452432 8.81143151 19.75527407 48.65680641 -7.64271054 3.55082374 -8.95621694 2.22063 -14.5494778 -0.47299255 1.10194262 0.06230414 -21.26935933 -15.07710957 -22.28570378 47.92169507 -17.89665562 -1.1816189 -15.57955082 -4.74841031 24.128402 0.16455391 -0.28246782 0.39737437
0.00608171 1.05713524 0.06225594 -1.9602538 2.26985984 -1.51178541 -7.24756047 5.87604406 -0.46142664 5.85864835 0.82745111 1.73903903 5.85067071 0.90769309 1.73977552 16.88067499 -0.5065883 0.44257274 5.60804439 -10.77495345 15.85555382 -0.71651804 -24.73260334 -9.59466668 8.8935808 -22.69650085 -36.00945232 -6.35445756 -53.63168552 -15.55452744 1.56946154 6.839506 -13.3424324 2.86869154 9.51875113 10.19744975 5.16144592 4.26781071 45.71722113 0.22262423 64.07334753 15.29305124 17.29230577 7.83740085 -33.02440062 -38.25928098 8.29241459 17.69114659 48.40954863 -9.98992042 4.64616704 -8.89634697 2.18736668 -14.21240818 -0.4715766 1.0712785 0.05826483 -17.8512784 -17.10822481 -22.70758546 47.20770846 -20.32007614 -0.43953503 -16.11117068 -5.02869118 24.94149763 0.14188192 -0.24812978 0.34623035
0.00194869 1.05858086 0.07158325 -2.49799274 5.63341183 -1.08105194 -8.68745175 6.83846394 -0.22061059 5.73217855 1.11285714 1.50763762 5.7219874 1.18690054 1.51342673 16.94489499 -1.58714519 -0.93103242 9.91296292 -11.25947111 14.64983262 -0.84289982 -25.07691021 -7.58127893 12.26135646 -27.56519166 -35.96255584 -6.46710278 -52.03017697 -15.94892331 -1.60115948 6.4372896 -9.49737353 2.76292859 11.0713129 9.72011501 7.86224439 4.97723129 46.6858946 -6.32042053 59.64809666 21.42545534 16.69872815 8.20331627 -35.45550369 -37.53873323 7.93133897 16.1479501 48.02769799 -11.94930292 5.44743084 -8.70126637 2.16358242 -14.06910092 -0.47299988 1.05296262 0.0621994 -15.27175914 -18.67171497 -22.80184868 46.72267782 -22.4064793 0.2348235 -16.60234626 -5.23130884 25.44178308 0.11978361 -0.21938613 0.28011549
-0.00425237 1.05922783 0.07795238 -2.70110208 7.29273662 -0.20151247 -9.15848403 7.76489251 0.19154879 5.40730488 1.37216996 1.19624 5.39760834 1.43888512 1.20507436 16.34376197 -3.06526959 -2.92198941 12.10465272 -9.19599789 10.52658918 -0.78581064 -23.4586412 -6.02604083 12.92258441 -28.38082945 -36.84232556 -7.91228092 -54.4329795 -18.41843711 -4.06391463 7.28033431 -6.05491607 2.59577475 13.24612994 9.49477586 8.59703854 4.87925247 46.84008115 -8.33188889 57.23958898 24.58989944 16.51693835 10.63021164 -33.56050654 -36.85228581 8.04254812 15.14147663 47.32489782 -13.03537769 5.60457568 -8.44479662 2.15850286 -14.16821421 -0.47446025 1.07564339 0.06652221 -14.37699105 -19.33271073 -23.22843214 46.86696073 -23.54759899 0.36009619 -17.21734747 -5.40072679 25.72035918 0.0346488 -0.2106497 0.2442523
-0.01253221 1.0578463 0.08069366 -2.38371226 6.96213528 1.1044093 -8.88011863 8.75860239 0.69030733 4.90409252 1.64048019 0.82232468 4.89755627 1.69893427 0.83080126 14.90452155 -4.46853308 -5.36822765 12.26126641 -4.82338045 3.87639152 -0.69495838 -20.6106631 -5.66024894 8.71004187 -21.53862064 -39.4296217 -3.71412822 -63.23767171 -19.34476539 -4.66134142 10.8032681 -7.97801261 2.47107328 14.87139527 8.29921182 6.71454361 5.30038906 46.27964839 -6.84463132 56.16088788 27.12780678 16.42665368 15.23365441 -28.75303148 -36.45072995 8.51851586 14.71842832 46.48891222 -12.9187817 4.96282072 -8.23624602 2.17112388 -14.51003491 -0.47548913 1.14993402 0.07003207 -15.66255396 -18.76816783 -24.2276376 47.99582835 -23.51685685 -0.1704595 -18.0711899 -5.61811909 25.92882605 -0.40301897 -0.24810994 0.12333882
-0.02243122 1.05260621 0.07923554 -1.41408956 5.02786927 2.33784014 -7.80131581 8.97953515 1.48797081 4.3136563 1.65712248 0.39489 4.31532359 1.70631007 0.39921052 12.12726711 -4.91304446 -8.13537628 10.46741305 2.31250299 -4.63076145 -0.51412318 -16.90961702 -5.42612056 1.56007678 -9.8931048 -41.8850866 14.31997223 -76.51035475 -8.92411868 -4.16824173 15.04061423 -13.54509426 2.36776813 16.59268867 5.65690219 2.33790402 7.58352788 45.09595796 -3.24566159 55.2684732 30.3582817 15.54949782 21.00347485 -23.97503303 -37.00080688 8.97316005 15.14032566 46.28793943 -11.79217745 3.82508471 -8.17851329 2.19940831 -15.05247698 -0.4846956 1.23038276 0.10196738 -18.79174473 -16.9172458 -25.19099579 50.30530085 -22.66212501 -0.99124322 -19.1795964 -5.92073271 26.13766394 -1.26205769 -0.33396483 -0.05651054
-0.03258909 1.04302162 0.07358244 -0.18465876 2.27391495 2.87746833 -5.62856622 8.15093812 2.71694393 3.6990104 1.33527168 -0.01921532 3.71104616 1.37451143 -0.02211434 8.08212863 -4.19353539 -9.64601031 7.0632489 10.91428079 -12.89188706 -0.29190648 -13.4510553 -4.47195919 -6.15674772 0.85056626 -41.61413492 106.13024368 -84.16026067 76.00455998 -3.48769284 16.43982635 -19.53987785 2.20692581 19.73613284 2.48679174 -2.80948189 10.22422454 43.28968888 -2.13938244 54.3849 36.22074873 13.25532086 26.14216832 -17.77270861 -38.67774773 9.08183689 16.68739252 47.39313431 -10.27357591 2.77968537 -8.20034702 2.24842509 -15.62487597 -0.49694153 1.24021323 -0.01177051 -22.60817001 -14.35129375 -25.28566244 53.6003246 -21.59518923 -1.51436414 -20.52625521 -6.16643934 25.94083451 -2.15484375 -0.45302097 -0.18575414
-0.04127558 1.03001626 0.06411597 0.95805092 -0.86898615 2.77313767 -2.38826378 7.05394043 3.905291 3.14385542 0.92467811 -0.29796101 3.16162179 0.95480064 -0.3079956 4.02473486 -2.88237233 -8.70832626 2.63544633 18.2799613 -18.87249117 -0.31679543 -11.81223542 -3.19817951 -10.70574551 6.7151684 -38.36754592 162.92963603 -76.03467338 132.63551462 -3.47477463 13.90167844 -24.86572902 2.17102414 23.52348781 -1.2195122 -7.86739587 11.53424182 41.042293 -6.78175388 52.41971384 45.87688584 9.92957317 29.76315282 -9.13685495 -41.05833995 8.75092571 18.97528608 49.6639595 -8.73136453 2.10232315 -8.11564256 2.27648772 -16.36938431 -1.14382009 1.17846747 -0.06266549 -26.553502 -11.53657403 -24.5628579 57.5062478 -20.55180348 -1.55327491 -21.97110511 -6.23428768 25.1739951 -2.87155124 -0.5924168 -0.27204717
-0.04799032 1.01546753 0.05145972 1.97448242 -4.22800606 2.38116006 1.4010441 6.12529779 4.1604701 2.71303094 0.59595148 -0.32633043 2.72940643 0.6200529 -0.34061784 0.96458386 -1.8176174 -5.74519466 -3.23057124 23.11438246 -20.73865329 -0.81189097 -11.72673346 -2.23528076 -11.60865069 7.13727452 -33.91188001 176.69820589 -69.50529532 152.93359352 -3.91554882 8.28813243 -27.87143493 2.62002626 26.26580883 -6.39375386 -13.04449825 12.14883095 39.65772055 -14.0568622 47.18650728 55.42884581 5.96514275 30.9674291 0.57202784 -43.69580415 8.21267046 21.6955056 52.40139902 -7.36506204 1.53998979 -7.64095017 2.24191053 -17.06331098 -2.09698822 1.24027621 -0.13151667 -30.5459705 -8.72447565 -23.25586162 61.43140313 -19.55988317 -1.4192026 -23.15748249 -6.15103381 24.18895706 -3.36881813 -0.73859304 -0.28236703
-0.05316773 1.00149598 0.03663695 2.98870529 -7.71230202 1.84544484 5.36869845 4.83183695 3.03421311 2.36014253 0.22471547 -0.0353276 2.36931793 0.24882678 -0.04589628 -0.47003973 -1.30689431 -1.89607176 -10.91592739 25.85257998 -17.82608262 -1.48567807 -11.40624848 -1.49383821 -13.25494983 4.82203724 -28.7505653 -171.25557955 -65.69782101 171.30996473 -3.70199731 0.83305107 -26.62860345 3.52875094 27.55933561 -12.33214307 -19.14544219 13.39806298 40.01890697 -18.71047098 41.24851614 59.73506964 2.81266783 28.7147515 8.03110795 -46.39870792 7.73199516 24.89959153 54.98266705 -6.46904058 0.82258132 -6.78661585 2.14225803 -17.40360582 -3.9931849 1.42908178 0.49320776 -34.46961551 -6.03438743 -21.30128222 64.81107158 -18.75354351 -1.29773761 -23.78202082 -5.97745735 23.34011939 -3.4349899 -0.87178335 -0.05317978
-0.05778102 0.99008964 0.02144955 4.09859989 -11.10024963 0.74822905 9.24214798 2.74144018 0.96195044 2.15166673 -0.32499377 0.61355347 2.15491688 -0.29195871 0.62315681 -0.29487368 -0.96996533 1.47399832 -20.24172905 27.05894243 -10.46516047 -2.07325345 -10.43751235 -1.08537495 -16.03441993 1.03284524 -21.62166826 -159.23130812 -62.51739965 -172.28695112 -1.97056322 -4.98623054 -21.78936605 4.38685101 28.92838663 -16.35411903 -25.49090111 13.64141643 40.12143181 -22.07576471 39.7802919 61.56177417 1.975677 24.28784671 10.80572477 -49.29659882 7.24818187 28.8020828 57.3139603 -6.09999975 0.07324759 -6.70805559 2.00050154 -16.30104773 -4.6468349 1.56356456 0.09103338 -37.93070606 -3.86370407 -18.35692939 67.1822059 -18.33480625 -0.94813162 -23.81654223 -5.72817122 22.606247 -3.13421736 -0.97454745 0.4659777
-0.06134127 0.98126122 0.0085872 5.27767766 -13.50376025 -1.81542515 12.24556841 0.29656759 -0.77096162 2.36255804 -1.00265117 1.59517562 2.37055827 -0.95098283 1.6409716 0.55889521 -0.0902691 3.10837913 -29.87366627 25.25889387 1.34941784 -2.20753091 -8.36574786 0.15350595 -19.80693756 -3.45695161 -13.77360973 -140.75888221 -58.14173914 -154.34835004 1.09199224 -7.7130491 -20.67134579 4.91553963 31.67316379 -17.78047453 -30.15044538 10.1878296 38.58189443 -29.113878 43.05908316 66.07898233 -0.42217573 17.16951002 14.31829695 -52.96511316 5.80327285 33.81620338 59.42127171 -7.36834585 -0.43970312 -6.68934238 1.92051879 -15.60017897 -4.82631232 1.51812353 -0.14798705 -40.37874746 -3.29384552 -14.69301017 68.49333133 -18.19725716 0.34786176 -23.72136718 -5.38612585 21.537989 -2.81142067 -1.04030057 1.0096899
-0.06190158 0.97175796 -0.00063455 6.62642462 -13.29572331 -5.66963762 13.89361786 -1.40344763 -0.90395224 2.84491485 -1.56628122 2.79041046 2.86347247 -1.4916695 2.86951556 0.66562104 1.31544106 2.4368968 -35.13180866 15.82019063 14.96615402 -1.57859067 -6.27449057 2.9999101 -22.30529018 -9.89191985 -10.33615547 -122.917898 -53.71586268 -138.65572882 2.42444422 -8.83705027 -28.22785249 5.84132623 33.18263992 -20.40105332 -32.98812752 4.0583512 38.99689018 -41.96210908 45.0921084 73.44708447 -4.18609388 8.71407086 19.61280281 -57.97966684 2.63008763 38.13898153 61.80088258 -10.29450497 -0.44068944 -6.54080968 1.84068427 -14.58379101 -5.0341978 1.20587203 -0.07563038 -41.87131135 -4.97359824 -12.45646796 69.68849085 -17.62060289 3.33102858 -23.61540212 -4.9913165 20.26568682 -2.54091994 -1.06209433 1.42989445
-0.05919119 0.95821824 -0.00700842 8.14082914 -10.04020586 -9.01338338 15.03944248 -1.49147175 -0.15560509 2.90234471 -1.70760544 3.94068263 2.92508513 -1.61451188 4.03402131 -0.09728966 2.49483854 0.80013683 -31.33347826 -0.05218535 24.12124425 0.24872674 -8.33913475 4.21487458 -22.65577458 -16.16626493 -9.102789 -114.36934912 -55.8634833 -126.78405029 0.23119507 -9.67413876 -39.22178786 6.91246496 29.70608535 -24.28856239 -34.13099903 -1.97218715 43.00257126 -56.52078717 46.06155045 79.89070353 -8.38601682 0.42673975 28.5659896 -63.50304057 -1.42841955 38.81533185 64.56462328 -13.52052461 0.09441754 -6.13789491 1.78886052 -13.09624222 -5.99325985 0.52079076 0.01277293 -43.17011362 -8.33271993 -13.95245577 71.88724093 -15.75185901 7.24228048 -23.4823594 -4.6548819 19.20545669 -2.24440729 -1.03402406 1.76684359
-0.05423727 0.93950598 -0.01176916 9.30704064 -4.77318 -9.88108086 17.11005397 -0.28092141 -0.80543918 2.38776662 -1.40980342 4.48046804 2.41054104 -1.30553966 4.57122289 -0.45367971 2.67671775 0.09665017 -23.22458267 -16.49033791 27.60329667 2.35595513 -15.18885471 2.86852217 -26.65721662 -18.49871534 -8.37491727 -103.65825256 -63.21370117 -112.73873756 -3.73034593 -17.70558107 -45.03164551 5.14160878 23.11287602 -19.77987009 -33.24610306 -6.1992844 41.97687762 -70.20964465 47.31718442 86.97565455 -11.07127724 -3.75457578 39.92339237 -68.15452784 -4.0306605 35.38269085 67.3544586 -16.00742271 0.40726581 -5.62330081 1.77877573 -11.41461021 -6.14295145 -0.18875485 0.47312463 -45.22059602 -11.3772291 -19.30369927 75.64938246 -13.31941185 9.70467915 -23.28649635 -4.64756706 19.440937 -1.96247341 -0.96467075 2.0554004
-0.04904511 0.91747117 -0.01537259 9.19039958 0.04339767 -7.28741095 21.18499449 0.48370354 -3.32192588 1.75945832 -1.06644772 3.99671825 1.78301819 -0.96248412 4.08189574 -0.11077382 2.56145444 -0.6586113 -19.52086467 -26.30589469 24.00060364 3.03925524 -21.10308104 0.0843329 -28.79317698 -14.10369964 -3.9678729 -87.51437365 -51.71077138 -94.49161064 -0.84772042 -22.80918802 -40.62941625 3.34751184 18.13846988 -10.13360711 -29.67924009 -12.04626699 36.05046873 -86.46963291 53.31906509 96.85277253 -15.90988026 3.61175176 48.82217313 -70.53156573 -3.43806551 30.61742064 69.65193399 -17.27802601 -0.17952278 -5.6565435 1.76921212 -10.83886409 -5.12901127 -0.76272954 0.17503621 -48.20215767 -11.62446124 -26.62295283 80.70723352 -11.23018784 9.1735286 -23.62687286 -5.13765725 21.01894438 -1.79824758 -0.8859184 2.2647456
-0.0430125 0.89510222 -0.01627415 8.89837209 2.60106664 -2.59003743 26.34701737 -0.57642554 -5.3408528 1.07007256 -1.03466894 2.61433674 1.0950139 -0.95558019 2.70642705 0.44967336 2.5735583 -2.32100467 -25.50053623 -25.21492992 13.98460014 1.46885191 -21.80131165 -6.64054901 -24.52507816 -0.20261937 4.85573819 -89.1894777 -27.39421172 -92.64573872 6.03875389 -10.36915115 -37.32572974 1.89012303 17.39115821 2.24425722 -26.28689583 -18.98058627 24.67642551 -98.30841471 53.3497336 100.65209718 -19.75135403 9.49476954 45.60060755 -71.68289931 -0.80160391 26.84779518 71.63587736 -17.19530476 -1.49249807 -7.07368538 1.68975226 -10.80218582 -2.14773826 -1.09191847 -0.18647644 -51.71544341 -8.35079059 -32.54518848 85.60036726 -10.42914675 6.57027108 -24.40502861 -6.03503156 23.48891356 -2.72193009 -0.8549754 1.47779697
-0.03645032 0.87539597 -0.0126479 10.74821318 2.78386569 2.42019872 29.36930418 -2.42809244 -5.94384735 0.29642352 -1.10438274 0.97067653 0.31962741 -1.07212413 1.06661555 -0.17102551 1.92911436 -4.87837728 -35.24897985 -15.96190047 3.18778527 -0.24737515 -19.05514547 -14.74020812 -17.24827583 19.51222617 6.05718584 -89.97705841 -20.77601216 -88.86514939 10.57052328 1.56551326 -35.8574392 0.65425569 16.966179 12.31738691 -14.19641673 -24.40856749 20.04979146 -110.07758451 54.23747139 99.78356307 -28.22081832 11.83813643 38.54371831 -73.75950214 2.28897025 24.59002134 73.3675359 -16.14566014 -3.18342947 -9.08187083 1.62890742 -10.07459799 -0.31634566 -1.04041112 -0.36511856 -55.94262578 -2.22228552 -34.78232633 89.32038283 -12.00119644 3.77978965 -25.14447734 -7.09365707 26.42756162 -2.33996503 -0.81967317 1.91673478
-0.03022672 0.85959472 -0.00612847 15.06828497 1.64438085 6.17573477 29.44830957 -3.51011405 -7.06568231 -0.26711514 -0.92992628 -0.29695689 -0.24986135 -0.93860464 -0.22379294 -1.67428431 1.04196464 -5.42968552 -44.72658266 -5.71950537 -3.82924316 -0.10110683 -14.03894605 -18.31943008 -4.86504229 25.0088266 -4.53013106 -90.56120579 -22.25286328 -84.21774093 4.95071671 0.48197361 -33.40565843 0.57103215 12.93530115 15.28557274 2.33339099 -22.36231617 29.53041293 -109.23607831 60.97164547 85.94829665 -42.43112908 11.46268337 32.5543818 -77.68023428 4.48911604 24.38014764 74.74945084 -15.27671272 -4.96527212 -9.90093311 1.65318622 -9.48817509 -0.96809608 -0.86447357 -0.41353031 -60.99127149 4.36642974 -33.46119092 91.59122616 -15.491517 1.85618387 -25.5097169 -7.92590251 29.08302807 -2.0743207 -0.80181216 2.32918865
-0.02494727 0.84691406 -0.00039238 20.06118308 0.34221373 7.66754736 29.10351825 -3.91105439 -8.41168674 -0.5313398 -0.6736583 -1.04823775 -0.52061667 -0.70595782 -1.0021582 -2.07302341 0.20629547 -3.32694977 -54.93206298 -0.48794789 -5.16945369 0.56480801 -6.90517625 -20.45590362 -2.86851279 17.67781919 -12.7260934 -90.59805262 -28.8809914 -79.10343004 -5.23609358 -7.94588678 -25.54886281 0.84107897 8.46738448 15.26362284 9.43607236 -12.77289841 37.5221669 -82.84018542 63.20928689 52.65702125 -55.80414497 11.47131167 29.2317529 -82.74705467 5.04342282 25.6256132 76.4004893 -14.76118469 -6.1180526 -10.37378678 1.54751927 -8.30128094 -2.63403782 -0.65484399 0.04901049 -66.19446401 8.74846992 -30.53354682 92.91408633 -19.03921501 1.07316654 -25.57616498 -8.29739093 30.63754242 -2.63715929 -0.84371883 2.17126353
-0.02001022 0.83417487 0.00050661 23.03866674 -0.19863045 6.59205627 30.15765255 -3.56482952 -7.89062654 -0.5688515 -0.56218152 -1.06112895 -0.56099171 -0.59578179 -1.02297122 -1.69866904 -0.24306958 -1.69571149 -63.33725276 -3.28458234 -1.3323719 1.33728196 -0.57259224 -22.5330482 -8.78082523 7.22223377 -19.57458766 -88.13361994 -37.64386693 -73.14886191 -14.14471815 -8.88308875 -11.40447789 0.71168282 9.13818878 16.4527964 11.73112385 -8.75499511 36.84598055 -66.77130734 57.21326694 36.78383083 -65.72498349 11.37491734 24.34869896 -87.31469212 3.69388178 26.75521018 78.78979225 -14.8442427 -6.02003357 -10.98201444 1.3812239 -7.0488532 -2.74766459 -0.46648533 0.00697564 -69.45810776 9.92649479 -28.23264156 94.2278364 -20.89786542 1.29683536 -25.40938125 -8.41415306 31.4817581 -3.51772739 -0.93344369 1.9428029
-0.01713645 0.82196917 -0.00221769 23.88616965 0.43751684 4.62626776 32.80413988 -2.61765412 -5.56054278 -0.4865598 -0.60631686 -0.51264087 -0.47856798 -0.6245203 -0.46300034 -2.52994392 -0.54305045 -1.58117976 -66.89794245 -9.40052535 2.33027774 1.50176559 0.40517248 -24.06995259 -13.92770029 2.1818685 -20.96595121 -76.39133111 -46.01065628 -63.15239933 -24.55160001 -2.99572506 -2.47241212 0.22580049 13.22494725 18.22857587 12.97427237 -12.4061975 31.94321767 -62.51921093 55.51473111 36.83683965 -72.22326478 11.28546619 16.94187662 -90.44572615 1.74749975 26.46010875 81.05210402 -15.05581672 -5.14053759 -10.96221212 1.28732349 -6.55348849 -2.74771212 -0.28409177 0.04384586 -70.50922819 9.36635709 -27.64367844 95.73800621 -21.31884392 1.93288257 -25.55299355 -8.65067206 32.16739633 -4.57422002 -1.05349939 1.6687964
-0.0180959 0.8117878 -0.00585527 24.1983794 1.86137098 3.46310085 35.72670205 -2.45059643 -3.79714216 -0.56006619 -0.77288914 -0.12026528 -0.55052322 -0.78084178 -0.04670163 -3.41128746 -0.48655294 -1.44605451 -68.7570259 -12.16612145 3.66418802 0.91320329 -3.58439563 -24.81332782 -14.42954502 5.5000291 -16.58260768 -65.66177628 -49.12729332 -57.29746768 -32.96825001 0.79228625 1.96381397 -0.1636595 15.53063396 19.66304228 10.35227215 -15.8336006 26.17507195 -53.43919035 57.65412004 32.97243056 -75.55971183 14.84511771 16.22653112 -92.53777271 0.52871355 25.24447395 82.32742479 -15.22979835 -4.50663791 -10.45663754 1.25495948 -6.47720192 -2.81145351 -0.12873725 0.01280079 -71.02880123 8.80888354 -28.25592007 97.31757986 -21.49569629 2.42662634 -26.1656561 -8.99076087 32.71588679 -5.65394906 -1.18512914 1.37615826
-0.02182952 0.80349716 -0.00892774 24.83222143 3.2226886 3.39769221 37.62110048 -3.50770069 -3.42561377 -0.88702968 -0.96446462 -0.22306663 -0.87463152 -0.97948256 -0.12663448 -3.60825032 -0.10892944 -1.27889318 -70.50804118 -8.12718774 2.84468096 0.31899283 -7.35969099 -25.04193008 -13.34489925 10.31471325 -12.5413516 -73.75713624 -48.8369491 -63.36694028 -36.11591779 1.15550315 5.74881506 -0.33799343 15.81997923 20.70415457 6.19820661 -15.94519503 21.5386498 -36.51095223 59.59488834 19.53234713 -78.59185017 19.98705696 21.54014807 -94.19994654 0.24040611 24.20924322 82.76035232 -15.42119128 -4.39964661 -9.86567157 1.2386904 -6.59679473 -2.77336012 -0.06421608 0.09177056 -72.05352804 9.05676288 -29.08332154 98.8842179 -21.90854041 2.68462764 -26.86281751 -9.26436833 33.08426572 -6.65548623 -1.30819045 1.04247197
-0.02559377 0.7960572 -0.0112928 25.58479242 3.88630236 3.72691052 38.79488758 -4.59282106 -2.92004829 -1.17300996 -1.10943617 -0.56788468 -1.15985818 -1.13915834 -0.45626702 -3.96025211 0.50024924 -1.72854264 -71.71100108 2.59040394 0.0378222 0.15924119 -8.2996895 -24.43380738 -13.73221973 12.07538378 -12.50099843 -84.00337474 -49.36245106 -68.89934305 -38.1075259 -3.18228244 9.19851143 -0.59184056 17.18023313 21.24591129 5.82694822 -17.52838888 19.19339028 -27.15328548 61.48242598 9.55836199 -79.96195091 24.18222824 24.59879828 -95.63530389 0.19767632 23.80986282 83.11730938 -15.50155884 -4.42041588 -9.56832616 1.24324253 -6.92694176 -2.62863045 -0.04488817 0.20548823 -73.44378516 9.80498057 -29.47584387 100.30492406 -22.18144637 2.80749121 -27.23667997 -9.37126025 33.24254732 -7.32121383 -1.40284643 0.78749454
-0.02742624 0.78981118 -0.01294965 25.79585902 3.97219704 3.87853014 40.10626692 -5.00895415 -1.79025842 -1.25086601 -1.20875272 -0.77758204 -1.23949383 -1.24674846 -0.65431106 -4.459775 1.14262737 -2.53518466 -71.32179104 13.42639215 -4.5782793 0.12906022 -8.4236546 -23.68476615 -15.38290968 13.06662975 -12.92492292 -86.22431813 -54.66461748 -70.30653518 -41.97543182 -6.81408299 9.34432254 -0.91657041 19.39280194 21.58890335 7.28490359 -21.27475704 17.56554565 -25.96952869 64.21181338 5.96267822 -79.66423989 27.22723958 25.38617503 -96.48255841 0.00761762 23.83666525 83.75323258 -15.5349836 -4.34953971 -9.53031843 1.24322189 -7.08424894 -2.60739436 -0.01081768 0.1916619 -74.24522338 10.32811178 -29.57611648 101.34103137 -22.01854198 2.87083499 -27.45338667 -9.43330593 33.32663487 -7.44015168 -1.47651168 0.77130862
-0.02868408 0.78544937 -0.01358916 25.78360506 3.86612303 3.74094901 41.27650608 -5.1739211 -1.05549097 -1.1881907 -1.29298357 -0.68185095 -1.17681186 -1.32799627 -0.54618189 -4.37950796 1.23701779 -2.55293228 -71.7409048 15.78178899 -7.7410712 0.04465375 -9.40664169 -23.56423034 -16.37541636 15.52964547 -13.30539995 -89.53082332 -58.22959894 -73.04689964 -45.05448843 -7.28155107 8.22885374 -1.03486783 20.03661975 21.92890098 7.67337017 -23.00891776 15.7253659 -28.39890441 65.60488649 6.61380615 -79.79045606 29.94764397 26.71295572 -96.960951 -0.40940712 23.89717251 84.41942655 -15.47186149 -4.17856013 -9.54920148 1.22615916 -7.02298201 -2.78611057 0.0460318 0.04369364 -74.5188939 10.45334041 -29.38531625 101.96266402 -21.89844944 2.93176908 -27.7197167 -9.57054753 33.50763022 -7.15586004 -1.54014339 1.02872423
-0.03010613 0.78292969 -0.01359747 25.7694001 3.75826422 3.01603272 41.94346447 -5.35721506 -1.00832715 -1.08079964 -1.39267183 -0.27716066 -1.06579637 -1.41361607 -0.12566556 -3.42763567 0.76145672 -1.77508803 -74.0545771 9.21865964 -6.10108321 0.15726151 -10.23769312 -23.89238236 -17.1994797 17.73451594 -14.84016013 -95.37756542 -60.34861243 -77.26954635 -46.90261397 -4.32344481 7.60533453 -0.95928969 19.13943367 22.41996607 7.07774641 -21.90804223 14.0789252 -30.03042662 65.39533296 7.95173858 -80.58507664 32.39273282 28.58986332 -97.40059356 -1.24912256 23.81975898 85.05254127 -15.32652125 -3.78894272 -9.46529764 1.17941769 -6.75427028 -3.08557937 0.15466608 -0.09508073 -74.4570152 10.09458163 -28.67675284 102.2847264 -22.12259933 3.07495401 -27.67552133 -9.6815864 33.87204906 -6.56471065 -1.5833696 1.60033622
-0.03132026 0.78192604 -0.01348484 25.7261508 3.8256278 1.91325736 42.5117063 -5.56025027 -0.77633368 -0.97712783 -1.54522796 0.18091707 -0.9577101 -1.54996806 0.35462461 -3.01367133 0.3570847 -1.01865534 -74.81954208 0.01961965 -1.1917638 0.5845501 -10.00995239 -24.24814218 -18.48452041 17.97189929 -16.77183982 -98.27603234 -62.20644525 -78.93751259 -48.62264625 -0.56801508 7.34575317 -0.86986438 18.37732821 22.94668777 6.97471861 -20.78891907 13.91985579 -32.00335417 65.80407007 9.99014125 -80.65346818 33.70131669 29.41433655 -97.78349572 -2.29322583 23.32839835 85.61360582 -14.97413574 -3.16153379 -9.23548474 1.10433098 -6.31862742 -3.48755313 0.3208911 -0.18603417 -74.2132323 9.43113304 -27.88982506 102.43981744 -22.37915489 3.27534756 -27.10718548 -9.61754919 34.24903232 -5.70200082 -1.58156383 2.36885856
-0.03141672 0.78197281 -0.01361955 25.56992215 4.1083509 1.19736141 43.08963366 -6.11118507 -0.04571623 -0.89917718 -1.74206871 0.26491561 -0.8778964 -1.74387098 0.46231634 -3.3846743 0.45723334 -0.64273624 -73.14916744 -3.36720231 3.14268081 1.289594 -8.83554853 -24.4309589 -20.49442302 16.11400872 -17.88204518 -94.77393382 -64.934499 -75.32795178 -50.50208098 2.40076448 6.0868117 -0.81048747 18.29584568 23.24556518 7.60494148 -20.32902633 15.5354446 -36.08216481 66.73338468 13.99299012 -79.49853155 33.03826736 28.84146865 -97.95023881 -3.014633 22.73112343 86.0477659 -14.78267942 -2.70666503 -8.88739477 1.15988921 -6.51600739 -4.05541095 0.55465856 -0.36600245 -74.00276728 8.92796768 -27.83582749 102.50555417 -22.06702538 3.36636204 -26.23127634 -9.35774857 34.33940153 -4.89278064 -1.5352606 3.03119482
-0.03033155 0.78225517 -0.01404977 25.52218705 4.17525935 1.73743262 43.23359657 -7.1393308 0.40118291 -0.8912409 -1.8631316 -0.15452566 -0.87078332 -1.88024594 0.05133211 -3.80665128 0.86748154 -0.98801801 -72.30502256 2.0083162 2.80043491 2.18106762 -7.03670859 -24.34297952 -22.65924883 12.69991103 -18.81697426 -85.43648071 -67.06499489 -66.16779472 -51.85102689 3.89345045 2.66579467 -0.70072898 18.25331841 23.24937206 8.40323929 -19.60228334 17.76492399 -43.31652178 66.9985224 20.7093443 -78.04622181 31.18789506 28.08636411 -97.79501298 -2.61542344 22.52741546 86.16446948 -14.6130972 -2.7761346 -8.70250259 1.22020937 -6.56233902 -4.62130777 0.80129464 -0.65635009 -74.29547785 9.38873049 -28.59398509 102.55637243 -21.14371976 3.26477158 -25.59931111 -9.07570761 34.08521691 -4.34185403 -1.4689002 3.35923088
-0.02882738 0.7825544 -0.01496312 25.64409326 3.47476053 2.97723225 43.10416921 -8.20834948 0.01614853 -0.97475112 -1.81744744 -0.756009 -0.95598221 -1.85662938 -0.56292998 -4.25612387 1.3078612 -1.73231373 -71.15762572 10.86924536 -1.9042867 3.16819078 -4.79709727 -23.99929477 -24.49536404 8.83896799 -19.7859916 -72.87610471 -67.7949897 -54.40710152 -52.82143435 3.68367491 -0.99235696 -0.51518535 18.08290446 22.83459564 8.46063582 -18.27841902 19.24405431 -48.14611936 66.39784956 25.21466428 -77.36776254 29.89993622 27.90138923 -97.4719892 -1.70132932 23.14553756 86.09264555 -14.38384216 -3.18084477 -8.86637882 1.23683046 -6.43827876 -4.85167187 0.90427983 -0.84042555 -75.06760516 10.51595866 -29.00590737 102.48363658 -20.241963 3.06130114 -25.39550499 -8.90438421 33.71063793 -3.86658069 -1.38989473 3.48677892
-0.02732213 0.78261146 -0.01624904 25.93395844 2.29892823 3.65762467 43.11112327 -8.83950199 -0.68077007 -1.05387772 -1.69844673 -1.09433527 -1.03602097 -1.75008638 -0.91888978 -4.89927047 1.51128187 -2.44524362 -69.33287254 16.09698486 -7.29834023 4.16823385 -2.33930666 -23.56976288 -25.87827824 5.98226228 -20.80313284 -61.64186027 -67.67070369 -45.07712677 -53.7060791 2.25494947 -3.35926307 -0.30263435 17.93908657 22.17845464 7.33046646 -16.67065328 19.45310837 -49.66136353 65.2681367 26.58413631 -77.69645054 29.55254039 28.55246875 -97.41042434 -1.38499815 24.04909457 86.09791192 -13.99012008 -3.39460538 -9.27793882 1.21472433 -6.44846296 -4.60699995 0.84274925 -0.77348444 -75.86882674 11.31207483 -28.44509815 102.23461195 -19.8013272 2.97747627 -25.40369676 -8.89187351 33.58849986 -3.44769163 -1.3116017 3.54387384
-0.02609927 0.78188187 -0.01760257 26.24674537 1.33492859 2.91396402 43.19737003 -8.84589642 -0.6919118 -1.02570211 -1.6774043 -0.96286756 -1.00780713 -1.72341375 -0.78959175 -4.72113877 1.21958346 -2.33231578 -69.50367852 14.56559137 -9.23343496 5.09930782 0.16882168 -22.99446361 -26.73770064 4.23342373 -22.35718162 -51.10689521 -67.03511102 -37.1551009 -54.49342599 0.08065676 -4.65528488 -0.09253243 17.58309016 21.89419226 5.09490629 -14.57954728 18.35109822 -48.84855583 63.74760858 25.97424022 -78.42406141 29.87317931 29.46980507 -97.89899549 -2.34303624 24.5523179 86.36449767 -13.55589581 -3.13224019 -9.65681219 1.17311505 -6.67101514 -4.01013331 0.61883814 -0.47287361 -76.26696256 10.89287693 -27.42254712 101.94705317 -19.53793174 3.24893962 -25.46327637 -8.96886528 33.64714481 -3.20521969 -1.25094349 3.5366803
-0.02532323 0.77977249 -0.01889183 26.34851678 1.11559237 0.84346337 43.44049374 -8.37724499 0.29521653 -0.88768277 -1.81346276 -0.44205196 -0.86935922 -1.83881452 -0.24919024 -3.74507617 0.70911109 -1.40951876 -71.85100969 7.55036315 -6.48701705 5.83038509 2.48301285 -22.05929026 -27.02917749 2.94839484 -24.02905207 -42.37977042 -65.09694726 -31.35368738 -55.12271133 -2.52854911 -5.53893089 0.13794634 16.82238263 22.1199296 2.6702771 -11.90641722 17.39890408 -47.44685305 61.66027423 24.98889446 -78.99064981 30.41453915 30.2703178 -98.88268843 -4.34131017 24.36996818 86.92174182 -13.43076962 -2.50485922 -9.72693293 1.13845384 -7.00143394 -3.4719108 0.31935903 -0.23664909 -76.05335408 9.29030477 -26.58925423 101.86329015 -19.32778317 3.82655763 -25.40863594 -9.02861909 33.8023213 -3.16685983 -1.21131461 3.45140317
-0.02515798 0.77675102 -0.02054772 25.98440834 1.43828743 -1.47282618 44.23893526 -7.84254362 1.59811205 -0.7096673 -2.03349893 0.22888636 -0.69072117 -2.03306122 0.45539765 -2.88705477 0.4466013 -0.71672739 -73.07295962 0.02007629 -1.84386095 6.29005768 4.32003497 -20.89222558 -27.36059393 1.18698009 -24.27611278 -36.17522671 -61.06238461 -28.15821323 -55.95828274 -5.83594908 -6.81832143 0.38400551 15.9759092 22.50504112 0.73941025 -9.38524524 17.93326211 -46.88728359 59.2051127 24.86029531 -78.90132314 30.72098347 30.28627575 -99.74668824 -6.4961916 23.73822772 87.70180819 -13.57571459 -1.78582097 -9.43333444 1.14948195 -7.38499679 -3.63132063 0.24751412 -0.60946926 -75.35801386 7.41213158 -26.0388462 102.10504395 -19.46793691 4.39532612 -25.35661982 -9.00923122 33.85713599 -3.31078781 -1.19496703 3.30893241
-0.0251414 0.77364335 -0.0227069 25.48153656 1.74887845 -2.86783473 45.23251667 -7.60814322 2.42314201 -0.54788787 -2.22254641 0.72891918 -0.52775776 -2.2026821 0.98617839 -2.7239045 0.48187431 -0.56563314 -72.86679318 -2.41763093 0.84136037 6.55275922 5.75191866 -19.79905613 -28.04218326 -1.36195682 -23.35429096 -32.53734634 -55.79907682 -27.18172978 -57.24415484 -10.23111292 -8.27555492 0.60615515 15.405859 22.8578318 -0.77280476 -7.83921737 19.68711407 -47.84448904 56.83101371 25.9965529 -78.13451442 30.8101957 29.49260551 -100.19783066 -7.87795001 23.04554388 88.42989744 -13.51151432 -1.24671626 -9.03991555 1.15386178 -7.43338669 -4.13000709 0.41405849 -1.0672948 -74.83242076 6.34332005 -25.59629694 102.559671 -20.12684207 4.68201583 -25.50831471 -8.97900188 33.80647117 -3.65660097 -1.2113886 3.08452674
-0.02455735 0.77049431 -0.02524565 25.27737717 1.68373149 -2.96278622 45.63638066 -7.81283658 2.62241762 -0.44183064 -2.31200231 0.83250864 -0.42088605 -2.28734907 1.10238276 -2.74319508 0.7567683 -0.46940728 -72.56289993 1.28587963 -0.35762656 6.70036233 6.87620789 -18.94809091 -29.19407743 -4.46855925 -22.21464599 -29.83330619 -49.91750834 -26.48721999 -58.84210964 -14.83719224 -10.12550568 0.82631634 15.04395503 22.91729931 -2.26502239 -7.13087036 21.84788715 -47.90478563 54.95641886 26.52326767 -77.42176021 30.85496337 28.83692396 -100.47621057 -8.26066491 22.74759721 88.92639886 -13.22317771 -1.0704734 -8.86968097 1.18911106 -7.67545821 -4.38273777 0.49004078 -1.26616953 -75.03265351 6.53527358 -25.16690766 103.06214909 -21.01438608 4.58621612 -25.76092522 -9.01028671 33.82350287 -4.06111181 -1.2581317 2.88402463
-0.02314012 0.76720024 -0.02822715 25.54577716 1.20222346 -2.21205146 45.45698711 -8.26974034 2.40304547 -0.39568204 -2.31235465 0.64844047 -0.37476759 -2.29377371 0.91435844 -3.02026277 1.03377707 -0.52082057 -72.17245234 7.20980612 -3.96374645 6.76537102 7.59588744 -18.39023496 -30.29324641 -6.96948584 -21.30859144 -28.03022598 -45.13293211 -26.35136145 -60.20068933 -18.47476227 -11.78280941 1.1046627 14.77134757 22.2735728 -4.02196142 -6.91450726 23.88230019 -45.80243853 54.00341575 25.54250806 -77.54266639 31.13418399 29.0831742 -100.85773119 -7.90263393 22.84174724 89.08677119 -12.67865663 -1.17326964 -9.03584999 1.16163365 -7.79329328 -3.96639164 0.24559241 -0.98701025 -76.01806141 7.59332569 -24.72616261 103.46111716 -21.68970933 4.25978789 -25.97358269 -9.09621586 33.93722086 -4.35289347 -1.29933279 2.60601689
-0.02143092 0.7641307 -0.03188187 26.03243967 0.56874003 -1.59311128 45.26766315 -8.61481689 2.00515016 -0.37627094 -2.28241995 0.52270901 -0.3549142 -2.26783783 0.7821161 -3.31293409 1.08754104 -0.67450868 -72.30311891 9.93803337 -6.2777459 6.77371138 7.89311446 -18.09333369 -30.86982702 -7.91152905 -20.28703824 -26.85091525 -43.12473722 -27.37060176 -60.71061423 -20.21622573 -12.30417321 1.41659246 14.63320044 21.02879477 -6.29553261 -6.77969174 25.4032265 -42.08069083 53.26671384 23.44854513 -78.61022001 31.7835743 30.39472747 -101.52434134 -7.82688325 23.23771759 89.1487641 -12.38552324 -1.32330167 -9.2690483 1.27696981 -8.99488655 -3.14196586 -0.18475866 -0.49741758 -77.23132928 8.5250179 -24.2547305 103.6837964 -21.97644604 4.03653006 -26.11788588 -9.17097398 34.00740381 -4.43548038 -1.3108196 2.18918046
-0.02064149 0.76262718 -0.03600863 26.30372708 0.12266311 -1.77375383 45.60932679 -8.58982644 1.67901673 -0.35050148 -2.26325643 0.66486564 -0.32783506 -2.24266766 0.92531067 -3.18147628 1.02587729 -0.56620835 -73.90023449 8.3887639 -5.38254733 6.69503276 7.6254623 -17.9362888 -30.97727398 -7.37676865 -18.7561503 -26.32608463 -43.52627919 -29.44330276 -60.36895483 -20.12792597 -11.63360192 1.76598502 14.38273525 19.60325884 -9.06095822 -6.25773239 26.86594982 -37.85097947 51.87847944 21.01922967 -80.35627586 32.70880328 32.44128532 -102.12495482 -8.31340936 23.41991659 89.11352534 -12.21293099 -1.25351778 -9.1745204 1.36457393 -10.00902132 -2.49879553 -0.55685226 -0.05812192 -77.9350764 8.53425752 -23.7304655 103.67751855 -22.15383183 4.06547218 -26.27062037 -9.20952247 33.92910071 -4.28104548 -1.30321505 1.83005207
-0.02116154 0.76285141 -0.03999454 26.26792387 -0.1513672 -2.61042424 46.62698602 -8.21791834 1.43071793 -0.28711449 -2.24749127 1.01252762 -0.26277195 -2.21257262 1.28066346 -2.93910532 0.98233302 -0.35005364 -75.65531392 5.41546023 -2.9436903 6.48374778 6.74486842 -17.74662696 -30.16296792 -4.86012731 -17.30512588 -26.92666979 -46.02913121 -32.26134499 -59.66269762 -19.28895594 -10.32631873 2.15409974 13.87285876 18.37521009 -11.8982558 -5.35521282 28.84485637 -33.84526017 49.95635049 19.04046991 -82.41429288 33.47590453 34.88337245 -102.41203192 -9.3156402 23.13133634 89.02970959 -11.80904069 -0.86208215 -8.81687751 1.39598273 -10.69526106 -2.25376572 -0.73860623 0.18990712 -78.07190748 7.75281863 -23.06310947 103.49177779 -22.44855985 4.22864712 -26.3582413 -9.18306067 33.71826613 -3.95798448 -1.28353225 1.57441998
-0.02213063 0.76423836 -0.04355726 26.11229474 -0.38810486 -3.65864233 47.36828839 -7.76448254 1.18034814 -0.14765216 -2.23494863 1.39316382 -0.12198745 -2.18306435 1.66810483 -2.7747322 1.02889283 -0.11550509 -76.30492353 3.43876364 -1.0559161 6.19371116 5.55826295 -17.5168449 -27.7145116 -0.07751492 -18.19589899 -26.38310669 -50.38052117 -33.19127289 -59.02689528 -18.97635056 -9.2516238 2.53712077 13.3556691 17.36743567 -14.29542046 -4.18455201 31.75045103 -29.56725025 47.42148177 17.17817363 -84.35231177 33.92204762 37.2836363 -102.45817152 -10.49829887 22.56023075 88.90678128 -11.15593645 -0.29563436 -8.38903346 1.3970803 -11.18225979 -2.47425259 -0.68427148 -0.02588989 -77.9573498 6.71815448 -22.31066288 103.1901397 -22.8382501 4.44201807 -26.32051251 -9.07621962 33.42718393 -3.60028256 -1.25548724 1.41220232
-0.02228904 0.76691918 -0.04656218 25.86702376 -0.62758606 -4.39448371 47.21530691 -7.44405637 1.17980143 0.06907268 -2.24792443 1.63370046 0.09404636 -2.18363743 1.91140205 -2.57211561 1.12165322 -0.07791568 -75.7253539 3.80866765 -0.90732563 5.93904934 4.44832159 -17.42552329 -24.55107034 5.03366007 -22.15399823 -21.70884795 -54.0043879 -29.14022101 -58.83576493 -19.24661033 -9.43336527 2.84274247 13.22431753 16.15441532 -16.14377808 -3.35066815 35.47626883 -24.50994455 44.47374814 14.88592871 -85.79117711 34.06431979 38.99806738 -102.13471051 -11.36399909 21.94817638 88.64239378 -10.34565779 0.20743241 -8.07405528 1.39335524 -11.62670098 -2.76036942 -0.46952867 -0.3207872 -77.69840992 5.90675402 -21.91912013 102.72937345 -22.8536755 4.66862404 -26.15899117 -8.88735689 32.98102516 -3.29850147 -1.22537313 1.34657745
-0.02061026 0.77238952 -0.04888859 25.18915081 -0.71001819 -4.42949812 47.0565456 -7.24612811 1.29614545 0.32626082 -2.24323904 1.58753867 0.34765014 -2.17779082 1.86167742 -2.60500671 1.26793472 -0.0547939 -74.38815539 6.23487994 -2.14829646 5.75267799 3.58429107 -17.49367476 -21.74270905 9.17937337 -28.2690474 -13.46803046 -55.81386832 -20.99363054 -59.41970895 -20.39892818 -11.15206167 3.03631115 13.56449963 14.40002175 -17.90720063 -3.50461623 39.38353468 -19.39812281 40.99696797 12.41130599 -87.15423963 34.04248631 40.47490573 -100.91604793 -11.35246049 21.37466568 88.03930767 -9.50285229 0.50382615 -7.92946251 1.39778642 -12.02890756 -2.89685944 -0.19167683 -0.43640681 -76.90572467 5.54495857 -22.1705746 101.88273275 -22.33652934 4.64978387 -25.69804633 -8.65788408 32.56779431 -3.04595669 -1.19206432 1.30518945
-0.01652144 0.7816317 -0.05020247 23.7109678 -0.47379199 -3.66535046 46.75065139 -6.50425259 1.37963457 0.67683677 -2.08026568 1.18865208 0.69065952 -2.02706459 1.43280515 -2.72602912 1.42563357 -0.02867011 -71.46265127 9.79041198 -3.70108696 5.59549604 3.18006915 -17.40626239 -20.74657474 11.06799205 -35.62222641 -2.80329385 -54.70417548 -10.66054445 -61.25117845 -22.46573248 -14.82112158 3.14524999 14.15415181 12.10481755 -19.08629709 -5.17867269 42.52202211 -15.840637 38.11568249 10.45869894 -88.51590554 33.98176827 41.79929532 -98.4206236 -10.11895053 20.922464 87.01574535 -8.91061228 0.48040387 -7.92352736 1.39772491 -12.07868467 -2.90498521 0.07554156 -0.34801334 -75.12152701 5.72877044 -22.75115671 100.52657106 -22.0338537 4.03490673 -24.72469154 -8.43653317 32.63189716 -2.71507766 -1.13952058 1.22625521
-0.00891607 0.79434022 -0.05046258 21.25932247 -0.03699893 -2.33249609 45.5056137 -4.69904207 1.57465645 1.18875329 -1.71063595 0.47430766 1.19297408 -1.68158095 0.65323692 -3.05689797 1.47597425 -0.10065727 -65.10189003 12.47801915 -4.7364511 5.49351771 3.38653929 -17.09875851 -22.21661941 10.62972191 -42.43922768 5.08470463 -49.91084277 -3.96244204 -64.31772384 -24.63166432 -20.38583543 3.21674843 14.69581956 9.22284774 -19.07679299 -8.22892365 44.63400884 -15.12811478 37.41636913 9.98011412 -88.74923001 33.19483552 41.84606252 -94.62196853 -7.84334441 20.63276176 85.69140371 -8.73610278 0.0743926 -8.06855346 1.39276266 -11.52928863 -2.85054783 0.25052181 -0.15165802 -72.06666092 6.12545268 -23.2321312 98.506292 -22.82982481 2.59385303 -23.66669246 -8.29743008 33.18378655 -2.23155581 -1.05665849 1.13998237
0.00123117 0.81094249 -0.04997635 18.02190509 -0.12636028 -0.75647652 43.80911912 -1.86020063 1.86530858 1.80948356 -1.27257507 -0.27092466 1.80964704 -1.26936042 -0.16486737 -4.30269755 1.43442112 -0.83390227 -55.47585288 12.23100064 -5.16313692 5.46279036 3.50358752 -16.98871997 -25.46011914 9.12500524 -46.38669862 5.28628063 -43.97234105 -5.18326443 -67.10418804 -25.16928054 -26.60577562 3.31283325 14.74838734 5.860707 -18.24753084 -11.80710261 45.97334894 -18.26174273 39.57155028 12.70192526 -87.76977142 31.17170655 40.44849165 -89.54775543 -5.17623018 20.97677076 83.99715749 -8.92478426 -0.80580627 -8.397734 1.41488313 -10.69186832 -2.63067183 0.28038001 0.24252107 -68.05404091 6.2024951 -23.07817508 95.40902172 -24.59657037 0.20431803 -22.7478313 -8.15924543 33.72105118 -1.76851885 -0.95827684 1.04149586
0.01102228 0.83186987 -0.04928474 14.67124158 -1.58953101 0.65763457 41.46912498 0.5686911 1.22495767 2.40148964 -0.93253456 -0.55786498 2.40369936 -0.93637551 -0.50271427 -5.21090054 1.58474426 -1.93227619 -45.62060971 9.69856381 -5.39788478 5.36113671 2.54166475 -17.00196538 -27.89172109 9.09753401 -47.706955 -0.04306585 -39.04501417 -10.04583969 -67.46906303 -23.06185841 -31.42759235 3.43510514 14.2499469 2.75711823 -18.5955907 -12.63004337 46.57664883 -22.36272177 40.5254648 17.10134705 -87.28709613 28.5808052 39.97172631 -83.64136261 -2.68543571 22.70755233 81.68939821 -9.41861665 -2.2653199 -8.8455207 1.47363234 -10.00685369 -2.20611874 0.12504233 0.7998067 -63.86979798 5.96436361 -21.6780285 91.05406344 -26.49046501 -2.7983311 -21.74618232 -7.89342395 33.81770996 -1.39138237 -0.85962861 0.87148479
0.01651397 0.85670967 -0.04894637 12.16106531 -4.58734384 1.560601 38.66657537 1.29179469 -0.26064205 2.80356707 -0.85675608 -0.33392168 2.80747544 -0.84715271 -0.28991485 -5.10644852 1.79383441 -2.62941314 -38.99345092 8.62908946 -7.22826271 5.16005187 1.24159299 -16.43485692 -27.99102565 11.09452661 -47.65643038 -7.275406 -36.4959048 -14.93292163 -65.28822509 -18.07146918 -32.83970641 3.53515972 13.9775093 1.18255922 -20.78296619 -10.37286604 46.82380798 -24.66411759 40.72965346 20.28806816 -87.12849839 25.98410042 40.58114781 -77.78772211 -0.6179915 25.54802817 78.6697058 -9.45214228 -3.91424682 -9.69737974 1.50998347 -9.47219241 -1.10643612 -0.08092728 0.00707162 -60.41397048 5.83885976 -18.9853044 85.92834648 -27.44216618 -5.52855525 -20.22044051 -7.39321746 33.43587133 -1.0617976 -0.76572413 0.5936188
0.01794473 0.88417422 -0.04908996 10.6906688 -7.37788901 1.77798753 35.94248363 0.21100224 -1.23163081 3.11041366 -1.13675945 0.02787661 3.11332399 -1.11061409 0.099194 -4.95947994 2.15870253 -3.02834716 -36.26289517 10.41635318 -10.07083321 5.0369452 1.13555398 -14.58054921 -27.21299064 12.74717185 -47.58335632 -14.11706714 -36.05746043 -20.03670508 -62.7729947 -11.69312954 -30.81078956 3.61623744 14.35063529 1.81970538 -23.25694706 -6.29167711 46.31571724 -20.92229733 43.18459881 18.64936649 -86.82401676 25.67702681 40.49812814 -72.73726365 0.91888971 27.4938688 74.93456651 -8.57709234 -4.84845125 -10.00901389 1.55779431 -9.72264299 -0.29244683 -0.21205905 -0.53448577 -57.444963 5.34909213 -16.63365139 80.72883004 -27.22637922 -7.12781213 -18.54994997 -6.8233762 32.71840464 -0.76201678 -0.68123116 0.25840386
0.01796309 0.91306341 -0.0499282 9.99267871 -8.57258899 1.48932089 32.91906842 -1.30440587 -0.7326726 3.45955332 -1.57866515 0.44043187 3.45637833 -1.53733368 0.5509497 -4.94125829 2.5630635 -3.4408308 -35.1010282 12.99808212 -12.13789018 4.9510176 1.70813012 -11.60836847 -27.64355182 11.16875296 -48.44912611 -19.01351565 -33.67062008 -23.51145553 -60.92443786 -6.38575974 -29.09843086 3.70917775 14.66202197 3.39055058 -25.04762989 -2.0153472 44.76861726 -17.92079291 45.45337128 17.45832376 -83.81151687 25.95120283 37.22467365 -68.66031608 1.80079414 27.06488749 70.62585196 -6.64888624 -4.42169786 -9.42006007 1.63679006 -10.85131162 -0.34522233 -0.10950938 -0.34985567 -54.67931012 3.75394047 -16.22228772 75.88362098 -25.84643448 -7.1460333 -17.28494135 -6.2394127 31.28370206 -0.51185479 -0.61879005 -0.01449295
0.0177058 0.94182648 -0.05158302 9.759313 -8.52161309 1.04058463 29.47362779 -2.10903619 0.20278293 3.76272794 -1.81600146 0.96251865 3.75173221 -1.75830293 1.08883425 -4.86140412 2.83445606 -3.62078073 -33.70966825 14.07772871 -12.25822512 4.74561447 1.32906849 -8.61545514 -28.97631413 6.01449373 -49.15342114 -21.91739452 -30.32738494 -24.75286553 -57.9075246 -5.03581261 -28.25614287 3.85737207 14.27922701 4.14354799 -25.51143726 1.81560329 43.00235192 -16.19359579 46.09367196 17.58080588 -76.49450322 27.56909884 32.25463763 -65.24569554 2.2692459 25.11446867 65.84053974 -4.41068766 -3.09871102 -8.14673521 1.69607752 -12.33091683 -0.39650045 0.11485824 -0.17223816 -52.16888672 1.27148958 -17.36595701 71.36647705 -23.76210411 -5.97674561 -16.29256917 -5.60411598 29.2119164 -0.31509823 -0.5802167 -0.15219855
0.0172186 0.96882918 -0.0537368 9.65816048 -8.55355547 0.75340104 26.03966604 -2.06182148 0.56699935 3.91448438 -1.70898774 1.37921294 3.90344799 -1.63844701 1.48989635 -4.57036371 2.79652428 -3.26389872 -31.91609047 13.20720741 -10.02023809 4.42636319 -0.32347857 -6.20050569 -29.54495104 -0.83303612 -48.76118948 -23.78885629 -29.15918521 -25.13475537 -52.78581464 -6.81540315 -26.69851983 3.97696963 13.79207765 4.08344361 -24.39790873 5.20102007 41.23222325 -14.2726104 46.158921 18.15540245 -65.33908914 28.74284272 26.97728827 -61.95684466 2.77235843 23.33822664 60.86219377 -2.37396118 -1.80518937 -6.64868771 1.71555467 -13.65932743 -0.47955783 0.2759061 0.07807998 -49.97536786 -1.21032134 -18.55857933 66.89407737 -21.63351076 -4.70032015 -15.12902148 -4.938705 27.05780522 -0.16475403 -0.55875603 -0.2665797
0.01595254 0.99298075 -0.05533148 9.40741148 -9.70477249 0.74231888 22.9744877 -1.70688274 0.1943303 3.93303376 -1.43280454 1.51465664 3.9281193 -1.35621981 1.59768022 -4.17076689 2.60264869 -2.54859123 -30.00085752 11.84308853 -6.55152324 4.0910077 -2.4359928 -4.74548576 -28.161461 -6.74353219 -46.26981567 -24.85293913 -31.88759688 -26.32950307 -45.46275397 -9.5171275 -23.22729212 3.9099588 14.42612936 3.91323834 -22.37021989 7.40775486 39.86104589 -9.86600073 48.03008935 17.02092326 -50.57820694 26.26763301 21.20218283 -58.3597287 3.5029783 22.51434921 56.11633518 -0.2596069 -0.85425467 -5.16001303 1.72874546 -14.87231281 -0.56693116 0.3271977 0.28615002 -48.01804411 -3.12525566 -18.92649747 62.45273154 -19.46831575 -3.97818316 -13.78587042 -4.32142542 25.12895583 -0.09549184 -0.54752723 -0.47466935
0.01420686 1.01392064 -0.05561311 9.12132365 -11.63726133 0.8838791 20.17109296 -1.48812115 -0.50922563 3.90388988 -1.18256451 1.5300292 3.9044177 -1.10247661 1.58999749 -3.80416857 2.5187582 -1.88300473 -27.71680045 11.3769808 -3.73161387 3.73254123 -4.67798333 -5.13715842 -25.41259597 -10.4296997 -41.60034893 -25.29561175 -37.06816716 -28.29759167 -37.09354099 -12.69706472 -19.0058708 3.59414127 16.63938096 4.32360131 -19.71053271 7.26209917 38.75900212 -4.12001384 53.82121119 13.35742525 -34.39669118 17.66167933 15.93197293 -54.85167991 4.42321802 22.41779059 51.93605444 1.82740616 -0.21530126 -3.89176252 1.71223406 -15.94615075 -0.17316925 0.36277541 0.28464504 -46.22273133 -4.39867533 -18.54398455 58.23795775 -17.51555414 -3.72816146 -12.42978506 -3.77382278 23.40254702 -0.11587242 -0.54319955 -0.61355698
0.01252027 1.03113387 -0.05453568 9.08430133 -13.51905099 0.9692742 17.41019981 -1.47546277 -0.93426922 3.85991911 -1.04177382 1.58763211 3.86316263 -0.9574741 1.63442013 -3.5902648 2.57200662 -1.51733847 -25.30859211 11.86670302 -2.00638221 3.13262828 -7.03910803 -7.15516275 -22.38558179 -11.94904926 -36.40081642 -23.28886436 -43.2591259 -28.68818941 -28.40758006 -17.0454098 -13.69120596 3.20089294 19.80799151 5.97665197 -17.5281489 5.15773765 36.71745308 4.04111861 62.48289879 6.33870146 -21.03118938 6.54700304 13.94351572 -52.01705312 5.40031385 22.73765018 48.3255679 3.47610286 0.08906246 -2.85810297 1.6131142 -16.63705451 1.18780594 0.43824386 -0.82494183 -44.69167491 -5.27792561 -17.89757823 54.51095742 -15.98235003 -3.4823893 -11.17611914 -3.2827942 21.80915413 -0.04874428 -0.5268999 -0.66919189
0.01125193 1.04473382 -0.05219138 9.33600827 -14.64100376 0.87458809 14.5982915 -1.77464699 -0.73137994 3.83063506 -1.05694094 1.64529353 3.83464409 -0.96889543 1.68933594 -3.43609456 2.67889762 -1.48389414 -23.23355917 12.67599397 -1.04583275 2.35782455 -9.0420253 -9.22426691 -19.90470064 -12.34289804 -32.7210135 -16.87459195 -49.3978421 -25.20638721 -19.54190816 -21.17565426 -6.57707826 2.27777429 22.71016136 7.82212712 -18.27105291 1.41549445 34.88275986 20.36739891 70.49370806 -6.48866898 -11.99959343 -1.4296052 13.89342641 -50.15292853 6.22949444 23.1315269 45.34894394 4.26002382 0.15789266 -1.99838173 1.53834023 -16.84665698 1.53116511 0.47591352 -2.25276923 -43.37858585 -6.13810489 -17.46029522 51.37917444 -14.91503773 -2.97589712 -10.1668042 -2.92568812 20.53982693 0.09573935 -0.49604954 -0.80106944
0.01057001 1.05544664 -0.04885897 9.67804376 -14.65095304 0.56567056 11.99365156 -2.45486938 0.00053698 3.85815102 -1.23859803 1.66166512 3.86191699 -1.14754829 1.71172472 -3.31806464 2.76881649 -1.38351413 -21.81755888 13.20063031 -0.74033364 1.95736226 -10.0153005 -10.08188372 -18.41823251 -12.93387682 -32.10303398 -2.10421437 -55.06073597 -13.19009746 -11.53259955 -23.14837726 1.17118954 1.28317647 24.50716562 9.41714609 -21.2624859 -1.83099406 33.24097935 41.98845035 76.06882539 -22.87628923 -7.62898563 -3.6772947 12.36711407 -49.04904185 6.76889829 23.21089014 42.87236268 4.20497197 0.24669324 -1.21554485 1.49399835 -16.71486196 1.64131015 0.47292486 -2.59206294 -42.04681356 -7.18884788 -17.34193818 48.74202695 -14.49908957 -2.40198641 -9.45266282 -2.73879862 20.00201222 0.13523835 -0.47373892 -0.95569887
0.01031338 1.06441706 -0.04508337 9.81288083 -13.8190914 0.13192655 10.03054059 -3.29050286 0.84594761 3.9453811 -1.49734981 1.68281454 3.94873481 -1.40268261 1.7423284 -3.32483459 2.73281153 -1.0198846 -20.973798 13.28209883 -1.34453072 1.77766637 -9.70504316 -10.3410181 -16.79415102 -14.94791972 -33.56445238 15.62640749 -57.79842433 3.74184283 -4.23231302 -22.67087002 8.31143069 0.98299133 24.97141698 9.94514056 -23.79014994 -3.68471152 33.17234989 61.1142815 79.77024829 -38.23321564 -7.21810144 -2.62551658 7.79322811 -48.141186 7.11849971 22.868915 40.67514882 3.64229121 0.48152618 -0.46833786 1.45527253 -16.44944194 1.63976854 0.47499409 -2.58406746 -40.47052357 -8.34147744 -17.379145 46.4437429 -14.70822388 -2.02933914 -8.97962368 -2.6655603 20.08996874 0.10426315 -0.4651269 -0.89011686
0.01018511 1.07194285 -0.0414313 9.79118251 -12.82830446 -0.33496646 8.76617274 -3.90264923 1.54137193 4.07442996 -1.70339864 1.74916571 4.0777478 -1.60424489 1.81607164 -3.57026788 2.62707305 -0.53517355 -20.62769314 13.14784235 -2.44988619 1.42196805 -8.44428516 -10.83238195 -14.31059125 -18.14350475 -35.44663445 23.76061358 -59.36508589 13.22909584 2.22033114 -19.83978138 15.4670227 0.86952358 24.360543 10.23989386 -23.67684709 -4.44939227 34.26359982 74.51047671 82.11891599 -50.64039241 -7.25411933 -1.53951515 3.42237201 -47.29639557 7.40174531 22.49954401 38.78982597 2.92057899 0.71075268 0.17199499 1.42059133 -16.16817528 1.62201253 0.49113202 -2.59945655 -38.86636028 -9.41085485 -17.33870281 44.4455212 -15.13901522 -1.80244229 -8.65914671 -2.62832249 20.1940091 0.06217717 -0.44990615 -0.80682313
0.00999733 1.07788336 -0.03780212 9.7996555 -12.13313265 -0.78658687 7.8672129 -4.16347324 2.09945764 4.2360475 -1.81498341 1.84609342 4.23917538 -1.71134721 1.91665361 -3.99595846 2.55251592 -0.23368965 -20.61602449 12.99796406 -3.29701929 1.03359123 -6.10632234 -11.20167436 -11.58645057 -22.12014139 -38.16127077 20.65161891 -62.2340804 12.81766829 7.65912729 -14.73441839 21.40108474 0.85616259 22.9138522 10.43496234 -20.99904677 -4.2104912 36.42355282 76.7229517 84.05088507 -54.21564957 -6.96988591 -0.39569599 -0.03846607 -46.6692188 7.67565852 22.45625656 37.35980405 2.20451799 0.76131268 0.61674228 1.41190473 -15.8990596 1.60531402 0.50162828 -2.60942824 -37.51369497 -10.31121897 -17.21966273 42.77683373 -15.39210178 -1.50453101 -8.41250613 -2.58614256 20.153333 0.03134488 -0.42046314 -0.81345047
0.00961909 1.08192229 -0.03392109 9.87768082 -11.92848891 -1.1699296 7.09260132 -4.17099563 2.55316026 4.4425789 -1.85843233 1.93112538 4.44497285 -1.75120277 2.00240599 -4.47922082 2.58071445 -0.25117008 -20.76255341 13.01611116 -3.46083514 0.73192864 -2.66515268 -11.37639938 -8.92107192 -26.56423836 -41.550853 7.20284366 -65.71228908 2.65108833 12.96987132 -8.85567296 26.37181223 0.87633179 21.26456771 10.59782602 -16.80732856 -3.10261967 39.22552642 53.97960607 86.36923208 -34.20812762 -5.84234083 1.25666659 -2.99824233 -46.31569488 7.94329399 22.81275985 36.53692794 1.63512928 0.61742055 0.78257649 1.44325117 -15.6974345 1.62136705 0.46385171 -2.58861547 -36.54676344 -10.98761827 -17.05306831 41.50908149 -15.29475632 -1.14688726 -8.1696603 -2.53094032 19.98330089 0.00826155 -0.38286501 -0.91820781
0.0089681 1.08379249 -0.02958751 9.92768084 -12.21618144 -1.41156173 6.47527017 -4.01924247 2.80684172 4.71554294 -1.85071853 1.967159 4.71751305 -1.74100523 2.03698566 -4.93973991 2.68176715 -0.42563462 -21.00133031 13.2378928 -2.98740802 0.57637965 1.19059236 -11.43850134 -6.52546718 -30.43491424 -45.09043682 -9.91582296 -68.32421199 -11.35591939 17.64996539 -3.78288748 30.06420676 0.9189757 19.68622574 10.71040578 -12.25872757 -1.05847765 42.2935675 -16.11427752 86.49452952 32.48365304 -3.84524487 3.58289284 -5.95810208 -46.13531356 8.1973302 23.43914219 36.41291358 1.321472 0.35747614 0.60369834 1.51048207 -15.62049104 1.27450983 0.33061603 -0.98279904 -35.98048578 -11.4223592 -16.92928806 40.76002843 -14.82563906 -0.8326246 -7.93634024 -2.44854824 19.6363201 0.11614913 -0.33397092 -1.32957356
0.00800947 1.08359299 -0.0250715 9.82562778 -12.89034495 -1.42581861 6.07879587 -3.7509705 2.75748099 5.04699105 -1.79716279 1.94203358 5.049828 -1.68566104 2.00857736 -5.324464 2.78749172 -0.58660351 -21.32906403 13.5708171 -2.23941545 0.57939907 4.45296048 -11.47651773 -4.79500546 -32.54570017 -48.38166187 -22.77010785 -70.47718075 -21.8863888 21.21492736 -0.7278986 32.22214867 0.98576668 18.13227886 10.76287102 -8.60064408 1.65873394 45.28050273 -45.7902582 83.60719599 58.71024726 -1.13666936 5.94851166 -8.35578869 -45.90287033 8.42490167 24.05477663 36.89439814 1.40525832 0.13204682 0.0811775 1.58930074 -15.73312597 -0.30977376 0.11043212 0.38125172 -35.81886287 -11.6758714 -17.02906278 40.6777986 -13.91352757 -0.56451861 -7.91045014 -2.38016374 18.81295201 0.0925276 -0.27959316 -1.67036568
0.00681369 1.08175872 -0.02071261 9.58859808 -13.80672728 -1.22615814 5.86778855 -3.37400701 2.434217 5.38658723 -1.70408694 1.86877251 5.39110093 -1.59137718 1.93044251 -5.58069641 2.88546132 -0.77020118 -21.76674121 13.86240116 -1.48019426 0.72440706 6.41204503 -11.67552864 -3.8651305 -32.29426703 -51.10084902 -30.49797749 -72.8897096 -28.26850985 23.50666373 -0.16453626 32.70329984 1.07460799 16.58387213 10.74900292 -6.55327257 4.31584643 48.2500877 -52.24051091 81.51240029 61.91484053 1.8995747 7.81562148 -9.58279323 -45.55118984 8.60724471 24.49817893 37.74441819 1.95443223 0.03296284 -0.66897052 1.5973113 -16.05379012 -0.5638405 -0.09478765 0.31160308 -36.0246698 -11.74831544 -17.37821162 41.24890115 -12.68386777 -0.40404728 -8.21445417 -2.36259366 18.08484495 -0.12529559 -0.22714552 -1.65145404
0.00552346 1.07731475 -0.0164864 9.33586998 -14.85321356 -0.93907537 5.78714514 -2.93421017 2.01116887 5.70394021 -1.59839255 1.75878702 5.7097922 -1.48551172 1.8149555 -5.69795682 2.99671668 -1.06072385 -22.2897613 14.06337045 -0.81733165 0.89949889 7.28590747 -11.98563771 -3.3000868 -30.40337048 -52.81765993 -35.42203105 -75.44087789 -32.65705565 24.799588 -1.2469512 32.11980429 1.17194262 15.14678016 10.67876048 -5.94500984 6.59023613 51.08992123 -53.47163662 80.87861142 60.15654304 5.01989847 9.0068905 -9.62600329 -45.49796654 8.60191429 24.88087981 39.35299932 2.68489095 0.07466427 -1.76532935 1.65581521 -16.56718054 -0.56416167 -0.2416119 0.31420231 -36.69443302 -11.54679478 -17.8474696 42.63821451 -11.38265602 -0.36838474 -8.892782 -2.39206898 17.80984776 -0.12620674 -0.16956512 -1.59263026
0.00430773 1.07047773 -0.01238279 9.24567844 -15.9202941 -0.66808349 5.67530954 -2.5086431 1.77901221 6.01680918 -1.50961686 1.62305177 6.02351594 -1.39776649 1.67396125 -5.7854883 3.11690837 -1.41770392 -22.70537867 14.28030348 -0.46764136 1.03782675 7.45980005 -12.2590861 -3.03655215 -27.57259834 -53.71063412 -38.50182506 -77.91906037 -35.77020555 25.29111658 -2.97284033 30.72956886 1.26605116 13.76203522 10.5911375 -6.5492785 8.36596896 53.74342746 -53.19300171 81.6266155 57.36927188 8.21126594 9.39877323 -8.46758714 -45.89648809 8.34402445 25.28620498 41.54974972 3.47471393 0.21348184 -3.08303684 1.77685129 -17.23831134 -0.56554827 -0.3155235 0.31757124 -37.79504265 -11.09101389 -18.25519345 44.62637515 -10.198881 -0.39053217 -9.84864324 -2.48973503 17.78793951 -0.1469826 -0.11721994 -1.66167365
0.00336946 1.06297923 -0.00846952 9.48087476 -16.88436794 -0.46721711 5.29024257 -2.11248532 1.80589133 6.32798915 -1.43885436 1.49665164 6.33534331 -1.32838656 1.54258886 -5.88143418 3.22390876 -1.7443705 -22.80446627 14.51873965 -0.50379824 1.13058953 7.15882559 -12.52879575 -3.12308167 -24.40620152 -53.98309256 -39.38661856 -80.32481137 -37.04154784 25.18990998 -4.20052375 28.50263103 1.35518733 12.27219315 10.51577633 -7.89733964 9.825079 56.06022377 -53.52453515 83.24948487 55.74777926 11.45731147 9.11224932 -6.26648342 -46.65253871 7.81948955 25.63193131 43.77584975 4.34287689 0.44704055 -4.29181368 1.91177517 -17.98743685 -0.56698903 -0.2931464 0.32189944 -39.10829495 -10.51768126 -18.36401108 46.59734873 -9.40598314 -0.47682627 -10.83137185 -2.60799582 17.64769281 -0.02430139 -0.07588165 -1.27773067
0.00292611 1.05777063 -0.00499294 9.98915922 -17.61475878 -0.31426002 4.71013298 -1.74202755 2.02876539 6.61935706 -1.38405899 1.41077633 6.62727481 -1.27454822 1.45256994 -5.92697742 3.31389087 -2.03423158 -22.74402396 14.73016295 -0.78451925 1.14862917 6.4525872 -12.7568392 -3.61574954 -21.45166864 -53.774147 -36.64014236 -82.51406536 -34.87060984 24.39738328 -4.49846871 26.07913302 1.43666068 10.73641893 10.45260707 -9.63310436 10.87272848 58.05934662 -56.56184452 85.55189486 57.34281707 14.62435369 8.41642504 -3.36477046 -47.36225075 7.19687874 25.68689351 45.29228362 5.3269512 0.83166383 -5.14040075 2.01666069 -18.74033727 -0.56918375 -0.16408076 0.32912401 -40.20132987 -10.03975549 -18.17236687 47.80275865 -9.07405123 -0.64396706 -11.47682884 -2.69220148 17.53812301 0.086181 -0.04705659 -0.7648926
0.00273433 1.05543343 -0.00210838 10.58071089 -18.14742229 -0.14939922 4.11976834 -1.3832823 2.21533044 6.89389945 -1.3298921 1.37579937 6.90248801 -1.22029153 1.4139165 -5.91066596 3.38201335 -2.26134994 -22.77254818 14.83473963 -1.03092167 1.06750242 5.52563776 -12.80607975 -4.34392699 -19.11123411 -53.2209854 -30.24849188 -84.39715883 -29.10609821 23.04050735 -3.56111556 24.30585923 1.50999205 9.16030307 10.40588326 -11.50113813 11.78956543 59.58750225 -70.12707291 87.97038638 70.01564932 17.59941439 7.65969786 -0.20162283 -47.78831923 6.6581297 25.45822728 45.98196426 6.36751198 1.30430299 -5.54888226 2.07484956 -19.43091888 -0.55764225 -0.00470032 0.2975174 -40.94069149 -9.72251542 -17.84343521 48.20655795 -8.98120271 -0.90449051 -11.71708412 -2.74271013 17.59840329 0.09067009 -0.02853133 -0.41608964
0.0024128 1.05472923 0.0001458 11.22766841 -18.61611901 0.03678571 3.50091665 -0.99433387 2.19425594 7.14875373 -1.25367781 1.38829333 7.15824703 -1.14268409 1.42208909 -5.88712612 3.40724986 -2.38575533 -22.86679278 14.76491763 -1.12097077 0.91758314 4.76529419 -12.5990706 -5.02002246 -17.68647031 -52.54395241 -22.37936751 -86.17947079 -21.83577783 21.61741984 -1.45558988 23.2879679 1.57839481 7.44306498 10.38832091 -13.31731998 12.81659364 60.70589133 -167.83660045 88.87418422 167.36918158 20.32954274 7.11822932 3.03084281 -48.10979667 6.2790102 25.29161695 46.21158483 7.25083517 1.62381232 -5.67362742 2.10616085 -19.96209563 -0.5158615 0.07612868 0.17949103 -41.52679008 -9.49772489 -17.44691253 48.18880103 -8.95618111 -1.17547252 -11.73900833 -2.76691603 17.67753821 0.05712962 -0.01472771 -0.156475
0.00215289 1.05459267 0.0015098 11.75733507 -18.98246634 0.19254256 2.84893116 -0.6582112 2.0732493 7.35528312 -1.18583239 1.43175792 7.36554623 -1.07235813 1.46187509 -5.87029299 3.39553831 -2.41238616 -22.84101406 14.63862256 -1.15611913 0.73856502 4.62108179 -12.05638774 -5.45463823 -17.56130911 -52.12283187 -20.55422221 -87.09978268 -20.46421215 20.77807962 0.64693989 23.06195948 1.6402206 5.7053005 10.39544572 -14.81070484 14.06661965 61.33764638 174.52096225 87.80660816 -174.81777924 22.85612947 6.88408113 5.4283971 -48.38625937 6.10906005 25.33926217 46.2923394 7.73858446 1.67932558 -5.69849725 2.12672868 -20.19729546 -0.47145096 0.05028987 0.05273982 -41.96502292 -9.33953663 -17.13339134 48.08375789 -8.92778481 -1.33506605 -11.70857666 -2.77116596 17.68715537 0.00860573 -0.00306532 -0.02120819
0.00217086 1.05461975 0.00152079 11.73174743 -18.92724743 0.18973868 2.43441972 -0.51614922 2.00985543 7.45696629 -1.16875828 1.46975351 7.46751958 -1.05332682 1.49884152 -5.83033969 3.34125256 -2.39047035 -22.63296901 14.52795947 -1.22649818 0.59327155 4.7447587 -11.38521756 -5.51918225 -18.27423486 -52.4780135 -27.55446817 -86.10949312 -27.45820071 20.5743913 0.44540071 22.5623117 1.72492445 4.41643611 10.30068246 -15.27284 14.87316831 61.47432998 -122.87888639 87.9048204 123.30670115 24.68507333 7.3144106 4.9817361 -48.3944762 6.14108466 25.39111786 46.29865325 7.65091039 1.6184359 -5.70597586 2.1371852 -20.14261795 -0.45331779 0.00005501 0.00001892 -41.93680106 -9.29465284 -17.08773994 48.077986 -9.00225551 -1.37123247 -11.69904671 -2.7794677 17.73187225 0.00002928 -0.0000025 9.3e-7
